{"type":"FeatureCollection","metadata":{"cityCode":"40204","city":"直方市","resolution":1000,"boundaryDate":"2026-01-01","populationLabel":"2020年基準人口（国交省調整値）","method":"標準地域メッシュを行政界で切抜き。中心が区域外のとき区域内代表点を判定点にする。人口不明をゼロにしない。"},"features":[{"type":"Feature","id":"40204:50304539","properties":{"id":"40204:50304539","meshCode":"50304539","cityCode":"40204","city":"直方市","lat":33.699984,"lon":130.7395317,"areaKm2":0.0001216,"populated2020":true,"population2020":null,"populationNote":"境界またぎ・収録外等のため人口未集計"},"geometry":{"type":"Polygon","coordinates":[[[130.739746524,33.699999999999996],[130.739521115,33.699955558999996],[130.73926406,33.7],[130.739746524,33.699999999999996]]]}},{"type":"Feature","id":"40204:50304548","properties":{"id":"40204:50304548","meshCode":"50304548","cityCode":"40204","city":"直方市","lat":33.7059635,"lon":130.733215,"areaKm2":0.4338234,"populated2020":true,"population2020":null,"populationNote":"境界またぎ・収録外等のため人口未集計"},"geometry":{"type":"Polygon","coordinates":[[[130.737140272,33.700952495],[130.736803891,33.701146108],[130.736552218,33.70143610800001],[130.736878612,33.702264441000004],[130.736783333,33.702675279],[130.736517497,33.702989441],[130.736217224,33.703160829000005],[130.735819728,33.70317472100001],[130.735064449,33.70355582900001],[130.734911388,33.70368249500001],[130.734824721,33.704346945999994],[130.734472218,33.70453222500001],[130.734011115,33.704953333000006],[130.733844994,33.704949441],[130.733450272,33.704743892],[130.732698054,33.70453416200001],[130.732585551,33.70403472099999],[130.731893891,33.703657775],[130.73116083,33.703480559],[130.730555837,33.703468613],[130.730076667,33.703373891999995],[130.729485551,33.70367389199999],[130.729286109,33.704119162],[130.72937,33.704543892],[130.729095551,33.705574441],[130.729214449,33.706176667],[130.729076394,33.706608054],[130.728637224,33.706970279000004],[130.728446109,33.707014721],[130.727670272,33.70656749500001],[130.72733083,33.70659582900001],[130.72748888500004,33.707474440999995],[130.727405279,33.707843054],[130.72748175115612,33.70833333333333],[130.7375,33.708333333333336],[130.7375,33.70085213459668],[130.737140272,33.700952495]]]}},{"type":"Feature","id":"40204:50304549","properties":{"id":"40204:50304549","meshCode":"50304549","cityCode":"40204","city":"直方市","lat":33.7047387,"lon":130.7416405,"areaKm2":0.6523241,"populated2020":false,"population2020":null,"populationNote":"境界またぎ・収録外等のため人口未集計"},"geometry":{"type":"Polygon","coordinates":[[[130.743383061,33.700968892000006],[130.742763891,33.700723333],[130.741407497,33.700755559],[130.741040272,33.70056222499999],[130.740543061,33.70045944100001],[130.740145279,33.700114721000006],[130.739746524,33.699999999999996],[130.739206939,33.700007775],[130.738605837,33.700476946],[130.73775444900002,33.700583892],[130.7375,33.70085213459668],[130.7375,33.708333333333336],[130.7464182229074,33.708333333333336],[130.746429442,33.70751389200001],[130.746748885,33.706889161999996],[130.74669917,33.70614722500002],[130.74702917,33.70568777500001],[130.746932503,33.70528666700001],[130.747145279,33.704607225],[130.747018327,33.704456108],[130.746177224,33.704135829],[130.745953606,33.703980558999994],[130.745698885,33.703641946],[130.74549917,33.703555279],[130.745027782,33.70355527899999],[130.744904994,33.703492775],[130.744653891,33.70304944099999],[130.744031946,33.702455],[130.743897224,33.701896387],[130.743383061,33.700968892000006]]]}},{"type":"Feature","id":"40204:50304558","properties":{"id":"40204:50304558","meshCode":"50304558","cityCode":"40204","city":"直方市","lat":33.7126518,"lon":130.7317851,"areaKm2":0.9747843,"populated2020":true,"population2020":567.3684,"populationNote":"収録500mメッシュ人口の合算（原典収録外は補完しない）"},"geometry":{"type":"Polygon","coordinates":[[[130.727726667,33.708648892],[130.727642218,33.708871946],[130.727022218,33.709298892],[130.726876109,33.710018054],[130.726760558,33.710211387],[130.72636,33.710253613000006],[130.726335837,33.710787225],[130.726078327,33.711236107999994],[130.726097224,33.711791946],[130.726189728,33.712180559000004],[130.726518612,33.712690279],[130.725997224,33.712998333],[130.725948327,33.71340333300001],[130.726056939,33.713789721],[130.725621388,33.714766387000004],[130.725283061,33.715084441],[130.725,33.715217829],[130.725,33.716666666666676],[130.7375,33.71666666666667],[130.7375,33.708333333333336],[130.72748175115612,33.70833333333333],[130.727726667,33.708648892]]]}},{"type":"Feature","id":"40204:50304559","properties":{"id":"40204:50304559","meshCode":"50304559","cityCode":"40204","city":"直方市","lat":33.7126248,"lon":130.7430645,"areaKm2":0.9462847,"populated2020":true,"population2020":null,"populationNote":"境界またぎ・収録外等のため人口未集計"},"geometry":{"type":"Polygon","coordinates":[[[130.749083606,33.71229944099999],[130.749307782,33.711104721000005],[130.749236109,33.710820000000005],[130.74897805400002,33.710593892],[130.748323061,33.710407495],[130.747484163,33.709693054],[130.746715279,33.709285828999995],[130.746351946,33.708571946000006],[130.7464182229074,33.708333333333336],[130.7375,33.708333333333336],[130.7375,33.71666666666667],[130.74939547259453,33.71666666666667],[130.74871,33.716115559],[130.748193333,33.715901946],[130.74918917,33.714118054],[130.749548612,33.713302775],[130.749539442,33.713095],[130.749083606,33.71229944099999]]]}},{"type":"Feature","id":"40204:50304557","properties":{"id":"40204:50304557","meshCode":"50304557","cityCode":"40204","city":"直方市","lat":33.7160458,"lon":130.7247863,"areaKm2":0.0057076,"populated2020":true,"population2020":null,"populationNote":"境界またぎ・収録外等のため人口未集計"},"geometry":{"type":"Polygon","coordinates":[[[130.724963061,33.715239721],[130.724513333,33.71579110799999],[130.72453083,33.71652833299999],[130.72462561557703,33.71666666666667],[130.725,33.716666666666676],[130.724963061,33.715239721]]]}},{"type":"Feature","id":"40204:50304567","properties":{"id":"40204:50304567","meshCode":"50304567","cityCode":"40204","city":"直方市","lat":33.71681,"lon":130.7248689,"areaKm2":0.0008468,"populated2020":true,"population2020":null,"populationNote":"境界またぎ・収録外等のため人口未集計"},"geometry":{"type":"Polygon","coordinates":[[[130.724625616,33.716666667],[130.724780272,33.716928892000006],[130.725,33.71701491899999],[130.725,33.716666666666676],[130.724625616,33.716666667]]]}},{"type":"Feature","id":"40204:50304568","properties":{"id":"40204:50304568","meshCode":"50304568","cityCode":"40204","city":"直方市","lat":33.7207512,"lon":130.7320006,"areaKm2":0.9401712,"populated2020":true,"population2020":null,"populationNote":"境界またぎ・収録外等のため人口未集計"},"geometry":{"type":"Polygon","coordinates":[[[130.725497782,33.717158333],[130.725536109,33.71745444100001],[130.725730558,33.717744441],[130.725923606,33.717847225],[130.726056667,33.718076946000004],[130.726630272,33.718360829],[130.726869728,33.724999999999994],[130.7375,33.725],[130.7375,33.71666666666667],[130.725,33.716666666666676],[130.725,33.71701491899999],[130.725497782,33.717158333]]]}},{"type":"Feature","id":"40204:50304569","properties":{"id":"40204:50304569","meshCode":"50304569","cityCode":"40204","city":"直方市","lat":33.7208397,"lon":130.7437404,"areaKm2":1.0689817,"populated2020":true,"population2020":812.1235,"populationNote":"収録500mメッシュ人口の合算（原典収録外は補完しない）"},"geometry":{"type":"Polygon","coordinates":[[[130.75,33.717144613],[130.749596667,33.716898054],[130.74939547259453,33.71666666666667],[130.7375,33.71666666666667],[130.7375,33.725],[130.75,33.725],[130.75,33.717144613]]]}},{"type":"Feature","id":"40204:50304660","properties":{"id":"40204:50304660","meshCode":"50304660","cityCode":"40204","city":"直方市","lat":33.7216661,"lon":130.7557887,"areaKm2":0.8421734,"populated2020":true,"population2020":null,"populationNote":"境界またぎ・収録外等のため人口未集計"},"geometry":{"type":"Polygon","coordinates":[[[130.754942776,33.717865],[130.753422503,33.717556667],[130.751012218,33.717536667],[130.750567497,33.717438054],[130.75,33.717144613],[130.75,33.725],[130.7625,33.724999999999994],[130.7625,33.719736219598744],[130.761974721,33.72002500000001],[130.761612218,33.720041387],[130.761290272,33.719908054],[130.760951115,33.719463053999995],[130.760424994,33.71929500000001],[130.758939442,33.719081387],[130.758673333,33.719139721],[130.758489728,33.71930389199999],[130.758268885,33.719103333],[130.757562503,33.718718613],[130.756646394,33.718486946],[130.754942776,33.717865]]]}},{"type":"Feature","id":"40204:50304661","properties":{"id":"40204:50304661","meshCode":"50304661","cityCode":"40204","city":"直方市","lat":33.7230794,"lon":130.7676515,"areaKm2":0.4421993,"populated2020":true,"population2020":null,"populationNote":"境界またぎ・収録外等のため人口未集計"},"geometry":{"type":"Polygon","coordinates":[[[130.764733333,33.720903891999995],[130.764113891,33.720265829],[130.763374994,33.720085],[130.762923891,33.719680000000004],[130.7625,33.719736219598744],[130.7625,33.724999999999994],[130.773908716,33.725],[130.774038612,33.72468082899999],[130.774357782,33.724295829],[130.77449,33.723876387],[130.774283061,33.723248613],[130.773702503,33.72278694600001],[130.772957497,33.722433054],[130.77063166,33.721657775],[130.770104163,33.721637775],[130.769284163,33.721254721],[130.768381946,33.721335],[130.767277224,33.72104305399999],[130.766757497,33.721143054],[130.766295279,33.721130559],[130.765434994,33.720933333],[130.764733333,33.720903891999995]]]}},{"type":"Feature","id":"40204:50304578","properties":{"id":"40204:50304578","meshCode":"50304578","cityCode":"40204","city":"直方市","lat":33.7292079,"lon":130.7317585,"areaKm2":0.9786779,"populated2020":true,"population2020":null,"populationNote":"境界またぎ・収録外等のため人口未集計"},"geometry":{"type":"Polygon","coordinates":[[[130.726893333,33.725652775],[130.726402503,33.72572722500001],[130.72624166,33.725858054],[130.725118885,33.727065829],[130.725025551,33.727319441],[130.725678612,33.727987775],[130.727278327,33.729209441],[130.727300558,33.729394721000006],[130.72682083,33.729984441000006],[130.726733333,33.730479721],[130.726932503,33.73079361300001],[130.726575551,33.73146972100001],[130.726237497,33.731634721000006],[130.725,33.731704865],[130.725,33.733333333333334],[130.7375,33.733333333333334],[130.7375,33.725],[130.726869728,33.724999999999994],[130.726893333,33.725652775]]]}},{"type":"Feature","id":"40204:50304579","properties":{"id":"40204:50304579","meshCode":"50304579","cityCode":"40204","city":"直方市","lat":33.7291667,"lon":130.74375,"areaKm2":1.0705816,"populated2020":true,"population2020":1348.8321,"populationNote":"収録500mメッシュ人口の合算（原典収録外は補完しない）"},"geometry":{"type":"Polygon","coordinates":[[[130.75,33.725],[130.7375,33.725],[130.7375,33.733333333333334],[130.75,33.73333333333333],[130.75,33.725]]]}},{"type":"Feature","id":"40204:50304670","properties":{"id":"40204:50304670","meshCode":"50304670","cityCode":"40204","city":"直方市","lat":33.7291667,"lon":130.75625,"areaKm2":1.0705801,"populated2020":true,"population2020":1090.4805,"populationNote":"収録500mメッシュ人口の合算（原典収録外は補完しない）"},"geometry":{"type":"Polygon","coordinates":[[[130.7625,33.724999999999994],[130.75,33.725],[130.75,33.73333333333333],[130.7625,33.73333333333333],[130.7625,33.724999999999994]]]}},{"type":"Feature","id":"40204:50304671","properties":{"id":"40204:50304671","meshCode":"50304671","cityCode":"40204","city":"直方市","lat":33.7291803,"lon":130.7687302,"areaKm2":1.0669252,"populated2020":true,"population2020":282.0633,"populationNote":"収録500mメッシュ人口の合算（原典収録外は補完しない）"},"geometry":{"type":"Polygon","coordinates":[[[130.775,33.725488559],[130.773886109,33.725173053999995],[130.773908716,33.725],[130.7625,33.724999999999994],[130.7625,33.73333333333333],[130.775,33.733333333333334],[130.775,33.725488559]]]}},{"type":"Feature","id":"40204:50304672","properties":{"id":"40204:50304672","meshCode":"50304672","cityCode":"40204","city":"直方市","lat":33.7302335,"lon":130.7793837,"areaKm2":0.6035244,"populated2020":true,"population2020":null,"populationNote":"境界またぎ・収録外等のため人口未集計"},"geometry":{"type":"Polygon","coordinates":[[[130.782038885,33.727408054],[130.779765551,33.727721667000004],[130.779208612,33.727575559],[130.778362218,33.727092225],[130.777621946,33.72614],[130.776400272,33.725928333],[130.775,33.725488559],[130.775,33.733333333333334],[130.78550769107017,33.733333333333334],[130.78494,33.731915559],[130.784753333,33.731784162],[130.784488885,33.731762495],[130.784207224,33.731434162],[130.784339442,33.731069162],[130.784284994,33.73002361299999],[130.78403166,33.729171945999994],[130.783600558,33.728602775],[130.782494721,33.727528333],[130.782038885,33.727408054]]]}},{"type":"Feature","id":"40204:50304577","properties":{"id":"40204:50304577","meshCode":"50304577","cityCode":"40204","city":"直方市","lat":33.7319267,"lon":130.7199949,"areaKm2":0.2732158,"populated2020":true,"population2020":null,"populationNote":"境界またぎ・収録外等のため人口未集計"},"geometry":{"type":"Polygon","coordinates":[[[130.725,33.731704865],[130.724093606,33.73161889199999],[130.723552503,33.731141946],[130.722322776,33.730469721],[130.720743061,33.729870829],[130.719939728,33.729463892000005],[130.719579442,33.72918416200001],[130.718952776,33.729965279000005],[130.718545551,33.730290829000005],[130.717748327,33.730649162000006],[130.716958054,33.731453613],[130.716068885,33.731648892],[130.715261388,33.73197499999999],[130.714645837,33.73204305400001],[130.714533333,33.732103333],[130.714313061,33.73254416200001],[130.714351388,33.73269305400001],[130.714841388,33.73321249499999],[130.71486719807123,33.733333333333334],[130.725,33.733333333333334],[130.725,33.731704865]]]}},{"type":"Feature","id":"40204:50304586","properties":{"id":"40204:50304586","meshCode":"50304586","cityCode":"40204","city":"直方市","lat":33.7387464,"lon":130.7109735,"areaKm2":0.1999123,"populated2020":true,"population2020":null,"populationNote":"境界またぎ・収録外等のため人口未集計"},"geometry":{"type":"Polygon","coordinates":[[[130.711841946,33.73487222499999],[130.71069306100003,33.735004999999994],[130.710471946,33.735188054000005],[130.710469728,33.735485829],[130.710290272,33.735881946],[130.710315551,33.736108892],[130.710168612,33.736255829],[130.710111388,33.736483054],[130.709898327,33.73663582900001],[130.710115551,33.736876946],[130.710116667,33.737190559],[130.70973861200002,33.737405829],[130.709925551,33.737514441],[130.71,33.737743892],[130.709846109,33.738347225],[130.709382776,33.73902889200001],[130.709299442,33.739902225],[130.70896083,33.740249721],[130.70812377420913,33.74166666666666],[130.7125,33.74166666666667],[130.7125,33.735106819937805],[130.712151388,33.734930559],[130.711841946,33.73487222499999]]]}},{"type":"Feature","id":"40204:50304587","properties":{"id":"40204:50304587","meshCode":"50304587","cityCode":"40204","city":"直方市","lat":33.7376623,"lon":130.7190045,"areaKm2":1.0178194,"populated2020":true,"population2020":null,"populationNote":"境界またぎ・収録外等のため人口未集計"},"geometry":{"type":"Polygon","coordinates":[[[130.71486719807123,33.733333333333334],[130.715185837,33.735403053999995],[130.71511166,33.73551166699999],[130.714826109,33.735578333],[130.714274163,33.735461667],[130.713857782,33.735232225000004],[130.712855837,33.735260279],[130.7125,33.735106819937805],[130.7125,33.74166666666667],[130.725,33.74166666666667],[130.725,33.733333333333334],[130.71486719807123,33.733333333333334]]]}},{"type":"Feature","id":"40204:50304588","properties":{"id":"40204:50304588","meshCode":"50304588","cityCode":"40204","city":"直方市","lat":33.7375,"lon":130.73125,"areaKm2":1.070481,"populated2020":true,"population2020":1239.3957,"populationNote":"収録500mメッシュ人口の合算（原典収録外は補完しない）"},"geometry":{"type":"Polygon","coordinates":[[[130.7375,33.733333333333334],[130.725,33.733333333333334],[130.725,33.74166666666667],[130.7375,33.74166666666667],[130.7375,33.733333333333334]]]}},{"type":"Feature","id":"40204:50304589","properties":{"id":"40204:50304589","meshCode":"50304589","cityCode":"40204","city":"直方市","lat":33.7375,"lon":130.74375,"areaKm2":1.0704795,"populated2020":true,"population2020":785.6112,"populationNote":"収録500mメッシュ人口の合算（原典収録外は補完しない）"},"geometry":{"type":"Polygon","coordinates":[[[130.75,33.73333333333333],[130.7375,33.733333333333334],[130.7375,33.74166666666667],[130.75,33.74166666666667],[130.75,33.73333333333333]]]}},{"type":"Feature","id":"40204:50304680","properties":{"id":"40204:50304680","meshCode":"50304680","cityCode":"40204","city":"直方市","lat":33.7375,"lon":130.75625,"areaKm2":1.0704781,"populated2020":true,"population2020":302.7382,"populationNote":"収録500mメッシュ人口の合算（原典収録外は補完しない）"},"geometry":{"type":"Polygon","coordinates":[[[130.7625,33.73333333333333],[130.75,33.73333333333333],[130.75,33.74166666666667],[130.7625,33.74166666666666],[130.7625,33.73333333333333]]]}},{"type":"Feature","id":"40204:50304681","properties":{"id":"40204:50304681","meshCode":"50304681","cityCode":"40204","city":"直方市","lat":33.7375,"lon":130.76875,"areaKm2":1.0704767,"populated2020":true,"population2020":324.9215,"populationNote":"収録500mメッシュ人口の合算（原典収録外は補完しない）"},"geometry":{"type":"Polygon","coordinates":[[[130.775,33.733333333333334],[130.7625,33.73333333333333],[130.7625,33.74166666666666],[130.775,33.74166666666667],[130.775,33.733333333333334]]]}},{"type":"Feature","id":"40204:50304682","properties":{"id":"40204:50304682","meshCode":"50304682","cityCode":"40204","city":"直方市","lat":33.7375493,"lon":130.781184,"areaKm2":1.0567685,"populated2020":false,"population2020":null,"populationNote":"境界またぎ・収録外等のため人口未集計"},"geometry":{"type":"Polygon","coordinates":[[[130.7875,33.733708089864216],[130.78663583700003,33.733933054],[130.785904721,33.734303612999994],[130.785640272,33.734241387],[130.785523333,33.734093613],[130.78550769107017,33.733333333333334],[130.775,33.733333333333334],[130.775,33.74166666666667],[130.7875,33.74166666666666],[130.7875,33.733708089864216]]]}},{"type":"Feature","id":"40204:50304683","properties":{"id":"40204:50304683","meshCode":"50304683","cityCode":"40204","city":"直方市","lat":33.7378464,"lon":130.7880839,"areaKm2":0.2753636,"populated2020":false,"population2020":null,"populationNote":"境界またぎ・収録外等のため人口未集計"},"geometry":{"type":"Polygon","coordinates":[[[130.788664721,33.73731638699999],[130.788636939,33.73609249500001],[130.78851083,33.735333612999995],[130.788044163,33.734232495],[130.787753061,33.733845559],[130.7875,33.733708089864216],[130.7875,33.74166666666666],[130.8,33.74166666666667],[130.8,33.740651027],[130.797682503,33.739231946],[130.797531946,33.73902582899999],[130.796098885,33.73944361299999],[130.795177782,33.739932495000005],[130.794454163,33.74054722499999],[130.793792776,33.740773333],[130.793486394,33.740738613],[130.793105279,33.74057638699999],[130.792121946,33.740753333],[130.791108885,33.740110829],[130.789883061,33.739990559],[130.788885551,33.739715],[130.788684994,33.739541667],[130.78855583700002,33.739140559],[130.788664721,33.73731638699999]]]}},{"type":"Feature","id":"40204:50304684","properties":{"id":"40204:50304684","meshCode":"50304684","cityCode":"40204","city":"直方市","lat":33.7413618,"lon":130.8008552,"areaKm2":0.0117057,"populated2020":false,"population2020":null,"populationNote":"境界またぎ・収録外等のため人口未集計"},"geometry":{"type":"Polygon","coordinates":[[[130.803128054,33.741612495],[130.80205917,33.741605],[130.801436667,33.74128777500001],[130.800442776,33.74092277500001],[130.8,33.740651027],[130.8,33.74166666666667],[130.80330377291875,33.74166666666667],[130.803128054,33.741612495]]]}},{"type":"Feature","id":"40204:50304594","properties":{"id":"40204:50304594","meshCode":"50304594","cityCode":"40204","city":"直方市","lat":33.7473287,"lon":130.6863318,"areaKm2":0.1381988,"populated2020":false,"population2020":null,"populationNote":"境界またぎ・収録外等のため人口未集計"},"geometry":{"type":"Polygon","coordinates":[[[130.687192218,33.74346472100001],[130.687023333,33.743565278999995],[130.686508612,33.743565279],[130.686558885,33.74408],[130.686442218,33.74432944099999],[130.685979728,33.744743891999995],[130.686045551,33.746095559],[130.685356109,33.746674721],[130.684198327,33.748225279],[130.684250558,33.748444441000004],[130.684846109,33.749080279],[130.684962776,33.74947222500001],[130.685223061,33.749729721],[130.685284086,33.75],[130.6875,33.75000000000001],[130.6875,33.7434376117745],[130.687192218,33.74346472100001]]]}},{"type":"Feature","id":"40204:50304595","properties":{"id":"40204:50304595","meshCode":"50304595","cityCode":"40204","city":"直方市","lat":33.747723,"lon":130.6927405,"areaKm2":0.5253368,"populated2020":true,"population2020":2.0068,"populationNote":"収録500mメッシュ人口の合算（原典収録外は補完しない）"},"geometry":{"type":"Polygon","coordinates":[[[130.691161115,33.745547224999996],[130.690626667,33.745034162],[130.690398612,33.74441833299999],[130.689875837,33.743774721],[130.689256667,33.74352527900001],[130.688707782,33.74346472100001],[130.68832166,33.74353722499999],[130.688012218,33.743376387],[130.6875,33.7434376117745],[130.6875,33.75000000000001],[130.7,33.75],[130.7,33.74625264],[130.698466394,33.746869162],[130.697807782,33.747020279],[130.697502218,33.747026108],[130.696933333,33.746899441],[130.696321115,33.746983892],[130.695653606,33.747205279],[130.694125837,33.747168613],[130.693031946,33.746716107999994],[130.692860272,33.746587225000006],[130.69258083,33.746044162],[130.692177497,33.745868892],[130.691566394,33.745913054],[130.691294994,33.74577833299999],[130.691161115,33.745547224999996]]]}},{"type":"Feature","id":"40204:50304596","properties":{"id":"40204:50304596","meshCode":"50304596","cityCode":"40204","city":"直方市","lat":33.7464876,"lon":130.7072984,"areaKm2":0.8010471,"populated2020":true,"population2020":null,"populationNote":"境界またぎ・収録外等のため人口未集計"},"geometry":{"type":"Polygon","coordinates":[[[130.707538885,33.742640279],[130.707154994,33.743050559000004],[130.705823333,33.743482775],[130.705417224,33.743571108],[130.705008054,33.743563333000004],[130.704873061,33.743398054],[130.704350558,33.743334162000004],[130.70418917,33.743458892],[130.703865331,33.744245774999996],[130.703223735,33.744494882999994],[130.70418131,33.745515991],[130.704863813,33.74648834199999],[130.704612516,33.746626883],[130.704922944,33.74693109],[130.704527108,33.747162036],[130.70496332,33.74758118],[130.705136719,33.74790655899999],[130.704528586,33.747947279],[130.70384758800003,33.74771427],[130.703789792,33.747634495],[130.703472464,33.747742991],[130.702561608,33.747045739],[130.702913113,33.746719604],[130.702969883,33.746739009],[130.702718936,33.746458559],[130.702414034,33.746306018000006],[130.702434137,33.746440369],[130.70230179,33.74630321600001],[130.702187873,33.745848667],[130.701638742,33.74517999999999],[130.701237017,33.7454],[130.700467782,33.74603694599999],[130.7,33.74625264],[130.7,33.75],[130.7125,33.75],[130.7125,33.74166666666667],[130.70812377420913,33.74166666666666],[130.707538885,33.742640279]]]}},{"type":"Feature","id":"40204:50304597","properties":{"id":"40204:50304597","meshCode":"50304597","cityCode":"40204","city":"直方市","lat":33.7458333,"lon":130.71875,"areaKm2":1.0703804,"populated2020":true,"population2020":1888.4413,"populationNote":"収録500mメッシュ人口の合算（原典収録外は補完しない）"},"geometry":{"type":"Polygon","coordinates":[[[130.725,33.74166666666667],[130.7125,33.74166666666667],[130.7125,33.75],[130.725,33.75],[130.725,33.74166666666667]]]}},{"type":"Feature","id":"40204:50304598","properties":{"id":"40204:50304598","meshCode":"50304598","cityCode":"40204","city":"直方市","lat":33.7458333,"lon":130.73125,"areaKm2":1.0703789,"populated2020":true,"population2020":1855.7835,"populationNote":"収録500mメッシュ人口の合算（原典収録外は補完しない）"},"geometry":{"type":"Polygon","coordinates":[[[130.7375,33.74166666666667],[130.725,33.74166666666667],[130.725,33.75],[130.7375,33.75000000000001],[130.7375,33.74166666666667]]]}},{"type":"Feature","id":"40204:50304599","properties":{"id":"40204:50304599","meshCode":"50304599","cityCode":"40204","city":"直方市","lat":33.7458333,"lon":130.74375,"areaKm2":1.0703774,"populated2020":true,"population2020":2623.5328,"populationNote":"収録500mメッシュ人口の合算（原典収録外は補完しない）"},"geometry":{"type":"Polygon","coordinates":[[[130.75,33.74166666666667],[130.7375,33.74166666666667],[130.7375,33.75000000000001],[130.75,33.75],[130.75,33.74166666666667]]]}},{"type":"Feature","id":"40204:50304690","properties":{"id":"40204:50304690","meshCode":"50304690","cityCode":"40204","city":"直方市","lat":33.7458333,"lon":130.75625,"areaKm2":1.070376,"populated2020":true,"population2020":1174.0471,"populationNote":"収録500mメッシュ人口の合算（原典収録外は補完しない）"},"geometry":{"type":"Polygon","coordinates":[[[130.7625,33.74166666666666],[130.75,33.74166666666667],[130.75,33.75],[130.7625,33.75],[130.7625,33.74166666666666]]]}},{"type":"Feature","id":"40204:50304691","properties":{"id":"40204:50304691","meshCode":"50304691","cityCode":"40204","city":"直方市","lat":33.7458333,"lon":130.76875,"areaKm2":1.0703747,"populated2020":true,"population2020":97.23,"populationNote":"収録500mメッシュ人口の合算（原典収録外は補完しない）"},"geometry":{"type":"Polygon","coordinates":[[[130.775,33.74166666666667],[130.7625,33.74166666666666],[130.7625,33.75],[130.775,33.75000000000001],[130.775,33.74166666666667]]]}},{"type":"Feature","id":"40204:50304692","properties":{"id":"40204:50304692","meshCode":"50304692","cityCode":"40204","city":"直方市","lat":33.7458333,"lon":130.78125,"areaKm2":1.0703734,"populated2020":false,"population2020":null,"populationNote":"境界またぎ・収録外等のため人口未集計"},"geometry":{"type":"Polygon","coordinates":[[[130.7875,33.74166666666666],[130.775,33.74166666666667],[130.775,33.75000000000001],[130.7875,33.75000000000001],[130.7875,33.74166666666666]]]}},{"type":"Feature","id":"40204:50304693","properties":{"id":"40204:50304693","meshCode":"50304693","cityCode":"40204","city":"直方市","lat":33.7458333,"lon":130.79375,"areaKm2":1.0703722,"populated2020":false,"population2020":null,"populationNote":"境界またぎ・収録外等のため人口未集計"},"geometry":{"type":"Polygon","coordinates":[[[130.8,33.74166666666667],[130.7875,33.74166666666666],[130.7875,33.75000000000001],[130.8,33.75],[130.8,33.74166666666667]]]}},{"type":"Feature","id":"40204:50304694","properties":{"id":"40204:50304694","meshCode":"50304694","cityCode":"40204","city":"直方市","lat":33.7461593,"lon":130.8022034,"areaKm2":0.36831,"populated2020":false,"population2020":null,"populationNote":"境界またぎ・収録外等のため人口未集計"},"geometry":{"type":"Polygon","coordinates":[[[130.80391917,33.746325559],[130.803995084,33.745043333000005],[130.803570558,33.743735558999994],[130.803723333,33.742626387],[130.803868054,33.742223054],[130.804028612,33.742035829],[130.80330377291875,33.74166666666667],[130.8,33.74166666666667],[130.8,33.75],[130.804443839,33.75],[130.804877782,33.74981222500001],[130.805347497,33.74896749500001],[130.805535837,33.748475],[130.805524994,33.74823055900001],[130.805120558,33.74767222500001],[130.804121388,33.746743333],[130.80391917,33.746325559]]]}},{"type":"Feature","id":"40204:50305504","properties":{"id":"40204:50305504","meshCode":"50305504","cityCode":"40204","city":"直方市","lat":33.7549481,"lon":130.6851033,"areaKm2":0.3689153,"populated2020":true,"population2020":4.0105,"populationNote":"収録500mメッシュ人口の合算（原典収録外は補完しない）"},"geometry":{"type":"Polygon","coordinates":[[[130.685377782,33.75026861300001],[130.685639728,33.75051416200001],[130.685438327,33.751342775],[130.68531166,33.751538054],[130.684771946,33.751787495],[130.684508612,33.752185279],[130.684168885,33.752489162],[130.683171115,33.75292944099999],[130.683042218,33.75304610799999],[130.683062776,33.753850829],[130.682700558,33.75463694599999],[130.682678054,33.755353333],[130.682507782,33.755561108],[130.681847224,33.756046387],[130.681478327,33.756858613],[130.681449728,33.75736444099999],[130.681553333,33.75771],[130.68143678293876,33.758333333333326],[130.6875,33.758333333333326],[130.6875,33.75000000000001],[130.685284086,33.75],[130.685377782,33.75026861300001]]]}},{"type":"Feature","id":"40204:50305505","properties":{"id":"40204:50305505","meshCode":"50305505","cityCode":"40204","city":"直方市","lat":33.7541667,"lon":130.69375,"areaKm2":1.0702817,"populated2020":true,"population2020":50.8364,"populationNote":"収録500mメッシュ人口の合算（原典収録外は補完しない）"},"geometry":{"type":"Polygon","coordinates":[[[130.7,33.75],[130.6875,33.75000000000001],[130.6875,33.758333333333326],[130.7,33.75833333333333],[130.7,33.75]]]}},{"type":"Feature","id":"40204:50305506","properties":{"id":"40204:50305506","meshCode":"50305506","cityCode":"40204","city":"直方市","lat":33.7541667,"lon":130.70625,"areaKm2":1.07028,"populated2020":true,"population2020":1052.5024,"populationNote":"収録500mメッシュ人口の合算（原典収録外は補完しない）"},"geometry":{"type":"Polygon","coordinates":[[[130.7125,33.75],[130.7,33.75],[130.7,33.75833333333333],[130.7125,33.75833333333332],[130.7125,33.75]]]}},{"type":"Feature","id":"40204:50305507","properties":{"id":"40204:50305507","meshCode":"50305507","cityCode":"40204","city":"直方市","lat":33.7541667,"lon":130.71875,"areaKm2":1.0702784,"populated2020":true,"population2020":3076.4928,"populationNote":"収録500mメッシュ人口の合算（原典収録外は補完しない）"},"geometry":{"type":"Polygon","coordinates":[[[130.725,33.75],[130.7125,33.75],[130.7125,33.75833333333332],[130.725,33.758333333333326],[130.725,33.75]]]}},{"type":"Feature","id":"40204:50305508","properties":{"id":"40204:50305508","meshCode":"50305508","cityCode":"40204","city":"直方市","lat":33.7541667,"lon":130.73125,"areaKm2":1.0702768,"populated2020":true,"population2020":1581.6521,"populationNote":"収録500mメッシュ人口の合算（原典収録外は補完しない）"},"geometry":{"type":"Polygon","coordinates":[[[130.7375,33.75000000000001],[130.725,33.75],[130.725,33.758333333333326],[130.7375,33.758333333333326],[130.7375,33.75000000000001]]]}},{"type":"Feature","id":"40204:50305509","properties":{"id":"40204:50305509","meshCode":"50305509","cityCode":"40204","city":"直方市","lat":33.7541667,"lon":130.74375,"areaKm2":1.0702753,"populated2020":true,"population2020":2003.4198,"populationNote":"収録500mメッシュ人口の合算（原典収録外は補完しない）"},"geometry":{"type":"Polygon","coordinates":[[[130.75,33.75],[130.7375,33.75000000000001],[130.7375,33.758333333333326],[130.75,33.75833333333333],[130.75,33.75]]]}},{"type":"Feature","id":"40204:50305600","properties":{"id":"40204:50305600","meshCode":"50305600","cityCode":"40204","city":"直方市","lat":33.7541667,"lon":130.75625,"areaKm2":1.070274,"populated2020":true,"population2020":2162.6999,"populationNote":"収録500mメッシュ人口の合算（原典収録外は補完しない）"},"geometry":{"type":"Polygon","coordinates":[[[130.7625,33.75],[130.75,33.75],[130.75,33.75833333333333],[130.7625,33.75833333333332],[130.7625,33.75]]]}},{"type":"Feature","id":"40204:50305601","properties":{"id":"40204:50305601","meshCode":"50305601","cityCode":"40204","city":"直方市","lat":33.7541667,"lon":130.76875,"areaKm2":1.0702725,"populated2020":true,"population2020":888.6823,"populationNote":"収録500mメッシュ人口の合算（原典収録外は補完しない）"},"geometry":{"type":"Polygon","coordinates":[[[130.775,33.75000000000001],[130.7625,33.75],[130.7625,33.75833333333332],[130.775,33.758333333333326],[130.775,33.75000000000001]]]}},{"type":"Feature","id":"40204:50305602","properties":{"id":"40204:50305602","meshCode":"50305602","cityCode":"40204","city":"直方市","lat":33.7541667,"lon":130.78125,"areaKm2":1.0702713,"populated2020":true,"population2020":13.0087,"populationNote":"収録500mメッシュ人口の合算（原典収録外は補完しない）"},"geometry":{"type":"Polygon","coordinates":[[[130.7875,33.75000000000001],[130.775,33.75000000000001],[130.775,33.758333333333326],[130.7875,33.75833333333334],[130.7875,33.75000000000001]]]}},{"type":"Feature","id":"40204:50305603","properties":{"id":"40204:50305603","meshCode":"50305603","cityCode":"40204","city":"直方市","lat":33.7541667,"lon":130.79375,"areaKm2":1.0702701,"populated2020":false,"population2020":null,"populationNote":"境界またぎ・収録外等のため人口未集計"},"geometry":{"type":"Polygon","coordinates":[[[130.8,33.75],[130.7875,33.75000000000001],[130.7875,33.75833333333334],[130.8,33.758333333333326],[130.8,33.75]]]}},{"type":"Feature","id":"40204:50305604","properties":{"id":"40204:50305604","meshCode":"50305604","cityCode":"40204","city":"直方市","lat":33.7536881,"lon":130.8012085,"areaKm2":0.1942915,"populated2020":false,"population2020":null,"populationNote":"境界またぎ・収録外等のため人口未集計"},"geometry":{"type":"Polygon","coordinates":[[[130.802922218,33.753280559],[130.802667224,33.752144162],[130.802134721,33.751116946],[130.802136394,33.75094722499999],[130.802396109,33.750740829],[130.804443839,33.75],[130.8,33.75],[130.8,33.758333333333326],[130.80200566821594,33.758333333333326],[130.801579442,33.757604721],[130.801801115,33.757033613000004],[130.801853061,33.75657499999999],[130.801644721,33.75532277500001],[130.802442776,33.753949441],[130.802922218,33.753280559]]]}},{"type":"Feature","id":"40204:50305514","properties":{"id":"40204:50305514","meshCode":"50305514","cityCode":"40204","city":"直方市","lat":33.7621077,"lon":130.6840905,"areaKm2":0.4936197,"populated2020":true,"population2020":null,"populationNote":"境界またぎ・収録外等のため人口未集計"},"geometry":{"type":"Polygon","coordinates":[[[130.681183333,33.759556387],[130.681224449,33.76001277500001],[130.681474449,33.760798333],[130.681061115,33.762482225],[130.68076832700004,33.762753612999994],[130.68029166,33.762971667],[130.680103606,33.763171108],[130.68008917,33.76329861300001],[130.680136394,33.76366861299999],[130.680384163,33.764320559000005],[130.680358327,33.765389721000005],[130.680898054,33.766088892],[130.681013061,33.766200000000005],[130.681169442,33.766206108],[130.68302083,33.765698333],[130.683884163,33.765762225],[130.684174994,33.765698613000005],[130.68512917,33.765198613],[130.685803333,33.765204721],[130.686486939,33.76503833300001],[130.686706939,33.765110279],[130.6875,33.765706664454186],[130.6875,33.758333333333326],[130.68143678293876,33.758333333333326],[130.681183333,33.759556387]]]}},{"type":"Feature","id":"40204:50305515","properties":{"id":"40204:50305515","meshCode":"50305515","cityCode":"40204","city":"直方市","lat":33.7624115,"lon":130.6938568,"areaKm2":1.0459783,"populated2020":true,"population2020":194.9483,"populationNote":"収録500mメッシュ人口の合算（原典収録外は補完しない）"},"geometry":{"type":"Polygon","coordinates":[[[130.7,33.75833333333333],[130.6875,33.758333333333326],[130.6875,33.765706664454186],[130.687783606,33.765920279],[130.688304163,33.766043333000006],[130.68912917000003,33.765811108],[130.689359442,33.765817225000006],[130.691166939,33.766452775000005],[130.691502022565,33.766666666666666],[130.7,33.766666666666666],[130.7,33.75833333333333]]]}},{"type":"Feature","id":"40204:50305516","properties":{"id":"40204:50305516","meshCode":"50305516","cityCode":"40204","city":"直方市","lat":33.7625,"lon":130.70625,"areaKm2":1.070178,"populated2020":true,"population2020":1182.7438,"populationNote":"収録500mメッシュ人口の合算（原典収録外は補完しない）"},"geometry":{"type":"Polygon","coordinates":[[[130.7125,33.75833333333332],[130.7,33.75833333333333],[130.7,33.766666666666666],[130.7125,33.766666666666666],[130.7125,33.75833333333332]]]}},{"type":"Feature","id":"40204:50305517","properties":{"id":"40204:50305517","meshCode":"50305517","cityCode":"40204","city":"直方市","lat":33.7625,"lon":130.71875,"areaKm2":1.0701764,"populated2020":true,"population2020":2826.1732,"populationNote":"収録500mメッシュ人口の合算（原典収録外は補完しない）"},"geometry":{"type":"Polygon","coordinates":[[[130.725,33.758333333333326],[130.7125,33.75833333333332],[130.7125,33.766666666666666],[130.725,33.766666666666666],[130.725,33.758333333333326]]]}},{"type":"Feature","id":"40204:50305518","properties":{"id":"40204:50305518","meshCode":"50305518","cityCode":"40204","city":"直方市","lat":33.7625,"lon":130.73125,"areaKm2":1.0701748,"populated2020":true,"population2020":2281.8621,"populationNote":"収録500mメッシュ人口の合算（原典収録外は補完しない）"},"geometry":{"type":"Polygon","coordinates":[[[130.7375,33.758333333333326],[130.725,33.758333333333326],[130.725,33.766666666666666],[130.7375,33.76666666666667],[130.7375,33.758333333333326]]]}},{"type":"Feature","id":"40204:50305519","properties":{"id":"40204:50305519","meshCode":"50305519","cityCode":"40204","city":"直方市","lat":33.7625,"lon":130.74375,"areaKm2":1.0701732,"populated2020":true,"population2020":1843.6489,"populationNote":"収録500mメッシュ人口の合算（原典収録外は補完しない）"},"geometry":{"type":"Polygon","coordinates":[[[130.75,33.75833333333333],[130.7375,33.758333333333326],[130.7375,33.76666666666667],[130.75,33.766666666666666],[130.75,33.75833333333333]]]}},{"type":"Feature","id":"40204:50305610","properties":{"id":"40204:50305610","meshCode":"50305610","cityCode":"40204","city":"直方市","lat":33.7625,"lon":130.75625,"areaKm2":1.0701719,"populated2020":true,"population2020":2412.8453,"populationNote":"収録500mメッシュ人口の合算（原典収録外は補完しない）"},"geometry":{"type":"Polygon","coordinates":[[[130.7625,33.75833333333332],[130.75,33.75833333333333],[130.75,33.766666666666666],[130.7625,33.766666666666666],[130.7625,33.75833333333332]]]}},{"type":"Feature","id":"40204:50305611","properties":{"id":"40204:50305611","meshCode":"50305611","cityCode":"40204","city":"直方市","lat":33.7625,"lon":130.76875,"areaKm2":1.0701705,"populated2020":true,"population2020":879.568,"populationNote":"収録500mメッシュ人口の合算（原典収録外は補完しない）"},"geometry":{"type":"Polygon","coordinates":[[[130.775,33.758333333333326],[130.7625,33.75833333333332],[130.7625,33.766666666666666],[130.775,33.766666666666666],[130.775,33.758333333333326]]]}},{"type":"Feature","id":"40204:50305612","properties":{"id":"40204:50305612","meshCode":"50305612","cityCode":"40204","city":"直方市","lat":33.7625,"lon":130.78125,"areaKm2":1.0701692,"populated2020":true,"population2020":13.0491,"populationNote":"収録500mメッシュ人口の合算（原典収録外は補完しない）"},"geometry":{"type":"Polygon","coordinates":[[[130.7875,33.75833333333334],[130.775,33.758333333333326],[130.775,33.766666666666666],[130.7875,33.766666666666666],[130.7875,33.75833333333334]]]}},{"type":"Feature","id":"40204:50305613","properties":{"id":"40204:50305613","meshCode":"50305613","cityCode":"40204","city":"直方市","lat":33.7624899,"lon":130.7937262,"areaKm2":1.0659298,"populated2020":false,"population2020":null,"populationNote":"境界またぎ・収録外等のため人口未集計"},"geometry":{"type":"Polygon","coordinates":[[[130.8,33.758333333333326],[130.7875,33.75833333333334],[130.7875,33.766666666666666],[130.8,33.766666666666666],[130.8,33.765572801999994],[130.799316109,33.765081946],[130.799506394,33.76479361300001],[130.8,33.764554720999996],[130.8,33.758333333333326]]]}},{"type":"Feature","id":"40204:50305614","properties":{"id":"40204:50305614","meshCode":"50305614","cityCode":"40204","city":"直方市","lat":33.7610307,"lon":130.8008994,"areaKm2":0.1019755,"populated2020":false,"population2020":null,"populationNote":"境界またぎ・収録外等のため人口未集計"},"geometry":{"type":"MultiPolygon","coordinates":[[[[130.801382776,33.76245555900001],[130.801497782,33.761800559000015],[130.801641946,33.761662224999995],[130.801785837,33.761085279],[130.801976109,33.760900829],[130.802385551,33.760727775],[130.802434449,33.760502775],[130.802365279,33.760312495],[130.801999728,33.759809162],[130.801991115,33.759633054],[130.802253333,33.758935279],[130.802215837,33.758698613],[130.80200566821594,33.758333333333326],[130.8,33.758333333333326],[130.8,33.764554720999996],[130.800478054,33.763153333],[130.80058138800004,33.763020829],[130.80126166,33.762616946],[130.801382776,33.76245555900001]]],[[[130.800922503,33.766170279],[130.800409689,33.76583813500001],[130.8,33.765572801999994],[130.8,33.766666666666666],[130.80111710805298,33.76666666666666],[130.801089728,33.766360559],[130.800922503,33.766170279]]]]}},{"type":"Feature","id":"40204:50305525","properties":{"id":"40204:50305525","meshCode":"50305525","cityCode":"40204","city":"直方市","lat":33.7699163,"lon":130.699713,"areaKm2":0.1107523,"populated2020":true,"population2020":null,"populationNote":"境界またぎ・収録外等のため人口未集計"},"geometry":{"type":"MultiPolygon","coordinates":[[[[130.691502022565,33.766666666666666],[130.691858612,33.767341386999995],[130.69214,33.767557225],[130.692827497,33.767736108],[130.693103061,33.767752494999996],[130.69362917000004,33.767608613],[130.69545,33.766678892],[130.696367497,33.766759162],[130.698196394,33.767620559],[130.698444163,33.767824162],[130.698561388,33.768346387],[130.699121388,33.76906194600001],[130.699403891,33.769793892],[130.699425551,33.77023194600001],[130.699060558,33.770799721],[130.698978327,33.771202775],[130.699230272,33.772035559],[130.699235551,33.77303082899999],[130.699438885,33.773172775000006],[130.7,33.773223919],[130.7,33.766666666666666],[130.691502022565,33.766666666666666]]],[[[130.699716329,33.77499999999999],[130.7,33.775],[130.7,33.774313495],[130.699756109,33.774641108],[130.699716329,33.77499999999999]]]]}},{"type":"Feature","id":"40204:50305526","properties":{"id":"40204:50305526","meshCode":"50305526","cityCode":"40204","city":"直方市","lat":33.770825,"lon":130.7062678,"areaKm2":1.0669536,"populated2020":true,"population2020":1887.4851,"populationNote":"収録500mメッシュ人口の合算（原典収録外は補完しない）"},"geometry":{"type":"Polygon","coordinates":[[[130.7125,33.766666666666666],[130.7,33.766666666666666],[130.7,33.773223919],[130.700364721,33.773366108],[130.700439442,33.77356361300001],[130.7,33.774313495],[130.7,33.775],[130.7125,33.77499999999999],[130.7125,33.766666666666666]]]}},{"type":"Feature","id":"40204:50305527","properties":{"id":"40204:50305527","meshCode":"50305527","cityCode":"40204","city":"直方市","lat":33.7707741,"lon":130.7187084,"areaKm2":1.0539663,"populated2020":true,"population2020":1225.3678,"populationNote":"収録500mメッシュ人口の合算（原典収録外は補完しない）"},"geometry":{"type":"Polygon","coordinates":[[[130.725,33.766666666666666],[130.7125,33.766666666666666],[130.7125,33.77499999999999],[130.720076135,33.77499999999999],[130.720676939,33.774180828999995],[130.723024163,33.77477],[130.723284838,33.775],[130.725,33.775],[130.725,33.766666666666666]]]}},{"type":"Feature","id":"40204:50305528","properties":{"id":"40204:50305528","meshCode":"50305528","cityCode":"40204","city":"直方市","lat":33.7701163,"lon":130.7305499,"areaKm2":0.8522894,"populated2020":true,"population2020":null,"populationNote":"境界またぎ・収録外等のため人口未集計"},"geometry":{"type":"Polygon","coordinates":[[[130.737467497,33.770787225],[130.7375,33.76666666666667],[130.725,33.766666666666666],[130.725,33.775],[130.725984916,33.775],[130.727853333,33.774247495],[130.728898885,33.774527494999994],[130.729283061,33.7744],[130.729708054,33.774425279],[130.730641946,33.773911108],[130.73159555100003,33.773570559],[130.733004449,33.772368892],[130.734714994,33.77216],[130.735178612,33.77156638700001],[130.735387497,33.771495559],[130.736002503,33.77153110799999],[130.736380558,33.771432775],[130.736786939,33.771278333],[130.737177224,33.770929441],[130.737467497,33.770787225]]]}},{"type":"Feature","id":"40204:50305529","properties":{"id":"40204:50305529","meshCode":"50305529","cityCode":"40204","city":"直方市","lat":33.7690789,"lon":130.7438534,"areaKm2":0.6090899,"populated2020":true,"population2020":null,"populationNote":"境界またぎ・収録外等のため人口未集計"},"geometry":{"type":"Polygon","coordinates":[[[130.738141115,33.77056166700001],[130.74011,33.77084777500001],[130.740541115,33.770985829],[130.741928885,33.77181777500001],[130.742648612,33.77192194599999],[130.743296109,33.772147495000006],[130.74414083,33.772191387],[130.746001219,33.772109441],[130.746642581,33.77193380200001],[130.747226135,33.771661613],[130.747289222,33.77174064],[130.747541556,33.77151233299999],[130.747615888,33.771289613],[130.748064994,33.77100000000001],[130.748278664,33.770905027],[130.748708003,33.771244973],[130.74889725,33.77097497300001],[130.749606913,33.77033619800001],[130.749835577,33.770514],[130.75,33.77046944100001],[130.75,33.766666666666666],[130.7375,33.76666666666667],[130.7375,33.77077511774342],[130.738141115,33.77056166700001]]]}},{"type":"Feature","id":"40204:50305620","properties":{"id":"40204:50305620","meshCode":"50305620","cityCode":"40204","city":"直方市","lat":33.7688148,"lon":130.7572662,"areaKm2":0.4718459,"populated2020":true,"population2020":null,"populationNote":"境界またぎ・収録外等のため人口未集計"},"geometry":{"type":"Polygon","coordinates":[[[130.752433748,33.769839],[130.75266153,33.769078027],[130.752965551,33.768695559],[130.75316166,33.76863805399999],[130.753323061,33.768626387],[130.753911115,33.768915],[130.754394994,33.768897495000004],[130.755112776,33.76928944099999],[130.756018054,33.769277775000006],[130.757384449,33.769474162],[130.757686939,33.769600559],[130.759393333,33.77068472100001],[130.760192503,33.77143249499999],[130.760803061,33.77161694600001],[130.76042861200003,33.773038054],[130.760445837,33.773372775],[130.76059,33.77356305400001],[130.761708327,33.773320829],[130.7625,33.77372992688096],[130.7625,33.766666666666666],[130.75,33.766666666666666],[130.75,33.77046944100001],[130.752433748,33.769839]]]}},{"type":"Feature","id":"40204:50305621","properties":{"id":"40204:50305621","meshCode":"50305621","cityCode":"40204","city":"直方市","lat":33.7707643,"lon":130.7688466,"areaKm2":1.0507288,"populated2020":true,"population2020":575.8262,"populationNote":"収録500mメッシュ人口の合算（原典収録外は補完しない）"},"geometry":{"type":"Polygon","coordinates":[[[130.775,33.766666666666666],[130.7625,33.766666666666666],[130.7625,33.77372992688096],[130.765531894,33.775],[130.775,33.775000000000006],[130.775,33.766666666666666]]]}},{"type":"Feature","id":"40204:50305622","properties":{"id":"40204:50305622","meshCode":"50305622","cityCode":"40204","city":"直方市","lat":33.7708333,"lon":130.78125,"areaKm2":1.0700671,"populated2020":true,"population2020":221.5521,"populationNote":"収録500mメッシュ人口の合算（原典収録外は補完しない）"},"geometry":{"type":"Polygon","coordinates":[[[130.7875,33.766666666666666],[130.775,33.766666666666666],[130.775,33.775000000000006],[130.7875,33.775],[130.7875,33.766666666666666]]]}},{"type":"Feature","id":"40204:50305623","properties":{"id":"40204:50305623","meshCode":"50305623","cityCode":"40204","city":"直方市","lat":33.7708327,"lon":130.7937488,"areaKm2":1.0698659,"populated2020":false,"population2020":null,"populationNote":"境界またぎ・収録外等のため人口未集計"},"geometry":{"type":"Polygon","coordinates":[[[130.8,33.766666666666666],[130.7875,33.766666666666666],[130.7875,33.775],[130.799926744,33.77499999999999],[130.8,33.77478694599999],[130.8,33.766666666666666]]]}},{"type":"Feature","id":"40204:50305624","properties":{"id":"40204:50305624","meshCode":"50305624","cityCode":"40204","city":"直方市","lat":33.7707024,"lon":130.8011045,"areaKm2":0.1265703,"populated2020":false,"population2020":null,"populationNote":"境界またぎ・収録外等のため人口未集計"},"geometry":{"type":"MultiPolygon","coordinates":[[[[130.802253891,33.77020055900001],[130.801406939,33.76923305399999],[130.801216939,33.768791387],[130.800813333,33.768399162],[130.800871115,33.767718613],[130.80111710805298,33.76666666666666],[130.8,33.766666666666666],[130.8,33.773407135],[130.800059728,33.773171667],[130.800221115,33.77297],[130.800566939,33.772906387],[130.801676939,33.773540829000005],[130.802091946,33.773644721],[130.80250722400004,33.773569721],[130.802639728,33.772575],[130.802772503,33.772228892],[130.802536109,33.771773333],[130.802432218,33.77055055900001],[130.802253891,33.77020055900001]]],[[[130.8,33.77478694599999],[130.800054163,33.774424721],[130.8,33.77406494600001],[130.8,33.77478694599999]]]]}},{"type":"Feature","id":"40204:50305535","properties":{"id":"40204:50305535","meshCode":"50305535","cityCode":"40204","city":"直方市","lat":33.7806588,"lon":130.6983906,"areaKm2":0.1972178,"populated2020":true,"population2020":null,"populationNote":"境界またぎ・収録外等のため人口未集計"},"geometry":{"type":"Polygon","coordinates":[[[130.699716329,33.77499999999999],[130.699721115,33.776604999999996],[130.699624449,33.776674721],[130.69889,33.77672833300001],[130.69871917,33.77680444100001],[130.698651388,33.777100559],[130.698792218,33.777532225],[130.698738612,33.778095829],[130.69857,33.778301387],[130.697795279,33.77879055900001],[130.69754166,33.77903499999999],[130.697215837,33.78008361300001],[130.696516394,33.780647225],[130.696368327,33.78085055900001],[130.696345837,33.781025278999984],[130.696621946,33.781693613],[130.696578612,33.781882775000014],[130.696255279,33.782180829],[130.69553389100003,33.782409162],[130.69510328091155,33.78333333333334],[130.7,33.78333333333333],[130.7,33.775],[130.699716329,33.77499999999999]]]}},{"type":"Feature","id":"40204:50305536","properties":{"id":"40204:50305536","meshCode":"50305536","cityCode":"40204","city":"直方市","lat":33.7791667,"lon":130.70625,"areaKm2":1.0699736,"populated2020":true,"population2020":994.55,"populationNote":"収録500mメッシュ人口の合算（原典収録外は補完しない）"},"geometry":{"type":"Polygon","coordinates":[[[130.7125,33.77499999999999],[130.7,33.775],[130.7,33.78333333333333],[130.7125,33.78333333333333],[130.7125,33.77499999999999]]]}},{"type":"Feature","id":"40204:50305537","properties":{"id":"40204:50305537","meshCode":"50305537","cityCode":"40204","city":"直方市","lat":33.7785271,"lon":130.7154167,"areaKm2":0.458627,"populated2020":true,"population2020":null,"populationNote":"境界またぎ・収録外等のため人口未集計"},"geometry":{"type":"MultiPolygon","coordinates":[[[[130.723601115,33.775293333],[130.725,33.77535400000001],[130.725,33.775],[130.723284838,33.775],[130.72341,33.775217225],[130.723601115,33.775293333]]],[[[130.716795279,33.781056667],[130.720076135,33.77499999999999],[130.7125,33.77499999999999],[130.7125,33.78333333333333],[130.71543272371568,33.78333333333333],[130.716795279,33.781056667]]]]}},{"type":"Feature","id":"40204:50305538","properties":{"id":"40204:50305538","meshCode":"50305538","cityCode":"40204","city":"直方市","lat":33.7751363,"lon":130.7253422,"areaKm2":0.0021341,"populated2020":true,"population2020":null,"populationNote":"境界またぎ・収録外等のため人口未集計"},"geometry":{"type":"Polygon","coordinates":[[[130.725384449,33.775292225],[130.725793891,33.775070829],[130.725984916,33.775],[130.725,33.775],[130.725,33.77535400000001],[130.725384449,33.775292225]]]}},{"type":"Feature","id":"40204:50305631","properties":{"id":"40204:50305631","meshCode":"50305631","cityCode":"40204","city":"直方市","lat":33.7792258,"lon":130.7710563,"areaKm2":0.6714494,"populated2020":true,"population2020":null,"populationNote":"境界またぎ・収録外等のため人口未集計"},"geometry":{"type":"Polygon","coordinates":[[[130.766844994,33.775611946000005],[130.767634994,33.776615559],[130.768038327,33.776978892],[130.768124994,33.77728027900001],[130.767934721,33.77819694600001],[130.76693166,33.78005444099999],[130.76658,33.781266946],[130.766551388,33.781803333000006],[130.766637782,33.782385829],[130.76718364522876,33.78333333333333],[130.775,33.78333333333333],[130.775,33.775000000000006],[130.765531894,33.775],[130.766844994,33.775611946000005]]]}},{"type":"Feature","id":"40204:50305632","properties":{"id":"40204:50305632","meshCode":"50305632","cityCode":"40204","city":"直方市","lat":33.7791343,"lon":130.7811976,"areaKm2":1.0604956,"populated2020":true,"population2020":20.0454,"populationNote":"収録500mメッシュ人口の合算（原典収録外は補完しない）"},"geometry":{"type":"Polygon","coordinates":[[[130.7875,33.775],[130.775,33.775000000000006],[130.775,33.78333333333333],[130.78632849475562,33.78333333333333],[130.786887224,33.782628892],[130.7875,33.781654665250024],[130.7875,33.775]]]}},{"type":"Feature","id":"40204:50305633","properties":{"id":"40204:50305633","meshCode":"50305633","cityCode":"40204","city":"直方市","lat":33.7772862,"lon":130.7930114,"areaKm2":0.5420748,"populated2020":false,"population2020":null,"populationNote":"境界またぎ・収録外等のため人口未集計"},"geometry":{"type":"Polygon","coordinates":[[[130.790626394,33.779124721],[130.791252503,33.779026946],[130.792331946,33.77987472099999],[130.792664721,33.780018613],[130.793846667,33.779932495],[130.794288327,33.780041667000006],[130.794772503,33.780283892],[130.79553917,33.779978333],[130.79642,33.779743892],[130.796593061,33.77948416200001],[130.796512218,33.779034441],[130.796858054,33.778544162],[130.797803606,33.777933053999995],[130.798201388,33.77780610799999],[130.79867083000002,33.77783610800001],[130.799011115,33.77755916200001],[130.79946055800002,33.776722774999996],[130.799926744,33.77499999999999],[130.7875,33.775],[130.7875,33.781654665250024],[130.787796939,33.781292225],[130.788603061,33.779851387],[130.789640558,33.77951694600001],[130.790292218,33.77903833300001],[130.790626394,33.779124721]]]}},{"type":"Feature","id":"40204:50305545","properties":{"id":"40204:50305545","meshCode":"50305545","cityCode":"40204","city":"直方市","lat":33.7854816,"lon":130.6981244,"areaKm2":0.1827959,"populated2020":true,"population2020":null,"populationNote":"境界またぎ・収録外等のため人口未集計"},"geometry":{"type":"Polygon","coordinates":[[[130.695097497,33.783368054],[130.695144994,33.78453082899999],[130.695191115,33.784605829],[130.696258885,33.78479916199999],[130.696464721,33.785347225],[130.69643917,33.78591889199999],[130.696532503,33.786350829],[130.697086394,33.78713027900001],[130.697746939,33.787625559],[130.698523061,33.787826946],[130.699222776,33.78842749500001],[130.699938054,33.78848722499999],[130.699621388,33.78985889199999],[130.7,33.790021973],[130.7,33.78333333333333],[130.695097497,33.783368054]]]}},{"type":"Feature","id":"40204:50305546","properties":{"id":"40204:50305546","meshCode":"50305546","cityCode":"40204","city":"直方市","lat":33.7873876,"lon":130.7062068,"areaKm2":1.0366423,"populated2020":true,"population2020":263.8515,"populationNote":"収録500mメッシュ人口の合算（原典収録外は補完しない）"},"geometry":{"type":"Polygon","coordinates":[[[130.7125,33.78333333333333],[130.7,33.78333333333333],[130.7,33.790021973],[130.700601946,33.790175559000005],[130.700455279,33.79095277500001],[130.70163836554997,33.791666666666664],[130.71052306132128,33.79166666666666],[130.7125,33.789622599048705],[130.7125,33.78333333333333]]]}},{"type":"Feature","id":"40204:50305547","properties":{"id":"40204:50305547","meshCode":"50305547","cityCode":"40204","city":"直方市","lat":33.7857638,"lon":130.7134762,"areaKm2":0.1076742,"populated2020":true,"population2020":null,"populationNote":"境界またぎ・収録外等のため人口未集計"},"geometry":{"type":"Polygon","coordinates":[[[130.714182218,33.787204161999995],[130.714463333,33.78636833299999],[130.714358885,33.78577305399999],[130.714372503,33.785158613],[130.71543272371568,33.78333333333333],[130.7125,33.78333333333333],[130.7125,33.789622599048705],[130.713489728,33.788458054],[130.714182218,33.787204161999995]]]}},{"type":"Feature","id":"40204:50305641","properties":{"id":"40204:50305641","meshCode":"50305641","cityCode":"40204","city":"直方市","lat":33.7846977,"lon":130.7716877,"areaKm2":0.1982022,"populated2020":false,"population2020":null,"populationNote":"境界またぎ・収録外等のため人口未集計"},"geometry":{"type":"Polygon","coordinates":[[[130.76718364522876,33.78333333333333],[130.767985551,33.78432055900001],[130.768221388,33.784900279],[130.768665279,33.785292495],[130.76953,33.785817225],[130.770066394,33.786019162],[130.770423333,33.786105829],[130.771463891,33.786145559],[130.772121115,33.786428054],[130.772662776,33.786503054],[130.77372083,33.786267225],[130.775,33.78627186500001],[130.775,33.78333333333333],[130.76718364522876,33.78333333333333]]]}},{"type":"Feature","id":"40204:50305642","properties":{"id":"40204:50305642","meshCode":"50305642","cityCode":"40204","city":"直方市","lat":33.7845809,"lon":130.779841,"areaKm2":0.2665525,"populated2020":false,"population2020":null,"populationNote":"境界またぎ・収録外等のため人口未集計"},"geometry":{"type":"Polygon","coordinates":[[[130.781749728,33.78589916200001],[130.78289527900003,33.785513054],[130.783361946,33.785409162],[130.783944163,33.785420829],[130.784445837,33.785282775],[130.784555279,33.785173054],[130.784613061,33.784642495],[130.785816109,33.784085829],[130.78632849475562,33.78333333333333],[130.775,33.78333333333333],[130.775,33.78627186500001],[130.776070558,33.786226946000006],[130.776676109,33.786019162],[130.777211946,33.785984721000005],[130.77862166,33.786054162],[130.781749728,33.78589916200001]]]}},{"type":"Feature","id":"40204:50305556","properties":{"id":"40204:50305556","meshCode":"50305556","cityCode":"40204","city":"直方市","lat":33.7932491,"lon":130.7064608,"areaKm2":0.199307,"populated2020":true,"population2020":null,"populationNote":"境界またぎ・収録外等のため人口未集計"},"geometry":{"type":"Polygon","coordinates":[[[130.70163836554997,33.791666666666664],[130.70217917,33.79200972099999],[130.70313,33.792264720999995],[130.703473333,33.792490829],[130.70403555100003,33.79325582900001],[130.704537782,33.79420222499999],[130.704558327,33.79474499999999],[130.704714449,33.794975279],[130.707161388,33.796053892],[130.709107782,33.793310279],[130.71052306132128,33.79166666666666],[130.70163836554997,33.791666666666664]]]}}]}