{"type":"FeatureCollection","metadata":{"cityCode":"40207","city":"柳川市","resolution":1000,"boundaryDate":"2026-01-01","populationLabel":"2020年基準人口（国交省調整値）","method":"標準地域メッシュを行政界で切抜き。中心が区域外のとき区域内代表点を判定点にする。人口不明をゼロにしない。"},"features":[{"type":"Feature","id":"40207:49305302","properties":{"id":"40207:49305302","meshCode":"49305302","cityCode":"40207","city":"柳川市","lat":33.089941,"lon":130.4074086,"areaKm2":0.4037413,"populated2020":false,"population2020":null,"populationNote":"境界またぎ・収録外等のため人口未集計"},"geometry":{"type":"Polygon","coordinates":[[[130.4125,33.08725212594693],[130.411729351,33.086683234],[130.410335642,33.08801440500001],[130.41001333300002,33.087798613000004],[130.409497445,33.087640891999996],[130.409208223,33.08759238700001],[130.408691505,33.087637252],[130.40581,33.088550054],[130.405421362,33.088802387],[130.404419857,33.08912916199999],[130.403847108,33.089178387],[130.4,33.090403721],[130.4,33.09166666666667],[130.4125,33.09166666666667],[130.4125,33.08725212594693]]]}},{"type":"Feature","id":"40207:49305303","properties":{"id":"40207:49305303","meshCode":"49305303","cityCode":"40207","city":"柳川市","lat":33.0901629,"lon":130.4145803,"areaKm2":0.145707,"populated2020":false,"population2020":null,"populationNote":"境界またぎ・収録外等のため人口未集計"},"geometry":{"type":"Polygon","coordinates":[[[130.4125,33.08725212594693],[130.4125,33.09166666666667],[130.41862868957628,33.09166666666667],[130.416818054,33.090242225],[130.414254449,33.088384441],[130.4125,33.08725212594693]]]}},{"type":"Feature","id":"40207:49305301","properties":{"id":"40207:49305301","meshCode":"49305301","cityCode":"40207","city":"柳川市","lat":33.0912467,"lon":130.3986666,"areaKm2":0.0260859,"populated2020":false,"population2020":null,"populationNote":"境界またぎ・収録外等のため人口未集計"},"geometry":{"type":"Polygon","coordinates":[[[130.4,33.090403721],[130.398213256,33.09098202700001],[130.39599797802921,33.09166666666667],[130.4,33.09166666666667],[130.4,33.090403721]]]}},{"type":"Feature","id":"40207:49305310","properties":{"id":"40207:49305310","meshCode":"49305310","cityCode":"40207","city":"柳川市","lat":33.0960055,"lon":130.3874769,"areaKm2":0.0003445,"populated2020":false,"population2020":null,"populationNote":"境界またぎ・収録外等のため人口未集計"},"geometry":{"type":"Polygon","coordinates":[[[130.3875,33.09557732633934],[130.3874407,33.096176279],[130.3875,33.09640617073672],[130.3875,33.09557732633934]]]}},{"type":"Feature","id":"40207:49305311","properties":{"id":"40207:49305311","meshCode":"49305311","cityCode":"40207","city":"柳川市","lat":33.0960772,"lon":130.3946328,"areaKm2":0.8848804,"populated2020":false,"population2020":null,"populationNote":"境界またぎ・収録外等のため人口未集計"},"geometry":{"type":"Polygon","coordinates":[[[130.39599797802921,33.09166666666667],[130.394573645,33.092194162],[130.394479754,33.092137829],[130.392959196,33.092636586],[130.392456978,33.092917],[130.391281336,33.093309441],[130.391171245,33.093134252000006],[130.389498975,33.093745440999996],[130.38790703,33.09495286500001],[130.387692023,33.095207252],[130.3875,33.09557732633934],[130.3875,33.09640617073672],[130.38757786,33.09660686499999],[130.387830195,33.096977721],[130.387929144,33.096997108],[130.391068975,33.099999999999994],[130.4,33.1],[130.4,33.09166666666667],[130.39599797802921,33.09166666666667]]]}},{"type":"Feature","id":"40207:49305312","properties":{"id":"40207:49305312","meshCode":"49305312","cityCode":"40207","city":"柳川市","lat":33.0958333,"lon":130.40625,"areaKm2":1.0783366,"populated2020":true,"population2020":69.6311,"populationNote":"収録500mメッシュ人口の合算（原典収録外は補完しない）"},"geometry":{"type":"Polygon","coordinates":[[[130.4125,33.09166666666667],[130.4,33.09166666666667],[130.4,33.1],[130.4125,33.1],[130.4125,33.09166666666667]]]}},{"type":"Feature","id":"40207:49305313","properties":{"id":"40207:49305313","meshCode":"49305313","cityCode":"40207","city":"柳川市","lat":33.0962551,"lon":130.4175107,"areaKm2":0.8381698,"populated2020":true,"population2020":46.3342,"populationNote":"収録500mメッシュ人口の合算（原典収録外は補完しない）"},"geometry":{"type":"Polygon","coordinates":[[[130.41862868957628,33.09166666666667],[130.4125,33.09166666666667],[130.4125,33.1],[130.42482917,33.1],[130.424382776,33.09933944099999],[130.423112503,33.096677775],[130.422322776,33.09560444099999],[130.420843606,33.093667225],[130.41862868957628,33.09166666666667]]]}},{"type":"Feature","id":"40207:49305321","properties":{"id":"40207:49305321","meshCode":"49305321","cityCode":"40207","city":"柳川市","lat":33.1032285,"lon":130.3970774,"areaKm2":0.434965,"populated2020":true,"population2020":15.1013,"populationNote":"収録500mメッシュ人口の合算（原典収録外は補完しない）"},"geometry":{"type":"Polygon","coordinates":[[[130.391068975,33.099999999999994],[130.396643696,33.105453973],[130.39715,33.10714436000001],[130.397663748,33.10786189200001],[130.39646704215386,33.108333333333334],[130.4,33.108333333333334],[130.4,33.1],[130.391068975,33.099999999999994]]]}},{"type":"Feature","id":"40207:49305322","properties":{"id":"40207:49305322","meshCode":"49305322","cityCode":"40207","city":"柳川市","lat":33.1041667,"lon":130.40625,"areaKm2":1.0782363,"populated2020":true,"population2020":51.331,"populationNote":"収録500mメッシュ人口の合算（原典収録外は補完しない）"},"geometry":{"type":"Polygon","coordinates":[[[130.4125,33.1],[130.4,33.1],[130.4,33.108333333333334],[130.4125,33.10833333333333],[130.4125,33.1]]]}},{"type":"Feature","id":"40207:49305323","properties":{"id":"40207:49305323","meshCode":"49305323","cityCode":"40207","city":"柳川市","lat":33.1041675,"lon":130.4187488,"areaKm2":1.0780255,"populated2020":true,"population2020":141.1905,"populationNote":"収録500mメッシュ人口の合算（原典収録外は補完しない）"},"geometry":{"type":"Polygon","coordinates":[[[130.425,33.100234666999995],[130.42482917,33.1],[130.4125,33.1],[130.4125,33.10833333333333],[130.425,33.10833333333334],[130.425,33.100234666999995]]]}},{"type":"Feature","id":"40207:49305324","properties":{"id":"40207:49305324","meshCode":"49305324","cityCode":"40207","city":"柳川市","lat":33.1056751,"lon":130.4271169,"areaKm2":0.2620682,"populated2020":true,"population2020":null,"populationNote":"境界またぎ・収録外等のため人口未集計"},"geometry":{"type":"Polygon","coordinates":[[[130.427799728,33.10397527899999],[130.425,33.100234666999995],[130.425,33.10833333333334],[130.4313071732089,33.10833333333333],[130.430888885,33.10766638700001],[130.427799728,33.10397527899999]]]}},{"type":"Feature","id":"40207:49305330","properties":{"id":"40207:49305330","meshCode":"49305330","cityCode":"40207","city":"柳川市","lat":33.1150634,"lon":130.3845725,"areaKm2":0.2185925,"populated2020":false,"population2020":null,"populationNote":"境界またぎ・収録外等のため人口未集計"},"geometry":{"type":"Polygon","coordinates":[[[130.3875,33.111835572875414],[130.384987613,33.113248748],[130.37871769159497,33.11666666666667],[130.3875,33.11666666666667],[130.3875,33.111835572875414]]]}},{"type":"Feature","id":"40207:49305331","properties":{"id":"40207:49305331","meshCode":"49305331","cityCode":"40207","city":"柳川市","lat":33.1129807,"lon":130.3942916,"areaKm2":0.9311802,"populated2020":false,"population2020":null,"populationNote":"境界またぎ・収録外等のため人口未集計"},"geometry":{"type":"Polygon","coordinates":[[[130.395619027,33.108515387],[130.395252283,33.108561721],[130.389880856,33.110711865],[130.388141284,33.111457532],[130.3875,33.111835572875414],[130.3875,33.11666666666667],[130.4,33.11666666666666],[130.4,33.108333333333334],[130.39646704215386,33.108333333333334],[130.395883709,33.108563135],[130.395619027,33.108515387]]]}},{"type":"Feature","id":"40207:49305332","properties":{"id":"40207:49305332","meshCode":"49305332","cityCode":"40207","city":"柳川市","lat":33.1125,"lon":130.40625,"areaKm2":1.0781359,"populated2020":true,"population2020":220.664,"populationNote":"収録500mメッシュ人口の合算（原典収録外は補完しない）"},"geometry":{"type":"Polygon","coordinates":[[[130.4125,33.10833333333333],[130.4,33.108333333333334],[130.4,33.11666666666666],[130.4125,33.11666666666667],[130.4125,33.10833333333333]]]}},{"type":"Feature","id":"40207:49305333","properties":{"id":"40207:49305333","meshCode":"49305333","cityCode":"40207","city":"柳川市","lat":33.1125,"lon":130.41875,"areaKm2":1.0781326,"populated2020":true,"population2020":725.4069,"populationNote":"収録500mメッシュ人口の合算（原典収録外は補完しない）"},"geometry":{"type":"Polygon","coordinates":[[[130.425,33.10833333333334],[130.4125,33.10833333333333],[130.4125,33.11666666666667],[130.425,33.11666666666667],[130.425,33.10833333333334]]]}},{"type":"Feature","id":"40207:49305334","properties":{"id":"40207:49305334","meshCode":"49305334","cityCode":"40207","city":"柳川市","lat":33.1129135,"lon":130.4294765,"areaKm2":0.7496064,"populated2020":true,"population2020":null,"populationNote":"境界またぎ・収録外等のため人口未集計"},"geometry":{"type":"Polygon","coordinates":[[[130.433435551,33.112455829],[130.43268,33.111286108],[130.431958885,33.10949555900001],[130.4313071732089,33.10833333333333],[130.425,33.10833333333334],[130.425,33.11666666666667],[130.43582119297324,33.11666666666667],[130.435715837,33.115601108],[130.435426667,33.114693892000005],[130.433435551,33.112455829]]]}},{"type":"Feature","id":"40207:49305249","properties":{"id":"40207:49305249","meshCode":"49305249","cityCode":"40207","city":"柳川市","lat":33.1219078,"lon":130.3738588,"areaKm2":0.1311644,"populated2020":false,"population2020":null,"populationNote":"境界またぎ・収録外等のため人口未集計"},"geometry":{"type":"Polygon","coordinates":[[[130.375,33.118700108],[130.373303359,33.119651829],[130.372736589,33.120206919],[130.372262529,33.121130135],[130.372192776,33.121911054],[130.372534916,33.122973306],[130.373231219,33.123886027],[130.373310947,33.123864694],[130.373399728,33.123963775],[130.373357419,33.124040468],[130.374146005,33.12499999999999],[130.375,33.12499999999999],[130.375,33.118700108]]]}},{"type":"Feature","id":"40207:49305340","properties":{"id":"40207:49305340","meshCode":"49305340","cityCode":"40207","city":"柳川市","lat":33.1209655,"lon":130.3814395,"areaKm2":1.0387011,"populated2020":true,"population2020":66.4539,"populationNote":"収録500mメッシュ人口の合算（原典収録外は補完しない）"},"geometry":{"type":"Polygon","coordinates":[[[130.37871769159497,33.11666666666667],[130.375,33.118700108],[130.375,33.12499999999999],[130.3875,33.125],[130.3875,33.11666666666667],[130.37871769159497,33.11666666666667]]]}},{"type":"Feature","id":"40207:49305341","properties":{"id":"40207:49305341","meshCode":"49305341","cityCode":"40207","city":"柳川市","lat":33.1208333,"lon":130.39375,"areaKm2":1.0780391,"populated2020":true,"population2020":680.1949,"populationNote":"収録500mメッシュ人口の合算（原典収録外は補完しない）"},"geometry":{"type":"Polygon","coordinates":[[[130.4,33.11666666666666],[130.3875,33.11666666666667],[130.3875,33.125],[130.4,33.125],[130.4,33.11666666666666]]]}},{"type":"Feature","id":"40207:49305342","properties":{"id":"40207:49305342","meshCode":"49305342","cityCode":"40207","city":"柳川市","lat":33.1208333,"lon":130.40625,"areaKm2":1.0780355,"populated2020":true,"population2020":253.1457,"populationNote":"収録500mメッシュ人口の合算（原典収録外は補完しない）"},"geometry":{"type":"Polygon","coordinates":[[[130.4125,33.11666666666667],[130.4,33.11666666666666],[130.4,33.125],[130.4125,33.125],[130.4125,33.11666666666667]]]}},{"type":"Feature","id":"40207:49305343","properties":{"id":"40207:49305343","meshCode":"49305343","cityCode":"40207","city":"柳川市","lat":33.1208333,"lon":130.41875,"areaKm2":1.0780322,"populated2020":true,"population2020":816.3112,"populationNote":"収録500mメッシュ人口の合算（原典収録外は補完しない）"},"geometry":{"type":"Polygon","coordinates":[[[130.425,33.11666666666667],[130.4125,33.11666666666667],[130.4125,33.125],[130.425,33.125],[130.425,33.11666666666667]]]}},{"type":"Feature","id":"40207:49305344","properties":{"id":"40207:49305344","meshCode":"49305344","cityCode":"40207","city":"柳川市","lat":33.1209494,"lon":130.4310256,"areaKm2":1.0360384,"populated2020":true,"population2020":null,"populationNote":"境界またぎ・収録外等のため人口未集計"},"geometry":{"type":"Polygon","coordinates":[[[130.4375,33.11994987994921],[130.436539728,33.119076387],[130.436021946,33.11839027900001],[130.43582119297324,33.11666666666667],[130.425,33.11666666666667],[130.425,33.125],[130.4375,33.12499999999999],[130.4375,33.11994987994921]]]}},{"type":"Feature","id":"40207:49305345","properties":{"id":"40207:49305345","meshCode":"49305345","cityCode":"40207","city":"柳川市","lat":33.1231855,"lon":130.4399642,"areaKm2":0.2057925,"populated2020":true,"population2020":null,"populationNote":"境界またぎ・収録外等のため人口未集計"},"geometry":{"type":"Polygon","coordinates":[[[130.4375,33.11994987994921],[130.4375,33.12499999999999],[130.44362250300003,33.125],[130.443595551,33.124366108],[130.443226394,33.123661108],[130.442353891,33.122748892],[130.441034721,33.121826946],[130.439183606,33.120963333],[130.4375,33.11994987994921]]]}},{"type":"Feature","id":"40207:49305259","properties":{"id":"40207:49305259","meshCode":"49305259","cityCode":"40207","city":"柳川市","lat":33.1255271,"lon":130.3747874,"areaKm2":0.0075188,"populated2020":false,"population2020":null,"populationNote":"境界またぎ・収録外等のため人口未集計"},"geometry":{"type":"MultiPolygon","coordinates":[[[[130.374146005,33.12499999999999],[130.374925188,33.12595564],[130.375,33.126045892],[130.375,33.12499999999999],[130.374146005,33.12499999999999]]],[[[130.375,33.131528054],[130.37474341111826,33.133333333333326],[130.375,33.13333333333333],[130.375,33.131528054]]]]}},{"type":"Feature","id":"40207:49305350","properties":{"id":"40207:49305350","meshCode":"49305350","cityCode":"40207","city":"柳川市","lat":33.1292005,"lon":130.3815315,"areaKm2":1.0262459,"populated2020":true,"population2020":284.985,"populationNote":"収録500mメッシュ人口の合算（原典収録外は補完しない）"},"geometry":{"type":"Polygon","coordinates":[[[130.375,33.126045892],[130.376911362,33.128281441000006],[130.377003891,33.128239198],[130.3763662,33.12935864],[130.376141284,33.129284279],[130.375082529,33.131061892],[130.375,33.131528054],[130.375,33.13333333333333],[130.3875,33.13333333333333],[130.3875,33.125],[130.375,33.12499999999999],[130.375,33.126045892]]]}},{"type":"Feature","id":"40207:49305351","properties":{"id":"40207:49305351","meshCode":"49305351","cityCode":"40207","city":"柳川市","lat":33.1291667,"lon":130.39375,"areaKm2":1.0779387,"populated2020":true,"population2020":734.6468,"populationNote":"収録500mメッシュ人口の合算（原典収録外は補完しない）"},"geometry":{"type":"Polygon","coordinates":[[[130.4,33.125],[130.3875,33.125],[130.3875,33.13333333333333],[130.4,33.133333333333326],[130.4,33.125]]]}},{"type":"Feature","id":"40207:49305352","properties":{"id":"40207:49305352","meshCode":"49305352","cityCode":"40207","city":"柳川市","lat":33.1291667,"lon":130.40625,"areaKm2":1.0779352,"populated2020":true,"population2020":814.4046,"populationNote":"収録500mメッシュ人口の合算（原典収録外は補完しない）"},"geometry":{"type":"Polygon","coordinates":[[[130.4125,33.125],[130.4,33.125],[130.4,33.133333333333326],[130.4125,33.13333333333334],[130.4125,33.125]]]}},{"type":"Feature","id":"40207:49305353","properties":{"id":"40207:49305353","meshCode":"49305353","cityCode":"40207","city":"柳川市","lat":33.1291667,"lon":130.41875,"areaKm2":1.0779318,"populated2020":true,"population2020":824.672,"populationNote":"収録500mメッシュ人口の合算（原典収録外は補完しない）"},"geometry":{"type":"Polygon","coordinates":[[[130.425,33.125],[130.4125,33.125],[130.4125,33.13333333333334],[130.425,33.133333333333326],[130.425,33.125]]]}},{"type":"Feature","id":"40207:49305354","properties":{"id":"40207:49305354","meshCode":"49305354","cityCode":"40207","city":"柳川市","lat":33.1291667,"lon":130.43125,"areaKm2":1.0779284,"populated2020":true,"population2020":919.6173,"populationNote":"収録500mメッシュ人口の合算（原典収録外は補完しない）"},"geometry":{"type":"Polygon","coordinates":[[[130.4375,33.12499999999999],[130.425,33.125],[130.425,33.133333333333326],[130.4375,33.13333333333333],[130.4375,33.12499999999999]]]}},{"type":"Feature","id":"40207:49305355","properties":{"id":"40207:49305355","meshCode":"49305355","cityCode":"40207","city":"柳川市","lat":33.1295291,"lon":130.441565,"areaKm2":0.6846563,"populated2020":true,"population2020":null,"populationNote":"境界またぎ・収録外等のため人口未集計"},"geometry":{"type":"Polygon","coordinates":[[[130.44362250300003,33.125],[130.4375,33.12499999999999],[130.4375,33.13333333333333],[130.44709511015427,33.13333333333333],[130.446741388,33.13233555899999],[130.446357782,33.130097495],[130.446214721,33.129746108],[130.445771388,33.12907944100001],[130.443825837,33.126745],[130.443659728,33.126210828999994],[130.44362250300003,33.125]]]}},{"type":"Feature","id":"40207:49305269","properties":{"id":"40207:49305269","meshCode":"49305269","cityCode":"40207","city":"柳川市","lat":33.1399352,"lon":130.3690037,"areaKm2":0.2946736,"populated2020":false,"population2020":null,"populationNote":"境界またぎ・収録外等のため人口未集計"},"geometry":{"type":"MultiPolygon","coordinates":[[[[130.37474341111826,33.133333333333326],[130.375,33.133846252],[130.375,33.13333333333333],[130.37474341111826,33.133333333333326]]],[[[130.373799222,33.135109198],[130.373683385,33.13551738700001],[130.37373144,33.135738081],[130.373797639,33.135743225],[130.373743774,33.135817468],[130.373825772,33.136451775],[130.374282503,33.13878705399999],[130.3744762,33.139325775],[130.373309468,33.141287081],[130.371553774,33.140607945999996],[130.371057886,33.140535414],[130.371017613,33.140456135],[130.370355966,33.14019472099999],[130.370372996,33.14007053200001],[130.367326744,33.139059613],[130.366903165,33.13900791900001],[130.3625,33.1395333915],[130.3625,33.14166666666666],[130.375,33.141666666666666],[130.375,33.134228694],[130.373799222,33.135109198]]]]}},{"type":"Feature","id":"40207:49305360","properties":{"id":"40207:49305360","meshCode":"49305360","cityCode":"40207","city":"柳川市","lat":33.1375024,"lon":130.3812542,"areaKm2":1.0771101,"populated2020":true,"population2020":279.1274,"populationNote":"収録500mメッシュ人口の合算（原典収録外は補完しない）"},"geometry":{"type":"Polygon","coordinates":[[[130.375234228,33.133837441],[130.375313191,33.133989748],[130.375,33.134228694],[130.375,33.141666666666666],[130.3875,33.14166666666667],[130.3875,33.13333333333333],[130.375,33.13333333333333],[130.375,33.133846252],[130.375032361,33.13390455899999],[130.375234228,33.133837441]]]}},{"type":"Feature","id":"40207:49305361","properties":{"id":"40207:49305361","meshCode":"49305361","cityCode":"40207","city":"柳川市","lat":33.1375,"lon":130.39375,"areaKm2":1.0778383,"populated2020":true,"population2020":583.7243,"populationNote":"収録500mメッシュ人口の合算（原典収録外は補完しない）"},"geometry":{"type":"Polygon","coordinates":[[[130.4,33.133333333333326],[130.3875,33.13333333333333],[130.3875,33.14166666666667],[130.4,33.141666666666666],[130.4,33.133333333333326]]]}},{"type":"Feature","id":"40207:49305362","properties":{"id":"40207:49305362","meshCode":"49305362","cityCode":"40207","city":"柳川市","lat":33.1375,"lon":130.40625,"areaKm2":1.0778347,"populated2020":true,"population2020":980.7103,"populationNote":"収録500mメッシュ人口の合算（原典収録外は補完しない）"},"geometry":{"type":"Polygon","coordinates":[[[130.4125,33.13333333333334],[130.4,33.133333333333326],[130.4,33.141666666666666],[130.4125,33.141666666666666],[130.4125,33.13333333333334]]]}},{"type":"Feature","id":"40207:49305363","properties":{"id":"40207:49305363","meshCode":"49305363","cityCode":"40207","city":"柳川市","lat":33.1375,"lon":130.41875,"areaKm2":1.0778314,"populated2020":true,"population2020":933.2076,"populationNote":"収録500mメッシュ人口の合算（原典収録外は補完しない）"},"geometry":{"type":"Polygon","coordinates":[[[130.425,33.133333333333326],[130.4125,33.13333333333334],[130.4125,33.141666666666666],[130.425,33.141666666666666],[130.425,33.133333333333326]]]}},{"type":"Feature","id":"40207:49305364","properties":{"id":"40207:49305364","meshCode":"49305364","cityCode":"40207","city":"柳川市","lat":33.1375,"lon":130.43125,"areaKm2":1.077828,"populated2020":true,"population2020":1068.434,"populationNote":"収録500mメッシュ人口の合算（原典収録外は補完しない）"},"geometry":{"type":"Polygon","coordinates":[[[130.4375,33.13333333333333],[130.425,33.133333333333326],[130.425,33.141666666666666],[130.4375,33.141666666666666],[130.4375,33.13333333333333]]]}},{"type":"Feature","id":"40207:49305365","properties":{"id":"40207:49305365","meshCode":"49305365","cityCode":"40207","city":"柳川市","lat":33.137646,"lon":130.4435191,"areaKm2":1.0315665,"populated2020":true,"population2020":440.1951,"populationNote":"収録500mメッシュ人口の合算（原典収録外は補完しない）"},"geometry":{"type":"Polygon","coordinates":[[[130.45,33.135818532],[130.448746939,33.135134441],[130.448137497,33.134693892],[130.447553606,33.134101946],[130.44709511015427,33.13333333333333],[130.4375,33.13333333333333],[130.4375,33.141666666666666],[130.45,33.14166666666666],[130.45,33.135818532]]]}},{"type":"Feature","id":"40207:49305366","properties":{"id":"40207:49305366","meshCode":"49305366","cityCode":"40207","city":"柳川市","lat":33.1392611,"lon":130.4518416,"areaKm2":0.1942067,"populated2020":true,"population2020":null,"populationNote":"境界またぎ・収録外等のため人口未集計"},"geometry":{"type":"Polygon","coordinates":[[[130.452306394,33.137122225000006],[130.45,33.135818532],[130.45,33.14166666666666],[130.4532739952788,33.14166666666666],[130.454065837,33.14072],[130.454254721,33.140364162],[130.454400558,33.139644441],[130.454320558,33.139254441],[130.453762503,33.138376108],[130.453373333,33.137938054],[130.452306394,33.137122225000006]]]}},{"type":"Feature","id":"40207:49305268","properties":{"id":"40207:49305268","meshCode":"49305268","cityCode":"40207","city":"柳川市","lat":33.1407871,"lon":130.3594295,"areaKm2":0.1189739,"populated2020":false,"population2020":null,"populationNote":"境界またぎ・収録外等のため人口未集計"},"geometry":{"type":"Polygon","coordinates":[[[130.3625,33.1395333915],[130.355784099,33.14035694599999],[130.3558804149755,33.141666666666666],[130.3625,33.14166666666666],[130.3625,33.1395333915]]]}},{"type":"Feature","id":"40207:49305278","properties":{"id":"40207:49305278","meshCode":"49305278","cityCode":"40207","city":"柳川市","lat":33.1458039,"lon":130.3592504,"areaKm2":0.5602723,"populated2020":false,"population2020":null,"populationNote":"境界またぎ・収録外等のため人口未集計"},"geometry":{"type":"Polygon","coordinates":[[[130.3558804149755,33.141666666666666],[130.355968612,33.14591361299999],[130.356135837,33.148880000000005],[130.356077613,33.15],[130.3625,33.15],[130.3625,33.14166666666666],[130.3558804149755,33.141666666666666]]]}},{"type":"Feature","id":"40207:49305279","properties":{"id":"40207:49305279","meshCode":"49305279","cityCode":"40207","city":"柳川市","lat":33.1458333,"lon":130.36875,"areaKm2":1.0777449,"populated2020":true,"population2020":50.4543,"populationNote":"収録500mメッシュ人口の合算（原典収録外は補完しない）"},"geometry":{"type":"Polygon","coordinates":[[[130.375,33.141666666666666],[130.3625,33.14166666666666],[130.3625,33.15],[130.375,33.15],[130.375,33.141666666666666]]]}},{"type":"Feature","id":"40207:49305370","properties":{"id":"40207:49305370","meshCode":"49305370","cityCode":"40207","city":"柳川市","lat":33.1458333,"lon":130.38125,"areaKm2":1.0777413,"populated2020":true,"population2020":61.496,"populationNote":"収録500mメッシュ人口の合算（原典収録外は補完しない）"},"geometry":{"type":"Polygon","coordinates":[[[130.3875,33.14166666666667],[130.375,33.141666666666666],[130.375,33.15],[130.3875,33.14999999999999],[130.3875,33.14166666666667]]]}},{"type":"Feature","id":"40207:49305371","properties":{"id":"40207:49305371","meshCode":"49305371","cityCode":"40207","city":"柳川市","lat":33.1458333,"lon":130.39375,"areaKm2":1.0777377,"populated2020":true,"population2020":687.2955,"populationNote":"収録500mメッシュ人口の合算（原典収録外は補完しない）"},"geometry":{"type":"Polygon","coordinates":[[[130.4,33.141666666666666],[130.3875,33.14166666666667],[130.3875,33.14999999999999],[130.4,33.15],[130.4,33.141666666666666]]]}},{"type":"Feature","id":"40207:49305372","properties":{"id":"40207:49305372","meshCode":"49305372","cityCode":"40207","city":"柳川市","lat":33.1458333,"lon":130.40625,"areaKm2":1.0777343,"populated2020":true,"population2020":1419.1076,"populationNote":"収録500mメッシュ人口の合算（原典収録外は補完しない）"},"geometry":{"type":"Polygon","coordinates":[[[130.4125,33.141666666666666],[130.4,33.141666666666666],[130.4,33.15],[130.4125,33.15],[130.4125,33.141666666666666]]]}},{"type":"Feature","id":"40207:49305373","properties":{"id":"40207:49305373","meshCode":"49305373","cityCode":"40207","city":"柳川市","lat":33.1458333,"lon":130.41875,"areaKm2":1.0777309,"populated2020":true,"population2020":950.9785,"populationNote":"収録500mメッシュ人口の合算（原典収録外は補完しない）"},"geometry":{"type":"Polygon","coordinates":[[[130.425,33.141666666666666],[130.4125,33.141666666666666],[130.4125,33.15],[130.425,33.15],[130.425,33.141666666666666]]]}},{"type":"Feature","id":"40207:49305374","properties":{"id":"40207:49305374","meshCode":"49305374","cityCode":"40207","city":"柳川市","lat":33.1458333,"lon":130.43125,"areaKm2":1.0777276,"populated2020":true,"population2020":1117.1764,"populationNote":"収録500mメッシュ人口の合算（原典収録外は補完しない）"},"geometry":{"type":"Polygon","coordinates":[[[130.4375,33.141666666666666],[130.425,33.141666666666666],[130.425,33.15],[130.4375,33.14999999999999],[130.4375,33.141666666666666]]]}},{"type":"Feature","id":"40207:49305375","properties":{"id":"40207:49305375","meshCode":"49305375","cityCode":"40207","city":"柳川市","lat":33.1458333,"lon":130.44375,"areaKm2":1.0777244,"populated2020":true,"population2020":440.5231,"populationNote":"収録500mメッシュ人口の合算（原典収録外は補完しない）"},"geometry":{"type":"Polygon","coordinates":[[[130.45,33.14166666666666],[130.4375,33.141666666666666],[130.4375,33.14999999999999],[130.45,33.15],[130.45,33.14166666666666]]]}},{"type":"Feature","id":"40207:49305376","properties":{"id":"40207:49305376","meshCode":"49305376","cityCode":"40207","city":"柳川市","lat":33.1473865,"lon":130.4542291,"areaKm2":0.4469777,"populated2020":true,"population2020":null,"populationNote":"境界またぎ・収録外等のため人口未集計"},"geometry":{"type":"Polygon","coordinates":[[[130.451988327,33.145821946],[130.451773891,33.144895279],[130.451859728,33.143687225],[130.452220272,33.142936387000006],[130.4532739952788,33.14166666666666],[130.45,33.14166666666666],[130.45,33.15],[130.461132529,33.15],[130.460952776,33.148799162],[130.460709728,33.147973613],[130.460566667,33.147752225],[130.460188885,33.14744416199999],[130.459522218,33.147143054],[130.458348885,33.146897775],[130.456786939,33.146998892],[130.455035551,33.14727805399998],[130.453776939,33.14724416199999],[130.453135837,33.147051667],[130.452423333,33.146558332999994],[130.451988327,33.145821946]]]}},{"type":"Feature","id":"40207:49305288","properties":{"id":"40207:49305288","meshCode":"49305288","cityCode":"40207","city":"柳川市","lat":33.1543171,"lon":130.3590257,"areaKm2":0.596403,"populated2020":false,"population2020":null,"populationNote":"境界またぎ・収録外等のため人口未集計"},"geometry":{"type":"Polygon","coordinates":[[[130.355926394,33.15381749499999],[130.3545716599151,33.158333333333324],[130.3625,33.158333333333324],[130.3625,33.15],[130.356077613,33.15],[130.355896667,33.152725],[130.355926394,33.15381749499999]]]}},{"type":"Feature","id":"40207:49305289","properties":{"id":"40207:49305289","meshCode":"49305289","cityCode":"40207","city":"柳川市","lat":33.1541667,"lon":130.36875,"areaKm2":1.0776445,"populated2020":true,"population2020":20.1496,"populationNote":"収録500mメッシュ人口の合算（原典収録外は補完しない）"},"geometry":{"type":"Polygon","coordinates":[[[130.375,33.15],[130.3625,33.15],[130.3625,33.158333333333324],[130.375,33.158333333333324],[130.375,33.15]]]}},{"type":"Feature","id":"40207:49305380","properties":{"id":"40207:49305380","meshCode":"49305380","cityCode":"40207","city":"柳川市","lat":33.1541667,"lon":130.38125,"areaKm2":1.0776409,"populated2020":true,"population2020":1319.172,"populationNote":"収録500mメッシュ人口の合算（原典収録外は補完しない）"},"geometry":{"type":"Polygon","coordinates":[[[130.3875,33.14999999999999],[130.375,33.15],[130.375,33.158333333333324],[130.3875,33.15833333333333],[130.3875,33.14999999999999]]]}},{"type":"Feature","id":"40207:49305381","properties":{"id":"40207:49305381","meshCode":"49305381","cityCode":"40207","city":"柳川市","lat":33.1541667,"lon":130.39375,"areaKm2":1.0776373,"populated2020":true,"population2020":1592.1105,"populationNote":"収録500mメッシュ人口の合算（原典収録外は補完しない）"},"geometry":{"type":"Polygon","coordinates":[[[130.4,33.15],[130.3875,33.14999999999999],[130.3875,33.15833333333333],[130.4,33.15833333333333],[130.4,33.15]]]}},{"type":"Feature","id":"40207:49305382","properties":{"id":"40207:49305382","meshCode":"49305382","cityCode":"40207","city":"柳川市","lat":33.1541667,"lon":130.40625,"areaKm2":1.0776339,"populated2020":true,"population2020":2783.7133,"populationNote":"収録500mメッシュ人口の合算（原典収録外は補完しない）"},"geometry":{"type":"Polygon","coordinates":[[[130.4125,33.15],[130.4,33.15],[130.4,33.15833333333333],[130.4125,33.158333333333324],[130.4125,33.15]]]}},{"type":"Feature","id":"40207:49305383","properties":{"id":"40207:49305383","meshCode":"49305383","cityCode":"40207","city":"柳川市","lat":33.1541667,"lon":130.41875,"areaKm2":1.0776304,"populated2020":true,"population2020":742.8555,"populationNote":"収録500mメッシュ人口の合算（原典収録外は補完しない）"},"geometry":{"type":"Polygon","coordinates":[[[130.425,33.15],[130.4125,33.15],[130.4125,33.158333333333324],[130.425,33.15833333333333],[130.425,33.15]]]}},{"type":"Feature","id":"40207:49305384","properties":{"id":"40207:49305384","meshCode":"49305384","cityCode":"40207","city":"柳川市","lat":33.1541667,"lon":130.43125,"areaKm2":1.0776272,"populated2020":true,"population2020":538.0788,"populationNote":"収録500mメッシュ人口の合算（原典収録外は補完しない）"},"geometry":{"type":"Polygon","coordinates":[[[130.4375,33.14999999999999],[130.425,33.15],[130.425,33.15833333333333],[130.4375,33.158333333333324],[130.4375,33.14999999999999]]]}},{"type":"Feature","id":"40207:49305385","properties":{"id":"40207:49305385","meshCode":"49305385","cityCode":"40207","city":"柳川市","lat":33.1541667,"lon":130.44375,"areaKm2":1.0776238,"populated2020":true,"population2020":588.2518,"populationNote":"収録500mメッシュ人口の合算（原典収録外は補完しない）"},"geometry":{"type":"Polygon","coordinates":[[[130.45,33.15],[130.4375,33.14999999999999],[130.4375,33.158333333333324],[130.45,33.15833333333333],[130.45,33.15]]]}},{"type":"Feature","id":"40207:49305386","properties":{"id":"40207:49305386","meshCode":"49305386","cityCode":"40207","city":"柳川市","lat":33.1541477,"lon":130.4556637,"areaKm2":0.9752654,"populated2020":true,"population2020":null,"populationNote":"境界またぎ・収録外等のため人口未集計"},"geometry":{"type":"Polygon","coordinates":[[[130.461501946,33.15329444100001],[130.461253333,33.15188638699999],[130.461132529,33.15],[130.45,33.15],[130.45,33.15833333333333],[130.4609736956377,33.158333333333324],[130.461132776,33.158143613],[130.461107224,33.157775279],[130.46040917,33.156764441],[130.462137224,33.15495472100001],[130.461501946,33.15329444100001]]]}},{"type":"Feature","id":"40207:49305298","properties":{"id":"40207:49305298","meshCode":"49305298","cityCode":"40207","city":"柳川市","lat":33.1626474,"lon":130.3579795,"areaKm2":0.7763937,"populated2020":true,"population2020":95.8682,"populationNote":"収録500mメッシュ人口の合算（原典収録外は補完しない）"},"geometry":{"type":"Polygon","coordinates":[[[130.3545716599151,33.158333333333324],[130.353174449,33.16350944100001],[130.35269802905466,33.16666666666666],[130.3625,33.16666666666666],[130.3625,33.158333333333324],[130.3545716599151,33.158333333333324]]]}},{"type":"Feature","id":"40207:49305299","properties":{"id":"40207:49305299","meshCode":"49305299","cityCode":"40207","city":"柳川市","lat":33.1625,"lon":130.36875,"areaKm2":1.0775439,"populated2020":true,"population2020":451.3496,"populationNote":"収録500mメッシュ人口の合算（原典収録外は補完しない）"},"geometry":{"type":"Polygon","coordinates":[[[130.375,33.158333333333324],[130.3625,33.158333333333324],[130.3625,33.16666666666666],[130.375,33.166666666666664],[130.375,33.158333333333324]]]}},{"type":"Feature","id":"40207:49305390","properties":{"id":"40207:49305390","meshCode":"49305390","cityCode":"40207","city":"柳川市","lat":33.1625,"lon":130.38125,"areaKm2":1.0775403,"populated2020":true,"population2020":1411.3036,"populationNote":"収録500mメッシュ人口の合算（原典収録外は補完しない）"},"geometry":{"type":"Polygon","coordinates":[[[130.3875,33.15833333333333],[130.375,33.158333333333324],[130.375,33.166666666666664],[130.3875,33.166666666666664],[130.3875,33.15833333333333]]]}},{"type":"Feature","id":"40207:49305391","properties":{"id":"40207:49305391","meshCode":"49305391","cityCode":"40207","city":"柳川市","lat":33.1625,"lon":130.39375,"areaKm2":1.0775368,"populated2020":true,"population2020":2294.5898,"populationNote":"収録500mメッシュ人口の合算（原典収録外は補完しない）"},"geometry":{"type":"Polygon","coordinates":[[[130.4,33.15833333333333],[130.3875,33.15833333333333],[130.3875,33.166666666666664],[130.4,33.16666666666666],[130.4,33.15833333333333]]]}},{"type":"Feature","id":"40207:49305392","properties":{"id":"40207:49305392","meshCode":"49305392","cityCode":"40207","city":"柳川市","lat":33.1625,"lon":130.40625,"areaKm2":1.0775333,"populated2020":true,"population2020":3136.9511,"populationNote":"収録500mメッシュ人口の合算（原典収録外は補完しない）"},"geometry":{"type":"Polygon","coordinates":[[[130.4125,33.158333333333324],[130.4,33.15833333333333],[130.4,33.16666666666666],[130.4125,33.166666666666664],[130.4125,33.158333333333324]]]}},{"type":"Feature","id":"40207:49305393","properties":{"id":"40207:49305393","meshCode":"49305393","cityCode":"40207","city":"柳川市","lat":33.1625,"lon":130.41875,"areaKm2":1.07753,"populated2020":true,"population2020":2582.5085,"populationNote":"収録500mメッシュ人口の合算（原典収録外は補完しない）"},"geometry":{"type":"Polygon","coordinates":[[[130.425,33.15833333333333],[130.4125,33.158333333333324],[130.4125,33.166666666666664],[130.425,33.166666666666664],[130.425,33.15833333333333]]]}},{"type":"Feature","id":"40207:49305394","properties":{"id":"40207:49305394","meshCode":"49305394","cityCode":"40207","city":"柳川市","lat":33.1625,"lon":130.43125,"areaKm2":1.0775266,"populated2020":true,"population2020":1323.7943,"populationNote":"収録500mメッシュ人口の合算（原典収録外は補完しない）"},"geometry":{"type":"Polygon","coordinates":[[[130.4375,33.158333333333324],[130.425,33.15833333333333],[130.425,33.166666666666664],[130.4375,33.166666666666664],[130.4375,33.158333333333324]]]}},{"type":"Feature","id":"40207:49305395","properties":{"id":"40207:49305395","meshCode":"49305395","cityCode":"40207","city":"柳川市","lat":33.1625,"lon":130.44375,"areaKm2":1.0775234,"populated2020":true,"population2020":694.3043,"populationNote":"収録500mメッシュ人口の合算（原典収録外は補完しない）"},"geometry":{"type":"Polygon","coordinates":[[[130.45,33.15833333333333],[130.4375,33.158333333333324],[130.4375,33.166666666666664],[130.45,33.166666666666664],[130.45,33.15833333333333]]]}},{"type":"Feature","id":"40207:49305396","properties":{"id":"40207:49305396","meshCode":"49305396","cityCode":"40207","city":"柳川市","lat":33.1622374,"lon":130.4516268,"areaKm2":0.6045188,"populated2020":true,"population2020":null,"populationNote":"境界またぎ・収録外等のため人口未集計"},"geometry":{"type":"Polygon","coordinates":[[[130.454426109,33.161618613],[130.457138612,33.160559721],[130.457304449,33.160189161999995],[130.45761917,33.159914721],[130.458497782,33.15943082900001],[130.460597782,33.159007775],[130.460583606,33.158692225],[130.4609736956377,33.158333333333324],[130.45,33.15833333333333],[130.45,33.166666666666664],[130.4590837480022,33.16666666666667],[130.459087224,33.16614055899999],[130.458577782,33.16610194599999],[130.458746667,33.165628054],[130.45870083,33.16383277500001],[130.453916939,33.163938333000004],[130.453885279,33.16317555900001],[130.453255837,33.163195],[130.453253061,33.161974721],[130.454426109,33.161618613]]]}},{"type":"Feature","id":"40207:49305397","properties":{"id":"40207:49305397","meshCode":"49305397","cityCode":"40207","city":"柳川市","lat":33.1660219,"lon":130.473981,"areaKm2":0.0327516,"populated2020":true,"population2020":null,"populationNote":"境界またぎ・収録外等のため人口未集計"},"geometry":{"type":"MultiPolygon","coordinates":[[[[130.47032005190724,33.166666666666664],[130.470065837,33.165753333],[130.470406394,33.165389999999995],[130.470234721,33.164850828999995],[130.469175837,33.16467749499999],[130.46941917,33.16614805399999],[130.469298885,33.166494441],[130.4693585208107,33.166666666666664],[130.47032005190724,33.166666666666664]]],[[[130.474658327,33.16581833299999],[130.473444994,33.16554889199999],[130.473267497,33.166371946],[130.472952776,33.166501946000004],[130.47304788580752,33.166666666666664],[130.47471871561137,33.166666666666664],[130.474526667,33.166501946000004],[130.474658327,33.16581833299999]]],[[[130.46752800439492,33.166666666666664],[130.46834019492783,33.166666666666664],[130.468300272,33.166482224999996],[130.46752800439492,33.166666666666664]]]]}},{"type":"Feature","id":"40207:49306208","properties":{"id":"40207:49306208","meshCode":"49306208","cityCode":"40207","city":"柳川市","lat":33.1690307,"lon":130.3576301,"areaKm2":0.4860511,"populated2020":true,"population2020":null,"populationNote":"境界またぎ・収録外等のため人口未集計"},"geometry":{"type":"Polygon","coordinates":[[[130.35269802905466,33.16666666666666],[130.352121115,33.16950555900001],[130.352144994,33.17079638700001],[130.355712218,33.170716108],[130.356234994,33.170760829],[130.357660558,33.171552225],[130.358583606,33.172211667000006],[130.358920558,33.172255279000005],[130.359514994,33.172558892],[130.360819728,33.171123892000004],[130.361791388,33.171580279],[130.3625,33.17080836841755],[130.3625,33.16666666666666],[130.35269802905466,33.16666666666666]]]}},{"type":"Feature","id":"40207:49306209","properties":{"id":"40207:49306209","meshCode":"49306209","cityCode":"40207","city":"柳川市","lat":33.170465,"lon":130.3693528,"areaKm2":0.9463198,"populated2020":true,"population2020":null,"populationNote":"境界またぎ・収録外等のため人口未集計"},"geometry":{"type":"Polygon","coordinates":[[[130.375,33.166666666666664],[130.3625,33.16666666666666],[130.3625,33.17080836841755],[130.367542218,33.17401444099999],[130.367045551,33.174485279],[130.366852088,33.175],[130.375,33.175],[130.375,33.166666666666664]]]}},{"type":"Feature","id":"40207:49306300","properties":{"id":"40207:49306300","meshCode":"49306300","cityCode":"40207","city":"柳川市","lat":33.1708333,"lon":130.38125,"areaKm2":1.0774399,"populated2020":true,"population2020":1822.5163,"populationNote":"収録500mメッシュ人口の合算（原典収録外は補完しない）"},"geometry":{"type":"Polygon","coordinates":[[[130.3875,33.166666666666664],[130.375,33.166666666666664],[130.375,33.175],[130.3875,33.175000000000004],[130.3875,33.166666666666664]]]}},{"type":"Feature","id":"40207:49306301","properties":{"id":"40207:49306301","meshCode":"49306301","cityCode":"40207","city":"柳川市","lat":33.1708333,"lon":130.39375,"areaKm2":1.0774363,"populated2020":true,"population2020":849.4646,"populationNote":"収録500mメッシュ人口の合算（原典収録外は補完しない）"},"geometry":{"type":"Polygon","coordinates":[[[130.4,33.16666666666666],[130.3875,33.166666666666664],[130.3875,33.175000000000004],[130.4,33.175000000000004],[130.4,33.16666666666666]]]}},{"type":"Feature","id":"40207:49306302","properties":{"id":"40207:49306302","meshCode":"49306302","cityCode":"40207","city":"柳川市","lat":33.1708333,"lon":130.40625,"areaKm2":1.0774328,"populated2020":true,"population2020":3410.0335,"populationNote":"収録500mメッシュ人口の合算（原典収録外は補完しない）"},"geometry":{"type":"Polygon","coordinates":[[[130.4125,33.166666666666664],[130.4,33.16666666666666],[130.4,33.175000000000004],[130.4125,33.17499999999999],[130.4125,33.166666666666664]]]}},{"type":"Feature","id":"40207:49306303","properties":{"id":"40207:49306303","meshCode":"49306303","cityCode":"40207","city":"柳川市","lat":33.1708333,"lon":130.41875,"areaKm2":1.0774295,"populated2020":true,"population2020":3253.7878,"populationNote":"収録500mメッシュ人口の合算（原典収録外は補完しない）"},"geometry":{"type":"Polygon","coordinates":[[[130.425,33.166666666666664],[130.4125,33.166666666666664],[130.4125,33.17499999999999],[130.425,33.175],[130.425,33.166666666666664]]]}},{"type":"Feature","id":"40207:49306304","properties":{"id":"40207:49306304","meshCode":"49306304","cityCode":"40207","city":"柳川市","lat":33.1708333,"lon":130.43125,"areaKm2":1.0774261,"populated2020":true,"population2020":903.3448,"populationNote":"収録500mメッシュ人口の合算（原典収録外は補完しない）"},"geometry":{"type":"Polygon","coordinates":[[[130.4375,33.166666666666664],[130.425,33.166666666666664],[130.425,33.175],[130.4375,33.175],[130.4375,33.166666666666664]]]}},{"type":"Feature","id":"40207:49306305","properties":{"id":"40207:49306305","meshCode":"49306305","cityCode":"40207","city":"柳川市","lat":33.1708333,"lon":130.44375,"areaKm2":1.0774228,"populated2020":true,"population2020":722.7462,"populationNote":"収録500mメッシュ人口の合算（原典収録外は補完しない）"},"geometry":{"type":"Polygon","coordinates":[[[130.45,33.166666666666664],[130.4375,33.166666666666664],[130.4375,33.175],[130.45,33.175],[130.45,33.166666666666664]]]}},{"type":"Feature","id":"40207:49306306","properties":{"id":"40207:49306306","meshCode":"49306306","cityCode":"40207","city":"柳川市","lat":33.1704873,"lon":130.4559218,"areaKm2":0.914368,"populated2020":true,"population2020":null,"populationNote":"境界またぎ・収録外等のため人口未集計"},"geometry":{"type":"Polygon","coordinates":[[[130.4625,33.167272981112625],[130.461516394,33.167784162],[130.459075837,33.16783],[130.4590837480022,33.16666666666667],[130.45,33.166666666666664],[130.45,33.175],[130.452462335,33.175],[130.452412503,33.174802775],[130.451964994,33.174992225],[130.45146,33.17479305399999],[130.45143083,33.174035559],[130.457122503,33.173920829],[130.4625,33.17368281686731],[130.4625,33.167272981112625]]]}},{"type":"Feature","id":"40207:49306307","properties":{"id":"40207:49306307","meshCode":"49306307","cityCode":"40207","city":"柳川市","lat":33.1695568,"lon":130.4683676,"areaKm2":0.5931371,"populated2020":true,"population2020":null,"populationNote":"境界またぎ・収録外等のため人口未集計"},"geometry":{"type":"Polygon","coordinates":[[[130.46834019492783,33.166666666666664],[130.467453606,33.166684441],[130.467573891,33.167093613000006],[130.464995551,33.167149161999994],[130.464924163,33.16772916200001],[130.462769728,33.167760279],[130.462775279,33.16712972100001],[130.4625,33.167272981112625],[130.4625,33.17368281686731],[130.464711946,33.17359972100001],[130.464668327,33.17278833300001],[130.46448639400003,33.17262082900001],[130.464453606,33.172123892],[130.465198054,33.172073333],[130.465144449,33.171640829],[130.467391388,33.171330278999996],[130.467887497,33.171321667],[130.469268054,33.171503333],[130.47308,33.171316667000006],[130.475,33.170967919],[130.475,33.168312586000006],[130.474432218,33.16797694600001],[130.475,33.167525441],[130.475,33.166907918999996],[130.47471871561137,33.166666666666664],[130.47304788580752,33.166666666666664],[130.473184721,33.166903613],[130.472875551,33.167038333],[130.473144449,33.16758222499999],[130.472978612,33.16773138700001],[130.472068885,33.167582225],[130.47125917,33.16732472099999],[130.470801388,33.167079162],[130.47032005190724,33.166666666666664],[130.4693585208107,33.166666666666664],[130.469639442,33.167161108],[130.469021388,33.167353612999996],[130.469204449,33.16768582900001],[130.468815279,33.167781946000005],[130.468718054,33.167266946],[130.468471946,33.167276667],[130.46834019492783,33.166666666666664]]]}},{"type":"Feature","id":"40207:49306308","properties":{"id":"40207:49306308","meshCode":"49306308","cityCode":"40207","city":"柳川市","lat":33.1697677,"lon":130.4754537,"areaKm2":0.0236213,"populated2020":true,"population2020":null,"populationNote":"境界またぎ・収録外等のため人口未集計"},"geometry":{"type":"MultiPolygon","coordinates":[[[[130.475,33.166907918999996],[130.475,33.167525441],[130.475373606,33.167228333],[130.475,33.166907918999996]]],[[[130.476234163,33.170583891999996],[130.476278054,33.170256387],[130.47586917,33.17012972100001],[130.475745551,33.169014441],[130.475,33.168312586000006],[130.475,33.170967919],[130.476034721,33.170977224999994],[130.476234163,33.170583891999996]]]]}},{"type":"Feature","id":"40207:49306219","properties":{"id":"40207:49306219","meshCode":"49306219","cityCode":"40207","city":"柳川市","lat":33.1788996,"lon":130.371278,"areaKm2":0.6314699,"populated2020":true,"population2020":null,"populationNote":"境界またぎ・収録外等のため人口未集計"},"geometry":{"type":"Polygon","coordinates":[[[130.366774994,33.17553082900001],[130.366854163,33.17586582900001],[130.366751946,33.17655166699999],[130.36619444900003,33.177351667],[130.365893606,33.177606946],[130.367815837,33.17873833299999],[130.368401946,33.179622775],[130.368423333,33.180323333],[130.368661115,33.181895000000004],[130.368491115,33.182134441],[130.368658054,33.183025279],[130.36889455326389,33.18333333333333],[130.375,33.18333333333333],[130.375,33.175],[130.366852088,33.175],[130.366774994,33.17553082900001]]]}},{"type":"Feature","id":"40207:49306310","properties":{"id":"40207:49306310","meshCode":"49306310","cityCode":"40207","city":"柳川市","lat":33.1791489,"lon":130.3812327,"areaKm2":1.0726006,"populated2020":true,"population2020":1066.6192,"populationNote":"収録500mメッシュ人口の合算（原典収録外は補完しない）"},"geometry":{"type":"Polygon","coordinates":[[[130.3875,33.175000000000004],[130.375,33.175],[130.375,33.18333333333333],[130.37711119308798,33.18333333333333],[130.37709917,33.183241946],[130.377374721,33.18309582900001],[130.3776282753558,33.18333333333332],[130.377917497,33.183258054],[130.37795224406904,33.18333333333332],[130.38605910418195,33.18333333333332],[130.386693061,33.183056945999994],[130.3875,33.18295752152112],[130.3875,33.175000000000004]]]}},{"type":"Feature","id":"40207:49306311","properties":{"id":"40207:49306311","meshCode":"49306311","cityCode":"40207","city":"柳川市","lat":33.1785519,"lon":130.3943938,"areaKm2":0.8691122,"populated2020":true,"population2020":null,"populationNote":"境界またぎ・収録外等のため人口未集計"},"geometry":{"type":"Polygon","coordinates":[[[130.4,33.175000000000004],[130.3875,33.175000000000004],[130.3875,33.18295752152112],[130.387971946,33.182913613],[130.388248612,33.182786667],[130.388296109,33.182683333],[130.387715551,33.180991946000006],[130.38770055800003,33.180747225000005],[130.390502776,33.179843612999996],[130.392157497,33.17914638700001],[130.393233606,33.180895279000005],[130.393695279,33.181275],[130.393179857,33.182072135],[130.394227224,33.182048054],[130.39544111531913,33.18333333333332],[130.4,33.18333333333332],[130.4,33.175000000000004]]]}},{"type":"Feature","id":"40207:49306312","properties":{"id":"40207:49306312","meshCode":"49306312","cityCode":"40207","city":"柳川市","lat":33.1791667,"lon":130.40625,"areaKm2":1.0773323,"populated2020":true,"population2020":1333.4915,"populationNote":"収録500mメッシュ人口の合算（原典収録外は補完しない）"},"geometry":{"type":"Polygon","coordinates":[[[130.4125,33.17499999999999],[130.4,33.175000000000004],[130.4,33.18333333333332],[130.4125,33.18333333333333],[130.4125,33.17499999999999]]]}},{"type":"Feature","id":"40207:49306313","properties":{"id":"40207:49306313","meshCode":"49306313","cityCode":"40207","city":"柳川市","lat":33.1791667,"lon":130.41875,"areaKm2":1.0773289,"populated2020":true,"population2020":498.6674,"populationNote":"収録500mメッシュ人口の合算（原典収録外は補完しない）"},"geometry":{"type":"Polygon","coordinates":[[[130.425,33.175],[130.4125,33.17499999999999],[130.4125,33.18333333333333],[130.425,33.18333333333333],[130.425,33.175]]]}},{"type":"Feature","id":"40207:49306314","properties":{"id":"40207:49306314","meshCode":"49306314","cityCode":"40207","city":"柳川市","lat":33.1790326,"lon":130.4310486,"areaKm2":1.0353349,"populated2020":true,"population2020":566.4982,"populationNote":"収録500mメッシュ人口の合算（原典収録外は補完しない）"},"geometry":{"type":"Polygon","coordinates":[[[130.4375,33.175],[130.425,33.175],[130.425,33.18333333333333],[130.4347205580088,33.18333333333333],[130.43471166,33.182965],[130.435328885,33.182985559],[130.435168612,33.181221108],[130.435743606,33.181312225],[130.4375,33.182060591723335],[130.4375,33.175]]]}},{"type":"Feature","id":"40207:49306315","properties":{"id":"40207:49306315","meshCode":"49306315","cityCode":"40207","city":"柳川市","lat":33.1790783,"lon":130.4438684,"areaKm2":1.0524258,"populated2020":true,"population2020":1168.7757,"populationNote":"収録500mメッシュ人口の合算（原典収録外は補完しない）"},"geometry":{"type":"Polygon","coordinates":[[[130.45,33.175],[130.4375,33.175],[130.4375,33.182060591723335],[130.44123966391,33.18333333333332],[130.45,33.18333333333332],[130.45,33.175]]]}},{"type":"Feature","id":"40207:49306316","properties":{"id":"40207:49306316","meshCode":"49306316","cityCode":"40207","city":"柳川市","lat":33.1794216,"lon":130.4544617,"areaKm2":0.7219741,"populated2020":true,"population2020":null,"populationNote":"境界またぎ・収録外等のため人口未集計"},"geometry":{"type":"Polygon","coordinates":[[[130.456096394,33.17542916199999],[130.455714721,33.175593333],[130.455585837,33.175973613],[130.455358054,33.176051946],[130.455196939,33.175756387],[130.455044994,33.17571444099999],[130.454754994,33.17574749500001],[130.454503891,33.175983892],[130.454375551,33.175829162],[130.454064163,33.175979162000004],[130.45367805400002,33.175771387000005],[130.453339442,33.175792495],[130.453023606,33.175955559],[130.452884449,33.175651667],[130.452757497,33.175569441],[130.452544163,33.17552249500001],[130.452326394,33.175577775],[130.452462335,33.175],[130.45,33.175],[130.45,33.18333333333332],[130.4580521658262,33.18333333333332],[130.458453891,33.182372775000005],[130.458343606,33.181187495],[130.458435279,33.180616946],[130.45854,33.180464162],[130.458771946,33.180243054],[130.459284449,33.180214162],[130.459606109,33.180016387],[130.459723606,33.180070279],[130.459762218,33.18020889200001],[130.460256939,33.180181666999985],[130.46087,33.17961],[130.460852776,33.179456108],[130.460708054,33.179336946],[130.459996394,33.179131108],[130.460152503,33.178711108],[130.459898885,33.178308054000006],[130.460063606,33.177931667],[130.45986166,33.17756694600001],[130.459350558,33.177416667],[130.458365279,33.177353892],[130.458352218,33.177090559],[130.458608612,33.17662000000001],[130.458567224,33.176327495],[130.45778083,33.176352775],[130.457604994,33.176091667],[130.457410272,33.175961667],[130.457099442,33.175977225],[130.456576667,33.17614444099999],[130.456442218,33.176007495],[130.456317497,33.175529721],[130.456096394,33.17542916199999]]]}},{"type":"Feature","id":"40207:49306229","properties":{"id":"40207:49306229","meshCode":"49306229","cityCode":"40207","city":"柳川市","lat":33.1844684,"lon":130.3724455,"areaKm2":0.1258913,"populated2020":true,"population2020":null,"populationNote":"境界またぎ・収録外等のため人口未集計"},"geometry":{"type":"Polygon","coordinates":[[[130.36889455326389,33.18333333333333],[130.370564449,33.18528527899999],[130.370818054,33.18537722500001],[130.371399728,33.185382225],[130.371402776,33.185549162],[130.372145551,33.186275279],[130.373786394,33.185186667],[130.375,33.186373251999996],[130.375,33.18333333333333],[130.36889455326389,33.18333333333333]]]}},{"type":"Feature","id":"40207:49306320","properties":{"id":"40207:49306320","meshCode":"49306320","cityCode":"40207","city":"柳川市","lat":33.1844719,"lon":130.3814253,"areaKm2":0.1803161,"populated2020":true,"population2020":null,"populationNote":"境界またぎ・収録外等のため人口未集計"},"geometry":{"type":"MultiPolygon","coordinates":[[[[130.37772286513086,33.18333333333333],[130.3776282753558,33.18333333333332],[130.377653333,33.18336],[130.37772286513086,33.18333333333333]]],[[[130.378034163,33.183647225],[130.378342776,33.18356833300001],[130.37888846922596,33.18333333333332],[130.37795224406904,33.18333333333332],[130.378034163,33.183647225]]],[[[130.381705551,33.18500333299999],[130.38418917,33.184046387],[130.385088612,33.183579441000006],[130.38605910418195,33.18333333333332],[130.37889642009463,33.18333333333333],[130.379133333,33.18428194599999],[130.379732503,33.184129721],[130.38001221800002,33.18493416199999],[130.380402503,33.18569666700001],[130.381705551,33.18500333299999]]],[[[130.375,33.186373251999996],[130.376750558,33.188131387],[130.376949728,33.188069999999996],[130.37789083000004,33.187463],[130.377274721,33.18676305399999],[130.378004163,33.186218613],[130.377930272,33.18603889199999],[130.378082776,33.18585777500001],[130.378014721,33.185476945999994],[130.37793166,33.185419162],[130.377226667,33.185929721],[130.376879442,33.185638333],[130.376461388,33.185056946],[130.376454721,33.184821667],[130.377426109,33.184289162],[130.37711119308798,33.18333333333333],[130.375,33.18333333333333],[130.375,33.186373251999996]]]]}},{"type":"Feature","id":"40207:49306321","properties":{"id":"40207:49306321","meshCode":"49306321","cityCode":"40207","city":"柳川市","lat":33.1862771,"lon":130.3985838,"areaKm2":0.1898529,"populated2020":true,"population2020":null,"populationNote":"境界またぎ・収録外等のため人口未集計"},"geometry":{"type":"Polygon","coordinates":[[[130.39544111531913,33.18333333333332],[130.396878003,33.184787495],[130.396567302,33.185020802],[130.396817471,33.185366865000006],[130.396554501,33.185538865000005],[130.39657406,33.18566266700001],[130.398612503,33.187817225],[130.39880275,33.188149946],[130.397679248,33.189006802],[130.4,33.19138397300001],[130.4,33.18333333333332],[130.39544111531913,33.18333333333332]]]}},{"type":"Feature","id":"40207:49306322","properties":{"id":"40207:49306322","meshCode":"49306322","cityCode":"40207","city":"柳川市","lat":33.1874983,"lon":130.4062526,"areaKm2":1.0767766,"populated2020":true,"population2020":1484.9079,"populationNote":"収録500mメッシュ人口の合算（原典収録外は補完しない）"},"geometry":{"type":"Polygon","coordinates":[[[130.4125,33.18333333333333],[130.4,33.18333333333332],[130.4,33.19138397300001],[130.40031180263148,33.19166666666667],[130.4125,33.19166666666667],[130.4125,33.18333333333333]]]}},{"type":"Feature","id":"40207:49306323","properties":{"id":"40207:49306323","meshCode":"49306323","cityCode":"40207","city":"柳川市","lat":33.1875,"lon":130.41875,"areaKm2":1.0772284,"populated2020":true,"population2020":1976.4528,"populationNote":"収録500mメッシュ人口の合算（原典収録外は補完しない）"},"geometry":{"type":"Polygon","coordinates":[[[130.425,33.18333333333333],[130.4125,33.18333333333333],[130.4125,33.19166666666667],[130.425,33.19166666666667],[130.425,33.18333333333333]]]}},{"type":"Feature","id":"40207:49306324","properties":{"id":"40207:49306324","meshCode":"49306324","cityCode":"40207","city":"柳川市","lat":33.1872112,"lon":130.4292096,"areaKm2":0.7136619,"populated2020":true,"population2020":null,"populationNote":"境界またぎ・収録外等のため人口未集計"},"geometry":{"type":"Polygon","coordinates":[[[130.433132503,33.18755027900001],[130.433186667,33.186665],[130.434554163,33.18661555900001],[130.434363606,33.185377225],[130.434617224,33.185099441],[130.434431115,33.184095829],[130.434734721,33.184083892],[130.4347205580088,33.18333333333333],[130.425,33.18333333333333],[130.425,33.19166666666667],[130.43181452716726,33.19166666666668],[130.432464994,33.189704162],[130.432316109,33.187588892],[130.433132503,33.18755027900001]]]}},{"type":"Feature","id":"40207:49306325","properties":{"id":"40207:49306325","meshCode":"49306325","cityCode":"40207","city":"柳川市","lat":33.1841561,"lon":130.4470227,"areaKm2":0.1136168,"populated2020":true,"population2020":null,"populationNote":"境界またぎ・収録外等のため人口未集計"},"geometry":{"type":"Polygon","coordinates":[[[130.44123966391,33.18333333333332],[130.443316109,33.183987225],[130.444478885,33.184072775],[130.444610558,33.18454444100001],[130.445923891,33.184456667],[130.446091388,33.184907775],[130.44683888500003,33.184996946],[130.44866166,33.185448054],[130.45,33.185685198],[130.45,33.18333333333332],[130.44123966391,33.18333333333332]]]}},{"type":"Feature","id":"40207:49306326","properties":{"id":"40207:49306326","meshCode":"49306326","cityCode":"40207","city":"柳川市","lat":33.1846084,"lon":130.4537886,"areaKm2":0.2038582,"populated2020":true,"population2020":null,"populationNote":"境界またぎ・収録外等のため人口未集計"},"geometry":{"type":"Polygon","coordinates":[[[130.456384449,33.185792495],[130.457123606,33.185776667],[130.457524449,33.185069441],[130.457841115,33.18375416200001],[130.4580521658262,33.18333333333332],[130.45,33.18333333333332],[130.45,33.185685198],[130.452723061,33.186199162],[130.452886109,33.186172775],[130.453252776,33.185898333000004],[130.45393888500004,33.186053613],[130.456384449,33.185792495]]]}},{"type":"Feature","id":"40207:49306331","properties":{"id":"40207:49306331","meshCode":"49306331","cityCode":"40207","city":"柳川市","lat":33.1935869,"lon":130.3995999,"areaKm2":0.0064448,"populated2020":true,"population2020":null,"populationNote":"境界またぎ・収録外等のため人口未集計"},"geometry":{"type":"Polygon","coordinates":[[[130.398955668,33.193390946],[130.399178249,33.193723495],[130.399571115,33.19401353200001],[130.4,33.194044440999996],[130.4,33.193138279],[130.398955668,33.193390946]]]}},{"type":"Feature","id":"40207:49306332","properties":{"id":"40207:49306332","meshCode":"49306332","cityCode":"40207","city":"柳川市","lat":33.1928388,"lon":130.4064555,"areaKm2":0.2839317,"populated2020":true,"population2020":null,"populationNote":"境界またぎ・収録外等のため人口未集計"},"geometry":{"type":"Polygon","coordinates":[[[130.406538054,33.194009162],[130.406966939,33.19406500000001],[130.409383891,33.194048613],[130.410597497,33.193673613],[130.41077,33.193687495],[130.410911115,33.193913054],[130.411534721,33.19388472100001],[130.4125,33.193960695537776],[130.4125,33.19166666666667],[130.40031180263148,33.19166666666667],[130.401592866,33.19285366700001],[130.400819248,33.19295127899999],[130.400570078,33.193088135],[130.4,33.193138279],[130.4,33.194044440999996],[130.40082847,33.194098468],[130.401874643,33.19400925200001],[130.402294617,33.194068586],[130.403355279,33.193956667],[130.405747497,33.19385749500001],[130.406207782,33.193880829],[130.406538054,33.194009162]]]}},{"type":"Feature","id":"40207:49306333","properties":{"id":"40207:49306333","meshCode":"49306333","cityCode":"40207","city":"柳川市","lat":33.1930981,"lon":130.4195464,"areaKm2":0.3488753,"populated2020":true,"population2020":null,"populationNote":"境界またぎ・収録外等のため人口未集計"},"geometry":{"type":"Polygon","coordinates":[[[130.4125,33.193960695537776],[130.414342218,33.193889162000005],[130.415373333,33.193721667],[130.415730558,33.193591387],[130.417917224,33.193814162],[130.42239917,33.195047495000004],[130.423990272,33.19555666699999],[130.425,33.195786414],[130.425,33.19166666666667],[130.4125,33.19166666666667],[130.4125,33.193960695537776]]]}},{"type":"Feature","id":"40207:49306334","properties":{"id":"40207:49306334","meshCode":"49306334","cityCode":"40207","city":"柳川市","lat":33.1936015,"lon":130.4277436,"areaKm2":0.2363564,"populated2020":true,"population2020":null,"populationNote":"境界またぎ・収録外等のため人口未集計"},"geometry":{"type":"Polygon","coordinates":[[[130.430341115,33.19453777499999],[130.43181452716726,33.19166666666668],[130.425,33.19166666666667],[130.425,33.195786414],[130.426847224,33.196318333],[130.428105837,33.19657222499999],[130.42824917,33.195987495],[130.428405279,33.19429222499999],[130.430341115,33.19453777499999]]]}}]}