{"type":"FeatureCollection","metadata":{"cityCode":"40202","city":"大牟田市","resolution":1000,"boundaryDate":"2026-01-01","populationLabel":"2020年基準人口（国交省調整値）","method":"標準地域メッシュを行政界で切抜き。中心が区域外のとき区域内代表点を判定点にする。人口不明をゼロにしない。"},"features":[{"type":"Feature","id":"40202:49304301","properties":{"id":"40202:49304301","meshCode":"49304301","cityCode":"40202","city":"大牟田市","lat":33.0029054,"lon":130.3979148,"areaKm2":0.2148278,"populated2020":false,"population2020":null,"populationNote":"境界またぎ・収録外等のため人口未集計"},"geometry":{"type":"MultiPolygon","coordinates":[[[[130.4,33.00081336],[130.396629079,33.000038919],[130.395560752,33.00214936],[130.395380195,33.002178414],[130.395464384,33.003630027],[130.395933307,33.004294775000005],[130.396447834,33.00467125200001],[130.4,33.00599055899999],[130.4,33.00081336]]],[[[130.4,33.007358613],[130.39209330700004,33.004438225],[130.392042387,33.004482387],[130.4,33.007358613]]]]}},{"type":"Feature","id":"40202:49304302","properties":{"id":"40202:49304302","meshCode":"49304302","cityCode":"40202","city":"大牟田市","lat":33.0050165,"lon":130.4061164,"areaKm2":0.701651,"populated2020":false,"population2020":null,"populationNote":"境界またぎ・収録外等のため人口未集計"},"geometry":{"type":"MultiPolygon","coordinates":[[[[130.4125,33.00382359072151],[130.4,33.00081336],[130.4,33.00599055899999],[130.40630282784258,33.00833333333333],[130.41208364438094,33.00833333333333],[130.4125,33.00813636151744],[130.4125,33.00382359072151]]],[[[130.40277543594442,33.00833333333333],[130.4,33.007326559],[130.400192361,33.007428721000004],[130.40277543594442,33.00833333333333]]]]}},{"type":"Feature","id":"40202:49304303","properties":{"id":"40202:49304303","meshCode":"49304303","cityCode":"40202","city":"大牟田市","lat":33.005839,"lon":130.4183413,"areaKm2":0.5557241,"populated2020":true,"population2020":86.1079,"populationNote":"収録500mメッシュ人口の合算（原典収録外は補完しない）"},"geometry":{"type":"Polygon","coordinates":[[[130.417624981,33.00334979300001],[130.414136693,33.00231376599999],[130.414061245,33.002474252],[130.413941414,33.00244772100001],[130.413362399,33.004021144],[130.4125,33.00382359072151],[130.4125,33.00813636151744],[130.413237588,33.007970514000014],[130.414450843,33.007894261],[130.414430233,33.00802045900001],[130.414545811,33.00801309900001],[130.414519844,33.007885431999995],[130.415832036,33.007797604],[130.415865785,33.007851405000004],[130.415863035,33.00779527],[130.417167004,33.007720243],[130.417191725,33.00766737800001],[130.41721882,33.007894577],[130.417280791,33.007889189],[130.417262477,33.007664739],[130.417800259,33.007669243],[130.417847237,33.00785285600001],[130.417911933,33.007848243000005],[130.417928586,33.007655964],[130.418163645,33.007642216],[130.418253152,33.007802378],[130.418256316,33.007635297],[130.418489092,33.007683937],[130.418652425,33.00764435100001],[130.418679896,33.007563991],[130.41896858600003,33.007548991],[130.419239624,33.007630694],[130.419316005,33.007904577],[130.41910674384363,33.008333333333326],[130.425,33.008333333333326],[130.425,33.005184505],[130.424106109,33.005013414],[130.418879702,33.003616739],[130.417624981,33.00334979300001]]]}},{"type":"Feature","id":"40202:49304305","properties":{"id":"40202:49304305","meshCode":"49304305","cityCode":"40202","city":"大牟田市","lat":33.0057825,"lon":130.4441526,"areaKm2":0.6486316,"populated2020":true,"population2020":1150.2035,"populationNote":"収録500mメッシュ人口の合算（原典収録外は補完しない）"},"geometry":{"type":"Polygon","coordinates":[[[130.448888093,33.002645712],[130.448531971,33.00253793700001],[130.447813087,33.003009324],[130.447524202,33.003070153],[130.446368638,33.003016261],[130.445623359,33.002739865],[130.445173359,33.002490423000005],[130.444870856,33.002470423],[130.442298353,33.003077081],[130.44197585,33.00321874800001],[130.441643359,33.003732081],[130.4375,33.00468329758089],[130.4375,33.008333333333326],[130.45,33.00833333333333],[130.45,33.003382333],[130.448888093,33.002645712]]]}},{"type":"Feature","id":"40202:49304306","properties":{"id":"40202:49304306","meshCode":"49304306","cityCode":"40202","city":"大牟田市","lat":33.0059452,"lon":130.4564103,"areaKm2":0.6161819,"populated2020":true,"population2020":1176.1874,"populationNote":"収録500mメッシュ人口の合算（原典収録外は補完しない）"},"geometry":{"type":"Polygon","coordinates":[[[130.462041427,33.00271936899999],[130.461692257,33.003177703],[130.461215318,33.003056586],[130.460637536,33.003076586],[130.459635979,33.003486027],[130.458598599,33.003548306000006],[130.457892348,33.00376036],[130.455972568,33.003911577],[130.454562101,33.003683595],[130.453541154,33.00372854100001],[130.452312905,33.003637559],[130.451612815,33.00369545],[130.450656991,33.003896279],[130.45,33.003382333],[130.45,33.00833333333333],[130.4625,33.00833333333333],[130.4625,33.00271238416097],[130.462041427,33.00271936899999]]]}},{"type":"Feature","id":"40202:49304307","properties":{"id":"40202:49304307","meshCode":"49304307","cityCode":"40202","city":"大牟田市","lat":33.0053723,"lon":130.4689906,"areaKm2":0.7622625,"populated2020":true,"population2020":1693.756,"populationNote":"収録500mメッシュ人口の合算（原典収録外は補完しない）"},"geometry":{"type":"Polygon","coordinates":[[[130.473978962,33.002025252],[130.473387847,33.001654694],[130.473152568,33.00160080199999],[130.472474228,33.001694964],[130.471493398,33.002220793000006],[130.469834228,33.00255773],[130.469296719,33.00259134200001],[130.469141997,33.002779955],[130.46883978,33.002874117],[130.468416446,33.002874117],[130.468161167,33.002746063000004],[130.467025888,33.002894387],[130.465615331,33.002975216],[130.464929209,33.002725216],[130.4625,33.00271238416097],[130.4625,33.00833333333333],[130.475,33.00833333333333],[130.475,33.001515324],[130.47459035,33.001438865],[130.473978962,33.002025252]]]}},{"type":"Feature","id":"40202:49304308","properties":{"id":"40202:49304308","meshCode":"49304308","cityCode":"40202","city":"大牟田市","lat":33.0053697,"lon":130.4812439,"areaKm2":0.7598143,"populated2020":true,"population2020":55.6918,"populationNote":"収録500mメッシュ人口の合算（原典収録外は補完しない）"},"geometry":{"type":"Polygon","coordinates":[[[130.480402023,33.00335138700001],[130.479946459,33.003456107999995],[130.479228405,33.003479991000006],[130.478674799,33.003069712],[130.477613411,33.002584432000006],[130.477371466,33.002126099],[130.47726396900003,33.00170859499999],[130.476296744,33.001937477],[130.475611466,33.00161386500001],[130.475,33.001515324],[130.475,33.00833333333333],[130.4875,33.00833333333333],[130.4875,33.0025074218733],[130.48712537,33.002435864999995],[130.486023982,33.002435856],[130.485164254,33.001937523],[130.484411764,33.001856685],[130.484183152,33.00153334200001],[130.483968431,33.00161418],[130.483524812,33.00208584699999],[130.483041193,33.00243639599999],[130.48203369600003,33.002935009],[130.481778418,33.003015838],[130.48150952000003,33.002961946],[130.481066187,33.003056117],[130.480402023,33.00335138700001]]]}},{"type":"Feature","id":"40202:49304309","properties":{"id":"40202:49304309","meshCode":"49304309","cityCode":"40202","city":"大牟田市","lat":33.0060977,"lon":130.4926157,"areaKm2":0.5230825,"populated2020":true,"population2020":211.6306,"populationNote":"収録500mメッシュ人口の合算（原典収録外は補完しない）"},"geometry":{"type":"Polygon","coordinates":[[[130.491812296,33.003508667000006],[130.490927575,33.00302893700001],[130.490188418,33.002921153],[130.489181193,33.002961703],[130.4875,33.0025074218733],[130.4875,33.00833333333333],[130.5,33.00833333333334],[130.5,33.006434080999995],[130.499554475,33.00656009899999],[130.499103645,33.006560099000005],[130.4983031,33.00608926100001],[130.497676433,33.005979811],[130.496961154,33.00571314399999],[130.495550337,33.00499396400001],[130.496217834,33.004026189],[130.495798106,33.00388091000001],[130.49551284,33.004000072],[130.495251167,33.003990631],[130.494851725,33.004353125999984],[130.494618677,33.004343405],[130.494452283,33.004233684999996],[130.494566446,33.003895351],[130.494542568,33.00369479300001],[130.49434284,33.00370895499999],[130.494214228,33.004076459000004],[130.493862283,33.004310063],[130.491812296,33.003508667000006]]]}},{"type":"Feature","id":"40202:49304400","properties":{"id":"40202:49304400","meshCode":"49304400","cityCode":"40202","city":"大牟田市","lat":33.0066031,"lon":130.5052464,"areaKm2":0.3328085,"populated2020":true,"population2020":41.4514,"populationNote":"収録500mメッシュ人口の合算（原典収録外は補完しない）"},"geometry":{"type":"Polygon","coordinates":[[[130.50597585,33.002685414],[130.50562390400003,33.002789018],[130.504988353,33.003351793],[130.50469808,33.003809568],[130.504743904,33.004058739],[130.504587523,33.004381793],[130.50420085600004,33.004750955],[130.503391128,33.005083171],[130.503096693,33.00509234199999],[130.50274725,33.005212342],[130.501808638,33.005701775],[130.5,33.006434080999995],[130.5,33.00833333333334],[130.51237208787583,33.00833333333333],[130.5125,33.00800306791036],[130.5125,33.00751172774403],[130.512209416,33.00728600899999],[130.511496926,33.007141837999995],[130.510936096,33.007147387],[130.510337484,33.007344883],[130.509785538,33.00732655000001],[130.509049429,33.007510991],[130.508727211,33.00743709900001],[130.508589157,33.007304045],[130.508189157,33.006557369],[130.507916939,33.006409595],[130.507336394,33.006405144],[130.506749442,33.00605264],[130.506703619,33.005840144],[130.506887782,33.005378748],[130.50706250300001,33.00389263999999],[130.506943061,33.00365263999999],[130.50597585,33.002685414]]]}},{"type":"Feature","id":"40202:49304304","properties":{"id":"40202:49304304","meshCode":"49304304","cityCode":"40202","city":"大牟田市","lat":33.0067575,"lon":130.4313813,"areaKm2":0.4074202,"populated2020":true,"population2020":2012.766,"populationNote":"収録500mメッシュ人口の合算（原典収録外は補完しない）"},"geometry":{"type":"Polygon","coordinates":[[[130.436248911,33.005062342],[130.434568898,33.005155386999995],[130.430402503,33.005218991],[130.428135837,33.00536120699999],[130.426983333,33.005366207],[130.425,33.005184505],[130.425,33.008333333333326],[130.4375,33.008333333333326],[130.4375,33.00468329758089],[130.436248911,33.005062342]]]}},{"type":"Feature","id":"40202:49304401","properties":{"id":"40202:49304401","meshCode":"49304401","cityCode":"40202","city":"大牟田市","lat":33.0077278,"lon":130.5125293,"areaKm2":0.0002541,"populated2020":false,"population2020":null,"populationNote":"境界またぎ・収録外等のため人口未集計"},"geometry":{"type":"Polygon","coordinates":[[[130.5125,33.00800306791036],[130.512573307,33.00757573],[130.5125,33.00751172774403],[130.5125,33.00800306791036]]]}},{"type":"Feature","id":"40202:49304312","properties":{"id":"40202:49304312","meshCode":"49304312","cityCode":"40202","city":"大牟田市","lat":33.0133917,"lon":130.4098491,"areaKm2":0.1800418,"populated2020":false,"population2020":null,"populationNote":"境界またぎ・収録外等のため人口未集計"},"geometry":{"type":"MultiPolygon","coordinates":[[[[130.40630282784258,33.00833333333333],[130.409317354,33.00943663099999],[130.409958275,33.009520658],[130.410486433,33.009429739],[130.410924643,33.009241189],[130.41208364438094,33.00833333333333],[130.40630282784258,33.00833333333333]]],[[[130.408911012,33.01052222500002],[130.4026888857037,33.00833333333334],[130.408787004,33.010560422999994],[130.409658054,33.012448279],[130.40754094711673,33.016666666666666],[130.4125,33.016666666666666],[130.4125,33.01534653704562],[130.409998314,33.013323108],[130.410364734,33.012536306],[130.40977814500002,33.011277676],[130.409502322,33.010898982],[130.408911012,33.01052222500002]]]]}},{"type":"Feature","id":"40202:49304313","properties":{"id":"40202:49304313","meshCode":"49304313","cityCode":"40202","city":"大牟田市","lat":33.0129237,"lon":130.4207964,"areaKm2":0.6987887,"populated2020":true,"population2020":26.3895,"populationNote":"収録500mメッシュ人口の合算（原典収録外は補完しない）"},"geometry":{"type":"MultiPolygon","coordinates":[[[[130.41910674384363,33.008333333333326],[130.418103891,33.010431667],[130.41797786000004,33.01036558599999],[130.417889403,33.010548081],[130.418026329,33.010591441],[130.416294591,33.01416891],[130.41585751,33.01401874799999],[130.41548751000002,33.01479182],[130.415884112,33.014900901],[130.415816719,33.01512490099999],[130.415280078,33.016138559],[130.41486586302685,33.016666666666666],[130.425,33.01666666666666],[130.425,33.008333333333326],[130.41910674384363,33.008333333333326]]],[[[130.41414810558564,33.016666666666666],[130.4125,33.01534653704562],[130.4125,33.016666666666666],[130.41414810558564,33.016666666666666]]]]}},{"type":"Feature","id":"40202:49304314","properties":{"id":"40202:49304314","meshCode":"49304314","cityCode":"40202","city":"大牟田市","lat":33.0125,"lon":130.43125,"areaKm2":1.0793318,"populated2020":true,"population2020":4489.1367,"populationNote":"収録500mメッシュ人口の合算（原典収録外は補完しない）"},"geometry":{"type":"Polygon","coordinates":[[[130.4375,33.008333333333326],[130.425,33.008333333333326],[130.425,33.01666666666666],[130.4375,33.016666666666666],[130.4375,33.008333333333326]]]}},{"type":"Feature","id":"40202:49304315","properties":{"id":"40202:49304315","meshCode":"49304315","cityCode":"40202","city":"大牟田市","lat":33.0125,"lon":130.44375,"areaKm2":1.0793286,"populated2020":true,"population2020":1926.0904,"populationNote":"収録500mメッシュ人口の合算（原典収録外は補完しない）"},"geometry":{"type":"Polygon","coordinates":[[[130.45,33.00833333333333],[130.4375,33.008333333333326],[130.4375,33.016666666666666],[130.45,33.01666666666667],[130.45,33.00833333333333]]]}},{"type":"Feature","id":"40202:49304316","properties":{"id":"40202:49304316","meshCode":"49304316","cityCode":"40202","city":"大牟田市","lat":33.0125,"lon":130.45625,"areaKm2":1.0793254,"populated2020":true,"population2020":2718.1356,"populationNote":"収録500mメッシュ人口の合算（原典収録外は補完しない）"},"geometry":{"type":"Polygon","coordinates":[[[130.4625,33.00833333333333],[130.45,33.00833333333333],[130.45,33.01666666666667],[130.4625,33.016666666666666],[130.4625,33.00833333333333]]]}},{"type":"Feature","id":"40202:49304317","properties":{"id":"40202:49304317","meshCode":"49304317","cityCode":"40202","city":"大牟田市","lat":33.0125,"lon":130.46875,"areaKm2":1.0793222,"populated2020":true,"population2020":2680.7268,"populationNote":"収録500mメッシュ人口の合算（原典収録外は補完しない）"},"geometry":{"type":"Polygon","coordinates":[[[130.475,33.00833333333333],[130.4625,33.00833333333333],[130.4625,33.016666666666666],[130.475,33.016666666666666],[130.475,33.00833333333333]]]}},{"type":"Feature","id":"40202:49304318","properties":{"id":"40202:49304318","meshCode":"49304318","cityCode":"40202","city":"大牟田市","lat":33.0125,"lon":130.48125,"areaKm2":1.0793193,"populated2020":true,"population2020":1510.8369,"populationNote":"収録500mメッシュ人口の合算（原典収録外は補完しない）"},"geometry":{"type":"Polygon","coordinates":[[[130.4875,33.00833333333333],[130.475,33.00833333333333],[130.475,33.016666666666666],[130.4875,33.016666666666666],[130.4875,33.00833333333333]]]}},{"type":"Feature","id":"40202:49304319","properties":{"id":"40202:49304319","meshCode":"49304319","cityCode":"40202","city":"大牟田市","lat":33.0125,"lon":130.49375,"areaKm2":1.0793162,"populated2020":true,"population2020":368.5258,"populationNote":"収録500mメッシュ人口の合算（原典収録外は補完しない）"},"geometry":{"type":"Polygon","coordinates":[[[130.5,33.00833333333334],[130.4875,33.00833333333333],[130.4875,33.016666666666666],[130.5,33.016666666666666],[130.5,33.00833333333334]]]}},{"type":"Feature","id":"40202:49304410","properties":{"id":"40202:49304410","meshCode":"49304410","cityCode":"40202","city":"大牟田市","lat":33.0125038,"lon":130.5062439,"areaKm2":1.0782443,"populated2020":true,"population2020":133.4829,"populationNote":"収録500mメッシュ人口の合算（原典収録外は補完しない）"},"geometry":{"type":"Polygon","coordinates":[[[130.5125,33.00900695453014],[130.512370532,33.008923234],[130.512297471,33.008526009],[130.51237208787583,33.00833333333333],[130.5,33.00833333333334],[130.5,33.016666666666666],[130.5125,33.016666666666666],[130.5125,33.00900695453014]]]}},{"type":"Feature","id":"40202:49304411","properties":{"id":"40202:49304411","meshCode":"49304411","cityCode":"40202","city":"大牟田市","lat":33.0130656,"lon":130.5137745,"areaKm2":0.1605355,"populated2020":true,"population2020":29.3372,"populationNote":"収録500mメッシュ人口の合算（原典収録外は補完しない）"},"geometry":{"type":"Polygon","coordinates":[[[130.515919663,33.012105757],[130.515793268,33.011978532],[130.515149105,33.011802972999995],[130.514303009,33.011811855999994],[130.513971621,33.011341297],[130.513888846,33.01091657700001],[130.513925512,33.010390468],[130.5137969,33.009892404999995],[130.5125,33.00900695453014],[130.5125,33.016666666666666],[130.5130017643196,33.01666666666667],[130.5135569,33.016159631],[130.51444939,33.014931856],[130.515507717,33.01445214400002],[130.515792983,33.01401853200001],[130.515919663,33.012105757]]]}},{"type":"Feature","id":"40202:49304322","properties":{"id":"40202:49304322","meshCode":"49304322","cityCode":"40202","city":"大牟田市","lat":33.0181813,"lon":130.4106831,"areaKm2":0.1281709,"populated2020":false,"population2020":null,"populationNote":"境界またぎ・収録外等のため人口未集計"},"geometry":{"type":"Polygon","coordinates":[[[130.407540337,33.016668414],[130.407560311,33.016984891999996],[130.407753359,33.017335081],[130.4125,33.021153663407944],[130.4125,33.016666666666666],[130.407540337,33.016668414]]]}},{"type":"Feature","id":"40202:49304323","properties":{"id":"40202:49304323","meshCode":"49304323","cityCode":"40202","city":"大牟田市","lat":33.0205575,"lon":130.4192025,"areaKm2":0.9836984,"populated2020":false,"population2020":null,"populationNote":"境界またぎ・収録外等のため人口未集計"},"geometry":{"type":"Polygon","coordinates":[[[130.414312672,33.016799027],[130.41414810558564,33.016666666666666],[130.4125,33.016666666666666],[130.4125,33.021153663407944],[130.417277134,33.025],[130.425,33.025],[130.425,33.01666666666666],[130.41486586302685,33.016666666666666],[130.414312672,33.016799027]]]}},{"type":"Feature","id":"40202:49304324","properties":{"id":"40202:49304324","meshCode":"49304324","cityCode":"40202","city":"大牟田市","lat":33.0208333,"lon":130.43125,"areaKm2":1.0792318,"populated2020":true,"population2020":3853.179,"populationNote":"収録500mメッシュ人口の合算（原典収録外は補完しない）"},"geometry":{"type":"Polygon","coordinates":[[[130.4375,33.016666666666666],[130.425,33.01666666666666],[130.425,33.025],[130.4375,33.02499999999999],[130.4375,33.016666666666666]]]}},{"type":"Feature","id":"40202:49304325","properties":{"id":"40202:49304325","meshCode":"49304325","cityCode":"40202","city":"大牟田市","lat":33.0208333,"lon":130.44375,"areaKm2":1.0792286,"populated2020":true,"population2020":3201.4031,"populationNote":"収録500mメッシュ人口の合算（原典収録外は補完しない）"},"geometry":{"type":"Polygon","coordinates":[[[130.45,33.01666666666667],[130.4375,33.016666666666666],[130.4375,33.02499999999999],[130.45,33.02499999999999],[130.45,33.01666666666667]]]}},{"type":"Feature","id":"40202:49304326","properties":{"id":"40202:49304326","meshCode":"49304326","cityCode":"40202","city":"大牟田市","lat":33.0208333,"lon":130.45625,"areaKm2":1.0792254,"populated2020":true,"population2020":3263.1179,"populationNote":"収録500mメッシュ人口の合算（原典収録外は補完しない）"},"geometry":{"type":"Polygon","coordinates":[[[130.4625,33.016666666666666],[130.45,33.01666666666667],[130.45,33.02499999999999],[130.4625,33.025],[130.4625,33.016666666666666]]]}},{"type":"Feature","id":"40202:49304327","properties":{"id":"40202:49304327","meshCode":"49304327","cityCode":"40202","city":"大牟田市","lat":33.0208333,"lon":130.46875,"areaKm2":1.0792222,"populated2020":true,"population2020":61.6167,"populationNote":"収録500mメッシュ人口の合算（原典収録外は補完しない）"},"geometry":{"type":"Polygon","coordinates":[[[130.475,33.016666666666666],[130.4625,33.016666666666666],[130.4625,33.025],[130.475,33.025],[130.475,33.016666666666666]]]}},{"type":"Feature","id":"40202:49304328","properties":{"id":"40202:49304328","meshCode":"49304328","cityCode":"40202","city":"大牟田市","lat":33.0208333,"lon":130.48125,"areaKm2":1.0792191,"populated2020":true,"population2020":207.49,"populationNote":"収録500mメッシュ人口の合算（原典収録外は補完しない）"},"geometry":{"type":"Polygon","coordinates":[[[130.4875,33.016666666666666],[130.475,33.016666666666666],[130.475,33.025],[130.4875,33.02499999999999],[130.4875,33.016666666666666]]]}},{"type":"Feature","id":"40202:49304329","properties":{"id":"40202:49304329","meshCode":"49304329","cityCode":"40202","city":"大牟田市","lat":33.0208333,"lon":130.49375,"areaKm2":1.0792162,"populated2020":true,"population2020":22.2539,"populationNote":"収録500mメッシュ人口の合算（原典収録外は補完しない）"},"geometry":{"type":"Polygon","coordinates":[[[130.5,33.016666666666666],[130.4875,33.016666666666666],[130.4875,33.02499999999999],[130.5,33.025],[130.5,33.016666666666666]]]}},{"type":"Feature","id":"40202:49304420","properties":{"id":"40202:49304420","meshCode":"49304420","cityCode":"40202","city":"大牟田市","lat":33.0205141,"lon":130.5058098,"areaKm2":0.9764142,"populated2020":false,"population2020":null,"populationNote":"境界またぎ・収録外等のため人口未集計"},"geometry":{"type":"Polygon","coordinates":[[[130.512277185,33.02065491],[130.5125,33.02027451137152],[130.5125,33.016666666666666],[130.5,33.016666666666666],[130.5,33.025],[130.507562659,33.025],[130.507686083,33.023599333],[130.507778301,33.023387108],[130.508091077,33.023341],[130.508983294,33.02346073],[130.509756355,33.023220730000006],[130.510952464,33.023137684999995],[130.511127185,33.02304573899999],[130.512065512,33.022057685],[130.512286342,33.021642405],[130.512277185,33.02065491]]]}},{"type":"Feature","id":"40202:49304421","properties":{"id":"40202:49304421","meshCode":"49304421","cityCode":"40202","city":"大牟田市","lat":33.0183422,"lon":130.5127541,"areaKm2":0.0171397,"populated2020":false,"population2020":null,"populationNote":"境界またぎ・収録外等のため人口未集計"},"geometry":{"type":"Polygon","coordinates":[[[130.5125,33.02027451137152],[130.513013839,33.019306856],[130.513161064,33.01831963099999],[130.512884955,33.017147405],[130.512903567,33.016769072],[130.5130017643196,33.01666666666667],[130.5125,33.016666666666666],[130.5125,33.02027451137152]]]}},{"type":"Feature","id":"40202:49304333","properties":{"id":"40202:49304333","meshCode":"49304333","cityCode":"40202","city":"大牟田市","lat":33.0285183,"lon":130.4226552,"areaKm2":0.3512848,"populated2020":true,"population2020":2.0217,"populationNote":"収録500mメッシュ人口の合算（原典収録外は補完しない）"},"geometry":{"type":"Polygon","coordinates":[[[130.417277134,33.025],[130.42191808,33.02872649500001],[130.422144527,33.028723559],[130.423106641,33.02954416200001],[130.42064411178504,33.03333333333334],[130.425,33.03333333333333],[130.425,33.025],[130.417277134,33.025]]]}},{"type":"Feature","id":"40202:49304334","properties":{"id":"40202:49304334","meshCode":"49304334","cityCode":"40202","city":"大牟田市","lat":33.0291667,"lon":130.43125,"areaKm2":1.0791317,"populated2020":true,"population2020":3411.9583,"populationNote":"収録500mメッシュ人口の合算（原典収録外は補完しない）"},"geometry":{"type":"Polygon","coordinates":[[[130.4375,33.02499999999999],[130.425,33.025],[130.425,33.03333333333333],[130.4375,33.03333333333333],[130.4375,33.02499999999999]]]}},{"type":"Feature","id":"40202:49304335","properties":{"id":"40202:49304335","meshCode":"49304335","cityCode":"40202","city":"大牟田市","lat":33.0291667,"lon":130.44375,"areaKm2":1.0791284,"populated2020":true,"population2020":5815.5788,"populationNote":"収録500mメッシュ人口の合算（原典収録外は補完しない）"},"geometry":{"type":"Polygon","coordinates":[[[130.45,33.02499999999999],[130.4375,33.02499999999999],[130.4375,33.03333333333333],[130.45,33.03333333333333],[130.45,33.02499999999999]]]}},{"type":"Feature","id":"40202:49304336","properties":{"id":"40202:49304336","meshCode":"49304336","cityCode":"40202","city":"大牟田市","lat":33.0291667,"lon":130.45625,"areaKm2":1.0791252,"populated2020":true,"population2020":1212.3206,"populationNote":"収録500mメッシュ人口の合算（原典収録外は補完しない）"},"geometry":{"type":"Polygon","coordinates":[[[130.4625,33.025],[130.45,33.02499999999999],[130.45,33.03333333333333],[130.4625,33.03333333333334],[130.4625,33.025]]]}},{"type":"Feature","id":"40202:49304337","properties":{"id":"40202:49304337","meshCode":"49304337","cityCode":"40202","city":"大牟田市","lat":33.0291667,"lon":130.46875,"areaKm2":1.0791222,"populated2020":true,"population2020":337.8405,"populationNote":"収録500mメッシュ人口の合算（原典収録外は補完しない）"},"geometry":{"type":"Polygon","coordinates":[[[130.475,33.025],[130.4625,33.025],[130.4625,33.03333333333334],[130.475,33.03333333333333],[130.475,33.025]]]}},{"type":"Feature","id":"40202:49304338","properties":{"id":"40202:49304338","meshCode":"49304338","cityCode":"40202","city":"大牟田市","lat":33.0291667,"lon":130.48125,"areaKm2":1.079119,"populated2020":true,"population2020":947.9096,"populationNote":"収録500mメッシュ人口の合算（原典収録外は補完しない）"},"geometry":{"type":"Polygon","coordinates":[[[130.4875,33.02499999999999],[130.475,33.025],[130.475,33.03333333333333],[130.4875,33.03333333333333],[130.4875,33.02499999999999]]]}},{"type":"Feature","id":"40202:49304339","properties":{"id":"40202:49304339","meshCode":"49304339","cityCode":"40202","city":"大牟田市","lat":33.0291667,"lon":130.49375,"areaKm2":1.0791161,"populated2020":true,"population2020":208.4391,"populationNote":"収録500mメッシュ人口の合算（原典収録外は補完しない）"},"geometry":{"type":"Polygon","coordinates":[[[130.5,33.025],[130.4875,33.02499999999999],[130.4875,33.03333333333333],[130.5,33.033333333333324],[130.5,33.025]]]}},{"type":"Feature","id":"40202:49304430","properties":{"id":"40202:49304430","meshCode":"49304430","cityCode":"40202","city":"大牟田市","lat":33.0288007,"lon":130.5024919,"areaKm2":0.4165567,"populated2020":false,"population2020":null,"populationNote":"境界またぎ・収録外等のため人口未集計"},"geometry":{"type":"Polygon","coordinates":[[[130.505578314,33.026073206999996],[130.507391089,33.025242387000006],[130.507562659,33.025],[130.5,33.025],[130.5,33.033333333333324],[130.503733645,33.03333333333333],[130.503801997,33.032663197999995],[130.503903385,33.03243236],[130.504538379,33.03167570299999],[130.504566148,33.031269595000005],[130.50433614800002,33.03078014399999],[130.504280869,33.03033709],[130.504345305,33.029820423],[130.504492516,33.029395703],[130.504676407,33.02921098200001],[130.504961673,33.02836182],[130.504621388,33.027568206999995],[130.504694994,33.02702348599999],[130.50517332,33.026755703000006],[130.505550545,33.026340712],[130.505578314,33.026073206999996]]]}},{"type":"Feature","id":"40202:49304343","properties":{"id":"40202:49304343","meshCode":"49304343","cityCode":"40202","city":"大牟田市","lat":33.0373754,"lon":130.4224988,"areaKm2":0.4280642,"populated2020":false,"population2020":null,"populationNote":"境界またぎ・収録外等のため人口未集計"},"geometry":{"type":"Polygon","coordinates":[[[130.420395447,33.033715559],[130.420173022,33.03361005400001],[130.420178392,33.03342594600001],[130.420120078,33.03342744099999],[130.42011869,33.033637864999996],[130.420374034,33.033748225],[130.420029001,33.034280946],[130.420016913,33.034567694],[130.419274034,33.036097946000005],[130.42095474689472,33.041666666666664],[130.425,33.041666666666664],[130.425,33.03333333333333],[130.42064411178504,33.03333333333334],[130.420395447,33.033715559]]]}},{"type":"Feature","id":"40202:49304344","properties":{"id":"40202:49304344","meshCode":"49304344","cityCode":"40202","city":"大牟田市","lat":33.0375,"lon":130.43125,"areaKm2":1.0790314,"populated2020":true,"population2020":894.3357,"populationNote":"収録500mメッシュ人口の合算（原典収録外は補完しない）"},"geometry":{"type":"Polygon","coordinates":[[[130.4375,33.03333333333333],[130.425,33.03333333333333],[130.425,33.041666666666664],[130.4375,33.041666666666664],[130.4375,33.03333333333333]]]}},{"type":"Feature","id":"40202:49304345","properties":{"id":"40202:49304345","meshCode":"49304345","cityCode":"40202","city":"大牟田市","lat":33.0375,"lon":130.44375,"areaKm2":1.0790282,"populated2020":true,"population2020":4270.5807,"populationNote":"収録500mメッシュ人口の合算（原典収録外は補完しない）"},"geometry":{"type":"Polygon","coordinates":[[[130.45,33.03333333333333],[130.4375,33.03333333333333],[130.4375,33.041666666666664],[130.45,33.041666666666664],[130.45,33.03333333333333]]]}},{"type":"Feature","id":"40202:49304346","properties":{"id":"40202:49304346","meshCode":"49304346","cityCode":"40202","city":"大牟田市","lat":33.0375,"lon":130.45625,"areaKm2":1.079025,"populated2020":true,"population2020":4403.5928,"populationNote":"収録500mメッシュ人口の合算（原典収録外は補完しない）"},"geometry":{"type":"Polygon","coordinates":[[[130.4625,33.03333333333334],[130.45,33.03333333333333],[130.45,33.041666666666664],[130.4625,33.041666666666664],[130.4625,33.03333333333334]]]}},{"type":"Feature","id":"40202:49304347","properties":{"id":"40202:49304347","meshCode":"49304347","cityCode":"40202","city":"大牟田市","lat":33.0375,"lon":130.46875,"areaKm2":1.0790219,"populated2020":true,"population2020":4284.2892,"populationNote":"収録500mメッシュ人口の合算（原典収録外は補完しない）"},"geometry":{"type":"Polygon","coordinates":[[[130.475,33.03333333333333],[130.4625,33.03333333333334],[130.4625,33.041666666666664],[130.475,33.04166666666667],[130.475,33.03333333333333]]]}},{"type":"Feature","id":"40202:49304348","properties":{"id":"40202:49304348","meshCode":"49304348","cityCode":"40202","city":"大牟田市","lat":33.0375,"lon":130.48125,"areaKm2":1.079019,"populated2020":true,"population2020":4216.0326,"populationNote":"収録500mメッシュ人口の合算（原典収録外は補完しない）"},"geometry":{"type":"Polygon","coordinates":[[[130.4875,33.03333333333333],[130.475,33.03333333333333],[130.475,33.04166666666667],[130.4875,33.041666666666664],[130.4875,33.03333333333333]]]}},{"type":"Feature","id":"40202:49304349","properties":{"id":"40202:49304349","meshCode":"49304349","cityCode":"40202","city":"大牟田市","lat":33.0375,"lon":130.49375,"areaKm2":1.0790159,"populated2020":true,"population2020":707.3504,"populationNote":"収録500mメッシュ人口の合算（原典収録外は補完しない）"},"geometry":{"type":"Polygon","coordinates":[[[130.5,33.033333333333324],[130.4875,33.03333333333333],[130.4875,33.041666666666664],[130.5,33.041666666666664],[130.5,33.033333333333324]]]}},{"type":"Feature","id":"40202:49304440","properties":{"id":"40202:49304440","meshCode":"49304440","cityCode":"40202","city":"大牟田市","lat":33.0367498,"lon":130.5017822,"areaKm2":0.2708912,"populated2020":false,"population2020":null,"populationNote":"境界またぎ・収録外等のため人口未集計"},"geometry":{"type":"Polygon","coordinates":[[[130.50385703,33.03724125200001],[130.504326187,33.036964586],[130.504473411,33.036789036],[130.50429869,33.035801532],[130.503847847,33.03462930600001],[130.503733645,33.03333333333333],[130.5,33.033333333333324],[130.5,33.041666666666664],[130.5006386516928,33.04166666666666],[130.500801777,33.04158818],[130.50130788600003,33.040803739],[130.501400104,33.04032401799999],[130.501648431,33.03990874800001],[130.502044267,33.03952096399999],[130.503249533,33.038773468],[130.503452036,33.03847819800001],[130.503479805,33.03812735999999],[130.503709805,33.03745347699999],[130.50385703,33.03724125200001]]]}},{"type":"Feature","id":"40202:49304248","properties":{"id":"40202:49304248","meshCode":"49304248","cityCode":"40202","city":"大牟田市","lat":33.0393618,"lon":130.3541448,"areaKm2":0.0068407,"populated2020":false,"population2020":null,"populationNote":"境界またぎ・収録外等のため人口未集計"},"geometry":{"type":"Polygon","coordinates":[[[130.354527562,33.03964582900001],[130.354642827,33.03928610799999],[130.354532283,33.039110279],[130.354344773,33.038958054],[130.354063113,33.038920559000005],[130.353863671,33.03900944099999],[130.35363144,33.039357495],[130.353694773,33.03956694600001],[130.353847276,33.039709441],[130.354093671,33.03978027899999],[130.354342283,33.039772225],[130.354527562,33.03964582900001]]]}},{"type":"Feature","id":"40202:49304353","properties":{"id":"40202:49304353","meshCode":"49304353","cityCode":"40202","city":"大牟田市","lat":33.0455544,"lon":130.4234164,"areaKm2":0.2691712,"populated2020":false,"population2020":null,"populationNote":"境界またぎ・収録外等のため人口未集計"},"geometry":{"type":"Polygon","coordinates":[[[130.42095474689472,33.041666666666664],[130.42192869,33.044835973],[130.422009105,33.044908252],[130.422298781,33.05],[130.425,33.04999999999999],[130.425,33.041666666666664],[130.42095474689472,33.041666666666664]]]}},{"type":"Feature","id":"40202:49304354","properties":{"id":"40202:49304354","meshCode":"49304354","cityCode":"40202","city":"大牟田市","lat":33.0458333,"lon":130.43125,"areaKm2":1.0789314,"populated2020":false,"population2020":null,"populationNote":"境界またぎ・収録外等のため人口未集計"},"geometry":{"type":"Polygon","coordinates":[[[130.4375,33.041666666666664],[130.425,33.041666666666664],[130.425,33.04999999999999],[130.4375,33.050000000000004],[130.4375,33.041666666666664]]]}},{"type":"Feature","id":"40202:49304355","properties":{"id":"40202:49304355","meshCode":"49304355","cityCode":"40202","city":"大牟田市","lat":33.0458333,"lon":130.44375,"areaKm2":1.0789282,"populated2020":true,"population2020":3252.9928,"populationNote":"収録500mメッシュ人口の合算（原典収録外は補完しない）"},"geometry":{"type":"Polygon","coordinates":[[[130.45,33.041666666666664],[130.4375,33.041666666666664],[130.4375,33.050000000000004],[130.45,33.05],[130.45,33.041666666666664]]]}},{"type":"Feature","id":"40202:49304356","properties":{"id":"40202:49304356","meshCode":"49304356","cityCode":"40202","city":"大牟田市","lat":33.0458333,"lon":130.45625,"areaKm2":1.078925,"populated2020":true,"population2020":3899.6025,"populationNote":"収録500mメッシュ人口の合算（原典収録外は補完しない）"},"geometry":{"type":"Polygon","coordinates":[[[130.4625,33.041666666666664],[130.45,33.041666666666664],[130.45,33.05],[130.4625,33.050000000000004],[130.4625,33.041666666666664]]]}},{"type":"Feature","id":"40202:49304357","properties":{"id":"40202:49304357","meshCode":"49304357","cityCode":"40202","city":"大牟田市","lat":33.0458333,"lon":130.46875,"areaKm2":1.0789218,"populated2020":true,"population2020":4126.5226,"populationNote":"収録500mメッシュ人口の合算（原典収録外は補完しない）"},"geometry":{"type":"Polygon","coordinates":[[[130.475,33.04166666666667],[130.4625,33.041666666666664],[130.4625,33.050000000000004],[130.475,33.050000000000004],[130.475,33.04166666666667]]]}},{"type":"Feature","id":"40202:49304358","properties":{"id":"40202:49304358","meshCode":"49304358","cityCode":"40202","city":"大牟田市","lat":33.0458333,"lon":130.48125,"areaKm2":1.0789187,"populated2020":true,"population2020":3540.0176,"populationNote":"収録500mメッシュ人口の合算（原典収録外は補完しない）"},"geometry":{"type":"Polygon","coordinates":[[[130.4875,33.041666666666664],[130.475,33.04166666666667],[130.475,33.050000000000004],[130.4875,33.05],[130.4875,33.041666666666664]]]}},{"type":"Feature","id":"40202:49304359","properties":{"id":"40202:49304359","meshCode":"49304359","cityCode":"40202","city":"大牟田市","lat":33.0454583,"lon":130.4924994,"areaKm2":0.8418937,"populated2020":true,"population2020":128.589,"populationNote":"収録500mメッシュ人口の合算（原典収録外は補完しない）"},"geometry":{"type":"Polygon","coordinates":[[[130.49729984400003,33.045955666999994],[130.498289559,33.04361873],[130.49951345,33.042585126],[130.5,33.042311324],[130.5,33.041666666666664],[130.4875,33.041666666666664],[130.4875,33.05],[130.49561360600003,33.050000000000004],[130.49518789900003,33.049572324],[130.494902348,33.048980658],[130.495035681,33.048675658],[130.496719572,33.046995946],[130.49729984400003,33.045955666999994]]]}},{"type":"Feature","id":"40202:49304450","properties":{"id":"40202:49304450","meshCode":"49304450","cityCode":"40202","city":"大牟田市","lat":33.041896,"lon":130.5001811,"areaKm2":0.0019122,"populated2020":false,"population2020":null,"populationNote":"境界またぎ・収録外等のため人口未集計"},"geometry":{"type":"Polygon","coordinates":[[[130.500000389,33.042311099],[130.500277341,33.04204984700001],[130.500360117,33.041800685],[130.5006386516928,33.04166666666666],[130.5,33.041666666666664],[130.500000389,33.042311099]]]}},{"type":"Feature","id":"40202:49304362","properties":{"id":"40202:49304362","meshCode":"49304362","cityCode":"40202","city":"大牟田市","lat":33.0532919,"lon":130.4044421,"areaKm2":0.0184218,"populated2020":false,"population2020":null,"populationNote":"境界またぎ・収録外等のため人口未集計"},"geometry":{"type":"Polygon","coordinates":[[[130.404759001,33.053935387],[130.405046329,33.053755414],[130.405189468,33.053536613],[130.405568366,33.053648161999995],[130.405218003,33.05350572100001],[130.40514275,33.053324054],[130.405138859,33.05305680199999],[130.405240921,33.053050135],[130.40518791200003,33.052923441],[130.40545802900002,33.052781586],[130.405165473,33.052892306],[130.404776161,33.052644721],[130.40450166,33.052600468],[130.404135837,33.052653586],[130.40386856,33.05279786500001],[130.403705616,33.053011802],[130.403635888,33.053271532],[130.403679364,33.053548494999994],[130.403819611,33.053754333],[130.404112944,33.05394900000001],[130.404759001,33.053935387]]]}},{"type":"Feature","id":"40202:49304363","properties":{"id":"40202:49304363","meshCode":"49304363","cityCode":"40202","city":"大牟田市","lat":33.0513671,"lon":130.4237088,"areaKm2":0.105954,"populated2020":false,"population2020":null,"populationNote":"境界またぎ・収録外等のため人口未集計"},"geometry":{"type":"MultiPolygon","coordinates":[[[[130.422298781,33.05],[130.422438366,33.051418865],[130.422847613,33.05190374800001],[130.423482361,33.05210977499999],[130.423922049,33.052090081],[130.425,33.052652649],[130.425,33.04999999999999],[130.422298781,33.05]]],[[[130.425,33.053558360000004],[130.423969222,33.056156892],[130.42302736685642,33.05833333333333],[130.425,33.05833333333333],[130.425,33.053558360000004]]]]}},{"type":"Feature","id":"40202:49304364","properties":{"id":"40202:49304364","meshCode":"49304364","cityCode":"40202","city":"大牟田市","lat":33.0541683,"lon":130.4312588,"areaKm2":1.0772881,"populated2020":false,"population2020":null,"populationNote":"境界またぎ・収録外等のため人口未集計"},"geometry":{"type":"Polygon","coordinates":[[[130.425382827,33.052852441],[130.425,33.053558360000004],[130.425,33.05833333333333],[130.4375,33.05833333333334],[130.4375,33.050000000000004],[130.425,33.04999999999999],[130.425,33.052652649],[130.425382827,33.052852441]]]}},{"type":"Feature","id":"40202:49304365","properties":{"id":"40202:49304365","meshCode":"49304365","cityCode":"40202","city":"大牟田市","lat":33.0541667,"lon":130.44375,"areaKm2":1.0788278,"populated2020":true,"population2020":1390.2264,"populationNote":"収録500mメッシュ人口の合算（原典収録外は補完しない）"},"geometry":{"type":"Polygon","coordinates":[[[130.45,33.05],[130.4375,33.050000000000004],[130.4375,33.05833333333334],[130.45,33.05833333333334],[130.45,33.05]]]}},{"type":"Feature","id":"40202:49304366","properties":{"id":"40202:49304366","meshCode":"49304366","cityCode":"40202","city":"大牟田市","lat":33.0541667,"lon":130.45625,"areaKm2":1.0788246,"populated2020":true,"population2020":3551.3275,"populationNote":"収録500mメッシュ人口の合算（原典収録外は補完しない）"},"geometry":{"type":"Polygon","coordinates":[[[130.4625,33.050000000000004],[130.45,33.05],[130.45,33.05833333333334],[130.4625,33.05833333333333],[130.4625,33.050000000000004]]]}},{"type":"Feature","id":"40202:49304367","properties":{"id":"40202:49304367","meshCode":"49304367","cityCode":"40202","city":"大牟田市","lat":33.0541667,"lon":130.46875,"areaKm2":1.0788216,"populated2020":true,"population2020":3726.4352,"populationNote":"収録500mメッシュ人口の合算（原典収録外は補完しない）"},"geometry":{"type":"Polygon","coordinates":[[[130.475,33.050000000000004],[130.4625,33.050000000000004],[130.4625,33.05833333333333],[130.475,33.05833333333334],[130.475,33.050000000000004]]]}},{"type":"Feature","id":"40202:49304368","properties":{"id":"40202:49304368","meshCode":"49304368","cityCode":"40202","city":"大牟田市","lat":33.0541667,"lon":130.48125,"areaKm2":1.0788186,"populated2020":true,"population2020":4362.2327,"populationNote":"収録500mメッシュ人口の合算（原典収録外は補完しない）"},"geometry":{"type":"Polygon","coordinates":[[[130.4875,33.05],[130.475,33.050000000000004],[130.475,33.05833333333334],[130.4875,33.05833333333333],[130.4875,33.05]]]}},{"type":"Feature","id":"40202:49304369","properties":{"id":"40202:49304369","meshCode":"49304369","cityCode":"40202","city":"大牟田市","lat":33.0544702,"lon":130.4932375,"areaKm2":0.971102,"populated2020":true,"population2020":454.4333,"populationNote":"収録500mメッシュ人口の合算（原典収録外は補完しない）"},"geometry":{"type":"Polygon","coordinates":[[[130.5,33.05393586499999],[130.499082918,33.053430685],[130.49804013,33.052626784],[130.497042361,33.052054],[130.49672847,33.051757892],[130.49561360600003,33.050000000000004],[130.4875,33.05],[130.4875,33.05833333333333],[130.5,33.05833333333334],[130.5,33.05393586499999]]]}},{"type":"Feature","id":"40202:49304460","properties":{"id":"40202:49304460","meshCode":"49304460","cityCode":"40202","city":"大牟田市","lat":33.0566644,"lon":130.5018675,"areaKm2":0.1400407,"populated2020":false,"population2020":null,"populationNote":"境界またぎ・収録外等のため人口未集計"},"geometry":{"type":"Polygon","coordinates":[[[130.500000415,33.053936126],[130.5,33.05833333333334],[130.50483490338758,33.05833333333333],[130.504471245,33.058109036],[130.504057367,33.058025982],[130.504130973,33.05757375700001],[130.504032088,33.057136532],[130.504075966,33.05620570300001],[130.503882918,33.055833477],[130.502468197,33.055331251999995],[130.50170625200002,33.054981243],[130.501065422,33.054646802],[130.500000415,33.053936126]]]}},{"type":"Feature","id":"40202:49304373","properties":{"id":"40202:49304373","meshCode":"49304373","cityCode":"40202","city":"大牟田市","lat":33.0631363,"lon":130.4230398,"areaKm2":0.3162027,"populated2020":false,"population2020":null,"populationNote":"境界またぎ・収録外等のため人口未集計"},"geometry":{"type":"Polygon","coordinates":[[[130.42302736685642,33.05833333333333],[130.420322218,33.065026333],[130.4196525811351,33.066666666666684],[130.425,33.06666666666668],[130.425,33.05833333333333],[130.42302736685642,33.05833333333333]]]}},{"type":"Feature","id":"40202:49304374","properties":{"id":"40202:49304374","meshCode":"49304374","cityCode":"40202","city":"大牟田市","lat":33.0625,"lon":130.43125,"areaKm2":1.078731,"populated2020":true,"population2020":71.0452,"populationNote":"収録500mメッシュ人口の合算（原典収録外は補完しない）"},"geometry":{"type":"Polygon","coordinates":[[[130.4375,33.05833333333334],[130.425,33.05833333333333],[130.425,33.06666666666668],[130.4375,33.066666666666684],[130.4375,33.05833333333334]]]}},{"type":"Feature","id":"40202:49304375","properties":{"id":"40202:49304375","meshCode":"49304375","cityCode":"40202","city":"大牟田市","lat":33.0625,"lon":130.44375,"areaKm2":1.0787278,"populated2020":true,"population2020":1351.8586,"populationNote":"収録500mメッシュ人口の合算（原典収録外は補完しない）"},"geometry":{"type":"Polygon","coordinates":[[[130.45,33.05833333333334],[130.4375,33.05833333333334],[130.4375,33.066666666666684],[130.45,33.066666666666684],[130.45,33.05833333333334]]]}},{"type":"Feature","id":"40202:49304376","properties":{"id":"40202:49304376","meshCode":"49304376","cityCode":"40202","city":"大牟田市","lat":33.0625,"lon":130.45625,"areaKm2":1.0787246,"populated2020":true,"population2020":510.658,"populationNote":"収録500mメッシュ人口の合算（原典収録外は補完しない）"},"geometry":{"type":"Polygon","coordinates":[[[130.4625,33.05833333333333],[130.45,33.05833333333334],[130.45,33.066666666666684],[130.4625,33.066666666666684],[130.4625,33.05833333333333]]]}},{"type":"Feature","id":"40202:49304377","properties":{"id":"40202:49304377","meshCode":"49304377","cityCode":"40202","city":"大牟田市","lat":33.0625,"lon":130.46875,"areaKm2":1.0787214,"populated2020":true,"population2020":1631.1119,"populationNote":"収録500mメッシュ人口の合算（原典収録外は補完しない）"},"geometry":{"type":"Polygon","coordinates":[[[130.475,33.05833333333334],[130.4625,33.05833333333333],[130.4625,33.066666666666684],[130.475,33.066666666666684],[130.475,33.05833333333334]]]}},{"type":"Feature","id":"40202:49304378","properties":{"id":"40202:49304378","meshCode":"49304378","cityCode":"40202","city":"大牟田市","lat":33.0625,"lon":130.48125,"areaKm2":1.0787183,"populated2020":true,"population2020":1653.0505,"populationNote":"収録500mメッシュ人口の合算（原典収録外は補完しない）"},"geometry":{"type":"Polygon","coordinates":[[[130.4875,33.05833333333333],[130.475,33.05833333333334],[130.475,33.066666666666684],[130.4875,33.06666666666668],[130.4875,33.05833333333333]]]}},{"type":"Feature","id":"40202:49304379","properties":{"id":"40202:49304379","meshCode":"49304379","cityCode":"40202","city":"大牟田市","lat":33.0625,"lon":130.49375,"areaKm2":1.0787154,"populated2020":true,"population2020":43.4518,"populationNote":"収録500mメッシュ人口の合算（原典収録外は補完しない）"},"geometry":{"type":"Polygon","coordinates":[[[130.5,33.05833333333334],[130.4875,33.05833333333333],[130.4875,33.06666666666668],[130.5,33.06666666666668],[130.5,33.05833333333334]]]}},{"type":"Feature","id":"40202:49304470","properties":{"id":"40202:49304470","meshCode":"49304470","cityCode":"40202","city":"大牟田市","lat":33.0629144,"lon":130.5057839,"areaKm2":0.953964,"populated2020":true,"population2020":23.3387,"populationNote":"収録500mメッシュ人口の合算（原典収録外は補完しない）"},"geometry":{"type":"Polygon","coordinates":[[[130.505685422,33.058865712],[130.504875694,33.058635153],[130.50483490338758,33.05833333333333],[130.5,33.05833333333334],[130.5,33.06666666666668],[130.5125,33.06666666666668],[130.5125,33.061309912113046],[130.506489027,33.05907655000001],[130.506090415,33.05885654099999],[130.505685422,33.058865712]]]}},{"type":"Feature","id":"40202:49304471","properties":{"id":"40202:49304471","meshCode":"49304471","cityCode":"40202","city":"大牟田市","lat":33.0652211,"lon":130.5160822,"areaKm2":0.2145164,"populated2020":false,"population2020":null,"populationNote":"境界またぎ・収録外等のため人口未集計"},"geometry":{"type":"Polygon","coordinates":[[[130.513791505,33.06198518000001],[130.513555668,33.061746018],[130.5125,33.061309912113046],[130.5125,33.06666666666668],[130.525,33.066666666666684],[130.525,33.066610802],[130.523728716,33.065944937],[130.523443437,33.06595438699999],[130.522791777,33.066129937],[130.52217511,33.065922431999994],[130.521290389,33.06590799100001],[130.520359831,33.065777432],[130.519907899,33.065811874],[130.518825668,33.06559047699999],[130.518187341,33.065535477000005],[130.517584008,33.065602423],[130.51687373500002,33.065566586],[130.516544838,33.065326305999996],[130.516524008,33.06456964],[130.516286226,33.064457972999996],[130.514882892,33.064211577],[130.514187069,33.06360991],[130.513791505,33.06198518000001]]]}},{"type":"Feature","id":"40202:49304472","properties":{"id":"40202:49304472","meshCode":"49304472","cityCode":"40202","city":"大牟田市","lat":33.0657612,"lon":130.5298459,"areaKm2":0.0937036,"populated2020":true,"population2020":2.0297,"populationNote":"収録500mメッシュ人口の合算（原典収録外は補完しない）"},"geometry":{"type":"MultiPolygon","coordinates":[[[[130.53108917,33.063933829],[130.530810571,33.064215495],[130.530169183,33.06434938699999],[130.529966693,33.064478559],[130.529286433,33.065355225],[130.527381466,33.06569633299999],[130.5266362,33.066111613],[130.526314267,33.066462449999996],[130.5256055134938,33.066666666666684],[130.5322449939304,33.06666666666669],[130.532248638,33.065503],[130.531973074,33.065134396],[130.53147585,33.064718559000006],[130.53139751,33.064395225000005],[130.53148751,33.064192441],[130.531438885,33.06397077500001],[130.53108917,33.063933829]]],[[[130.525,33.066610802],[130.525,33.066666666666684],[130.52514831311396,33.066666666666684],[130.525117899,33.066655225],[130.525,33.066610802]]]]}},{"type":"Feature","id":"40202:49304383","properties":{"id":"40202:49304383","meshCode":"49304383","cityCode":"40202","city":"大牟田市","lat":33.0698111,"lon":130.4219234,"areaKm2":0.397273,"populated2020":false,"population2020":null,"populationNote":"境界またぎ・収録外等のため人口未集計"},"geometry":{"type":"Polygon","coordinates":[[[130.4196525811351,33.066666666666684],[130.417898586,33.07116791899999],[130.417383333,33.071044892],[130.416924747,33.07161710799999],[130.417022114,33.071678414],[130.417491115,33.071138414],[130.41786393,33.07126327899999],[130.417677717,33.07189000000001],[130.417875551,33.071968612999996],[130.418394163,33.072087495000005],[130.418547224,33.071790279],[130.419318054,33.071948892],[130.425,33.07354364],[130.425,33.06666666666668],[130.4196525811351,33.066666666666684]]]}},{"type":"Feature","id":"40202:49304384","properties":{"id":"40202:49304384","meshCode":"49304384","cityCode":"40202","city":"大牟田市","lat":33.0707448,"lon":130.431378,"areaKm2":1.0528683,"populated2020":true,"population2020":818.8049,"populationNote":"収録500mメッシュ人口の合算（原典収録外は補完しない）"},"geometry":{"type":"Polygon","coordinates":[[[130.4375,33.066666666666684],[130.425,33.06666666666668],[130.425,33.07354364],[130.426457224,33.073986108],[130.427837782,33.075],[130.4375,33.074999999999996],[130.4375,33.066666666666684]]]}},{"type":"Feature","id":"40202:49304385","properties":{"id":"40202:49304385","meshCode":"49304385","cityCode":"40202","city":"大牟田市","lat":33.0708333,"lon":130.44375,"areaKm2":1.0786274,"populated2020":true,"population2020":1135.3417,"populationNote":"収録500mメッシュ人口の合算（原典収録外は補完しない）"},"geometry":{"type":"Polygon","coordinates":[[[130.45,33.066666666666684],[130.4375,33.066666666666684],[130.4375,33.074999999999996],[130.45,33.075],[130.45,33.066666666666684]]]}},{"type":"Feature","id":"40202:49304386","properties":{"id":"40202:49304386","meshCode":"49304386","cityCode":"40202","city":"大牟田市","lat":33.0708333,"lon":130.45625,"areaKm2":1.0786242,"populated2020":true,"population2020":97.1277,"populationNote":"収録500mメッシュ人口の合算（原典収録外は補完しない）"},"geometry":{"type":"Polygon","coordinates":[[[130.4625,33.066666666666684],[130.45,33.066666666666684],[130.45,33.075],[130.4625,33.075],[130.4625,33.066666666666684]]]}},{"type":"Feature","id":"40202:49304387","properties":{"id":"40202:49304387","meshCode":"49304387","cityCode":"40202","city":"大牟田市","lat":33.0708333,"lon":130.46875,"areaKm2":1.0786211,"populated2020":true,"population2020":2734.0041,"populationNote":"収録500mメッシュ人口の合算（原典収録外は補完しない）"},"geometry":{"type":"Polygon","coordinates":[[[130.475,33.066666666666684],[130.4625,33.066666666666684],[130.4625,33.075],[130.475,33.074999999999996],[130.475,33.066666666666684]]]}},{"type":"Feature","id":"40202:49304388","properties":{"id":"40202:49304388","meshCode":"49304388","cityCode":"40202","city":"大牟田市","lat":33.0708333,"lon":130.48125,"areaKm2":1.0786182,"populated2020":true,"population2020":4095.4106,"populationNote":"収録500mメッシュ人口の合算（原典収録外は補完しない）"},"geometry":{"type":"Polygon","coordinates":[[[130.4875,33.06666666666668],[130.475,33.066666666666684],[130.475,33.074999999999996],[130.4875,33.075],[130.4875,33.06666666666668]]]}},{"type":"Feature","id":"40202:49304389","properties":{"id":"40202:49304389","meshCode":"49304389","cityCode":"40202","city":"大牟田市","lat":33.0708333,"lon":130.49375,"areaKm2":1.0786151,"populated2020":true,"population2020":647.4588,"populationNote":"収録500mメッシュ人口の合算（原典収録外は補完しない）"},"geometry":{"type":"Polygon","coordinates":[[[130.5,33.06666666666668],[130.4875,33.06666666666668],[130.4875,33.075],[130.5,33.074999999999996],[130.5,33.06666666666668]]]}},{"type":"Feature","id":"40202:49304480","properties":{"id":"40202:49304480","meshCode":"49304480","cityCode":"40202","city":"大牟田市","lat":33.0708333,"lon":130.50625,"areaKm2":1.0786122,"populated2020":true,"population2020":248.0295,"populationNote":"収録500mメッシュ人口の合算（原典収録外は補完しない）"},"geometry":{"type":"Polygon","coordinates":[[[130.5125,33.06666666666668],[130.5,33.06666666666668],[130.5,33.074999999999996],[130.5125,33.075],[130.5125,33.06666666666668]]]}},{"type":"Feature","id":"40202:49304481","properties":{"id":"40202:49304481","meshCode":"49304481","cityCode":"40202","city":"大牟田市","lat":33.0708333,"lon":130.51875,"areaKm2":1.0786094,"populated2020":false,"population2020":null,"populationNote":"境界またぎ・収録外等のため人口未集計"},"geometry":{"type":"Polygon","coordinates":[[[130.525,33.066666666666684],[130.5125,33.06666666666668],[130.5125,33.075],[130.525,33.075],[130.525,33.066666666666684]]]}},{"type":"Feature","id":"40202:49304482","properties":{"id":"40202:49304482","meshCode":"49304482","cityCode":"40202","city":"大牟田市","lat":33.0710981,"lon":130.5293509,"areaKm2":0.7392871,"populated2020":true,"population2020":137.8439,"populationNote":"収録500mメッシュ人口の合算（原典収録外は補完しない）"},"geometry":{"type":"Polygon","coordinates":[[[130.531420337,33.066818838],[130.531967497,33.067224251999995],[130.532267471,33.067204649],[130.5322449939304,33.06666666666669],[130.5256055134938,33.066666666666684],[130.525292892,33.066721054],[130.525,33.066666666666684],[130.525,33.075],[130.535531712,33.074999999999996],[130.535596783,33.074794135000005],[130.535474553,33.07404497299999],[130.535312879,33.073769414],[130.534800636,33.073896829],[130.534717821,33.073565054],[130.53454463,33.073438270000004],[130.533753969,33.07319101800001],[130.533696239,33.073114964000006],[130.533695396,33.071727234],[130.533453113,33.071381378],[130.533220078,33.07007356799999],[130.532948132,33.069963568],[130.532634527,33.070030513999995],[130.532544514,33.06975828800001],[130.533063411,33.069804676],[130.53316952,33.069744676],[130.533564228,33.06896023400001],[130.533591167,33.06873773],[130.532874501,33.067943009],[130.532478664,33.067898838000005],[130.532210895,33.068019396000004],[130.532009235,33.067908009],[130.531770065,33.067511063000005],[130.531236174,33.066929675999994],[130.531420337,33.066818838]]]}},{"type":"Feature","id":"40202:49304394","properties":{"id":"40202:49304394","meshCode":"49304394","cityCode":"40202","city":"大牟田市","lat":33.0755992,"lon":130.4368054,"areaKm2":0.0448063,"populated2020":true,"population2020":null,"populationNote":"境界またぎ・収録外等のため人口未集計"},"geometry":{"type":"Polygon","coordinates":[[[130.427837782,33.075],[130.428604721,33.07547777500001],[130.43004083,33.075755559],[130.431102503,33.075260279],[130.431734994,33.07509166700001],[130.432638054,33.075039441],[130.433884163,33.07546833300001],[130.435490272,33.07545861300001],[130.435851115,33.075513054],[130.4375,33.07607900854531],[130.4375,33.074999999999996],[130.427837782,33.075]]]}},{"type":"Feature","id":"40202:49304395","properties":{"id":"40202:49304395","meshCode":"49304395","cityCode":"40202","city":"大牟田市","lat":33.0777062,"lon":130.4460384,"areaKm2":0.4915392,"populated2020":true,"population2020":null,"populationNote":"境界またぎ・収録外等のため人口未集計"},"geometry":{"type":"Polygon","coordinates":[[[130.4375,33.07607900854531],[130.439146939,33.07593916199999],[130.439542218,33.07606805399999],[130.440589728,33.076489441],[130.443766667,33.07816],[130.444745279,33.078804162000004],[130.44523917,33.07935944100001],[130.446543606,33.08050444100001],[130.447413333,33.080975279],[130.447615551,33.081168613],[130.448001115,33.081832774999995],[130.4486753571064,33.08333333333333],[130.45,33.083333333333336],[130.45,33.075],[130.4375,33.074999999999996],[130.4375,33.07607900854531]]]}},{"type":"Feature","id":"40202:49304396","properties":{"id":"40202:49304396","meshCode":"49304396","cityCode":"40202","city":"大牟田市","lat":33.0791667,"lon":130.45625,"areaKm2":1.078524,"populated2020":true,"population2020":660.7701,"populationNote":"収録500mメッシュ人口の合算（原典収録外は補完しない）"},"geometry":{"type":"Polygon","coordinates":[[[130.4625,33.075],[130.45,33.075],[130.45,33.083333333333336],[130.4625,33.08333333333334],[130.4625,33.075]]]}},{"type":"Feature","id":"40202:49304397","properties":{"id":"40202:49304397","meshCode":"49304397","cityCode":"40202","city":"大牟田市","lat":33.0791667,"lon":130.46875,"areaKm2":1.078521,"populated2020":true,"population2020":1646.3721,"populationNote":"収録500mメッシュ人口の合算（原典収録外は補完しない）"},"geometry":{"type":"Polygon","coordinates":[[[130.475,33.074999999999996],[130.4625,33.075],[130.4625,33.08333333333334],[130.475,33.08333333333333],[130.475,33.074999999999996]]]}},{"type":"Feature","id":"40202:49304398","properties":{"id":"40202:49304398","meshCode":"49304398","cityCode":"40202","city":"大牟田市","lat":33.0791667,"lon":130.48125,"areaKm2":1.0785178,"populated2020":true,"population2020":1920.9701,"populationNote":"収録500mメッシュ人口の合算（原典収録外は補完しない）"},"geometry":{"type":"Polygon","coordinates":[[[130.4875,33.075],[130.475,33.074999999999996],[130.475,33.08333333333333],[130.4875,33.083333333333336],[130.4875,33.075]]]}},{"type":"Feature","id":"40202:49304399","properties":{"id":"40202:49304399","meshCode":"49304399","cityCode":"40202","city":"大牟田市","lat":33.0791667,"lon":130.49375,"areaKm2":1.0785149,"populated2020":true,"population2020":292.433,"populationNote":"収録500mメッシュ人口の合算（原典収録外は補完しない）"},"geometry":{"type":"Polygon","coordinates":[[[130.5,33.074999999999996],[130.4875,33.075],[130.4875,33.083333333333336],[130.5,33.083333333333336],[130.5,33.074999999999996]]]}},{"type":"Feature","id":"40202:49304490","properties":{"id":"40202:49304490","meshCode":"49304490","cityCode":"40202","city":"大牟田市","lat":33.0791667,"lon":130.50625,"areaKm2":1.078512,"populated2020":true,"population2020":159.0571,"populationNote":"収録500mメッシュ人口の合算（原典収録外は補完しない）"},"geometry":{"type":"Polygon","coordinates":[[[130.5125,33.075],[130.5,33.074999999999996],[130.5,33.083333333333336],[130.5125,33.083333333333336],[130.5125,33.075]]]}},{"type":"Feature","id":"40202:49304491","properties":{"id":"40202:49304491","meshCode":"49304491","cityCode":"40202","city":"大牟田市","lat":33.0791167,"lon":130.5186842,"areaKm2":1.0648403,"populated2020":false,"population2020":null,"populationNote":"境界またぎ・収録外等のため人口未集計"},"geometry":{"type":"Polygon","coordinates":[[[130.525,33.075],[130.5125,33.075],[130.5125,33.083333333333336],[130.5224082878883,33.083333333333336],[130.522521751,33.083000117],[130.522715914,33.082920404999996],[130.523095383,33.08292986500001],[130.523818742,33.082764892],[130.525,33.082635964000005],[130.525,33.075]]]}},{"type":"Feature","id":"40202:49304492","properties":{"id":"40202:49304492","meshCode":"49304492","cityCode":"40202","city":"大牟田市","lat":33.0792861,"lon":130.5308804,"areaKm2":0.9793789,"populated2020":true,"population2020":116.3788,"populationNote":"収録500mメッシュ人口の合算（原典収録外は補完しない）"},"geometry":{"type":"Polygon","coordinates":[[[130.536858742,33.079288865],[130.536122633,33.07849497299999],[130.535598184,33.078338026999994],[130.535367912,33.07805191],[130.535303463,33.077701080999994],[130.535355123,33.077286081000004],[130.535193178,33.07632608099999],[130.535367899,33.076196919],[130.535846783,33.076150532],[130.535878171,33.076077198],[130.535477263,33.075187559],[130.535531712,33.074999999999996],[130.525,33.075],[130.525,33.082635964000005],[130.525197665,33.082610495000004],[130.52567572,33.082769937],[130.526252944,33.082740775000005],[130.527220169,33.08300882900001],[130.527538223,33.083177162000005],[130.52777655,33.08317716199999],[130.528229883,33.083022171],[130.5286294698152,33.083333333333336],[130.5375,33.083333333333336],[130.5375,33.07955243539322],[130.536858742,33.079288865]]]}},{"type":"Feature","id":"40202:49304493","properties":{"id":"40202:49304493","meshCode":"49304493","cityCode":"40202","city":"大牟田市","lat":33.0817174,"lon":130.5394641,"areaKm2":0.1427717,"populated2020":true,"population2020":49.5677,"populationNote":"収録500mメッシュ人口の合算（原典収録外は補完しない）"},"geometry":{"type":"Polygon","coordinates":[[[130.542229585,33.083333333],[130.54230426700002,33.082378874],[130.542453424,33.081735261],[130.54215537,33.081429703],[130.542090921,33.08141582],[130.542026213,33.08205275700001],[130.54136677,33.082011089999995],[130.540392049,33.080848865],[130.540264267,33.08060609000001],[130.540213437,33.080135811],[130.539973722,33.079753586],[130.539770947,33.079635811],[130.539085396,33.07955664000001],[130.5375,33.07955243539322],[130.5375,33.083333333333336],[130.542229585,33.083333333]]]}},{"type":"Feature","id":"40202:49305305","properties":{"id":"40202:49305305","meshCode":"49305305","cityCode":"40202","city":"大牟田市","lat":33.0840235,"lon":130.4495106,"areaKm2":0.0173245,"populated2020":true,"population2020":null,"populationNote":"境界またぎ・収録外等のため人口未集計"},"geometry":{"type":"MultiPolygon","coordinates":[[[[130.448914994,33.08390944100001],[130.449623891,33.084603613],[130.45,33.08487336],[130.45,33.083333333333336],[130.4486753571064,33.08333333333333],[130.448914994,33.08390944100001]]],[[[130.449853333,33.086172225],[130.449786109,33.087401108],[130.449593333,33.087888613000004],[130.449678612,33.087911667],[130.45,33.08789189200001],[130.45,33.08603769400001],[130.449853333,33.086172225]]]]}},{"type":"Feature","id":"40202:49305306","properties":{"id":"40202:49305306","meshCode":"49305306","cityCode":"40202","city":"大牟田市","lat":33.0858785,"lon":130.4566191,"areaKm2":0.6472444,"populated2020":true,"population2020":null,"populationNote":"境界またぎ・収録外等のため人口未集計"},"geometry":{"type":"Polygon","coordinates":[[[130.45,33.08487336],[130.450750272,33.085488054],[130.450426667,33.085815279],[130.45,33.08603769400001],[130.45,33.08789189200001],[130.451723061,33.087679441000006],[130.453762776,33.087951946],[130.45453166,33.08794638700001],[130.454968327,33.08806972099999],[130.455433606,33.08841666699999],[130.455812218,33.088330559],[130.456806394,33.088700559],[130.457584163,33.08868638700001],[130.45769000000004,33.08873222500001],[130.457713606,33.088973054],[130.458385551,33.088815279],[130.459132218,33.088465559],[130.459563891,33.08857166699999],[130.45986917,33.088953054],[130.460467782,33.088964441],[130.461006667,33.088878613],[130.461359442,33.089102225],[130.461482218,33.089099441],[130.462271946,33.088832495000005],[130.4625,33.08885410162331],[130.4625,33.08333333333334],[130.45,33.083333333333336],[130.45,33.08487336]]]}},{"type":"Feature","id":"40202:49305307","properties":{"id":"40202:49305307","meshCode":"49305307","cityCode":"40202","city":"大牟田市","lat":33.0859023,"lon":130.4687232,"areaKm2":0.6590218,"populated2020":true,"population2020":null,"populationNote":"境界またぎ・収録外等のため人口未集計"},"geometry":{"type":"Polygon","coordinates":[[[130.475,33.08333333333333],[130.4625,33.08333333333334],[130.4625,33.08885410162331],[130.463588327,33.08918249500001],[130.464485279,33.08899610800001],[130.464996939,33.088591667],[130.465404449,33.087986666999996],[130.465709728,33.087846387],[130.465767782,33.08764249499999],[130.46605083,33.087591108],[130.466986939,33.087731667],[130.46846693900002,33.088210559],[130.469908054,33.088302225],[130.470718054,33.088580559],[130.471166667,33.088967775],[130.471586109,33.089065278999996],[130.472018885,33.089053613],[130.472365279,33.088938892],[130.472600558,33.088348054],[130.473098612,33.08796666700001],[130.473507782,33.088041387000004],[130.474360558,33.088557495],[130.475,33.088740892000004],[130.475,33.08333333333333]]]}},{"type":"Feature","id":"40202:49305308","properties":{"id":"40202:49305308","meshCode":"49305308","cityCode":"40202","city":"大牟田市","lat":33.0850852,"lon":130.4800739,"areaKm2":0.402786,"populated2020":true,"population2020":null,"populationNote":"境界またぎ・収録外等のため人口未集計"},"geometry":{"type":"Polygon","coordinates":[[[130.481472218,33.086676387],[130.481714994,33.086189721],[130.482003606,33.085936387],[130.482626939,33.085623333],[130.482764721,33.085215279],[130.483095837,33.08503082899999],[130.483483061,33.085017775],[130.484880272,33.085293892],[130.485883891,33.085208333],[130.48617917,33.085251108],[130.486605551,33.085527495],[130.486871115,33.085616108],[130.487176394,33.08556694600001],[130.4875,33.08569618687298],[130.4875,33.083333333333336],[130.475,33.08333333333333],[130.475,33.088740892000004],[130.475381946,33.088764162],[130.475504721,33.08870389199999],[130.475755551,33.088144441],[130.476166394,33.087674162],[130.476586109,33.087602495],[130.47705832700004,33.087705829],[130.47746083,33.087413054],[130.477806939,33.087312775],[130.478042503,33.086948892],[130.478154994,33.086908613],[130.479206939,33.087037775],[130.479933333,33.087284440999994],[130.480255551,33.087118054],[130.481183333,33.08685416200001],[130.481472218,33.086676387]]]}},{"type":"Feature","id":"40202:49305309","properties":{"id":"40202:49305309","meshCode":"49305309","cityCode":"40202","city":"大牟田市","lat":33.0859561,"lon":130.4949659,"areaKm2":0.6051026,"populated2020":true,"population2020":5.0869,"populationNote":"収録500mメッシュ人口の合算（原典収録外は補完しない）"},"geometry":{"type":"Polygon","coordinates":[[[130.487943891,33.085856387],[130.488714721,33.08582027900001],[130.488935837,33.085994721],[130.490155837,33.08644222499999],[130.491297497,33.086573892],[130.492989728,33.08723472100001],[130.494829442,33.088372775],[130.495541946,33.08941277500001],[130.495656394,33.089927775],[130.495758885,33.090004721],[130.497126939,33.090033613],[130.49731,33.089994999999995],[130.497578885,33.089768892],[130.49846166,33.089841666999995],[130.5,33.090122775000005],[130.5,33.083333333333336],[130.4875,33.083333333333336],[130.4875,33.08569618687298],[130.487943891,33.085856387]]]}},{"type":"Feature","id":"40202:49305400","properties":{"id":"40202:49305400","meshCode":"49305400","cityCode":"40202","city":"大牟田市","lat":33.0873004,"lon":130.5064784,"areaKm2":1.0216855,"populated2020":true,"population2020":27.3051,"populationNote":"収録500mメッシュ人口の合算（原典収録外は補完しない）"},"geometry":{"type":"Polygon","coordinates":[[[130.5125,33.083333333333336],[130.5,33.083333333333336],[130.5,33.090122775000005],[130.500564721,33.090070829000005],[130.501316939,33.090344721],[130.501826109,33.09040389200001],[130.502947782,33.090685279000006],[130.503301946,33.090929441000014],[130.503965837,33.090944441],[130.504467782,33.091158891999996],[130.50536083000003,33.091329162],[130.50597713319306,33.09166666666667],[130.5125,33.09166666666667],[130.5125,33.083333333333336]]]}},{"type":"Feature","id":"40202:49305401","properties":{"id":"40202:49305401","meshCode":"49305401","cityCode":"40202","city":"大牟田市","lat":33.0873326,"lon":130.5165533,"areaKm2":0.6933617,"populated2020":false,"population2020":null,"populationNote":"境界またぎ・収録外等のため人口未集計"},"geometry":{"type":"Polygon","coordinates":[[[130.519741803,33.087384036],[130.519653191,33.087058486],[130.520490195,33.086109377999996],[130.520728833,33.085444964],[130.522159767,33.083921468],[130.5224082878883,33.083333333333336],[130.5125,33.083333333333336],[130.5125,33.09166666666667],[130.51963011754208,33.09166666666667],[130.520279455,33.091231964],[130.520405019,33.090965586],[130.5202131,33.09024782899999],[130.519977549,33.089966450000006],[130.51993339800003,33.08962618],[130.520191479,33.088975099],[130.520228444,33.088420117],[130.520110402,33.088013189],[130.519741803,33.087384036]]]}},{"type":"Feature","id":"40202:49305402","properties":{"id":"40202:49305402","meshCode":"49305402","cityCode":"40202","city":"大牟田市","lat":33.0860685,"lon":130.535183,"areaKm2":0.2869407,"populated2020":false,"population2020":null,"populationNote":"境界またぎ・収録外等のため人口未集計"},"geometry":{"type":"Polygon","coordinates":[[[130.529386809,33.083695766000005],[130.530019585,33.08381493700001],[130.530687639,33.08376882899999],[130.531088197,33.083876883],[130.531441518,33.084346315],[130.531688742,33.084497144],[130.531856511,33.08442603600001],[130.532112348,33.084476314999996],[130.532386226,33.085382685],[130.533402062,33.085444919],[130.533916783,33.085752144000004],[130.534055668,33.085967414],[130.534082062,33.086259909999995],[130.534033437,33.086676847],[130.533786213,33.086961009],[130.53380454000003,33.087430721000004],[130.534066485,33.087719054],[130.534627328,33.08797073000001],[130.534885383,33.08819267599999],[130.535335383,33.088844072],[130.535534553,33.089487964],[130.535394267,33.090124333],[130.535548988,33.090509063000006],[130.535940117,33.090664630999996],[130.536338457,33.090501865],[130.5375,33.09061044287709],[130.5375,33.083333333333336],[130.5286294698152,33.083333333333336],[130.529162931,33.083460495],[130.529386809,33.083695766000005]]]}},{"type":"Feature","id":"40202:49305403","properties":{"id":"40202:49305403","meshCode":"49305403","cityCode":"40202","city":"大牟田市","lat":33.0860802,"lon":130.5392603,"areaKm2":0.2220607,"populated2020":true,"population2020":null,"populationNote":"境界またぎ・収録外等のため人口未集計"},"geometry":{"type":"Polygon","coordinates":[[[130.540094021,33.08686108999999],[130.540749844,33.086055252],[130.541279559,33.086267756999995],[130.541509287,33.08603775699999],[130.54183594,33.085275811],[130.541977328,33.08511636899999],[130.542180389,33.085036649],[130.542092049,33.08391164900001],[130.54222958497598,33.083333333333336],[130.5375,33.083333333333336],[130.5375,33.09061044287709],[130.53904487700004,33.090618027],[130.538891258,33.090183577],[130.53886904,33.08965830599999],[130.539629027,33.087682477],[130.540094021,33.08686108999999]]]}},{"type":"Feature","id":"40202:49305410","properties":{"id":"40202:49305410","meshCode":"49305410","cityCode":"40202","city":"大牟田市","lat":33.0948762,"lon":130.5096229,"areaKm2":0.3997799,"populated2020":false,"population2020":null,"populationNote":"境界またぎ・収録外等のため人口未集計"},"geometry":{"type":"Polygon","coordinates":[[[130.50597713319306,33.09166666666667],[130.506791946,33.091980279],[130.50679917,33.092135829],[130.506555837,33.092394721],[130.506231115,33.093016387000006],[130.505869728,33.094873891999995],[130.506696109,33.095199441],[130.507256667,33.095606387],[130.507286109,33.096827225],[130.507352503,33.097086108],[130.507699442,33.097493332999996],[130.507839442,33.09801861300001],[130.508304449,33.098277775],[130.509691388,33.098566387],[130.510908612,33.098514721],[130.511521115,33.09858110799999],[130.5125,33.09822804442546],[130.5125,33.09166666666667],[130.50597713319306,33.09166666666667]]]}},{"type":"Feature","id":"40202:49305411","properties":{"id":"40202:49305411","meshCode":"49305411","cityCode":"40202","city":"大牟田市","lat":33.0943605,"lon":130.515147,"areaKm2":0.322766,"populated2020":false,"population2020":null,"populationNote":"境界またぎ・収録外等のため人口未集計"},"geometry":{"type":"Polygon","coordinates":[[[130.519121115,33.092031387],[130.51963011754208,33.09166666666667],[130.5125,33.09166666666667],[130.5125,33.09822804442546],[130.513026394,33.098210829],[130.51360917,33.09807777500001],[130.514184721,33.097789162],[130.51512917,33.097071108],[130.51583,33.096819440999994],[130.516715551,33.09661222500001],[130.51715083,33.096375559],[130.517541946,33.095798054],[130.517645279,33.09526527900001],[130.517836939,33.09496944100001],[130.517866394,33.09422222500002],[130.518368327,33.093696667],[130.518264994,33.093001108],[130.519121115,33.092031387]]]}}]}