{"type":"FeatureCollection","metadata":{"cityCode":"40206","city":"田川市","resolution":1000,"boundaryDate":"2026-01-01","populationLabel":"2020年基準人口（国交省調整値）","method":"標準地域メッシュを行政界で切抜き。中心が区域外のとき区域内代表点を判定点にする。人口不明をゼロにしない。"},"features":[{"type":"Feature","id":"40206:50302681","properties":{"id":"40206:50302681","meshCode":"50302681","cityCode":"40206","city":"田川市","lat":33.5711324,"lon":130.7739719,"areaKm2":0.0434489,"populated2020":true,"population2020":null,"populationNote":"境界またぎ・収録外等のため人口未集計"},"geometry":{"type":"Polygon","coordinates":[[[130.775,33.56955349500001],[130.77434832700004,33.569908892],[130.773836394,33.570463054],[130.772875837,33.570782775],[130.772580272,33.57103],[130.772311946,33.571439441],[130.772311946,33.57180027900001],[130.774207782,33.57194916200001],[130.775,33.572516441],[130.775,33.56955349500001]]]}},{"type":"Feature","id":"40206:50302682","properties":{"id":"40206:50302682","meshCode":"50302682","cityCode":"40206","city":"田川市","lat":33.5716767,"lon":130.7813651,"areaKm2":0.8072626,"populated2020":false,"population2020":null,"populationNote":"境界またぎ・収録外等のため人口未集計"},"geometry":{"type":"Polygon","coordinates":[[[130.780703606,33.56808055900001],[130.779852503,33.567298892],[130.779414721,33.567186946],[130.779241388,33.567265829],[130.779103891,33.56751472100001],[130.778914449,33.568665279],[130.776989728,33.568638613],[130.776681946,33.568830279000004],[130.776492503,33.56912749499999],[130.775666109,33.569240829],[130.775,33.56955349500001],[130.775,33.572516441],[130.776006667,33.57323916199999],[130.77678083,33.574248054],[130.775615837,33.57451472100001],[130.775316109,33.574733333],[130.775255551,33.575],[130.7875,33.575],[130.7875,33.57023459916486],[130.787040558,33.570095279],[130.78681083,33.56993666700001],[130.78648832700003,33.569523892],[130.78635083,33.569141387],[130.785678327,33.568876387],[130.78514444900003,33.568310279],[130.78364888500002,33.568261108],[130.782673606,33.56813555899999],[130.780886394,33.568154721],[130.780703606,33.56808055900001]]]}},{"type":"Feature","id":"40206:50302683","properties":{"id":"40206:50302683","meshCode":"50302683","cityCode":"40206","city":"田川市","lat":33.5733843,"lon":130.7897068,"areaKm2":0.1601311,"populated2020":true,"population2020":null,"populationNote":"境界またぎ・収録外等のため人口未集計"},"geometry":{"type":"Polygon","coordinates":[[[130.788733333,33.570468892],[130.7875,33.57023459916486],[130.7875,33.575],[130.794873696,33.575],[130.793422503,33.57454222500001],[130.792736667,33.573707495],[130.792341388,33.57339110800001],[130.791605551,33.573325829],[130.790775279,33.572977225],[130.789460558,33.573050279000014],[130.789639728,33.572636667],[130.789397224,33.571597774999994],[130.788733333,33.570468892]]]}},{"type":"Feature","id":"40206:50302691","properties":{"id":"40206:50302691","meshCode":"50302691","cityCode":"40206","city":"田川市","lat":33.5807095,"lon":130.7707262,"areaKm2":0.5040097,"populated2020":false,"population2020":null,"populationNote":"境界またぎ・収録外等のため人口未集計"},"geometry":{"type":"Polygon","coordinates":[[[130.775,33.575883721000004],[130.774557782,33.57779777500001],[130.773644994,33.577885559],[130.773564163,33.577855],[130.773431388,33.577263892],[130.773025551,33.576557225],[130.771842218,33.575940558999996],[130.771343061,33.57678500000001],[130.770531388,33.577615828999996],[130.770130272,33.578726108],[130.769831946,33.57916889199999],[130.769413606,33.579346946],[130.767028885,33.579859721],[130.766532503,33.58037666700001],[130.76437083,33.58213916199999],[130.7641,33.582704162],[130.7640197799703,33.583333333333336],[130.775,33.583333333333336],[130.775,33.575883721000004]]]}},{"type":"Feature","id":"40206:50302692","properties":{"id":"40206:50302692","meshCode":"50302692","cityCode":"40206","city":"田川市","lat":33.5791704,"lon":130.781256,"areaKm2":1.0713726,"populated2020":true,"population2020":386.8904,"populationNote":"収録500mメッシュ人口の合算（原典収録外は補完しない）"},"geometry":{"type":"Polygon","coordinates":[[[130.775,33.575883721000004],[130.775,33.583333333333336],[130.7875,33.583333333333336],[130.7875,33.575],[130.775255551,33.575],[130.775,33.575883721000004]]]}},{"type":"Feature","id":"40206:50302693","properties":{"id":"40206:50302693","meshCode":"50302693","cityCode":"40206","city":"田川市","lat":33.579618,"lon":130.7915869,"areaKm2":0.663835,"populated2020":true,"population2020":126.6504,"populationNote":"収録500mメッシュ人口の合算（原典収録外は補完しない）"},"geometry":{"type":"Polygon","coordinates":[[[130.793929442,33.57615833300001],[130.794306394,33.57602],[130.794841388,33.575588333],[130.795223891,33.575480559],[130.795224994,33.575185],[130.794873696,33.575],[130.7875,33.575],[130.7875,33.583333333333336],[130.79795214000393,33.58333333333334],[130.797898054,33.582240279],[130.797443061,33.581930279000005],[130.797052503,33.581020559],[130.796414721,33.580361108000005],[130.796071388,33.580065559],[130.79513166,33.579923054],[130.79480166,33.579655],[130.794231115,33.579348333000006],[130.79386083,33.578965829],[130.793032776,33.57873166700001],[130.79287138800004,33.578195279],[130.793004994,33.57787416199999],[130.793017497,33.577385279],[130.793124163,33.577171946],[130.79357166,33.576746108],[130.793929442,33.57615833300001]]]}},{"type":"Feature","id":"40206:50303600","properties":{"id":"40206:50303600","meshCode":"50303600","cityCode":"40206","city":"田川市","lat":33.5871618,"lon":130.7622348,"areaKm2":0.0113158,"populated2020":false,"population2020":null,"populationNote":"境界またぎ・収録外等のため人口未集計"},"geometry":{"type":"Polygon","coordinates":[[[130.762097224,33.586287225],[130.761908054,33.586721387],[130.761919442,33.587289162],[130.761838885,33.587498892],[130.761893891,33.58773805399999],[130.7625,33.58836514282381],[130.7625,33.585917953955274],[130.762097224,33.586287225]]]}},{"type":"Feature","id":"40206:50303601","properties":{"id":"40206:50303601","meshCode":"50303601","cityCode":"40206","city":"田川市","lat":33.5874387,"lon":130.7691429,"areaKm2":0.9999251,"populated2020":true,"population2020":3.0285,"populationNote":"収録500mメッシュ人口の合算（原典収録外は補完しない）"},"geometry":{"type":"Polygon","coordinates":[[[130.764030272,33.584037495],[130.76413917,33.58420110800001],[130.763553333,33.584475559],[130.763036667,33.585294162],[130.7625,33.585917953955274],[130.7625,33.58836514282381],[130.763074994,33.589100559],[130.763279442,33.589483892],[130.764275551,33.5902],[130.764693061,33.590835279],[130.7650065238049,33.591666666666676],[130.775,33.591666666666676],[130.775,33.583333333333336],[130.7640197799703,33.583333333333336],[130.764030272,33.584037495]]]}},{"type":"Feature","id":"40206:50303602","properties":{"id":"40206:50303602","meshCode":"50303602","cityCode":"40206","city":"田川市","lat":33.5875,"lon":130.78125,"areaKm2":1.0723088,"populated2020":true,"population2020":95.7232,"populationNote":"収録500mメッシュ人口の合算（原典収録外は補完しない）"},"geometry":{"type":"Polygon","coordinates":[[[130.7875,33.583333333333336],[130.775,33.583333333333336],[130.775,33.591666666666676],[130.7875,33.591666666666676],[130.7875,33.583333333333336]]]}},{"type":"Feature","id":"40206:50303603","properties":{"id":"40206:50303603","meshCode":"50303603","cityCode":"40206","city":"田川市","lat":33.5875479,"lon":130.7926759,"areaKm2":0.8865497,"populated2020":true,"population2020":159.8653,"populationNote":"収録500mメッシュ人口の合算（原典収録外は補完しない）"},"geometry":{"type":"Polygon","coordinates":[[[130.797913333,33.58746389200001],[130.797938054,33.586980829],[130.797611115,33.586557495],[130.797382218,33.585989162],[130.797547782,33.585103613],[130.797928612,33.584493054000006],[130.79795214000393,33.58333333333334],[130.7875,33.583333333333336],[130.7875,33.591666666666676],[130.7988808949544,33.591666666666676],[130.79854416300003,33.590584162],[130.797915837,33.589951667],[130.797778054,33.589545558999994],[130.797368885,33.588872775],[130.797355837,33.587848613000006],[130.797913333,33.58746389200001]]]}},{"type":"Feature","id":"40206:50303611","properties":{"id":"40206:50303611","meshCode":"50303611","cityCode":"40206","city":"田川市","lat":33.5945311,"lon":130.7726164,"areaKm2":0.2751885,"populated2020":false,"population2020":null,"populationNote":"境界またぎ・収録外等のため人口未集計"},"geometry":{"type":"MultiPolygon","coordinates":[[[[130.765100272,33.59189416200001],[130.765485551,33.59189],[130.7656971734016,33.591666666666676],[130.7650065238049,33.591666666666676],[130.765100272,33.59189416200001]]],[[[130.766164163,33.59188166700001],[130.766626939,33.591826387],[130.76720083,33.592163054],[130.767845837,33.592146107999994],[130.768214994,33.592269161999994],[130.768369442,33.592178053999994],[130.768572776,33.591841108],[130.76915166,33.592635559],[130.769665837,33.593116386999995],[130.769962503,33.594149720999994],[130.770138327,33.594439721],[130.77031083,33.594518613],[130.771108612,33.594565],[130.771496939,33.594747225],[130.771861115,33.594632774999994],[130.772336109,33.594736946],[130.773272776,33.595164441],[130.773958054,33.595380559],[130.774314721,33.595592495000005],[130.775,33.59568919800001],[130.775,33.591666666666676],[130.76589919542332,33.591666666666676],[130.766164163,33.59188166700001]]],[[[130.77446917,33.595956946],[130.77306917,33.596746945999996],[130.773011115,33.59719416200001],[130.772343333,33.598072495],[130.772035279,33.598959721],[130.773096394,33.59893249500001],[130.773865837,33.599692774999994],[130.774572776,33.599703333],[130.774860052,33.60000000000001],[130.775,33.6],[130.775,33.595871802000005],[130.77446917,33.595956946]]]]}},{"type":"Feature","id":"40206:50303612","properties":{"id":"40206:50303612","meshCode":"50303612","cityCode":"40206","city":"田川市","lat":33.5958333,"lon":130.7812511,"areaKm2":1.0720192,"populated2020":false,"population2020":null,"populationNote":"境界またぎ・収録外等のため人口未集計"},"geometry":{"type":"Polygon","coordinates":[[[130.775178327,33.595745],[130.775,33.595871802000005],[130.775,33.6],[130.7875,33.6],[130.7875,33.591666666666676],[130.775,33.591666666666676],[130.775,33.59568919800001],[130.775178327,33.595745]]]}},{"type":"Feature","id":"40206:50303613","properties":{"id":"40206:50303613","meshCode":"50303613","cityCode":"40206","city":"田川市","lat":33.5956376,"lon":130.7931463,"areaKm2":0.9550064,"populated2020":true,"population2020":null,"populationNote":"境界またぎ・収録外等のため人口未集計"},"geometry":{"type":"Polygon","coordinates":[[[130.79938166,33.596540559],[130.799717224,33.595260559],[130.799647782,33.594876387],[130.799742218,33.594148613],[130.799493333,33.593376946],[130.799053333,33.593043613000006],[130.798898327,33.592797775],[130.79883,33.592488054],[130.798918612,33.59202444099999],[130.7988808949544,33.591666666666676],[130.7875,33.591666666666676],[130.7875,33.6],[130.796312866,33.6],[130.796114163,33.599761107999996],[130.795985551,33.599415],[130.796179442,33.599187225],[130.796429442,33.59908610800001],[130.796725551,33.597842495],[130.797914163,33.59803055900001],[130.798718054,33.597891946000004],[130.799153333,33.598028613],[130.799248612,33.597951946],[130.799385279,33.597509721],[130.799364163,33.597302495],[130.799194163,33.597117775],[130.799208054,33.59696694600001],[130.799428054,33.596653892],[130.79938166,33.596540559]]]}},{"type":"Feature","id":"40206:50303621","properties":{"id":"40206:50303621","meshCode":"50303621","cityCode":"40206","city":"田川市","lat":33.6052569,"lon":130.7747622,"areaKm2":0.0077123,"populated2020":false,"population2020":null,"populationNote":"境界またぎ・収録外等のため人口未集計"},"geometry":{"type":"MultiPolygon","coordinates":[[[[130.774975837,33.60022000000001],[130.775,33.6],[130.774860052,33.60000000000001],[130.774975837,33.60022000000001]]],[[[130.774775279,33.601388613],[130.775,33.601660613000014],[130.775,33.601048495],[130.774785837,33.60127861299999],[130.774775279,33.601388613]]],[[[130.775,33.603573559],[130.774795279,33.60394222499999],[130.775,33.604471946],[130.775,33.603573559]]],[[[130.774605837,33.604835829],[130.774486109,33.60553027899999],[130.775,33.60615730600001],[130.775,33.60455305400001],[130.774605837,33.604835829]]]]}},{"type":"Feature","id":"40206:50303622","properties":{"id":"40206:50303622","meshCode":"50303622","cityCode":"40206","city":"田川市","lat":33.6041428,"lon":130.7813715,"areaKm2":1.0504954,"populated2020":true,"population2020":5.0526,"populationNote":"収録500mメッシュ人口の合算（原典収録外は補完しない）"},"geometry":{"type":"Polygon","coordinates":[[[130.775240272,33.600507775],[130.775234994,33.600675],[130.775372776,33.600833892],[130.775,33.601048495],[130.775,33.601660613000014],[130.775277497,33.602038892],[130.775387497,33.602432775],[130.775716939,33.602665559],[130.775714721,33.602811667],[130.775348612,33.60300027900001],[130.775,33.603573559],[130.775,33.60615730600001],[130.775294163,33.606388613],[130.776056939,33.606742225000005],[130.776145837,33.606964441],[130.775494721,33.60781166700001],[130.775086394,33.607978892],[130.775077782,33.608125],[130.77520930017295,33.608333333333334],[130.7875,33.608333333333334],[130.7875,33.6],[130.775,33.6],[130.775,33.600245748],[130.775240272,33.600507775]]]}},{"type":"Feature","id":"40206:50303623","properties":{"id":"40206:50303623","meshCode":"50303623","cityCode":"40206","city":"田川市","lat":33.6043724,"lon":130.79286,"areaKm2":0.9121783,"populated2020":true,"population2020":null,"populationNote":"境界またぎ・収録外等のため人口未集計"},"geometry":{"type":"Polygon","coordinates":[[[130.798375551,33.60414749499999],[130.797422776,33.60367416199999],[130.797372503,33.603582225],[130.797358327,33.60299555899999],[130.797513061,33.602295279],[130.797417224,33.60166722499999],[130.79681,33.600603891999995],[130.796312866,33.6],[130.7875,33.6],[130.7875,33.608333333333334],[130.79913516196754,33.608333333333334],[130.799304163,33.60714861299999],[130.799522503,33.606356946],[130.799358612,33.606100829],[130.798761115,33.605579162],[130.798587782,33.60501389200001],[130.798068054,33.604652225],[130.798320272,33.604342775],[130.798375551,33.60414749499999]]]}},{"type":"Feature","id":"40206:50303626","properties":{"id":"40206:50303626","meshCode":"50303626","cityCode":"40206","city":"田川市","lat":33.60744,"lon":130.8334221,"areaKm2":0.0635571,"populated2020":true,"population2020":null,"populationNote":"境界またぎ・収録外等のため人口未集計"},"geometry":{"type":"Polygon","coordinates":[[[130.836795837,33.608333333],[130.835600272,33.60791944100001],[130.835198054,33.60751694599999],[130.834933891,33.607488333],[130.834514994,33.607287225],[130.834107497,33.607245829],[130.833876667,33.606974721],[130.833734449,33.606456108],[130.833211388,33.606294999999996],[130.832217224,33.60549972100001],[130.832132503,33.605690279],[130.832150558,33.606179440999995],[130.831986394,33.607348613],[130.831648612,33.607992495],[130.83160910497537,33.608333333333334],[130.836795837,33.608333333]]]}},{"type":"Feature","id":"40206:50303631","properties":{"id":"40206:50303631","meshCode":"50303631","cityCode":"40206","city":"田川市","lat":33.6139505,"lon":130.7693664,"areaKm2":0.6626161,"populated2020":false,"population2020":null,"populationNote":"境界またぎ・収録外等のため人口未集計"},"geometry":{"type":"Polygon","coordinates":[[[130.774356667,33.609568054],[130.77414917,33.609707775],[130.773743333,33.61030194599999],[130.773182503,33.610117495000004],[130.772460272,33.610168333000004],[130.772155551,33.610314162],[130.772013891,33.610528054],[130.771431115,33.61080722500001],[130.771274721,33.61093000000001],[130.771219728,33.611135279],[130.77149917,33.611885829],[130.771453606,33.61198944099999],[130.770981946,33.612317495],[130.770491115,33.612446387],[130.770251115,33.612456946],[130.76975166,33.612199162],[130.768902503,33.612078054],[130.767927224,33.611498333],[130.766057782,33.611006387],[130.765763891,33.611084721],[130.765461388,33.611378613],[130.764495279,33.611692775],[130.763700558,33.612685279],[130.763444449,33.61411194600001],[130.762854449,33.614296108],[130.7625,33.614631883966375],[130.7625,33.61666666666667],[130.775,33.61666666666667],[130.775,33.609588667000004],[130.774356667,33.609568054]]]}},{"type":"Feature","id":"40206:50303632","properties":{"id":"40206:50303632","meshCode":"50303632","cityCode":"40206","city":"田川市","lat":33.6125136,"lon":130.7812733,"areaKm2":1.067905,"populated2020":true,"population2020":69.4551,"populationNote":"収録500mメッシュ人口の合算（原典収録外は補完しない）"},"geometry":{"type":"Polygon","coordinates":[[[130.7754,33.608995279],[130.775375551,33.609263054],[130.775,33.609588667000004],[130.775,33.61666666666667],[130.7875,33.61666666666667],[130.7875,33.608333333333334],[130.77520930017295,33.608333333333334],[130.7754,33.608995279]]]}},{"type":"Feature","id":"40206:50303633","properties":{"id":"40206:50303633","meshCode":"50303633","cityCode":"40206","city":"田川市","lat":33.6121954,"lon":130.7932381,"areaKm2":0.9577202,"populated2020":true,"population2020":null,"populationNote":"境界またぎ・収録外等のため人口未集計"},"geometry":{"type":"Polygon","coordinates":[[[130.8,33.60981402699999],[130.799435551,33.609247775],[130.799263606,33.608963892],[130.79915917,33.608765279],[130.79913516196754,33.608333333333334],[130.7875,33.608333333333334],[130.7875,33.61666666666667],[130.79409158223052,33.61666666666667],[130.794396939,33.616225828999994],[130.794651946,33.616008333],[130.795794994,33.615588054],[130.797687497,33.614749721],[130.798618054,33.614111666999996],[130.8,33.61331036],[130.8,33.60981402699999]]]}},{"type":"Feature","id":"40206:50303634","properties":{"id":"40206:50303634","meshCode":"50303634","cityCode":"40206","city":"田川市","lat":33.6117371,"lon":130.8006094,"areaKm2":0.0345003,"populated2020":true,"population2020":null,"populationNote":"境界またぎ・収録外等のため人口未集計"},"geometry":{"type":"Polygon","coordinates":[[[130.801338612,33.612488892],[130.801640272,33.612213054],[130.801458327,33.611532495],[130.8,33.60981402699999],[130.8,33.61331036],[130.801338612,33.612488892]]]}},{"type":"Feature","id":"40206:50303635","properties":{"id":"40206:50303635","meshCode":"50303635","cityCode":"40206","city":"田川市","lat":33.6141713,"lon":130.8228838,"areaKm2":0.2383794,"populated2020":true,"population2020":null,"populationNote":"境界またぎ・収録外等のため人口未集計"},"geometry":{"type":"MultiPolygon","coordinates":[[[[130.825,33.609833613],[130.823955837,33.609742225],[130.823262503,33.610504441],[130.823359728,33.610915559000006],[130.822973333,33.61160833300001],[130.822697224,33.611835],[130.822601946,33.612093333000004],[130.822572218,33.612476666999996],[130.822661946,33.61286833300001],[130.82200805400004,33.613175559000005],[130.82186499400004,33.613762225],[130.821295551,33.613997495],[130.820724994,33.614067495],[130.820708054,33.614389441],[130.820822776,33.614660279],[130.821225279,33.61520027900001],[130.820604994,33.615511667],[130.819386667,33.615274162],[130.819184163,33.615833333000005],[130.819038054,33.615953054],[130.818238612,33.616205],[130.818147497,33.616455829],[130.81795228341494,33.61666666666667],[130.825,33.616666666666674],[130.825,33.609833613]]],[[[130.815803061,33.61653499999999],[130.815628327,33.616555279],[130.8153830619114,33.61666666666667],[130.81614416251392,33.61666666666667],[130.815803061,33.61653499999999]]]]}},{"type":"Feature","id":"40206:50303636","properties":{"id":"40206:50303636","meshCode":"50303636","cityCode":"40206","city":"田川市","lat":33.6128877,"lon":130.8315951,"areaKm2":0.9600212,"populated2020":true,"population2020":null,"populationNote":"境界またぎ・収録外等のため人口未集計"},"geometry":{"type":"Polygon","coordinates":[[[130.8375,33.60919869716151],[130.836743333,33.608840559],[130.836836394,33.608497225],[130.8367958376371,33.608333333333334],[130.83160910497537,33.608333333333334],[130.831494163,33.60860055900001],[130.830756939,33.609225828999996],[130.829845551,33.609869441],[130.82929722400002,33.61004527899999],[130.826254994,33.610433054],[130.826058054,33.61034833299999],[130.825444163,33.60982722499999],[130.825,33.609833613],[130.825,33.616666666666674],[130.8375,33.61666666666667],[130.8375,33.60919869716151]]]}},{"type":"Feature","id":"40206:50303637","properties":{"id":"40206:50303637","meshCode":"50303637","cityCode":"40206","city":"田川市","lat":33.6139755,"lon":130.8394263,"areaKm2":0.2372215,"populated2020":true,"population2020":null,"populationNote":"境界またぎ・収録外等のため人口未集計"},"geometry":{"type":"Polygon","coordinates":[[[130.83985111500002,33.61220972099999],[130.839638054,33.611692774999995],[130.839732503,33.610885829000004],[130.839645551,33.610612495],[130.839346667,33.610215559],[130.839096667,33.61004389200001],[130.838745279,33.610139162],[130.838257782,33.609973892],[130.837948885,33.609446108],[130.8375,33.60919869716151],[130.8375,33.61666666666667],[130.843869415193,33.61666666666667],[130.842727782,33.61615110799999],[130.842810558,33.615871667],[130.843076109,33.615526387],[130.842792503,33.615395],[130.842249442,33.615358892],[130.841634449,33.614831386999995],[130.841232218,33.614702225],[130.841174994,33.614551946],[130.841289728,33.613982495],[130.84094444900003,33.613837225000005],[130.840733606,33.613210279],[130.839846939,33.61261],[130.83985111500002,33.61220972099999]]]}},{"type":"Feature","id":"40206:50303630","properties":{"id":"40206:50303630","meshCode":"50303630","cityCode":"40206","city":"田川市","lat":33.6159691,"lon":130.762088,"areaKm2":0.0130682,"populated2020":false,"population2020":null,"populationNote":"境界またぎ・収録外等のため人口未集計"},"geometry":{"type":"Polygon","coordinates":[[[130.7625,33.614631883966375],[130.762165837,33.615314162],[130.761623333,33.615809440999996],[130.76149444900003,33.61634694599999],[130.76153861192535,33.61666666666667],[130.7625,33.61666666666667],[130.7625,33.614631883966375]]]}},{"type":"Feature","id":"40206:50303640","properties":{"id":"40206:50303640","meshCode":"50303640","cityCode":"40206","city":"田川市","lat":33.6216765,"lon":130.7605898,"areaKm2":0.2867571,"populated2020":false,"population2020":null,"populationNote":"境界またぎ・収録外等のため人口未集計"},"geometry":{"type":"Polygon","coordinates":[[[130.76153861192535,33.61666666666667],[130.761620558,33.61703833300001],[130.761557224,33.617292225],[130.761194449,33.617895279],[130.760773333,33.618104162],[130.759776939,33.618227225],[130.759293606,33.618551667000006],[130.759168612,33.620111107999996],[130.759326394,33.621256108000004],[130.75924083,33.621827495],[130.758992218,33.622181108],[130.758634721,33.622438892],[130.757878327,33.62328777500001],[130.757591946,33.623823333000004],[130.757373061,33.624542775],[130.756973774,33.62500000000001],[130.7625,33.62500000000001],[130.7625,33.61666666666667],[130.76153861192535,33.61666666666667]]]}},{"type":"Feature","id":"40206:50303641","properties":{"id":"40206:50303641","meshCode":"50303641","cityCode":"40206","city":"田川市","lat":33.6208333,"lon":130.76875,"areaKm2":1.0719033,"populated2020":false,"population2020":null,"populationNote":"境界またぎ・収録外等のため人口未集計"},"geometry":{"type":"Polygon","coordinates":[[[130.775,33.61666666666667],[130.7625,33.61666666666667],[130.7625,33.62500000000001],[130.775,33.62500000000001],[130.775,33.61666666666667]]]}},{"type":"Feature","id":"40206:50303642","properties":{"id":"40206:50303642","meshCode":"50303642","cityCode":"40206","city":"田川市","lat":33.6208333,"lon":130.78125,"areaKm2":1.071902,"populated2020":true,"population2020":119.7773,"populationNote":"収録500mメッシュ人口の合算（原典収録外は補完しない）"},"geometry":{"type":"Polygon","coordinates":[[[130.7875,33.61666666666667],[130.775,33.61666666666667],[130.775,33.62500000000001],[130.7875,33.62500000000001],[130.7875,33.61666666666667]]]}},{"type":"Feature","id":"40206:50303643","properties":{"id":"40206:50303643","meshCode":"50303643","cityCode":"40206","city":"田川市","lat":33.6213418,"lon":130.7915695,"areaKm2":0.6486881,"populated2020":true,"population2020":null,"populationNote":"境界またぎ・収録外等のため人口未集計"},"geometry":{"type":"Polygon","coordinates":[[[130.793634449,33.617317775],[130.79409158223052,33.61666666666667],[130.7875,33.61666666666667],[130.7875,33.62500000000001],[130.8,33.625000000000014],[130.8,33.623250829],[130.799687782,33.623828054],[130.79931166,33.624125829],[130.799067497,33.62409389199999],[130.798483333,33.623737775],[130.797668054,33.623422775],[130.79722166,33.62382694600001],[130.797250272,33.624211946],[130.79647,33.623941946],[130.795742218,33.623393054],[130.794837782,33.623119162],[130.794483606,33.62159194600001],[130.794049442,33.620499721],[130.793872776,33.618684441],[130.793552218,33.618098892],[130.793634449,33.617317775]]]}},{"type":"Feature","id":"40206:50303644","properties":{"id":"40206:50303644","meshCode":"50303644","cityCode":"40206","city":"田川市","lat":33.6228107,"lon":130.8073557,"areaKm2":0.5096701,"populated2020":true,"population2020":null,"populationNote":"境界またぎ・収録外等のため人口未集計"},"geometry":{"type":"Polygon","coordinates":[[[130.8125,33.61858581999989],[130.810570272,33.619503054],[130.809356394,33.619503054],[130.80903083,33.61976166699999],[130.808075279,33.620294441],[130.808534163,33.620806946],[130.807937224,33.62082194600001],[130.807978612,33.621180829000004],[130.807206394,33.621127775],[130.807429442,33.621556667],[130.806044721,33.621524721],[130.805855279,33.621581946],[130.805297224,33.621992495],[130.80515499400002,33.622007225],[130.804434449,33.62176916200001],[130.804133891,33.62179166699999],[130.80364,33.622065],[130.80276805400004,33.621802495],[130.801958054,33.621713332999995],[130.80170083,33.621771667],[130.800972218,33.622961387000004],[130.800379728,33.622991108],[130.80000917,33.623231387],[130.8,33.625000000000014],[130.8125,33.625],[130.8125,33.61858581999989]]]}},{"type":"Feature","id":"40206:50303645","properties":{"id":"40206:50303645","meshCode":"50303645","cityCode":"40206","city":"田川市","lat":33.6209038,"lon":130.8188355,"areaKm2":1.0519398,"populated2020":true,"population2020":532.5354,"populationNote":"収録500mメッシュ人口の合算（原典収録外は補完しない）"},"geometry":{"type":"Polygon","coordinates":[[[130.81795228341494,33.61666666666667],[130.816974449,33.617170279],[130.81681277600003,33.617129162],[130.81614416251392,33.61666666666667],[130.8153830619114,33.61666666666667],[130.814536939,33.616928333],[130.814104449,33.616894441],[130.813853061,33.617060829],[130.81327166,33.616971667],[130.813075551,33.61700861300002],[130.813036109,33.617437225],[130.812824163,33.617865829],[130.812924721,33.61831944099999],[130.812844163,33.61842777500001],[130.8125,33.61858581999989],[130.8125,33.625],[130.825,33.62500000000001],[130.825,33.616666666666674],[130.81795228341494,33.61666666666667]]]}},{"type":"Feature","id":"40206:50303646","properties":{"id":"40206:50303646","meshCode":"50303646","cityCode":"40206","city":"田川市","lat":33.6208333,"lon":130.83125,"areaKm2":1.0718976,"populated2020":true,"population2020":1129.5895,"populationNote":"収録500mメッシュ人口の合算（原典収録外は補完しない）"},"geometry":{"type":"Polygon","coordinates":[[[130.8375,33.61666666666667],[130.825,33.616666666666674],[130.825,33.62500000000001],[130.8375,33.62500000000001],[130.8375,33.61666666666667]]]}},{"type":"Feature","id":"40206:50303647","properties":{"id":"40206:50303647","meshCode":"50303647","cityCode":"40206","city":"田川市","lat":33.6204888,"lon":130.8409385,"areaKm2":0.5759998,"populated2020":true,"population2020":null,"populationNote":"境界またぎ・収録外等のため人口未集計"},"geometry":{"type":"Polygon","coordinates":[[[130.84440083,33.620534721],[130.844847224,33.61987555900001],[130.845949728,33.61744444100001],[130.843869415193,33.61666666666667],[130.8375,33.61666666666667],[130.8375,33.62500000000001],[130.842320363,33.62500000000001],[130.843063333,33.62341194599999],[130.844184994,33.62137722500001],[130.844233606,33.620926387],[130.84440083,33.620534721]]]}},{"type":"Feature","id":"40206:50303650","properties":{"id":"40206:50303650","meshCode":"50303650","cityCode":"40206","city":"田川市","lat":33.6297447,"lon":130.7577335,"areaKm2":0.7709835,"populated2020":false,"population2020":null,"populationNote":"境界またぎ・収録外等のため人口未集計"},"geometry":{"type":"Polygon","coordinates":[[[130.756720272,33.62555472099999],[130.756163891,33.626007494999996],[130.755324163,33.626894441],[130.755176109,33.627207495],[130.755016394,33.62794416199999],[130.754813333,33.628361108],[130.754313061,33.629006667],[130.75289917,33.62983610799999],[130.75262,33.630109162000004],[130.751554994,33.630851946],[130.750848327,33.631148054],[130.750536394,33.631395559000005],[130.750485551,33.63158610799999],[130.75075085604067,33.63333333333333],[130.7625,33.63333333333333],[130.7625,33.62500000000001],[130.756973774,33.62500000000001],[130.756720272,33.62555472099999]]]}},{"type":"Feature","id":"40206:50303651","properties":{"id":"40206:50303651","meshCode":"50303651","cityCode":"40206","city":"田川市","lat":33.6291667,"lon":130.76875,"areaKm2":1.0718015,"populated2020":true,"population2020":39.2748,"populationNote":"収録500mメッシュ人口の合算（原典収録外は補完しない）"},"geometry":{"type":"Polygon","coordinates":[[[130.775,33.62500000000001],[130.7625,33.62500000000001],[130.7625,33.63333333333333],[130.775,33.63333333333335],[130.775,33.62500000000001]]]}},{"type":"Feature","id":"40206:50303652","properties":{"id":"40206:50303652","meshCode":"50303652","cityCode":"40206","city":"田川市","lat":33.6291667,"lon":130.78125,"areaKm2":1.0718002,"populated2020":true,"population2020":1151.9211,"populationNote":"収録500mメッシュ人口の合算（原典収録外は補完しない）"},"geometry":{"type":"Polygon","coordinates":[[[130.7875,33.62500000000001],[130.775,33.62500000000001],[130.775,33.63333333333335],[130.7875,33.63333333333333],[130.7875,33.62500000000001]]]}},{"type":"Feature","id":"40206:50303653","properties":{"id":"40206:50303653","meshCode":"50303653","cityCode":"40206","city":"田川市","lat":33.6291667,"lon":130.79375,"areaKm2":1.071799,"populated2020":true,"population2020":2605.6319,"populationNote":"収録500mメッシュ人口の合算（原典収録外は補完しない）"},"geometry":{"type":"Polygon","coordinates":[[[130.8,33.625000000000014],[130.7875,33.62500000000001],[130.7875,33.63333333333333],[130.8,33.63333333333333],[130.8,33.625000000000014]]]}},{"type":"Feature","id":"40206:50303654","properties":{"id":"40206:50303654","meshCode":"50303654","cityCode":"40206","city":"田川市","lat":33.6291667,"lon":130.80625,"areaKm2":1.071798,"populated2020":true,"population2020":1898.1172,"populationNote":"収録500mメッシュ人口の合算（原典収録外は補完しない）"},"geometry":{"type":"Polygon","coordinates":[[[130.8125,33.625],[130.8,33.625000000000014],[130.8,33.63333333333333],[130.8125,33.63333333333334],[130.8125,33.625]]]}},{"type":"Feature","id":"40206:50303655","properties":{"id":"40206:50303655","meshCode":"50303655","cityCode":"40206","city":"田川市","lat":33.6291667,"lon":130.81875,"areaKm2":1.0717968,"populated2020":true,"population2020":396.6944,"populationNote":"収録500mメッシュ人口の合算（原典収録外は補完しない）"},"geometry":{"type":"Polygon","coordinates":[[[130.825,33.62500000000001],[130.8125,33.625],[130.8125,33.63333333333334],[130.825,33.63333333333333],[130.825,33.62500000000001]]]}},{"type":"Feature","id":"40206:50303656","properties":{"id":"40206:50303656","meshCode":"50303656","cityCode":"40206","city":"田川市","lat":33.6290793,"lon":130.8310943,"areaKm2":1.0428979,"populated2020":true,"population2020":1103.6781,"populationNote":"収録500mメッシュ人口の合算（原典収録外は補完しない）"},"geometry":{"type":"Polygon","coordinates":[[[130.8375,33.62500000000001],[130.825,33.62500000000001],[130.825,33.63333333333333],[130.83610885907308,33.63333333333334],[130.835974994,33.632772495],[130.836083061,33.632241108],[130.836473333,33.631722495],[130.8375,33.630649431610586],[130.8375,33.62500000000001]]]}},{"type":"Feature","id":"40206:50303657","properties":{"id":"40206:50303657","meshCode":"50303657","cityCode":"40206","city":"田川市","lat":33.6269978,"lon":130.8392556,"areaKm2":0.16143,"populated2020":true,"population2020":null,"populationNote":"境界またぎ・収録外等のため人口未集計"},"geometry":{"type":"Polygon","coordinates":[[[130.839458612,33.629078054000004],[130.83955917,33.62879805400001],[130.839501115,33.628296387],[130.840098054,33.62785582899999],[130.841203606,33.627242225],[130.842320363,33.62500000000001],[130.8375,33.62500000000001],[130.8375,33.630649431610586],[130.838289442,33.629945559],[130.83875083,33.62974472100001],[130.839094721,33.62949916200001],[130.839458612,33.629078054000004]]]}},{"type":"Feature","id":"40206:50303569","properties":{"id":"40206:50303569","meshCode":"50303569","cityCode":"40206","city":"田川市","lat":33.6396327,"lon":130.7491701,"areaKm2":0.0534172,"populated2020":false,"population2020":null,"populationNote":"境界またぎ・収録外等のため人口未集計"},"geometry":{"type":"Polygon","coordinates":[[[130.75,33.637225721],[130.749585551,33.637962495000004],[130.749178054,33.638394162],[130.747884163,33.639149721],[130.747848054,33.639587775],[130.747982776,33.64027027899999],[130.749240558,33.640909441000005],[130.74979427977945,33.641666666666666],[130.75,33.641666666666666],[130.75,33.637225721]]]}},{"type":"Feature","id":"40206:50303660","properties":{"id":"40206:50303660","meshCode":"50303660","cityCode":"40206","city":"田川市","lat":33.6371528,"lon":130.7561616,"areaKm2":0.917206,"populated2020":false,"population2020":null,"populationNote":"境界またぎ・収録外等のため人口未集計"},"geometry":{"type":"Polygon","coordinates":[[[130.75091,33.634338892],[130.75118166,33.63534222500001],[130.751140558,33.635655559],[130.750863333,33.636061946000005],[130.750676109,33.63652305400001],[130.75,33.637225721],[130.75,33.641666666666666],[130.75457719846298,33.64166666666667],[130.754811388,33.641078333],[130.755020558,33.640796946],[130.755248885,33.64067638699999],[130.756183891,33.640475559],[130.756751388,33.639978892],[130.757563061,33.63971666700001],[130.757832776,33.639369721],[130.758246939,33.639249162],[130.759361388,33.639312775],[130.759616109,33.63954972100001],[130.759843333,33.640076108],[130.760008327,33.640196667000005],[130.76091166,33.640558054],[130.761772776,33.640704162],[130.7625,33.641170455689924],[130.7625,33.63333333333333],[130.75075085604067,33.63333333333333],[130.75091,33.634338892]]]}},{"type":"Feature","id":"40206:50303661","properties":{"id":"40206:50303661","meshCode":"50303661","cityCode":"40206","city":"田川市","lat":33.6374559,"lon":130.7688069,"areaKm2":1.0598153,"populated2020":true,"population2020":735.2315,"populationNote":"収録500mメッシュ人口の合算（原典収録外は補完しない）"},"geometry":{"type":"Polygon","coordinates":[[[130.775,33.63333333333335],[130.7625,33.63333333333333],[130.7625,33.641170455689924],[130.762917497,33.641105829000004],[130.763638327,33.641226387],[130.765082776,33.641308892],[130.76501557690568,33.64166666666667],[130.775,33.64166666666667],[130.775,33.63333333333335]]]}},{"type":"Feature","id":"40206:50303662","properties":{"id":"40206:50303662","meshCode":"50303662","cityCode":"40206","city":"田川市","lat":33.6375,"lon":130.78125,"areaKm2":1.0716985,"populated2020":true,"population2020":1707.4,"populationNote":"収録500mメッシュ人口の合算（原典収録外は補完しない）"},"geometry":{"type":"Polygon","coordinates":[[[130.7875,33.63333333333333],[130.775,33.63333333333335],[130.775,33.64166666666667],[130.7875,33.641666666666666],[130.7875,33.63333333333333]]]}},{"type":"Feature","id":"40206:50303663","properties":{"id":"40206:50303663","meshCode":"50303663","cityCode":"40206","city":"田川市","lat":33.6375,"lon":130.79375,"areaKm2":1.0716973,"populated2020":true,"population2020":2115.7019,"populationNote":"収録500mメッシュ人口の合算（原典収録外は補完しない）"},"geometry":{"type":"Polygon","coordinates":[[[130.8,33.63333333333333],[130.7875,33.63333333333333],[130.7875,33.641666666666666],[130.8,33.64166666666668],[130.8,33.63333333333333]]]}},{"type":"Feature","id":"40206:50303664","properties":{"id":"40206:50303664","meshCode":"50303664","cityCode":"40206","city":"田川市","lat":33.6375,"lon":130.80625,"areaKm2":1.0716961,"populated2020":true,"population2020":2298.8082,"populationNote":"収録500mメッシュ人口の合算（原典収録外は補完しない）"},"geometry":{"type":"Polygon","coordinates":[[[130.8125,33.63333333333334],[130.8,33.63333333333333],[130.8,33.64166666666668],[130.8125,33.641666666666666],[130.8125,33.63333333333334]]]}},{"type":"Feature","id":"40206:50303665","properties":{"id":"40206:50303665","meshCode":"50303665","cityCode":"40206","city":"田川市","lat":33.6375,"lon":130.81875,"areaKm2":1.0716951,"populated2020":true,"population2020":1941.3275,"populationNote":"収録500mメッシュ人口の合算（原典収録外は補完しない）"},"geometry":{"type":"Polygon","coordinates":[[[130.825,33.63333333333333],[130.8125,33.63333333333334],[130.8125,33.641666666666666],[130.825,33.641666666666666],[130.825,33.63333333333333]]]}},{"type":"Feature","id":"40206:50303666","properties":{"id":"40206:50303666","meshCode":"50303666","cityCode":"40206","city":"田川市","lat":33.6376097,"lon":130.8310458,"areaKm2":1.0332201,"populated2020":true,"population2020":null,"populationNote":"境界またぎ・収録外等のため人口未集計"},"geometry":{"type":"Polygon","coordinates":[[[130.8375,33.63606736593577],[130.83733083,33.635793333],[130.83624166,33.635755279],[130.83604917,33.635211387],[130.835650272,33.634722495],[130.835943333,33.634219162],[130.83610885907308,33.63333333333334],[130.825,33.63333333333333],[130.825,33.641666666666666],[130.8375,33.64166666666667],[130.8375,33.63606736593577]]]}},{"type":"Feature","id":"40206:50303667","properties":{"id":"40206:50303667","meshCode":"50303667","cityCode":"40206","city":"田川市","lat":33.6398823,"lon":130.8399153,"areaKm2":0.1823488,"populated2020":true,"population2020":null,"populationNote":"境界またぎ・収録外等のため人口未集計"},"geometry":{"type":"Polygon","coordinates":[[[130.837556109,33.637230559],[130.837613333,33.636341387],[130.8375,33.63606736593577],[130.8375,33.64166666666667],[130.84213708216666,33.641666666666666],[130.842208054,33.64136222500001],[130.842087782,33.641161946],[130.842191115,33.640982495],[130.842458612,33.640748333],[130.842701388,33.640366387],[130.843249728,33.639999162],[130.843021115,33.639612775],[130.843,33.639121387],[130.84215,33.63855194599999],[130.841370272,33.638714721],[130.840863333,33.638678892],[130.840243333,33.638469441],[130.840093333,33.638289721],[130.839568327,33.638165],[130.838733061,33.63782666699999],[130.838449728,33.63781194600001],[130.837615279,33.637566667],[130.837556109,33.637230559]]]}},{"type":"Feature","id":"40206:50303579","properties":{"id":"40206:50303579","meshCode":"50303579","cityCode":"40206","city":"田川市","lat":33.6419551,"lon":130.7499262,"areaKm2":0.0009599,"populated2020":false,"population2020":null,"populationNote":"境界またぎ・収録外等のため人口未集計"},"geometry":{"type":"Polygon","coordinates":[[[130.74979428,33.641666667],[130.749858885,33.642117775],[130.75,33.64238441399999],[130.75,33.641666666666666],[130.74979428,33.641666667]]]}},{"type":"Feature","id":"40206:50303670","properties":{"id":"40206:50303670","meshCode":"50303670","cityCode":"40206","city":"田川市","lat":33.6423637,"lon":130.7519621,"areaKm2":0.0529883,"populated2020":false,"population2020":null,"populationNote":"境界またぎ・収録外等のため人口未集計"},"geometry":{"type":"Polygon","coordinates":[[[130.750044721,33.642431108],[130.750427224,33.642572775],[130.75091166,33.642888054000004],[130.751254163,33.643216108],[130.751618885,33.643795829000005],[130.75457719846298,33.64166666666667],[130.75,33.641666666666666],[130.750044721,33.642431108]]]}},{"type":"Feature","id":"40206:50303671","properties":{"id":"40206:50303671","meshCode":"50303671","cityCode":"40206","city":"田川市","lat":33.6427507,"lon":130.7712639,"areaKm2":0.1851941,"populated2020":true,"population2020":null,"populationNote":"境界またぎ・収録外等のため人口未集計"},"geometry":{"type":"Polygon","coordinates":[[[130.76501557690568,33.64166666666667],[130.765228327,33.64263249500001],[130.767732776,33.642685279],[130.769024994,33.642877775],[130.76962166,33.643161108],[130.771114163,33.643575559],[130.771642218,33.643971107999995],[130.775,33.64503216200001],[130.775,33.64166666666667],[130.76501557690568,33.64166666666667]]]}},{"type":"Feature","id":"40206:50303672","properties":{"id":"40206:50303672","meshCode":"50303672","cityCode":"40206","city":"田川市","lat":33.6445394,"lon":130.7820763,"areaKm2":0.7016376,"populated2020":true,"population2020":null,"populationNote":"境界またぎ・収録外等のため人口未集計"},"geometry":{"type":"Polygon","coordinates":[[[130.775,33.64503216200001],[130.77917917,33.646303892000006],[130.780131946,33.646758892],[130.780647224,33.64687666700001],[130.780954449,33.647035],[130.78124166,33.647267495],[130.781345279,33.647453613],[130.781480558,33.647497775],[130.782119728,33.64731944099999],[130.784019728,33.64783916199999],[130.784880272,33.64834],[130.785156939,33.648690829],[130.785823333,33.649016387],[130.786878885,33.649044162],[130.787316667,33.649242775],[130.7875,33.649236695358184],[130.7875,33.641666666666666],[130.775,33.64166666666667],[130.775,33.64503216200001]]]}},{"type":"Feature","id":"40206:50303673","properties":{"id":"40206:50303673","meshCode":"50303673","cityCode":"40206","city":"田川市","lat":33.6458052,"lon":130.7937923,"areaKm2":1.0637462,"populated2020":true,"population2020":1545.4504,"populationNote":"収録500mメッシュ人口の合算（原典収録外は補完しない）"},"geometry":{"type":"Polygon","coordinates":[[[130.8,33.64166666666668],[130.7875,33.641666666666666],[130.7875,33.649236695358184],[130.788018612,33.649238613],[130.788607782,33.64944972100001],[130.788524137,33.65],[130.8,33.64999999999999],[130.8,33.64166666666668]]]}},{"type":"Feature","id":"40206:50303674","properties":{"id":"40206:50303674","meshCode":"50303674","cityCode":"40206","city":"田川市","lat":33.6458333,"lon":130.80625,"areaKm2":1.0715944,"populated2020":true,"population2020":4338.1005,"populationNote":"収録500mメッシュ人口の合算（原典収録外は補完しない）"},"geometry":{"type":"Polygon","coordinates":[[[130.8125,33.641666666666666],[130.8,33.64166666666668],[130.8,33.64999999999999],[130.8125,33.64999999999999],[130.8125,33.641666666666666]]]}},{"type":"Feature","id":"40206:50303675","properties":{"id":"40206:50303675","meshCode":"50303675","cityCode":"40206","city":"田川市","lat":33.6458333,"lon":130.81875,"areaKm2":1.0715932,"populated2020":true,"population2020":3068.524,"populationNote":"収録500mメッシュ人口の合算（原典収録外は補完しない）"},"geometry":{"type":"Polygon","coordinates":[[[130.825,33.641666666666666],[130.8125,33.641666666666666],[130.8125,33.64999999999999],[130.825,33.65],[130.825,33.641666666666666]]]}},{"type":"Feature","id":"40206:50303676","properties":{"id":"40206:50303676","meshCode":"50303676","cityCode":"40206","city":"田川市","lat":33.6456762,"lon":130.83102,"areaKm2":1.0239059,"populated2020":true,"population2020":null,"populationNote":"境界またぎ・収録外等のため人口未集計"},"geometry":{"type":"Polygon","coordinates":[[[130.8375,33.64166666666667],[130.825,33.641666666666666],[130.825,33.65],[130.833907004,33.65],[130.83385083,33.64987582900001],[130.833906939,33.64981277500001],[130.834241946,33.64970833300001],[130.834655551,33.649384441],[130.834956939,33.649251946],[130.835226939,33.648627775],[130.835750558,33.64865472099999],[130.836090272,33.648390279],[130.83687917,33.648156387],[130.8375,33.6475863646215],[130.8375,33.64166666666667]]]}},{"type":"Feature","id":"40206:50303677","properties":{"id":"40206:50303677","meshCode":"50303677","cityCode":"40206","city":"田川市","lat":33.643893,"lon":130.8397517,"areaKm2":0.2163022,"populated2020":true,"population2020":null,"populationNote":"境界またぎ・収録外等のため人口未集計"},"geometry":{"type":"Polygon","coordinates":[[[130.840322503,33.645715279],[130.840529442,33.645371108],[130.840864163,33.645042775],[130.842228327,33.645013613],[130.843258054,33.644808333],[130.843187497,33.644330000000004],[130.842553061,33.643787775],[130.842206109,33.643151108],[130.842337224,33.642453612999994],[130.84205083,33.641973613],[130.84213708216666,33.641666666666666],[130.8375,33.64166666666667],[130.8375,33.6475863646215],[130.838542503,33.64650416199999],[130.840322503,33.645715279]]]}},{"type":"Feature","id":"40206:50303683","properties":{"id":"40206:50303683","meshCode":"50303683","cityCode":"40206","city":"田川市","lat":33.6539905,"lon":130.7956846,"areaKm2":0.7181308,"populated2020":true,"population2020":null,"populationNote":"境界またぎ・収録外等のため人口未集計"},"geometry":{"type":"Polygon","coordinates":[[[130.788524137,33.65],[130.788584163,33.65138249500001],[130.788679442,33.651456387],[130.789995551,33.65130861299999],[130.790803061,33.651296108],[130.791476667,33.651405829],[130.79211083,33.650922225],[130.792441388,33.650984441],[130.792631388,33.651288613],[130.792662776,33.652251387],[130.792248885,33.65288277500001],[130.79161166,33.654194441],[130.79302917,33.654558054],[130.793048054,33.65512389199999],[130.79273888500003,33.65532694600001],[130.792063333,33.655282495],[130.791895837,33.655358613000004],[130.791731115,33.65558249499999],[130.79273250300002,33.65612944099999],[130.791136939,33.65782277500001],[130.791056667,33.657974721],[130.791214163,33.658086387000004],[130.79168430656617,33.658333333333324],[130.8,33.658333333333324],[130.8,33.64999999999999],[130.788524137,33.65]]]}},{"type":"Feature","id":"40206:50303684","properties":{"id":"40206:50303684","meshCode":"50303684","cityCode":"40206","city":"田川市","lat":33.6541667,"lon":130.80625,"areaKm2":1.0714925,"populated2020":true,"population2020":1171.578,"populationNote":"収録500mメッシュ人口の合算（原典収録外は補完しない）"},"geometry":{"type":"Polygon","coordinates":[[[130.8125,33.64999999999999],[130.8,33.64999999999999],[130.8,33.658333333333324],[130.8125,33.658333333333324],[130.8125,33.64999999999999]]]}},{"type":"Feature","id":"40206:50303685","properties":{"id":"40206:50303685","meshCode":"50303685","cityCode":"40206","city":"田川市","lat":33.6541667,"lon":130.81875,"areaKm2":1.0714915,"populated2020":true,"population2020":1541.7032,"populationNote":"収録500mメッシュ人口の合算（原典収録外は補完しない）"},"geometry":{"type":"Polygon","coordinates":[[[130.825,33.65],[130.8125,33.64999999999999],[130.8125,33.658333333333324],[130.825,33.65833333333333],[130.825,33.65]]]}},{"type":"Feature","id":"40206:50303686","properties":{"id":"40206:50303686","meshCode":"50303686","cityCode":"40206","city":"田川市","lat":33.6543028,"lon":130.8289507,"areaKm2":0.5398684,"populated2020":true,"population2020":null,"populationNote":"境界またぎ・収録外等のため人口未集計"},"geometry":{"type":"Polygon","coordinates":[[[130.831528612,33.651430559],[130.831708612,33.651893892],[130.83185917,33.651971667],[130.83203,33.651951387],[130.832605279,33.651553333],[130.83255610900002,33.651093333000006],[130.833956394,33.650266946],[130.834012503,33.650190279],[130.833907004,33.65],[130.825,33.65],[130.825,33.65833333333333],[130.8369122828365,33.65833333333333],[130.836935551,33.658097775],[130.836789442,33.657783054],[130.836087782,33.657419721],[130.835716939,33.657365828999986],[130.835642776,33.657183613],[130.835818054,33.656874441],[130.835764163,33.656800278999995],[130.834436109,33.656228054],[130.83417083,33.656455],[130.832660272,33.65623694600001],[130.831230558,33.657318613],[130.830493333,33.657458892],[130.829843606,33.657692775],[130.82957166,33.65768249500001],[130.829196109,33.657538613],[130.828910558,33.657301667],[130.828739728,33.656479721],[130.828355551,33.656205279000005],[130.828162218,33.655879162000005],[130.828101388,33.65471666700001],[130.829099442,33.654394162],[130.829795551,33.65439749499999],[130.829991115,33.65293361300001],[130.829795551,33.652423054],[130.829435837,33.651829721],[130.829278612,33.651741946],[130.82893917,33.651834162],[130.828898612,33.651750829],[130.829053891,33.651606945999994],[130.829033606,33.651489999999995],[130.828934721,33.651366387],[130.828377224,33.651205559000005],[130.828186394,33.65084610800001],[130.828374994,33.65085972100001],[130.829505837,33.651557495000006],[130.830106109,33.652439162],[130.831506109,33.652252495],[130.831636667,33.652072495],[130.831604994,33.65194194600001],[130.831313061,33.65159249500001],[130.831032218,33.65142610800001],[130.831083891,33.651192225],[130.831198612,33.651160829000005],[130.831528612,33.651430559]]]}},{"type":"Feature","id":"40206:50303692","properties":{"id":"40206:50303692","meshCode":"50303692","cityCode":"40206","city":"田川市","lat":33.6645496,"lon":130.7871174,"areaKm2":0.0251164,"populated2020":true,"population2020":null,"populationNote":"境界またぎ・収録外等のため人口未集計"},"geometry":{"type":"Polygon","coordinates":[[[130.78725639400002,33.662497775000006],[130.787084449,33.66292666700001],[130.786992218,33.663946945999996],[130.786672503,33.664288892],[130.786454994,33.664377495000004],[130.786341115,33.664755559],[130.786596939,33.665136387],[130.78687,33.665898892],[130.787038885,33.66606777500001],[130.7875,33.66620288026199],[130.7875,33.66250047310974],[130.78734917,33.66243861299999],[130.78725639400002,33.662497775000006]]]}},{"type":"Feature","id":"40206:50303693","properties":{"id":"40206:50303693","meshCode":"50303693","cityCode":"40206","city":"田川市","lat":33.6627762,"lon":130.7945174,"areaKm2":0.9166477,"populated2020":true,"population2020":null,"populationNote":"境界またぎ・収録外等のため人口未集計"},"geometry":{"type":"Polygon","coordinates":[[[130.79168430656617,33.658333333333324],[130.791566667,33.658457775],[130.791468327,33.658772494999994],[130.791843061,33.658947775],[130.791906394,33.659046946],[130.791383891,33.659856108],[130.791141115,33.65998277500002],[130.790330558,33.660118054],[130.790343333,33.660242495],[130.79083416300003,33.660540559000005],[130.79037917,33.661078613],[130.79018083,33.661515829],[130.789263891,33.662039441],[130.788999728,33.66248722499999],[130.788618885,33.66222944100001],[130.788316939,33.662246387],[130.787781946,33.662616108],[130.7875,33.66250047310974],[130.7875,33.66620288026199],[130.787814163,33.66624500000001],[130.788101115,33.665869162],[130.788533891,33.665715],[130.790006394,33.666454162],[130.790200558,33.666441387000006],[130.790638327,33.666598613000005],[130.79082194600002,33.666598613],[130.791184721,33.666421387],[130.79155166,33.666625829],[130.792065551,33.66649027900001],[130.7923165887674,33.666666666666664],[130.8,33.666666666666664],[130.8,33.658333333333324],[130.79168430656617,33.658333333333324]]]}},{"type":"Feature","id":"40206:50303694","properties":{"id":"40206:50303694","meshCode":"50303694","cityCode":"40206","city":"田川市","lat":33.6625,"lon":130.80625,"areaKm2":1.0713907,"populated2020":true,"population2020":887.2844,"populationNote":"収録500mメッシュ人口の合算（原典収録外は補完しない）"},"geometry":{"type":"Polygon","coordinates":[[[130.8125,33.658333333333324],[130.8,33.658333333333324],[130.8,33.666666666666664],[130.8125,33.666666666666664],[130.8125,33.658333333333324]]]}},{"type":"Feature","id":"40206:50303695","properties":{"id":"40206:50303695","meshCode":"50303695","cityCode":"40206","city":"田川市","lat":33.6624964,"lon":130.8187398,"areaKm2":1.0696015,"populated2020":true,"population2020":992.0214,"populationNote":"収録500mメッシュ人口の合算（原典収録外は補完しない）"},"geometry":{"type":"Polygon","coordinates":[[[130.825,33.65833333333333],[130.8125,33.658333333333324],[130.8125,33.666666666666664],[130.825,33.666666666666664],[130.825,33.664962081],[130.824788612,33.665002495],[130.824734994,33.664706108],[130.824755279,33.664406108],[130.825,33.664247026999995],[130.825,33.65833333333333]]]}},{"type":"Feature","id":"40206:50303696","properties":{"id":"40206:50303696","meshCode":"50303696","cityCode":"40206","city":"田川市","lat":33.6603801,"lon":130.8295394,"areaKm2":0.4078038,"populated2020":true,"population2020":null,"populationNote":"境界またぎ・収録外等のため人口未集計"},"geometry":{"type":"MultiPolygon","coordinates":[[[[130.832058327,33.660918333000005],[130.834195551,33.66046582900001],[130.835733061,33.660560559000004],[130.83663917,33.660511946],[130.836584994,33.659115279000005],[130.8369122828365,33.65833333333333],[130.825,33.65833333333333],[130.825,33.664247026999995],[130.826833333,33.66334],[130.827552503,33.663205559],[130.827834994,33.663038613],[130.82831639400004,33.662411108],[130.828822503,33.66202916200001],[130.82917083,33.66160861299999],[130.829734163,33.66122],[130.830309728,33.661011945999995],[130.830714163,33.66094889199999],[130.832058327,33.660918333000005]]],[[[130.82581204897477,33.666666666666664],[130.825630558,33.665571946],[130.825371946,33.664715279],[130.82521221800002,33.664751108],[130.825,33.664962081],[130.825,33.666666666666664],[130.82581204897477,33.666666666666664]]]]}},{"type":"Feature","id":"40206:50304603","properties":{"id":"40206:50304603","meshCode":"50304603","cityCode":"40206","city":"田川市","lat":33.6688925,"lon":130.7959785,"areaKm2":0.3268224,"populated2020":true,"population2020":null,"populationNote":"境界またぎ・収録外等のため人口未集計"},"geometry":{"type":"Polygon","coordinates":[[[130.7923165887674,33.666666666666664],[130.792690558,33.667000829],[130.792758054,33.667401667],[130.792333891,33.66999555900001],[130.792406939,33.670411108],[130.792878885,33.67061555899999],[130.792935279,33.67077582900001],[130.792822218,33.67117333299999],[130.79298083,33.671467775],[130.793778054,33.671705],[130.795043061,33.672575],[130.795823061,33.671069721],[130.797126394,33.670120278999995],[130.797440272,33.670033892],[130.798410272,33.670070559],[130.8,33.670509081],[130.8,33.666666666666664],[130.7923165887674,33.666666666666664]]]}},{"type":"Feature","id":"40206:50304604","properties":{"id":"40206:50304604","meshCode":"50304604","cityCode":"40206","city":"田川市","lat":33.6700695,"lon":130.8074138,"areaKm2":0.7602977,"populated2020":true,"population2020":null,"populationNote":"境界またぎ・収録外等のため人口未集計"},"geometry":{"type":"Polygon","coordinates":[[[130.800795837,33.670694440999995],[130.802770558,33.670900558999996],[130.802868054,33.670444440999994],[130.802423606,33.670414721],[130.802534994,33.670009721],[130.80275,33.669995],[130.80577083000003,33.670443613],[130.805750558,33.670651387],[130.80604083,33.670725],[130.806156939,33.671155559000006],[130.80751,33.67121972100001],[130.807271388,33.671935000000005],[130.807137497,33.672119162],[130.806998054,33.67278889199999],[130.806902218,33.672963613],[130.806461115,33.673206666999995],[130.806564721,33.67441000000001],[130.806305837,33.674577225],[130.806148885,33.674801667],[130.805938612,33.674812775],[130.805515694,33.675],[130.8125,33.675],[130.8125,33.666666666666664],[130.8,33.666666666666664],[130.8,33.670509081],[130.800795837,33.670694440999995]]]}},{"type":"Feature","id":"40206:50304605","properties":{"id":"40206:50304605","meshCode":"50304605","cityCode":"40206","city":"田川市","lat":33.6708296,"lon":130.8186382,"areaKm2":1.0516703,"populated2020":true,"population2020":332.0372,"populationNote":"収録500mメッシュ人口の合算（原典収録外は補完しない）"},"geometry":{"type":"Polygon","coordinates":[[[130.82429083,33.670762225],[130.824338054,33.670348333],[130.824487224,33.670026107999995],[130.824559442,33.669341386999996],[130.825,33.669194333],[130.825,33.666666666666664],[130.8125,33.666666666666664],[130.8125,33.675],[130.825,33.675000000000004],[130.825,33.673663252],[130.824730558,33.67336916200001],[130.82476666700003,33.672291108],[130.824377224,33.671251667],[130.82429083,33.670762225]]]}},{"type":"Feature","id":"40206:50304606","properties":{"id":"40206:50304606","meshCode":"50304606","cityCode":"40206","city":"田川市","lat":33.6677072,"lon":130.825548,"areaKm2":0.0387255,"populated2020":true,"population2020":null,"populationNote":"境界またぎ・収録外等のため人口未集計"},"geometry":{"type":"MultiPolygon","coordinates":[[[[130.825625837,33.669160559],[130.82598083,33.668990279],[130.826410272,33.66892082900001],[130.826473333,33.668721108],[130.826213606,33.66794777500001],[130.825693891,33.666975],[130.82581204897477,33.666666666666664],[130.825,33.666666666666664],[130.825,33.669194333],[130.825625837,33.669160559]]],[[[130.82627766500002,33.675],[130.826092776,33.674401667],[130.825529728,33.674195559],[130.825,33.673663252],[130.825,33.675000000000004],[130.82627766500002,33.675]]]]}},{"type":"Feature","id":"40206:50304614","properties":{"id":"40206:50304614","meshCode":"50304614","cityCode":"40206","city":"田川市","lat":33.6790286,"lon":130.8085827,"areaKm2":0.6620379,"populated2020":true,"population2020":null,"populationNote":"境界またぎ・収録外等のため人口未集計"},"geometry":{"type":"Polygon","coordinates":[[[130.805109728,33.675258054],[130.804750272,33.675992225],[130.804550558,33.677250829],[130.804106394,33.67793],[130.803764721,33.67871361299999],[130.803810558,33.679988613],[130.804375551,33.680671387000004],[130.80601027200004,33.68233000000001],[130.806242776,33.68225444099999],[130.806727497,33.682729162],[130.806895551,33.682946387],[130.80687819689342,33.683333333333344],[130.8125,33.68333333333333],[130.8125,33.675],[130.805515694,33.675],[130.805109728,33.675258054]]]}},{"type":"Feature","id":"40206:50304615","properties":{"id":"40206:50304615","meshCode":"50304615","cityCode":"40206","city":"田川市","lat":33.6791667,"lon":130.81875,"areaKm2":1.0711859,"populated2020":true,"population2020":404.9783,"populationNote":"収録500mメッシュ人口の合算（原典収録外は補完しない）"},"geometry":{"type":"Polygon","coordinates":[[[130.825,33.675000000000004],[130.8125,33.675],[130.8125,33.68333333333333],[130.825,33.68333333333334],[130.825,33.675000000000004]]]}},{"type":"Feature","id":"40206:50304616","properties":{"id":"40206:50304616","meshCode":"50304616","cityCode":"40206","city":"田川市","lat":33.6796575,"lon":130.8260026,"areaKm2":0.1636378,"populated2020":true,"population2020":null,"populationNote":"境界またぎ・収録外等のため人口未集計"},"geometry":{"type":"Polygon","coordinates":[[[130.827093891,33.67922277500001],[130.826564994,33.678556946],[130.826571388,33.676935829],[130.82627766500002,33.675],[130.825,33.675000000000004],[130.825,33.68333333333334],[130.8272635019405,33.68333333333334],[130.827331115,33.682494162],[130.827684163,33.68138277500001],[130.827585279,33.681046387],[130.826894721,33.680256946],[130.826797224,33.67988333299999],[130.827093891,33.67922277500001]]]}},{"type":"Feature","id":"40206:50304624","properties":{"id":"40206:50304624","meshCode":"50304624","cityCode":"40206","city":"田川市","lat":33.687208,"lon":130.8096724,"areaKm2":0.4615027,"populated2020":true,"population2020":null,"populationNote":"境界またぎ・収録外等のため人口未集計"},"geometry":{"type":"Polygon","coordinates":[[[130.80687819689342,33.683333333333344],[130.806947497,33.684158613],[130.806632218,33.684907495],[130.806892776,33.68533638699999],[130.806906667,33.685625279],[130.806382503,33.686503054],[130.806423606,33.68748],[130.806166394,33.688122225],[130.806632503,33.689262775],[130.806356667,33.69051944099999],[130.808336939,33.69004277500001],[130.808646109,33.689595829],[130.808823606,33.689483613],[130.809468327,33.690953613000005],[130.8099287808184,33.69166666666667],[130.8125,33.69166666666667],[130.8125,33.68333333333333],[130.80687819689342,33.683333333333344]]]}},{"type":"Feature","id":"40206:50304625","properties":{"id":"40206:50304625","meshCode":"50304625","cityCode":"40206","city":"田川市","lat":33.6875,"lon":130.81875,"areaKm2":1.071084,"populated2020":false,"population2020":null,"populationNote":"境界またぎ・収録外等のため人口未集計"},"geometry":{"type":"Polygon","coordinates":[[[130.825,33.68333333333334],[130.8125,33.68333333333333],[130.8125,33.69166666666667],[130.825,33.69166666666667],[130.825,33.68333333333334]]]}},{"type":"Feature","id":"40206:50304626","properties":{"id":"40206:50304626","meshCode":"50304626","cityCode":"40206","city":"田川市","lat":33.6869147,"lon":130.8258681,"areaKm2":0.1287268,"populated2020":false,"population2020":null,"populationNote":"境界またぎ・収録外等のため人口未集計"},"geometry":{"type":"Polygon","coordinates":[[[130.826904163,33.687281108],[130.827006109,33.687016387],[130.82699027200002,33.686628054],[130.826543333,33.686061667000004],[130.826455279,33.685725000000005],[130.826571388,33.685404721],[130.827203606,33.684692774999995],[130.827344994,33.68437610800001],[130.82720221800002,33.683745],[130.8272635019405,33.68333333333334],[130.825,33.68333333333334],[130.825,33.69166666666667],[130.82744477277515,33.69166666666667],[130.827211946,33.691451946],[130.82594,33.691078333],[130.82627917,33.69025249500001],[130.82582083,33.68959749500001],[130.825577782,33.688782225],[130.825593333,33.688280279],[130.825723606,33.687969162],[130.826462776,33.68770610800001],[130.826904163,33.687281108]]]}},{"type":"Feature","id":"40206:50304634","properties":{"id":"40206:50304634","meshCode":"50304634","cityCode":"40206","city":"田川市","lat":33.6929961,"lon":130.8115263,"areaKm2":0.0584175,"populated2020":true,"population2020":null,"populationNote":"境界またぎ・収録外等のため人口未集計"},"geometry":{"type":"Polygon","coordinates":[[[130.809928781,33.691666667],[130.810508885,33.692832225000004],[130.810592218,33.693389999999994],[130.811067497,33.693974721],[130.811350272,33.694578333],[130.81152917,33.694673892],[130.8125,33.694832225000006],[130.8125,33.69166666666667],[130.809928781,33.691666667]]]}},{"type":"Feature","id":"40206:50304635","properties":{"id":"40206:50304635","meshCode":"50304635","cityCode":"40206","city":"田川市","lat":33.693341,"lon":130.8194375,"areaKm2":0.4075388,"populated2020":true,"population2020":null,"populationNote":"境界またぎ・収録外等のため人口未集計"},"geometry":{"type":"Polygon","coordinates":[[[130.812763891,33.69480082900001],[130.813401115,33.694491946],[130.813882776,33.694385],[130.81455,33.69399110799999],[130.81503166,33.694063054],[130.815251388,33.694182495],[130.816428612,33.694339162],[130.81769083,33.694009721],[130.818886667,33.69402972099999],[130.819336939,33.69417861299999],[130.819797224,33.694848613000005],[130.820027782,33.695026946000006],[130.821713333,33.695676387],[130.82236,33.695744162000004],[130.822862218,33.69602944100001],[130.824582503,33.695888054],[130.825,33.695678495],[130.825,33.69166666666667],[130.8125,33.69166666666667],[130.8125,33.694832225000006],[130.812763891,33.69480082900001]]]}},{"type":"Feature","id":"40206:50304636","properties":{"id":"40206:50304636","meshCode":"50304636","cityCode":"40206","city":"田川市","lat":33.693981,"lon":130.8266343,"areaKm2":0.1416133,"populated2020":false,"population2020":null,"populationNote":"境界またぎ・収録外等のため人口未集計"},"geometry":{"type":"Polygon","coordinates":[[[130.825,33.695678495],[130.825783606,33.695702225],[130.826260558,33.695891667],[130.827054994,33.696543054],[130.82754,33.696723613],[130.827951115,33.695897224999996],[130.828260272,33.695560559],[130.82852888500003,33.695095],[130.828359442,33.693932225],[130.82809083,33.693492494999994],[130.827839728,33.69247694599999],[130.82744477277515,33.69166666666667],[130.825,33.69166666666667],[130.825,33.695678495]]]}}]}