{"type":"FeatureCollection","metadata":{"cityCode":"40211","city":"筑後市","resolution":1000,"boundaryDate":"2026-01-01","populationLabel":"2020年基準人口（国交省調整値）","method":"標準地域メッシュを行政界で切抜き。中心が区域外のとき区域内代表点を判定点にする。人口不明をゼロにしない。"},"features":[{"type":"Feature","id":"40211:49306306","properties":{"id":"40211:49306306","meshCode":"49306306","cityCode":"40211","city":"筑後市","lat":33.1744367,"lon":130.457317,"areaKm2":0.1255422,"populated2020":true,"population2020":null,"populationNote":"境界またぎ・収録外等のため人口未集計"},"geometry":{"type":"Polygon","coordinates":[[[130.4625,33.17368281686731],[130.45506,33.17398582900001],[130.45143083,33.174035559],[130.451402776,33.17467166699999],[130.45146,33.17479305399999],[130.451964994,33.174992225],[130.452412503,33.174802775],[130.452462335,33.175],[130.4625,33.175000000000004],[130.4625,33.17368281686731]]]}},{"type":"Feature","id":"40211:49306307","properties":{"id":"40211:49306307","meshCode":"49306307","cityCode":"40211","city":"筑後市","lat":33.173281,"lon":130.4694804,"areaKm2":0.4147994,"populated2020":true,"population2020":null,"populationNote":"境界またぎ・収録外等のため人口未集計"},"geometry":{"type":"Polygon","coordinates":[[[130.475,33.170967919],[130.47308,33.171316667000006],[130.469268054,33.171503333],[130.467887497,33.171321667],[130.467391388,33.171330278999996],[130.465144449,33.171640829],[130.465198054,33.172073333],[130.464453606,33.172123892],[130.46448639400003,33.17262082900001],[130.464668327,33.17278833300001],[130.464711946,33.17359972100001],[130.4625,33.17368281686731],[130.4625,33.175000000000004],[130.475,33.175],[130.475,33.170967919]]]}},{"type":"Feature","id":"40211:49306308","properties":{"id":"40211:49306308","meshCode":"49306308","cityCode":"40211","city":"筑後市","lat":33.1729912,"lon":130.4758141,"areaKm2":0.0760043,"populated2020":true,"population2020":null,"populationNote":"境界またぎ・収録外等のため人口未集計"},"geometry":{"type":"MultiPolygon","coordinates":[[[[130.476742503,33.175],[130.476802503,33.174277495],[130.476631946,33.173505],[130.476563606,33.17237638700001],[130.476852503,33.172097225],[130.476429728,33.171350559],[130.476166109,33.17104361300001],[130.47582610900002,33.170934721],[130.475,33.170967919],[130.475,33.175],[130.476742503,33.175]]],[[[130.4875,33.17356303581507],[130.487008612,33.174494162],[130.48580061,33.17499999999999],[130.4875,33.175],[130.4875,33.17356303581507]]]]}},{"type":"Feature","id":"40211:49306309","properties":{"id":"40211:49306309","meshCode":"49306309","cityCode":"40211","city":"筑後市","lat":33.1739485,"lon":130.4925056,"areaKm2":0.2211869,"populated2020":true,"population2020":null,"populationNote":"境界またぎ・収録外等のため人口未集計"},"geometry":{"type":"Polygon","coordinates":[[[130.49780131,33.175],[130.497853606,33.17400249500001],[130.497789442,33.173882225],[130.497219728,33.173474441],[130.495753061,33.17268638699999],[130.494464163,33.172665828999996],[130.493150558,33.172997225],[130.492642218,33.173034721],[130.491071115,33.17295527900001],[130.488182218,33.172668054],[130.488004449,33.172715],[130.487788885,33.172926387000004],[130.4875,33.17356303581507],[130.4875,33.175],[130.49780131,33.175]]]}},{"type":"Feature","id":"40211:49306316","properties":{"id":"40211:49306316","meshCode":"49306316","cityCode":"40211","city":"筑後市","lat":33.1791621,"lon":130.4612681,"areaKm2":0.3553453,"populated2020":true,"population2020":null,"populationNote":"境界またぎ・収録外等のため人口未集計"},"geometry":{"type":"Polygon","coordinates":[[[130.452462335,33.175],[130.452326394,33.175577775],[130.452544163,33.17552249500001],[130.452757497,33.175569441],[130.452884449,33.175651667],[130.453023606,33.175955559],[130.453339442,33.175792495],[130.45367805400002,33.175771387000005],[130.454064163,33.175979162000004],[130.454375551,33.175829162],[130.454503891,33.175983892],[130.454754994,33.17574749500001],[130.455044994,33.17571444099999],[130.455196939,33.175756387],[130.455358054,33.176051946],[130.455585837,33.175973613],[130.455714721,33.175593333],[130.456014721,33.175433891999994],[130.45618083,33.17542916200001],[130.456317497,33.175529721],[130.456442218,33.176007495],[130.456576667,33.17614444099999],[130.457099442,33.175977225],[130.457410272,33.175961667],[130.457604994,33.176091667],[130.45778083,33.176352775],[130.458567224,33.176327495],[130.458608612,33.17662000000001],[130.458352218,33.177090559],[130.458365279,33.177353892],[130.459350558,33.177416667],[130.45986166,33.17756694600001],[130.460063606,33.177931667],[130.459898885,33.178308054000006],[130.460152503,33.178711108],[130.459996394,33.179131108],[130.460708054,33.179336946],[130.460852776,33.179456108],[130.46087,33.17961],[130.460256939,33.180181666999985],[130.459762218,33.18020889200001],[130.459723606,33.180070279],[130.459606109,33.180016387],[130.459284449,33.180214162],[130.458771946,33.180243054],[130.45854,33.180464162],[130.458435279,33.180616946],[130.458343606,33.181187495],[130.458453891,33.182372775000005],[130.4580521658262,33.18333333333332],[130.4625,33.18333333333333],[130.4625,33.175000000000004],[130.452462335,33.175]]]}},{"type":"Feature","id":"40211:49306317","properties":{"id":"40211:49306317","meshCode":"49306317","cityCode":"40211","city":"筑後市","lat":33.1791667,"lon":130.46875,"areaKm2":1.077316,"populated2020":true,"population2020":58.4454,"populationNote":"収録500mメッシュ人口の合算（原典収録外は補完しない）"},"geometry":{"type":"Polygon","coordinates":[[[130.475,33.175],[130.4625,33.175000000000004],[130.4625,33.18333333333333],[130.475,33.18333333333333],[130.475,33.175]]]}},{"type":"Feature","id":"40211:49306318","properties":{"id":"40211:49306318","meshCode":"49306318","cityCode":"40211","city":"筑後市","lat":33.1791556,"lon":130.4759263,"areaKm2":0.1957714,"populated2020":true,"population2020":null,"populationNote":"境界またぎ・収録外等のため人口未集計"},"geometry":{"type":"MultiPolygon","coordinates":[[[[130.485449442,33.175153054],[130.485527782,33.175773333],[130.4875,33.176879968760545],[130.4875,33.175],[130.48580061,33.17499999999999],[130.485449442,33.175153054]]],[[[130.476820272,33.183161946000006],[130.476848327,33.17826972099999],[130.475644994,33.178257224999996],[130.475743061,33.176243613],[130.47675083,33.176188054],[130.476742503,33.175],[130.475,33.175],[130.475,33.18333333333333],[130.48589016901113,33.18333333333332],[130.48586214,33.182864108000004],[130.483254916,33.182909973],[130.483295188,33.18303164],[130.476820272,33.183161946000006]]],[[[130.48616722399717,33.18333333333332],[130.4875,33.18333333333333],[130.4875,33.18275600945544],[130.486127419,33.182782945999996],[130.48616722399717,33.18333333333332]]]]}},{"type":"Feature","id":"40211:49306319","properties":{"id":"40211:49306319","meshCode":"49306319","cityCode":"40211","city":"筑後市","lat":33.1792831,"lon":130.4939973,"areaKm2":0.9607576,"populated2020":true,"population2020":null,"populationNote":"境界またぎ・収録外等のため人口未集計"},"geometry":{"type":"Polygon","coordinates":[[[130.4875,33.176879968760545],[130.489739611,33.177782748],[130.489717834,33.17784694599999],[130.490165525,33.17803541400001],[130.488636913,33.180588108],[130.488611336,33.181730027],[130.487911362,33.18174835999999],[130.48791572,33.181873081],[130.487593256,33.181873081000006],[130.487622114,33.182753612999996],[130.4875,33.18275600945544],[130.4875,33.18333333333333],[130.5,33.18333333333333],[130.5,33.177821640000005],[130.499348327,33.17699472099999],[130.498408054,33.176024162000004],[130.497829728,33.17559916199999],[130.49780131,33.175],[130.4875,33.175],[130.4875,33.176879968760545]]]}},{"type":"Feature","id":"40211:49306410","properties":{"id":"40211:49306410","meshCode":"49306410","cityCode":"40211","city":"筑後市","lat":33.1807175,"lon":130.5011641,"areaKm2":0.2341992,"populated2020":true,"population2020":null,"populationNote":"境界またぎ・収録外等のため人口未集計"},"geometry":{"type":"Polygon","coordinates":[[[130.502006939,33.180428613],[130.5,33.177821640000005],[130.5,33.18333333333333],[130.5125,33.18333333333333],[130.5125,33.18136591081114],[130.511653891,33.181455829],[130.508866667,33.182306387],[130.50771,33.182523054],[130.505902503,33.18255472100001],[130.505396394,33.182506667],[130.505043333,33.182394162],[130.503653606,33.181784721],[130.50264944200003,33.181006387],[130.502006939,33.180428613]]]}},{"type":"Feature","id":"40211:49306411","properties":{"id":"40211:49306411","meshCode":"49306411","cityCode":"40211","city":"筑後市","lat":33.182513,"lon":130.5184599,"areaKm2":0.2072197,"populated2020":true,"population2020":null,"populationNote":"境界またぎ・収録外等のため人口未集計"},"geometry":{"type":"Polygon","coordinates":[[[130.517630311,33.181920694],[130.51424834,33.181335045],[130.513581946,33.18128697299999],[130.5125,33.18136591081114],[130.5125,33.18333333333333],[130.525,33.18333333333332],[130.525,33.18156645],[130.522481738,33.18178499100001],[130.521124514,33.181985243],[130.519574228,33.182057144],[130.517630311,33.181920694]]]}},{"type":"Feature","id":"40211:49306412","properties":{"id":"40211:49306412","meshCode":"49306412","cityCode":"40211","city":"筑後市","lat":33.1826226,"lon":130.5270558,"areaKm2":0.0675348,"populated2020":true,"population2020":null,"populationNote":"境界またぎ・収録外等のため人口未集計"},"geometry":{"type":"Polygon","coordinates":[[[130.531003813,33.183333333],[130.52973511,33.18289236],[130.526843424,33.181704793],[130.526080376,33.181536171000005],[130.525,33.18156645],[130.525,33.18333333333332],[130.531003813,33.183333333]]]}},{"type":"Feature","id":"40211:49306326","properties":{"id":"40211:49306326","meshCode":"49306326","cityCode":"40211","city":"筑後市","lat":33.1872367,"lon":130.4602959,"areaKm2":0.3710222,"populated2020":true,"population2020":null,"populationNote":"境界またぎ・収録外等のため人口未集計"},"geometry":{"type":"Polygon","coordinates":[[[130.457841115,33.18375416200001],[130.45762917,33.18476722500001],[130.457142218,33.18568166699999],[130.457142776,33.185872495000005],[130.457249442,33.186068054],[130.458107497,33.186848892],[130.458286394,33.187729721000004],[130.458137497,33.188021946000006],[130.458202503,33.188251107999996],[130.458451946,33.188691667],[130.458918612,33.189098333],[130.459507224,33.190528613],[130.458650272,33.19106694599999],[130.4572500009513,33.19166666666667],[130.4625,33.19166666666668],[130.4625,33.18333333333333],[130.4580521658262,33.18333333333332],[130.457841115,33.18375416200001]]]}},{"type":"Feature","id":"40211:49306327","properties":{"id":"40211:49306327","meshCode":"49306327","cityCode":"40211","city":"筑後市","lat":33.1875,"lon":130.46875,"areaKm2":1.0772156,"populated2020":true,"population2020":142.7869,"populationNote":"収録500mメッシュ人口の合算（原典収録外は補完しない）"},"geometry":{"type":"Polygon","coordinates":[[[130.475,33.18333333333333],[130.4625,33.18333333333333],[130.4625,33.19166666666668],[130.475,33.19166666666668],[130.475,33.18333333333333]]]}},{"type":"Feature","id":"40211:49306328","properties":{"id":"40211:49306328","meshCode":"49306328","cityCode":"40211","city":"筑後市","lat":33.1875173,"lon":130.4812268,"areaKm2":1.0720627,"populated2020":true,"population2020":422.2294,"populationNote":"収録500mメッシュ人口の合算（原典収録外は補完しない）"},"geometry":{"type":"Polygon","coordinates":[[[130.4875,33.18333333333333],[130.48616722399717,33.18333333333332],[130.48619847,33.183694387],[130.486601284,33.184068802],[130.486249442,33.184323892],[130.48589083,33.184186108],[130.485533333,33.183807495],[130.48595444900002,33.183764198],[130.48589016901113,33.18333333333332],[130.475,33.18333333333333],[130.475,33.19166666666668],[130.4875,33.19166666666667],[130.4875,33.18333333333333]]]}},{"type":"Feature","id":"40211:49306329","properties":{"id":"40211:49306329","meshCode":"49306329","cityCode":"40211","city":"筑後市","lat":33.1875,"lon":130.49375,"areaKm2":1.0772096,"populated2020":true,"population2020":1522.6117,"populationNote":"収録500mメッシュ人口の合算（原典収録外は補完しない）"},"geometry":{"type":"Polygon","coordinates":[[[130.5,33.18333333333333],[130.4875,33.18333333333333],[130.4875,33.19166666666667],[130.5,33.19166666666667],[130.5,33.18333333333333]]]}},{"type":"Feature","id":"40211:49306420","properties":{"id":"40211:49306420","meshCode":"49306420","cityCode":"40211","city":"筑後市","lat":33.1875,"lon":130.50625,"areaKm2":1.0772067,"populated2020":true,"population2020":1570.2528,"populationNote":"収録500mメッシュ人口の合算（原典収録外は補完しない）"},"geometry":{"type":"Polygon","coordinates":[[[130.5125,33.18333333333333],[130.5,33.18333333333333],[130.5,33.19166666666667],[130.5125,33.19166666666667],[130.5125,33.18333333333333]]]}},{"type":"Feature","id":"40211:49306421","properties":{"id":"40211:49306421","meshCode":"49306421","cityCode":"40211","city":"筑後市","lat":33.1875,"lon":130.51875,"areaKm2":1.0772038,"populated2020":true,"population2020":510.9743,"populationNote":"収録500mメッシュ人口の合算（原典収録外は補完しない）"},"geometry":{"type":"Polygon","coordinates":[[[130.525,33.18333333333332],[130.5125,33.18333333333333],[130.5125,33.19166666666667],[130.525,33.19166666666667],[130.525,33.18333333333332]]]}},{"type":"Feature","id":"40211:49306422","properties":{"id":"40211:49306422","meshCode":"49306422","cityCode":"40211","city":"筑後市","lat":33.1864942,"lon":130.5288139,"areaKm2":0.5378688,"populated2020":true,"population2020":null,"populationNote":"境界またぎ・収録外等のため人口未集計"},"geometry":{"type":"Polygon","coordinates":[[[130.525,33.18333333333332],[130.525,33.19166666666667],[130.52626355416993,33.19166666666666],[130.526373372,33.19145124300001],[130.52700642,33.19100764],[130.52707227,33.190651252],[130.527474215,33.190467919],[130.527554773,33.19024264],[130.527405875,33.18991014400001],[130.527508106,33.18974708100001],[130.528272827,33.18935930599999],[130.529190052,33.189195973],[130.529271725,33.18914153200001],[130.529292283,33.18863791900001],[130.531165331,33.18861098200001],[130.53173061,33.188400153],[130.532723398,33.18777737800001],[130.532813113,33.187638207],[130.532785901,33.187515712],[130.532438405,33.186998766],[130.53326952,33.18600626100001],[130.53350786,33.185808766],[130.534985914,33.185135432],[130.535918975,33.184468775],[130.531928158,33.183654595],[130.53100381394842,33.18333333333332],[130.525,33.18333333333332]]]}},{"type":"Feature","id":"40211:49306336","properties":{"id":"40211:49306336","meshCode":"49306336","cityCode":"40211","city":"筑後市","lat":33.1960249,"lon":130.4578745,"areaKm2":0.789516,"populated2020":true,"population2020":null,"populationNote":"境界またぎ・収録外等のため人口未集計"},"geometry":{"type":"Polygon","coordinates":[[[130.4572500009513,33.19166666666667],[130.455982776,33.192003892],[130.454395551,33.192203892],[130.453648054,33.193799721],[130.453345279,33.19382916200001],[130.453190558,33.194317495],[130.453166939,33.195775279],[130.452957224,33.196654162],[130.45248297,33.199999999999996],[130.4625,33.2],[130.4625,33.19166666666668],[130.4572500009513,33.19166666666667]]]}},{"type":"Feature","id":"40211:49306337","properties":{"id":"40211:49306337","meshCode":"49306337","cityCode":"40211","city":"筑後市","lat":33.1958333,"lon":130.46875,"areaKm2":1.0771149,"populated2020":true,"population2020":331.4644,"populationNote":"収録500mメッシュ人口の合算（原典収録外は補完しない）"},"geometry":{"type":"Polygon","coordinates":[[[130.475,33.19166666666668],[130.4625,33.19166666666668],[130.4625,33.2],[130.475,33.2],[130.475,33.19166666666668]]]}},{"type":"Feature","id":"40211:49306338","properties":{"id":"40211:49306338","meshCode":"49306338","cityCode":"40211","city":"筑後市","lat":33.1958333,"lon":130.48125,"areaKm2":1.077112,"populated2020":true,"population2020":1030.089,"populationNote":"収録500mメッシュ人口の合算（原典収録外は補完しない）"},"geometry":{"type":"Polygon","coordinates":[[[130.4875,33.19166666666667],[130.475,33.19166666666668],[130.475,33.2],[130.4875,33.199999999999996],[130.4875,33.19166666666667]]]}},{"type":"Feature","id":"40211:49306339","properties":{"id":"40211:49306339","meshCode":"49306339","cityCode":"40211","city":"筑後市","lat":33.1958333,"lon":130.49375,"areaKm2":1.0771089,"populated2020":true,"population2020":1643.3778,"populationNote":"収録500mメッシュ人口の合算（原典収録外は補完しない）"},"geometry":{"type":"Polygon","coordinates":[[[130.5,33.19166666666667],[130.4875,33.19166666666667],[130.4875,33.199999999999996],[130.5,33.199999999999996],[130.5,33.19166666666667]]]}},{"type":"Feature","id":"40211:49306430","properties":{"id":"40211:49306430","meshCode":"49306430","cityCode":"40211","city":"筑後市","lat":33.1958333,"lon":130.50625,"areaKm2":1.0771061,"populated2020":true,"population2020":1405.6066,"populationNote":"収録500mメッシュ人口の合算（原典収録外は補完しない）"},"geometry":{"type":"Polygon","coordinates":[[[130.5125,33.19166666666667],[130.5,33.19166666666667],[130.5,33.199999999999996],[130.5125,33.199999999999996],[130.5125,33.19166666666667]]]}},{"type":"Feature","id":"40211:49306431","properties":{"id":"40211:49306431","meshCode":"49306431","cityCode":"40211","city":"筑後市","lat":33.1957588,"lon":130.5186587,"areaKm2":1.0566444,"populated2020":true,"population2020":299.721,"populationNote":"収録500mメッシュ人口の合算（原典収録外は補完しない）"},"geometry":{"type":"Polygon","coordinates":[[[130.525,33.19166666666667],[130.5125,33.19166666666667],[130.5125,33.199999999999996],[130.521239209,33.2],[130.521964125,33.19975844999999],[130.522999416,33.199214009],[130.524511077,33.199370685],[130.525,33.199486631],[130.525,33.19166666666667]]]}},{"type":"Feature","id":"40211:49306432","properties":{"id":"40211:49306432","meshCode":"49306432","cityCode":"40211","city":"筑後市","lat":33.1958599,"lon":130.5253922,"areaKm2":0.1939183,"populated2020":true,"population2020":null,"populationNote":"境界またぎ・収録外等のため人口未集計"},"geometry":{"type":"Polygon","coordinates":[[[130.525563619,33.194820964],[130.525711673,33.194199577],[130.525496952,33.194088748000006],[130.525696135,33.193474018],[130.525750856,33.19269236],[130.52626355416993,33.19166666666666],[130.525,33.19166666666667],[130.525,33.199486631],[130.525621362,33.19950707200001],[130.526145953,33.2],[130.531982179,33.199997368999995],[130.532036628,33.19978653199999],[130.531954695,33.198575703],[130.531879689,33.198500982000006],[130.53137579800003,33.198514586],[130.531280246,33.198052090000004],[130.527303307,33.198276523],[130.527174137,33.198208468],[130.526356939,33.196549018],[130.526166109,33.196304018],[130.52583249,33.196181523],[130.525563619,33.194820964]]]}},{"type":"Feature","id":"40211:49306346","properties":{"id":"40211:49306346","meshCode":"49306346","cityCode":"40211","city":"筑後市","lat":33.2035959,"lon":130.4578097,"areaKm2":0.744462,"populated2020":true,"population2020":null,"populationNote":"境界またぎ・収録外等のため人口未集計"},"geometry":{"type":"Polygon","coordinates":[[[130.45248297,33.199999999999996],[130.452231115,33.201642775],[130.452239728,33.202349162000004],[130.45159166,33.204839441],[130.45318166,33.205383333],[130.45804555100003,33.20680999999999],[130.45842360607145,33.208333333333336],[130.4625,33.20833333333334],[130.4625,33.2],[130.45248297,33.199999999999996]]]}},{"type":"Feature","id":"40211:49306347","properties":{"id":"40211:49306347","meshCode":"49306347","cityCode":"40211","city":"筑後市","lat":33.2041667,"lon":130.46875,"areaKm2":1.0770144,"populated2020":true,"population2020":294.6268,"populationNote":"収録500mメッシュ人口の合算（原典収録外は補完しない）"},"geometry":{"type":"Polygon","coordinates":[[[130.475,33.2],[130.4625,33.2],[130.4625,33.20833333333334],[130.475,33.20833333333334],[130.475,33.2]]]}},{"type":"Feature","id":"40211:49306348","properties":{"id":"40211:49306348","meshCode":"49306348","cityCode":"40211","city":"筑後市","lat":33.2041667,"lon":130.48125,"areaKm2":1.0770113,"populated2020":true,"population2020":620.7853,"populationNote":"収録500mメッシュ人口の合算（原典収録外は補完しない）"},"geometry":{"type":"Polygon","coordinates":[[[130.4875,33.199999999999996],[130.475,33.2],[130.475,33.20833333333334],[130.4875,33.208333333333336],[130.4875,33.199999999999996]]]}},{"type":"Feature","id":"40211:49306349","properties":{"id":"40211:49306349","meshCode":"49306349","cityCode":"40211","city":"筑後市","lat":33.2041667,"lon":130.49375,"areaKm2":1.0770084,"populated2020":true,"population2020":2074.3309,"populationNote":"収録500mメッシュ人口の合算（原典収録外は補完しない）"},"geometry":{"type":"Polygon","coordinates":[[[130.5,33.199999999999996],[130.4875,33.199999999999996],[130.4875,33.208333333333336],[130.5,33.20833333333334],[130.5,33.199999999999996]]]}},{"type":"Feature","id":"40211:49306440","properties":{"id":"40211:49306440","meshCode":"49306440","cityCode":"40211","city":"筑後市","lat":33.2041667,"lon":130.50625,"areaKm2":1.0770055,"populated2020":true,"population2020":3547.5867,"populationNote":"収録500mメッシュ人口の合算（原典収録外は補完しない）"},"geometry":{"type":"Polygon","coordinates":[[[130.5125,33.199999999999996],[130.5,33.199999999999996],[130.5,33.20833333333334],[130.5125,33.20833333333334],[130.5125,33.199999999999996]]]}},{"type":"Feature","id":"40211:49306441","properties":{"id":"40211:49306441","meshCode":"49306441","cityCode":"40211","city":"筑後市","lat":33.2046507,"lon":130.5165397,"areaKm2":0.6614306,"populated2020":true,"population2020":null,"populationNote":"境界またぎ・収録外等のため人口未集計"},"geometry":{"type":"Polygon","coordinates":[[[130.519274125,33.200349837999994],[130.521239209,33.2],[130.5125,33.199999999999996],[130.5125,33.20833333333334],[130.5225155250873,33.20833333333334],[130.522440182,33.20805011699999],[130.522508249,33.20750595500001],[130.5224538,33.20732206299999],[130.521575473,33.206607892],[130.521813813,33.20592095500001],[130.521616316,33.205519559],[130.521439364,33.205301784],[130.52044492900004,33.20452622500001],[130.519906874,33.203335945999996],[130.519539105,33.20309789200001],[130.518810493,33.203050108],[130.518272711,33.202894279],[130.518184384,33.202730946],[130.51819799,33.202411225],[130.517346602,33.202105108],[130.51736022,33.20113233299999],[130.518299948,33.20086705399999],[130.519274125,33.200349837999994]]]}},{"type":"Feature","id":"40211:49306442","properties":{"id":"40211:49306442","meshCode":"49306442","cityCode":"40211","city":"筑後市","lat":33.2006569,"lon":130.5301576,"areaKm2":0.0233936,"populated2020":true,"population2020":null,"populationNote":"境界またぎ・収録外等のため人口未集計"},"geometry":{"type":"Polygon","coordinates":[[[130.531430233,33.200085694],[130.53196572,33.2],[130.526145953,33.2],[130.526261349,33.20009207199999],[130.52770524,33.20054763099999],[130.527923009,33.20052736],[130.528488288,33.200255414000004],[130.529101349,33.20026902699999],[130.530415512,33.201139865],[130.53059939,33.201099027],[130.530613009,33.20041236],[130.530681064,33.20032374800001],[130.531430233,33.200085694]]]}},{"type":"Feature","id":"40211:49306356","properties":{"id":"40211:49306356","meshCode":"49306356","cityCode":"40211","city":"筑後市","lat":33.2121099,"lon":130.4608933,"areaKm2":0.2695657,"populated2020":true,"population2020":null,"populationNote":"境界またぎ・収録外等のため人口未集計"},"geometry":{"type":"Polygon","coordinates":[[[130.45842360607145,33.208333333333336],[130.45884607000002,33.210468414],[130.459043567,33.21052425199999],[130.459806537,33.214206342000004],[130.459985681,33.21521027],[130.46000832700608,33.21666666666666],[130.4625,33.21666666666667],[130.4625,33.20833333333334],[130.45842360607145,33.208333333333336]]]}},{"type":"Feature","id":"40211:49306357","properties":{"id":"40211:49306357","meshCode":"49306357","cityCode":"40211","city":"筑後市","lat":33.2125,"lon":130.46875,"areaKm2":1.0769137,"populated2020":true,"population2020":601.1672,"populationNote":"収録500mメッシュ人口の合算（原典収録外は補完しない）"},"geometry":{"type":"Polygon","coordinates":[[[130.475,33.20833333333334],[130.4625,33.20833333333334],[130.4625,33.21666666666667],[130.475,33.21666666666667],[130.475,33.20833333333334]]]}},{"type":"Feature","id":"40211:49306358","properties":{"id":"40211:49306358","meshCode":"49306358","cityCode":"40211","city":"筑後市","lat":33.2125,"lon":130.48125,"areaKm2":1.0769108,"populated2020":true,"population2020":392.8581,"populationNote":"収録500mメッシュ人口の合算（原典収録外は補完しない）"},"geometry":{"type":"Polygon","coordinates":[[[130.4875,33.208333333333336],[130.475,33.20833333333334],[130.475,33.21666666666667],[130.4875,33.216666666666676],[130.4875,33.208333333333336]]]}},{"type":"Feature","id":"40211:49306359","properties":{"id":"40211:49306359","meshCode":"49306359","cityCode":"40211","city":"筑後市","lat":33.2125,"lon":130.49375,"areaKm2":1.0769077,"populated2020":true,"population2020":2379.6825,"populationNote":"収録500mメッシュ人口の合算（原典収録外は補完しない）"},"geometry":{"type":"Polygon","coordinates":[[[130.5,33.20833333333334],[130.4875,33.208333333333336],[130.4875,33.216666666666676],[130.5,33.216666666666676],[130.5,33.20833333333334]]]}},{"type":"Feature","id":"40211:49306450","properties":{"id":"40211:49306450","meshCode":"49306450","cityCode":"40211","city":"筑後市","lat":33.2125,"lon":130.50625,"areaKm2":1.0769048,"populated2020":true,"population2020":4064.7877,"populationNote":"収録500mメッシュ人口の合算（原典収録外は補完しない）"},"geometry":{"type":"Polygon","coordinates":[[[130.5125,33.20833333333334],[130.5,33.20833333333334],[130.5,33.216666666666676],[130.5125,33.21666666666667],[130.5125,33.20833333333334]]]}},{"type":"Feature","id":"40211:49306451","properties":{"id":"40211:49306451","meshCode":"49306451","cityCode":"40211","city":"筑後市","lat":33.2124268,"lon":130.5165962,"areaKm2":0.6976799,"populated2020":true,"population2020":null,"populationNote":"境界またぎ・収録外等のため人口未集計"},"geometry":{"type":"Polygon","coordinates":[[[130.520574047,33.21232149499999],[130.520819339,33.210450946],[130.520771842,33.209076784],[130.520976291,33.208927333],[130.52226323,33.208600946000004],[130.522481297,33.208471784000004],[130.5225155250873,33.20833333333334],[130.5125,33.20833333333334],[130.5125,33.21666666666667],[130.52343952008704,33.216666666666676],[130.523461803,33.216381774999995],[130.523277912,33.216266225],[130.522589857,33.21645705400001],[130.521629857,33.216579270000004],[130.521161258,33.21560455],[130.520259857,33.215838991],[130.520263191,33.216179829],[130.519790973,33.21630732399999],[130.519688755,33.21623927],[130.519668197,33.21590621599999],[130.519824864,33.215137604],[130.520083761,33.214518721],[130.51985904,33.21442344100001],[130.519358482,33.214470108],[130.519327925,33.214076495],[130.519505149,33.21372955],[130.52021987,33.21354566699999],[130.520430986,33.213382883],[130.520117938,33.21300455],[130.520305992,33.212872613],[130.520574047,33.21232149499999]]]}},{"type":"Feature","id":"40211:49306366","properties":{"id":"40211:49306366","meshCode":"49306366","cityCode":"40211","city":"筑後市","lat":33.2190586,"lon":130.4614947,"areaKm2":0.1087429,"populated2020":true,"population2020":null,"populationNote":"境界またぎ・収録外等のため人口未集計"},"geometry":{"type":"Polygon","coordinates":[[[130.460008314,33.216666991],[130.460318988,33.218285324],[130.460173424,33.218504775],[130.460241764,33.218885883],[130.460820921,33.220180604],[130.460831479,33.220322270000004],[130.460590649,33.220404775],[130.460833424,33.22098088299999],[130.461377588,33.22134782900001],[130.461564527,33.221799495000006],[130.461872023,33.222179216],[130.462059805,33.222314495],[130.4625,33.22243137007905],[130.4625,33.21666666666667],[130.460008314,33.216666991]]]}},{"type":"Feature","id":"40211:49306367","properties":{"id":"40211:49306367","meshCode":"49306367","cityCode":"40211","city":"筑後市","lat":33.2207135,"lon":130.4689394,"areaKm2":1.0393044,"populated2020":true,"population2020":145.8433,"populationNote":"収録500mメッシュ人口の合算（原典収録外は補完しない）"},"geometry":{"type":"Polygon","coordinates":[[[130.475,33.21666666666667],[130.4625,33.21666666666667],[130.4625,33.22243137007905],[130.462750636,33.22267310800001],[130.463157302,33.222802829],[130.463375084,33.222998658],[130.463691193,33.223630324],[130.463701751,33.224286721000006],[130.465035914,33.224447829],[130.465167017,33.224538387],[130.465190078,33.224676162],[130.465742296,33.224765883],[130.465797743,33.225],[130.475,33.225],[130.475,33.21666666666667]]]}},{"type":"Feature","id":"40211:49306368","properties":{"id":"40211:49306368","meshCode":"49306368","cityCode":"40211","city":"筑後市","lat":33.2208333,"lon":130.48125,"areaKm2":1.07681,"populated2020":true,"population2020":814.1675,"populationNote":"収録500mメッシュ人口の合算（原典収録外は補完しない）"},"geometry":{"type":"Polygon","coordinates":[[[130.4875,33.216666666666676],[130.475,33.21666666666667],[130.475,33.225],[130.4875,33.224999999999994],[130.4875,33.216666666666676]]]}},{"type":"Feature","id":"40211:49306369","properties":{"id":"40211:49306369","meshCode":"49306369","cityCode":"40211","city":"筑後市","lat":33.2208333,"lon":130.49375,"areaKm2":1.0768071,"populated2020":true,"population2020":2451.6908,"populationNote":"収録500mメッシュ人口の合算（原典収録外は補完しない）"},"geometry":{"type":"Polygon","coordinates":[[[130.5,33.216666666666676],[130.4875,33.216666666666676],[130.4875,33.224999999999994],[130.5,33.22500000000001],[130.5,33.216666666666676]]]}},{"type":"Feature","id":"40211:49306460","properties":{"id":"40211:49306460","meshCode":"49306460","cityCode":"40211","city":"筑後市","lat":33.2208333,"lon":130.50625,"areaKm2":1.0768042,"populated2020":true,"population2020":2558.8353,"populationNote":"収録500mメッシュ人口の合算（原典収録外は補完しない）"},"geometry":{"type":"Polygon","coordinates":[[[130.5125,33.21666666666667],[130.5,33.216666666666676],[130.5,33.22500000000001],[130.5125,33.225],[130.5125,33.21666666666667]]]}},{"type":"Feature","id":"40211:49306461","properties":{"id":"40211:49306461","meshCode":"49306461","cityCode":"40211","city":"筑後市","lat":33.2207924,"lon":130.5176892,"areaKm2":0.8809617,"populated2020":true,"population2020":null,"populationNote":"境界またぎ・収録外等のため人口未集計"},"geometry":{"type":"Polygon","coordinates":[[[130.521650117,33.22096010799999],[130.522406239,33.21981010799999],[130.522562905,33.219415667],[130.523216796,33.21912316200001],[130.523564021,33.218558721],[130.52436096,33.218477054000005],[130.524531245,33.218150386999994],[130.524456239,33.217919279],[130.523727639,33.217824],[130.523012361,33.217633441000004],[130.52343952008704,33.216666666666676],[130.5125,33.21666666666667],[130.5125,33.225],[130.525,33.225],[130.525,33.224034586],[130.522140661,33.22399399099999],[130.522031777,33.223912324],[130.521909001,33.223538441],[130.521541219,33.223585937],[130.52106428,33.222966766],[130.521057613,33.222823991],[130.521357328,33.222558712],[130.521404838,33.22220482899999],[130.521895396,33.22167427],[130.521616226,33.221293162],[130.521650117,33.22096010799999]]]}},{"type":"Feature","id":"40211:49306462","properties":{"id":"40211:49306462","meshCode":"49306462","cityCode":"40211","city":"筑後市","lat":33.2245812,"lon":130.5252958,"areaKm2":0.0055878,"populated2020":true,"population2020":null,"populationNote":"境界またぎ・収録外等のため人口未集計"},"geometry":{"type":"Polygon","coordinates":[[[130.525749546,33.224970108],[130.525430104,33.224157332999994],[130.525,33.224034586],[130.525,33.225],[130.525749546,33.224970108]]]}},{"type":"Feature","id":"40211:49306377","properties":{"id":"40211:49306377","meshCode":"49306377","cityCode":"40211","city":"筑後市","lat":33.2282038,"lon":130.4713966,"areaKm2":0.52291,"populated2020":true,"population2020":null,"populationNote":"境界またぎ・収録外等のため人口未集計"},"geometry":{"type":"Polygon","coordinates":[[[130.465801193,33.225014495],[130.466059248,33.225709216],[130.466132568,33.22702727],[130.465293411,33.22707977499999],[130.465353126,33.227750324],[130.466182568,33.22770393700001],[130.466205901,33.227935604],[130.46577035,33.227951721],[130.465812568,33.228091162],[130.469257017,33.228085333],[130.469445071,33.22850088300001],[130.469323684,33.228821441],[130.469786174,33.23061060399999],[130.470088677,33.23060255000001],[130.470235071,33.230877829],[130.47119561600002,33.230791162],[130.4721085731038,33.233333333333334],[130.47325567993812,33.23333333333334],[130.473552283,33.233257],[130.473505058,33.233091162],[130.47484617400002,33.232561999999994],[130.475,33.233239188999995],[130.475,33.225],[130.465801193,33.225014495]]]}},{"type":"Feature","id":"40211:49306378","properties":{"id":"40211:49306378","meshCode":"49306378","cityCode":"40211","city":"筑後市","lat":33.2291666,"lon":130.4812501,"areaKm2":1.0766999,"populated2020":true,"population2020":1903.6431,"populationNote":"収録500mメッシュ人口の合算（原典収録外は補完しない）"},"geometry":{"type":"Polygon","coordinates":[[[130.4875,33.224999999999994],[130.475,33.225],[130.47501957206487,33.23333333333334],[130.4875,33.233333333333334],[130.4875,33.224999999999994]]]}},{"type":"Feature","id":"40211:49306379","properties":{"id":"40211:49306379","meshCode":"49306379","cityCode":"40211","city":"筑後市","lat":33.2291667,"lon":130.49375,"areaKm2":1.0767064,"populated2020":true,"population2020":2108.0253,"populationNote":"収録500mメッシュ人口の合算（原典収録外は補完しない）"},"geometry":{"type":"Polygon","coordinates":[[[130.5,33.22500000000001],[130.4875,33.224999999999994],[130.4875,33.233333333333334],[130.5,33.233333333333334],[130.5,33.22500000000001]]]}},{"type":"Feature","id":"40211:49306470","properties":{"id":"40211:49306470","meshCode":"49306470","cityCode":"40211","city":"筑後市","lat":33.2291667,"lon":130.50625,"areaKm2":1.0767036,"populated2020":true,"population2020":1991.1394,"populationNote":"収録500mメッシュ人口の合算（原典収録外は補完しない）"},"geometry":{"type":"Polygon","coordinates":[[[130.5125,33.225],[130.5,33.22500000000001],[130.5,33.233333333333334],[130.5125,33.233333333333334],[130.5125,33.225]]]}},{"type":"Feature","id":"40211:49306471","properties":{"id":"40211:49306471","meshCode":"49306471","cityCode":"40211","city":"筑後市","lat":33.2286961,"lon":130.5173005,"areaKm2":0.7644943,"populated2020":true,"population2020":null,"populationNote":"境界またぎ・収録外等のため人口未集計"},"geometry":{"type":"Polygon","coordinates":[[[130.524421751,33.229748712],[130.523175642,33.227708712],[130.522746485,33.227224829],[130.522412594,33.227020937],[130.52187454,33.226850937],[130.521152866,33.226742045],[130.520249209,33.22648418000001],[130.52017067400004,33.226516045],[130.520138145,33.226428991],[130.520948703,33.226143712],[130.521752322,33.225980377999996],[130.522085927,33.225762604],[130.522392322,33.225667324],[130.523080104,33.225538162],[130.523829274,33.225477054],[130.525,33.225837198],[130.525,33.225],[130.5125,33.225],[130.5125,33.233333333333334],[130.51838207504684,33.233333333333334],[130.518334527,33.23187814400001],[130.518665914,33.231687595000004],[130.518605629,33.231346477],[130.518805084,33.23122592800001],[130.51870980500001,33.23094175700001],[130.518545914,33.230824811],[130.518024254,33.229957036],[130.518230636,33.229898423],[130.51863036300003,33.23014147699999],[130.519393696,33.230337874],[130.519618132,33.230263423],[130.520411193,33.230224261],[130.520935914,33.230062874],[130.521884254,33.230166766],[130.522101193,33.230032874],[130.522407302,33.230319541],[130.522694254,33.23000120700001],[130.522923969,33.229943712],[130.523204527,33.230083990999994],[130.524065084,33.230012045],[130.525,33.23024181099999],[130.525,33.230062559000004],[130.524421751,33.229748712]]]}},{"type":"Feature","id":"40211:49306472","properties":{"id":"40211:49306472","meshCode":"49306472","cityCode":"40211","city":"筑後市","lat":33.2259783,"lon":130.5255384,"areaKm2":0.0162408,"populated2020":true,"population2020":null,"populationNote":"境界またぎ・収録外等のため人口未集計"},"geometry":{"type":"MultiPolygon","coordinates":[[[[130.525123709,33.225966775],[130.525182879,33.226364],[130.525313982,33.226585937],[130.525551206,33.226691495000004],[130.525961492,33.22658649500001],[130.526219261,33.226303721],[130.525760765,33.225],[130.525,33.225],[130.525,33.225837198],[130.525123709,33.225966775]]],[[[130.52564508400002,33.23028788300001],[130.525041751,33.230082045],[130.525,33.230062559000004],[130.525,33.23024181099999],[130.52564508400002,33.23028788300001]]]]}},{"type":"Feature","id":"40211:49306387","properties":{"id":"40211:49306387","meshCode":"49306387","cityCode":"40211","city":"筑後市","lat":33.2403926,"lon":130.4741784,"areaKm2":0.0224483,"populated2020":true,"population2020":null,"populationNote":"境界またぎ・収録外等のため人口未集計"},"geometry":{"type":"MultiPolygon","coordinates":[[[[130.4721085731038,33.233333333333334],[130.472221725,33.233539775],[130.47325567993812,33.23333333333334],[130.4721085731038,33.233333333333334]]],[[[130.475,33.240057243],[130.473450052,33.240240883],[130.473696706,33.241644495],[130.475,33.241473712],[130.475,33.240057243]]]]}},{"type":"Feature","id":"40211:49306388","properties":{"id":"40211:49306388","meshCode":"49306388","cityCode":"40211","city":"筑後市","lat":33.2370876,"lon":130.4814348,"areaKm2":0.9174812,"populated2020":true,"population2020":null,"populationNote":"境界またぎ・収録外等のため人口未集計"},"geometry":{"type":"Polygon","coordinates":[[[130.47501957206487,33.23333333333334],[130.47514978000004,33.23401005400001],[130.475692283,33.234558387],[130.475656446,33.234755054],[130.475217004,33.234703108000005],[130.475207549,33.235920613],[130.47616227,33.236085054],[130.476498664,33.238365613],[130.475306719,33.238965613],[130.475470597,33.239995613000005],[130.475,33.240057243],[130.475,33.241473712],[130.476616161,33.241267279000006],[130.4767128529195,33.24166666666667],[130.47846609594077,33.24166666666667],[130.478318651,33.240763107999996],[130.479016991,33.24069755],[130.479506706,33.24078005399999],[130.4797331,33.240585054],[130.480058651,33.240523387],[130.480469209,33.240131721],[130.480916161,33.23996144099999],[130.481147263,33.240048946],[130.481605045,33.239897559],[130.481531712,33.239662829000004],[130.482086719,33.239473667000006],[130.482049209,33.239877279],[130.481328379,33.24028227900001],[130.481276433,33.24038894600001],[130.481778379,33.240391441],[130.481455603,33.240633667],[130.481536433,33.24073894600001],[130.482354488,33.240681441],[130.482428936,33.240450613],[130.482741984,33.240451441],[130.482981984,33.240151162],[130.483264215,33.239975333000004],[130.4835031,33.239993108],[130.483404773,33.240560054],[130.483475603,33.24095782900001],[130.48381393,33.240850892],[130.483890039,33.24038533299999],[130.484655318,33.24048061300001],[130.484896161,33.240443387],[130.485064773,33.240218946000006],[130.485688379,33.240522559],[130.4860131,33.240903945999996],[130.486486161,33.24075089200001],[130.486798379,33.240956720999996],[130.48704254188755,33.241666666666674],[130.4875,33.24166666666667],[130.4875,33.233333333333334],[130.47501957206487,33.23333333333334]]]}},{"type":"Feature","id":"40211:49306389","properties":{"id":"40211:49306389","meshCode":"49306389","cityCode":"40211","city":"筑後市","lat":33.2375,"lon":130.49375,"areaKm2":1.0766057,"populated2020":true,"population2020":984.382,"populationNote":"収録500mメッシュ人口の合算（原典収録外は補完しない）"},"geometry":{"type":"Polygon","coordinates":[[[130.5,33.233333333333334],[130.4875,33.233333333333334],[130.4875,33.24166666666667],[130.5,33.24166666666667],[130.5,33.233333333333334]]]}},{"type":"Feature","id":"40211:49306480","properties":{"id":"40211:49306480","meshCode":"49306480","cityCode":"40211","city":"筑後市","lat":33.2373074,"lon":130.5058706,"areaKm2":0.98792,"populated2020":true,"population2020":null,"populationNote":"境界またぎ・収録外等のため人口未集計"},"geometry":{"type":"MultiPolygon","coordinates":[[[[130.5125,33.233333333333334],[130.5,33.233333333333334],[130.5,33.24166666666667],[130.50995330666652,33.24166666666667],[130.509510324,33.24084396399999],[130.509274501,33.24008673899999],[130.508586719,33.238703405],[130.511066174,33.237620631000006],[130.511553113,33.23832729699999],[130.511507834,33.238412577000005],[130.511281997,33.238487577],[130.511211725,33.238618135],[130.511638392,33.239515631],[130.511718664,33.239610631000005],[130.511929494,33.23961563100001],[130.5125,33.23934531182477],[130.5125,33.233333333333334]]],[[[130.511889767,33.240427577],[130.51132282700001,33.240567856],[130.511041712,33.240918685],[130.510885875,33.241189522999996],[130.510885875,33.241349793],[130.5111702846193,33.24166666666667],[130.5125,33.24166666666667],[130.5125,33.24053825035729],[130.512326433,33.240412577],[130.511889767,33.240427577]]]]}},{"type":"Feature","id":"40211:49306481","properties":{"id":"40211:49306481","meshCode":"49306481","cityCode":"40211","city":"筑後市","lat":33.2358109,"lon":130.5146781,"areaKm2":0.2213873,"populated2020":true,"population2020":null,"populationNote":"境界またぎ・収録外等のため人口未集計"},"geometry":{"type":"MultiPolygon","coordinates":[[[[130.514146732,33.237422856],[130.514288392,33.23774397300001],[130.514217562,33.238045639999996],[130.514391167,33.23856536],[130.514764228,33.238706468],[130.514963385,33.239117306],[130.515053385,33.239136468],[130.515137004,33.23903369400001],[130.514963385,33.238481748],[130.515104773,33.238353414],[130.515252555,33.238404802],[130.515477562,33.238879802],[130.516075331,33.238937586000006],[130.516338949,33.238796189],[130.516371167,33.238661748],[130.516043113,33.238180081],[130.516030065,33.237647306],[130.51638367100003,33.23740313500001],[130.515271453,33.237531189],[130.515143113,33.237582586],[130.514963113,33.23782008100001],[130.514821725,33.237839523],[130.51468033700002,33.237736748],[130.514480895,33.23728091],[130.514924501,33.236998414],[130.515518677,33.23590535999999],[130.516154786,33.23596536],[130.516405616,33.236229532],[130.515933943,33.237019532000005],[130.516450065,33.23709258600001],[130.516949235,33.235307586],[130.516939235,33.23455536],[130.517029507,33.23445509],[130.518615629,33.233793422999995],[130.51838207504684,33.233333333333334],[130.5125,33.233333333333334],[130.5125,33.23934531182477],[130.512803385,33.239137018],[130.512713671,33.238488414],[130.513806174,33.237987856000004],[130.513773943,33.23791091],[130.513407562,33.237859523],[130.513330895,33.237698963999996],[130.513375888,33.23755118900001],[130.514146732,33.237422856]]],[[[130.513039767,33.241291739000005],[130.51363329350136,33.24166666666667],[130.51421293162457,33.241666666666674],[130.51433782100003,33.24152201799999],[130.514149209,33.241246468],[130.513881712,33.24104091],[130.51352643300004,33.241250631],[130.5125,33.24053825035729],[130.5125,33.24166666666667],[130.512652542,33.241455351],[130.513039767,33.241291739000005]]]]}},{"type":"Feature","id":"40211:49306398","properties":{"id":"40211:49306398","meshCode":"49306398","cityCode":"40211","city":"筑後市","lat":33.2419203,"lon":130.4772829,"areaKm2":0.0100495,"populated2020":true,"population2020":null,"populationNote":"境界またぎ・収録外等のため人口未集計"},"geometry":{"type":"MultiPolygon","coordinates":[[[[130.476712931,33.241667],[130.476818379,33.24207199999999],[130.478489209,33.241796721],[130.47846609594077,33.24166666666667],[130.476712931,33.241667]]],[[[130.487042659,33.241667],[130.487351427,33.242553387],[130.487286433,33.24366310799999],[130.4875,33.24368381950146],[130.4875,33.24166666666667],[130.487042659,33.241667]]]]}},{"type":"Feature","id":"40211:49306399","properties":{"id":"40211:49306399","meshCode":"49306399","cityCode":"40211","city":"筑後市","lat":33.2430392,"lon":130.4945728,"areaKm2":0.320031,"populated2020":true,"population2020":null,"populationNote":"境界またぎ・収録外等のため人口未集計"},"geometry":{"type":"Polygon","coordinates":[[[130.4875,33.24368381950146],[130.48923393,33.243749775],[130.490088651,33.243888387],[130.49136393,33.243812559000006],[130.492060597,33.24400755900001],[130.49216865100001,33.24376311699999],[130.492588651,33.243882838],[130.492871984,33.243264225],[130.495508093,33.24392978400001],[130.495736433,33.243328117000004],[130.497041154,33.243668396000004],[130.496725032,33.244320892000005],[130.496702815,33.244550063],[130.496825318,33.244902278999994],[130.497316706,33.245107838],[130.497669754,33.245069505],[130.498132815,33.245226171],[130.498920869,33.245610613],[130.5,33.246285937],[130.5,33.24166666666667],[130.4875,33.24166666666667],[130.4875,33.24368381950146]]]}},{"type":"Feature","id":"40211:49306490","properties":{"id":"40211:49306490","meshCode":"49306490","cityCode":"40211","city":"筑後市","lat":33.2449224,"lon":130.5066678,"areaKm2":0.6661298,"populated2020":true,"population2020":null,"populationNote":"境界またぎ・収録外等のため人口未集計"},"geometry":{"type":"Polygon","coordinates":[[[130.501523372,33.24556783799999],[130.502494475,33.24577506300002],[130.503111699,33.24509172999999],[130.503246148,33.24507339600001],[130.503349754,33.245152838],[130.503093372,33.245695901],[130.503698093,33.24570200899999],[130.503918093,33.245384505],[130.5038631,33.245073396],[130.505109481,33.244682568],[130.505353645,33.244896180000005],[130.505610311,33.245292846999995],[130.505768366,33.246073396],[130.507200869,33.24788367600001],[130.50820642,33.247042846999996],[130.508378651,33.246977288],[130.508510584,33.248347568],[130.508937458,33.25],[130.512389987,33.25],[130.512255305,33.249658676],[130.5125,33.24925761698115],[130.5125,33.24716180875948],[130.51212476,33.24721618],[130.511971699,33.246729793],[130.511865032,33.24664645899999],[130.510984475,33.246862847],[130.510745318,33.245755072],[130.511088366,33.24568673900001],[130.511165032,33.245733955],[130.511258366,33.246119514],[130.511540311,33.246103955],[130.511571699,33.24534812600002],[130.511989209,33.24506645900001],[130.511957821,33.24481618],[130.512250324,33.244628405],[130.512291984,33.244336459],[130.512156433,33.244169514],[130.51205198400004,33.244153964],[130.5115331,33.244402847],[130.51125559,33.24478063099999],[130.511072542,33.24483118],[130.510782542,33.24475562200001],[130.510687821,33.24488145899999],[130.510807821,33.245026458999995],[130.51081393,33.24517756800001],[130.510643645,33.245354234],[130.510410311,33.24536673899999],[130.50999393,33.24507062200001],[130.509817263,33.244717847],[130.510966148,33.244092018],[130.51116393,33.243870072],[130.5112831,33.243559514],[130.51030393,33.242513405],[130.509851984,33.242443126],[130.509676433,33.242292846999995],[130.509977549,33.242137297],[130.510454488,33.242092297000006],[130.510605045,33.242357847],[130.51102144,33.242453126],[130.511322542,33.242443126],[130.511899767,33.24210729699999],[130.512286161,33.24199701799999],[130.512416719,33.241891739],[130.5125,33.24166666666667],[130.5111702846193,33.24166666666667],[130.511177263,33.24178618900001],[130.510880882,33.241921459],[130.50995330666652,33.24166666666667],[130.5,33.24166666666667],[130.5,33.246285937],[130.500600869,33.246678117],[130.500722815,33.247617838],[130.500845032,33.24773367600001],[130.501401141,33.247654505000014],[130.501559754,33.24723950500001],[130.50203642,33.246873396],[130.501474475,33.24650117099999],[130.501523372,33.24556783799999]]]}},{"type":"Feature","id":"40211:49306491","properties":{"id":"40211:49306491","meshCode":"49306491","cityCode":"40211","city":"筑後市","lat":33.2467811,"lon":130.5135103,"areaKm2":0.0392507,"populated2020":true,"population2020":null,"populationNote":"境界またぎ・収録外等のため人口未集計"},"geometry":{"type":"MultiPolygon","coordinates":[[[[130.512525331,33.241667018],[130.5125,33.24166666666667],[130.5125,33.24171942848552],[130.512525331,33.241667018]]],[[[130.513890597,33.241838685],[130.51421227,33.241667018],[130.51421293162457,33.241666666666674],[130.51363329350136,33.24166666666667],[130.513890597,33.241838685]]],[[[130.513886978,33.245725072],[130.51377559,33.245660072],[130.5133631,33.244886459],[130.513233372,33.244803126],[130.513066433,33.24482618],[130.513010597,33.244900351],[130.513177263,33.245780631],[130.513562257,33.246335901],[130.51280642,33.246734514],[130.512848093,33.247105072],[130.5125,33.24716180875948],[130.5125,33.24925761698115],[130.512866693,33.248432568],[130.512866693,33.248238955],[130.513189754,33.24773256800001],[130.513388651,33.247628405],[130.51460642,33.24749923400001],[130.514805318,33.247305631],[130.514830039,33.247087018],[130.514730597,33.246997576999995],[130.514402529,33.246977847000004],[130.514323087,33.246898405],[130.514313087,33.246620351],[130.514486978,33.246377296999995],[130.514268366,33.24593063099999],[130.514079481,33.24569729699999],[130.513886978,33.245725072]]]]}},{"type":"Feature","id":"40211:49307400","properties":{"id":"40211:49307400","meshCode":"49307400","cityCode":"40211","city":"筑後市","lat":33.2520831,"lon":130.5105949,"areaKm2":0.1288458,"populated2020":true,"population2020":null,"populationNote":"境界またぎ・収録外等のため人口未集計"},"geometry":{"type":"Polygon","coordinates":[[[130.509132802,33.252389225],[130.509512802,33.255133946],[130.509906965,33.25504255900001],[130.510083346,33.254905892],[130.510307523,33.254284225],[130.51113808,33.25376700900001],[130.511834189,33.25357034200001],[130.512360571,33.253561729999994],[130.512429183,33.253098955],[130.512319741,33.25296728800001],[130.512278353,33.252492838],[130.511912244,33.25255756799999],[130.511837523,33.252443396],[130.512011686,33.251986730000006],[130.511882244,33.251425622],[130.51188725,33.25090978400001],[130.512096135,33.250820342000004],[130.5125,33.250825342],[130.5125,33.25015326715501],[130.512389987,33.25],[130.508937458,33.25],[130.509259468,33.250947567999994],[130.509119741,33.251659505],[130.509132802,33.252389225]]]}},{"type":"Feature","id":"40211:49307401","properties":{"id":"40211:49307401","meshCode":"49307401","cityCode":"40211","city":"筑後市","lat":33.2505727,"lon":130.512612,"areaKm2":0.0012754,"populated2020":true,"population2020":null,"populationNote":"境界またぎ・収録外等のため人口未集計"},"geometry":{"type":"Polygon","coordinates":[[[130.512503632,33.250825342],[130.512722529,33.250815342],[130.512786965,33.250750901],[130.5125,33.25015326715501],[130.512503632,33.250825342]]]}}]}