{"type":"FeatureCollection","metadata":{"cityCode":"40218","city":"春日市","resolution":1000,"boundaryDate":"2026-01-01","populationLabel":"2020年基準人口（国交省調整値）","method":"標準地域メッシュを行政界で切抜き。中心が区域外のとき区域内代表点を判定点にする。人口不明をゼロにしない。"},"features":[{"type":"Feature","id":"40218:50301395","properties":{"id":"40218:50301395","meshCode":"50301395","cityCode":"40218","city":"春日市","lat":33.499459,"lon":130.4490975,"areaKm2":0.0222037,"populated2020":false,"population2020":null,"populationNote":"境界またぎ・収録外等のため人口未集計"},"geometry":{"type":"Polygon","coordinates":[[[130.449578612,33.498694441],[130.448906667,33.498896667],[130.448088054,33.49944777500001],[130.447723333,33.49999999999999],[130.45,33.5],[130.45,33.49871530600001],[130.449578612,33.498694441]]]}},{"type":"Feature","id":"40218:50301396","properties":{"id":"40218:50301396","meshCode":"50301396","cityCode":"40218","city":"春日市","lat":33.4995488,"lon":130.45054,"areaKm2":0.0112345,"populated2020":true,"population2020":null,"populationNote":"境界またぎ・収録外等のため人口未集計"},"geometry":{"type":"Polygon","coordinates":[[[130.45162083,33.499977225],[130.450615837,33.499250559],[130.450336939,33.498802775],[130.45,33.49871530600001],[130.45,33.5],[130.45162083,33.499977225]]]}},{"type":"Feature","id":"40218:50302305","properties":{"id":"40218:50302305","meshCode":"50302305","cityCode":"40218","city":"春日市","lat":33.5038321,"lon":130.4484778,"areaKm2":0.2353979,"populated2020":true,"population2020":null,"populationNote":"境界またぎ・収録外等のため人口未集計"},"geometry":{"type":"Polygon","coordinates":[[[130.447648612,33.50043666700001],[130.447683061,33.501264721000005],[130.447395837,33.501861667],[130.44718917,33.502006108],[130.446088885,33.502181667],[130.445916939,33.502311666999994],[130.445402776,33.503098613000006],[130.445587497,33.503327225],[130.446001946,33.503526667],[130.44617166,33.503695279],[130.446364449,33.503970559],[130.446511115,33.504500279000005],[130.447168327,33.504675],[130.447483606,33.505381667],[130.448114994,33.505861946],[130.448243061,33.506845829],[130.447990558,33.507953891999996],[130.44822586312318,33.50833333333334],[130.45,33.50833333333334],[130.45,33.5],[130.447723333,33.49999999999999],[130.447648612,33.50043666700001]]]}},{"type":"Feature","id":"40218:50302306","properties":{"id":"40218:50302306","meshCode":"50302306","cityCode":"40218","city":"春日市","lat":33.5050561,"lon":130.4553664,"areaKm2":0.7896482,"populated2020":true,"population2020":null,"populationNote":"境界またぎ・収録外等のため人口未集計"},"geometry":{"type":"Polygon","coordinates":[[[130.455897497,33.50177082900001],[130.455808327,33.501306107999994],[130.455558612,33.501149721],[130.455403606,33.500745279],[130.453740558,33.501036666999994],[130.453539442,33.50121],[130.45334416300003,33.501686108],[130.453039728,33.501801667],[130.452741115,33.501758333],[130.452620558,33.501700559],[130.451933891,33.50085582900001],[130.451634423,33.5],[130.45,33.5],[130.45,33.50833333333334],[130.4625,33.50833333333334],[130.4625,33.506016671965334],[130.462219728,33.50602555900001],[130.462078885,33.505932495],[130.462171946,33.505006108],[130.461925837,33.504804721000006],[130.461788327,33.50478],[130.461507082,33.504792135],[130.460842918,33.505020386999995],[130.460604306,33.504589333],[130.460031946,33.50402808100001],[130.460269027,33.504025865],[130.460272218,33.503021972999996],[130.46035345,33.503022946],[130.460356083,33.50292513499999],[130.459604527,33.502925865],[130.45928083,33.502718892000004],[130.459051115,33.502685279000005],[130.458292776,33.502848892],[130.457408327,33.502714162],[130.456813891,33.502471108],[130.455897497,33.50177082900001]]]}},{"type":"Feature","id":"40218:50302307","properties":{"id":"40218:50302307","meshCode":"50302307","cityCode":"40218","city":"春日市","lat":33.5076055,"lon":130.4643576,"areaKm2":0.0624774,"populated2020":true,"population2020":null,"populationNote":"境界またぎ・収録外等のため人口未集計"},"geometry":{"type":"Polygon","coordinates":[[[130.467892633,33.508333333],[130.467272776,33.507931946],[130.46624,33.507688892],[130.465084449,33.50713694600001],[130.464096939,33.50693944099999],[130.463253891,33.506388054],[130.4625,33.506016671965334],[130.4625,33.50833333333334],[130.467892633,33.508333333]]]}},{"type":"Feature","id":"40218:50302315","properties":{"id":"40218:50302315","meshCode":"50302315","cityCode":"40218","city":"春日市","lat":33.5134854,"lon":130.4451909,"areaKm2":0.7033136,"populated2020":true,"population2020":null,"populationNote":"境界またぎ・収録外等のため人口未集計"},"geometry":{"type":"Polygon","coordinates":[[[130.448312503,33.508567775],[130.446045551,33.509696108],[130.443208054,33.511244441],[130.442299728,33.511616667000006],[130.440543333,33.512958613],[130.439804994,33.513068613],[130.439593061,33.513855],[130.438949442,33.513993054000004],[130.438928327,33.514165829],[130.438714721,33.514306387000005],[130.438434994,33.515453333],[130.437967224,33.515525559],[130.43788138800002,33.515905279],[130.437623891,33.515941387],[130.4375,33.51630872141869],[130.4375,33.51666666666667],[130.45,33.516666666666666],[130.45,33.50833333333334],[130.44822586312318,33.50833333333334],[130.448312503,33.508567775]]]}},{"type":"Feature","id":"40218:50302316","properties":{"id":"40218:50302316","meshCode":"50302316","cityCode":"40218","city":"春日市","lat":33.5125,"lon":130.45625,"areaKm2":1.0732793,"populated2020":true,"population2020":5347.6701,"populationNote":"収録500mメッシュ人口の合算（原典収録外は補完しない）"},"geometry":{"type":"Polygon","coordinates":[[[130.4625,33.50833333333334],[130.45,33.50833333333334],[130.45,33.516666666666666],[130.4625,33.51666666666667],[130.4625,33.50833333333334]]]}},{"type":"Feature","id":"40218:50302317","properties":{"id":"40218:50302317","meshCode":"50302317","cityCode":"40218","city":"春日市","lat":33.5128066,"lon":130.4684951,"areaKm2":0.9837513,"populated2020":true,"population2020":null,"populationNote":"境界またぎ・収録外等のため人口未集計"},"geometry":{"type":"Polygon","coordinates":[[[130.468652503,33.509416667],[130.468536109,33.50864666700001],[130.467944994,33.508443613],[130.46789263315824,33.50833333333334],[130.4625,33.50833333333334],[130.4625,33.51666666666667],[130.475,33.516666666666666],[130.475,33.515594162],[130.474887108,33.51547780200001],[130.475,33.515378721],[130.475,33.51319555900001],[130.474692503,33.512755468],[130.474664553,33.512470495],[130.474748003,33.512188162],[130.475,33.51187138700001],[130.475,33.508763559],[130.474551388,33.509545],[130.47349917,33.509336667],[130.473276394,33.509333054],[130.47283917,33.509473333],[130.472317782,33.50937861300001],[130.472039442,33.509414721],[130.470487497,33.509921667],[130.470136394,33.510243613],[130.469225551,33.510006387000004],[130.469078054,33.509598054],[130.468924163,33.5096],[130.468652503,33.509416667]]]}},{"type":"Feature","id":"40218:50302318","properties":{"id":"40218:50302318","meshCode":"50302318","cityCode":"40218","city":"春日市","lat":33.5110112,"lon":130.4758191,"areaKm2":0.0629935,"populated2020":true,"population2020":null,"populationNote":"境界またぎ・収録外等のため人口未集計"},"geometry":{"type":"MultiPolygon","coordinates":[[[[130.475466472,33.511376829],[130.476260947,33.511814666999996],[130.477029754,33.510744892],[130.477113022,33.51023077499999],[130.476962438,33.509095306],[130.4767662,33.50922002699999],[130.476671388,33.509106387],[130.475942503,33.50925472099999],[130.475851946,33.509176667000006],[130.475794994,33.508889162],[130.475667224,33.508796108],[130.475301115,33.508640279],[130.47508083,33.508648892000004],[130.475,33.508763559],[130.475,33.51187138700001],[130.475466472,33.511376829]]],[[[130.475189001,33.515206279],[130.47523642,33.51466510800002],[130.475551388,33.514329027],[130.475345772,33.513970027],[130.475577419,33.51387963999999],[130.475,33.51319555900001],[130.475,33.515378721],[130.475189001,33.515206279]]],[[[130.47547166,33.516285532],[130.475,33.515594162],[130.475,33.516666666666666],[130.47576136122012,33.516666666666666],[130.475450921,33.516533972999994],[130.47547166,33.516285532]]]]}},{"type":"Feature","id":"40218:50302314","properties":{"id":"40218:50302314","meshCode":"50302314","cityCode":"40218","city":"春日市","lat":33.5165564,"lon":130.4371891,"areaKm2":0.0015877,"populated2020":true,"population2020":null,"populationNote":"境界またぎ・収録外等のため人口未集計"},"geometry":{"type":"Polygon","coordinates":[[[130.4375,33.51630872141869],[130.436671115,33.516627494999994],[130.43662141442294,33.516666666666666],[130.4375,33.51666666666667],[130.4375,33.51630872141869]]]}},{"type":"Feature","id":"40218:50302324","properties":{"id":"40218:50302324","meshCode":"50302324","cityCode":"40218","city":"春日市","lat":33.5211124,"lon":130.436296,"areaKm2":0.1835901,"populated2020":true,"population2020":null,"populationNote":"境界またぎ・収録外等のため人口未集計"},"geometry":{"type":"Polygon","coordinates":[[[130.436571388,33.516706108],[130.436082776,33.517577225],[130.435799442,33.518501667],[130.435420558,33.51917194599999],[130.43563083,33.519285829000005],[130.435472503,33.519571667],[130.435422503,33.519871946],[130.434606939,33.52093722499999],[130.434746394,33.521942225],[130.434285279,33.522313054],[130.434045551,33.52290555900001],[130.435273333,33.523809721],[130.43698083,33.524917495],[130.437374163,33.524906108],[130.43738869,33.525],[130.4375,33.525000000000006],[130.4375,33.51666666666667],[130.436571388,33.516706108]]]}},{"type":"Feature","id":"40218:50302325","properties":{"id":"40218:50302325","meshCode":"50302325","cityCode":"40218","city":"春日市","lat":33.5208333,"lon":130.44375,"areaKm2":1.073181,"populated2020":true,"population2020":10698.6083,"populationNote":"収録500mメッシュ人口の合算（原典収録外は補完しない）"},"geometry":{"type":"Polygon","coordinates":[[[130.45,33.516666666666666],[130.4375,33.51666666666667],[130.4375,33.525000000000006],[130.45,33.525],[130.45,33.516666666666666]]]}},{"type":"Feature","id":"40218:50302326","properties":{"id":"40218:50302326","meshCode":"50302326","cityCode":"40218","city":"春日市","lat":33.5208333,"lon":130.45625,"areaKm2":1.0731778,"populated2020":true,"population2020":9092.5285,"populationNote":"収録500mメッシュ人口の合算（原典収録外は補完しない）"},"geometry":{"type":"Polygon","coordinates":[[[130.4625,33.51666666666667],[130.45,33.516666666666666],[130.45,33.525],[130.4625,33.525000000000006],[130.4625,33.51666666666667]]]}},{"type":"Feature","id":"40218:50302327","properties":{"id":"40218:50302327","meshCode":"50302327","cityCode":"40218","city":"春日市","lat":33.5208333,"lon":130.46875,"areaKm2":1.0731746,"populated2020":true,"population2020":4024.4844,"populationNote":"収録500mメッシュ人口の合算（原典収録外は補完しない）"},"geometry":{"type":"Polygon","coordinates":[[[130.475,33.516666666666666],[130.4625,33.51666666666667],[130.4625,33.525000000000006],[130.475,33.525],[130.475,33.516666666666666]]]}},{"type":"Feature","id":"40218:50302328","properties":{"id":"40218:50302328","meshCode":"50302328","cityCode":"40218","city":"春日市","lat":33.5213218,"lon":130.4763615,"areaKm2":0.2196451,"populated2020":true,"population2020":null,"populationNote":"境界またぎ・収録外等のため人口未集計"},"geometry":{"type":"Polygon","coordinates":[[[130.476950558,33.520648613],[130.476929442,33.520531108],[130.477971946,33.519819721000005],[130.477895837,33.519315829],[130.477609442,33.518968333000004],[130.477248327,33.51872916199999],[130.477146394,33.517875279],[130.476770558,33.51738361299999],[130.475987004,33.516763108000006],[130.47576136122012,33.516666666666666],[130.475,33.516666666666666],[130.475,33.525],[130.478721284,33.525000000000006],[130.478737782,33.524855829],[130.478936394,33.524605],[130.478933333,33.524434162000006],[130.478768054,33.524253892],[130.478240272,33.52390249500001],[130.477658054,33.523636108],[130.477972218,33.52316694600001],[130.477993061,33.522868892],[130.477863606,33.522640829],[130.47720917,33.522060829],[130.477581946,33.521424162],[130.476950558,33.520648613]]]}},{"type":"Feature","id":"40218:50302334","properties":{"id":"40218:50302334","meshCode":"50302334","cityCode":"40218","city":"春日市","lat":33.5276939,"lon":130.4368077,"areaKm2":0.0549534,"populated2020":true,"population2020":null,"populationNote":"境界またぎ・収録外等のため人口未集計"},"geometry":{"type":"Polygon","coordinates":[[[130.437404994,33.52521555900001],[130.43548917,33.52755499999999],[130.43632083,33.528152225],[130.43581221800002,33.52892000000001],[130.436714163,33.529531387],[130.437018327,33.529531387],[130.4375,33.52984441738688],[130.4375,33.525000000000006],[130.43738869,33.525],[130.437404994,33.52521555900001]]]}},{"type":"Feature","id":"40218:50302335","properties":{"id":"40218:50302335","meshCode":"50302335","cityCode":"40218","city":"春日市","lat":33.5287476,"lon":130.4443296,"areaKm2":0.9349466,"populated2020":true,"population2020":null,"populationNote":"境界またぎ・収録外等のため人口未集計"},"geometry":{"type":"Polygon","coordinates":[[[130.45,33.525],[130.4375,33.525000000000006],[130.4375,33.52984441738688],[130.438728885,33.530649441],[130.438983891,33.530406387],[130.43974472100004,33.530713892],[130.440117224,33.530191945999995],[130.440349442,33.530294162000004],[130.440814163,33.530829441],[130.441105551,33.530818054],[130.441228612,33.53098889200001],[130.441413061,33.53099833299999],[130.441532503,33.53150249499999],[130.441873891,33.531362225],[130.442116667,33.53185500000001],[130.442326939,33.531786667],[130.442495279,33.532183613],[130.442898612,33.532742225],[130.443018327,33.533227775],[130.44293535649206,33.53333333333333],[130.45,33.53333333333334],[130.45,33.525]]]}},{"type":"Feature","id":"40218:50302336","properties":{"id":"40218:50302336","meshCode":"50302336","cityCode":"40218","city":"春日市","lat":33.5291667,"lon":130.45625,"areaKm2":1.0730762,"populated2020":true,"population2020":10504.7133,"populationNote":"収録500mメッシュ人口の合算（原典収録外は補完しない）"},"geometry":{"type":"Polygon","coordinates":[[[130.4625,33.525000000000006],[130.45,33.525],[130.45,33.53333333333334],[130.4625,33.533333333333324],[130.4625,33.525000000000006]]]}},{"type":"Feature","id":"40218:50302337","properties":{"id":"40218:50302337","meshCode":"50302337","cityCode":"40218","city":"春日市","lat":33.5291667,"lon":130.46875,"areaKm2":1.0730732,"populated2020":true,"population2020":5831.7957,"populationNote":"収録500mメッシュ人口の合算（原典収録外は補完しない）"},"geometry":{"type":"Polygon","coordinates":[[[130.475,33.525],[130.4625,33.525000000000006],[130.4625,33.533333333333324],[130.475,33.533333333333324],[130.475,33.525]]]}},{"type":"Feature","id":"40218:50302338","properties":{"id":"40218:50302338","meshCode":"50302338","cityCode":"40218","city":"春日市","lat":33.5279548,"lon":130.4766149,"areaKm2":0.2122583,"populated2020":true,"population2020":null,"populationNote":"境界またぎ・収録外等のため人口未集計"},"geometry":{"type":"Polygon","coordinates":[[[130.476413891,33.530421387000004],[130.478814163,33.527973333],[130.479092503,33.527342225],[130.479116667,33.527107775],[130.479367497,33.526838054],[130.478666667,33.526341667000004],[130.47878166,33.526064441],[130.479144163,33.525641108],[130.478580558,33.525325],[130.478700558,33.52518055899999],[130.478721284,33.525000000000006],[130.475,33.525],[130.475,33.533333333333324],[130.47584433193725,33.53333333333333],[130.476222503,33.532598892],[130.476177224,33.532010559],[130.475942503,33.532015279],[130.475853333,33.53181582900001],[130.475382218,33.531426667],[130.475918327,33.530951946],[130.475498885,33.530624441],[130.476012218,33.530231387],[130.476122503,33.530210559],[130.476413891,33.530421387000004]]]}},{"type":"Feature","id":"40218:50302345","properties":{"id":"40218:50302345","meshCode":"50302345","cityCode":"40218","city":"春日市","lat":33.5377475,"lon":130.4453755,"areaKm2":0.7843211,"populated2020":true,"population2020":null,"populationNote":"境界またぎ・収録外等のため人口未集計"},"geometry":{"type":"Polygon","coordinates":[[[130.442612503,33.533587775],[130.442334163,33.534283333000005],[130.442434449,33.534619441],[130.441051115,33.536333054],[130.440594449,33.537535279],[130.440317497,33.53765305400001],[130.44026083,33.538105],[130.440470558,33.538406946],[130.440407224,33.53878666699999],[130.439846939,33.53892527899999],[130.439297224,33.539725279],[130.440413606,33.54052305399999],[130.43977917,33.541165829],[130.43994099907061,33.541666666666664],[130.45,33.541666666666664],[130.45,33.53333333333334],[130.44293535649206,33.53333333333333],[130.442612503,33.533587775]]]}},{"type":"Feature","id":"40218:50302346","properties":{"id":"40218:50302346","meshCode":"50302346","cityCode":"40218","city":"春日市","lat":33.5371867,"lon":130.4556756,"areaKm2":0.9555375,"populated2020":true,"population2020":null,"populationNote":"境界またぎ・収録外等のため人口未集計"},"geometry":{"type":"Polygon","coordinates":[[[130.46156194600002,33.537510279],[130.462293606,33.53730027899999],[130.4625,33.537110148146056],[130.4625,33.533333333333324],[130.45,33.53333333333334],[130.45,33.541666666666664],[130.4580460051833,33.541666666666664],[130.458535551,33.540891108000004],[130.459200558,33.540259162000005],[130.459186939,33.540005559],[130.459638612,33.539348053999994],[130.460517224,33.53931389200001],[130.460659728,33.53923416199999],[130.46073083,33.538761386999994],[130.461208054,33.537986387],[130.46156194600002,33.537510279]]]}},{"type":"Feature","id":"40218:50302347","properties":{"id":"40218:50302347","meshCode":"50302347","cityCode":"40218","city":"春日市","lat":33.5355686,"lon":130.4693895,"areaKm2":0.551952,"populated2020":true,"population2020":null,"populationNote":"境界またぎ・収録外等のため人口未集計"},"geometry":{"type":"Polygon","coordinates":[[[130.462945551,33.536678054],[130.462953061,33.536198332999994],[130.463394721,33.535841387],[130.463773606,33.53603889200001],[130.464053891,33.535816946],[130.464226939,33.535987774999995],[130.464321946,33.53637416200001],[130.464721946,33.536351387],[130.465233333,33.536880000000004],[130.465283333,33.537103892],[130.465939222,33.537672],[130.467167497,33.536642775],[130.467306667,33.537322225],[130.46742666700004,33.537441667],[130.468331115,33.53777138699999],[130.469411388,33.537973333],[130.469894449,33.53817305399999],[130.470935837,33.53831916199999],[130.471351946,33.538630559],[130.471883061,33.53816361300001],[130.473136939,33.539231108],[130.474007782,33.538269162000006],[130.474802218,33.537768892],[130.47465166,33.537596107999995],[130.475,33.53730719799999],[130.475,33.533333333333324],[130.4625,33.533333333333324],[130.4625,33.537110148146056],[130.462945551,33.536678054]]]}},{"type":"Feature","id":"40218:50302348","properties":{"id":"40218:50302348","meshCode":"50302348","cityCode":"40218","city":"春日市","lat":33.5352326,"lon":130.4757224,"areaKm2":0.0502787,"populated2020":true,"population2020":null,"populationNote":"境界またぎ・収録外等のため人口未集計"},"geometry":{"type":"Polygon","coordinates":[[[130.475,33.53730719799999],[130.477044994,33.535655559],[130.47699,33.53542777500001],[130.476518885,33.53491889200001],[130.476302218,33.534274441],[130.475768612,33.533753613],[130.47584433193725,33.53333333333333],[130.475,33.533333333333324],[130.475,33.53730719799999]]]}},{"type":"Feature","id":"40218:50302355","properties":{"id":"40218:50302355","meshCode":"50302355","cityCode":"40218","city":"春日市","lat":33.5443605,"lon":130.4458405,"areaKm2":0.4994757,"populated2020":true,"population2020":null,"populationNote":"境界またぎ・収録外等のため人口未集計"},"geometry":{"type":"Polygon","coordinates":[[[130.43994099907061,33.541666666666664],[130.439644721,33.542906946],[130.440454163,33.543100559],[130.441791946,33.543864162],[130.442381115,33.54435861299999],[130.442394163,33.544565279],[130.442029728,33.544571108],[130.442063891,33.545066667],[130.442258054,33.545540279],[130.442163891,33.546600279],[130.442554163,33.546693054],[130.443141115,33.547064721],[130.443658327,33.546457694],[130.4437738,33.546095306],[130.445031479,33.547260775],[130.445450272,33.547426667],[130.445638054,33.547005279000004],[130.445995837,33.547284162],[130.446064254,33.547731667],[130.448128327,33.547432225],[130.448865837,33.547233333],[130.449713606,33.549088054],[130.45,33.549091532],[130.45,33.541666666666664],[130.43994099907061,33.541666666666664]]]}},{"type":"Feature","id":"40218:50302356","properties":{"id":"40218:50302356","meshCode":"50302356","cityCode":"40218","city":"春日市","lat":33.5445919,"lon":130.4528689,"areaKm2":0.3852006,"populated2020":true,"population2020":null,"populationNote":"境界またぎ・収録外等のため人口未集計"},"geometry":{"type":"Polygon","coordinates":[[[130.456834163,33.543646945999996],[130.4580460051833,33.541666666666664],[130.45,33.541666666666664],[130.45,33.549091532],[130.452234163,33.548802775],[130.453028885,33.548186666999996],[130.45293,33.547947495],[130.4537262,33.547300531999994],[130.453592244,33.547131829],[130.453334968,33.547014252],[130.453357562,33.54690558600001],[130.453701115,33.546667892],[130.45404808,33.546667892],[130.45428108900003,33.546872919],[130.454396304,33.546761532],[130.454420506,33.545972198],[130.454698054,33.545231108],[130.454994163,33.54483416200001],[130.455769442,33.54455749500001],[130.456834163,33.543646945999996]]]}}]}