{"type":"FeatureCollection","metadata":{"cityCode":"40214","city":"豊前市","resolution":1000,"boundaryDate":"2026-01-01","populationLabel":"2020年基準人口（国交省調整値）","method":"標準地域メッシュを行政界で切抜き。中心が区域外のとき区域内代表点を判定点にする。人口不明をゼロにしない。"},"features":[{"type":"Feature","id":"40214:50302709","properties":{"id":"40214:50302709","meshCode":"50302709","cityCode":"40214","city":"豊前市","lat":33.5083253,"lon":130.9916365,"areaKm2":2.91e-05,"populated2020":false,"population2020":null,"populationNote":"境界またぎ・収録外等のため人口未集計"},"geometry":{"type":"Polygon","coordinates":[[[130.9917762525779,33.50833333333334],[130.991583606,33.508309161999996],[130.99154610848274,33.50833333333334],[130.9917762525779,33.50833333333334]]]}},{"type":"Feature","id":"40214:50312004","properties":{"id":"40214:50312004","meshCode":"50312004","cityCode":"40214","city":"豊前市","lat":33.5081698,"lon":131.0538655,"areaKm2":0.0068564,"populated2020":false,"population2020":null,"populationNote":"境界またぎ・収録外等のため人口未集計"},"geometry":{"type":"Polygon","coordinates":[[[131.055218029,33.508333333],[131.054576667,33.508071667],[131.05331166,33.50789194600001],[131.05315917,33.507934721],[131.05281547272696,33.50833333333334],[131.055218029,33.508333333]]]}},{"type":"Feature","id":"40214:50302719","properties":{"id":"40214:50302719","meshCode":"50302719","cityCode":"40214","city":"豊前市","lat":33.5130807,"lon":130.9950834,"areaKm2":0.6633698,"populated2020":false,"population2020":null,"populationNote":"境界またぎ・収録外等のため人口未集計"},"geometry":{"type":"Polygon","coordinates":[[[130.992916109,33.509015],[130.9917762525779,33.50833333333334],[130.99154610848274,33.50833333333334],[130.99130083,33.50849138700001],[130.990826394,33.509094162],[130.990584163,33.50927666700001],[130.99031166,33.50930833299999],[130.98995166,33.509140559],[130.990229442,33.51011277500001],[130.990683606,33.510842225000005],[130.991026939,33.512349162],[130.990804721,33.51313416200001],[130.99116778200002,33.51473333300001],[130.991127224,33.51513777499999],[130.99048975416528,33.516666666666666],[131.0,33.516666666666666],[131.0,33.511174],[130.999092776,33.510884161999996],[130.997623891,33.510113333],[130.997282503,33.510105279],[130.996878885,33.510287775],[130.99594166,33.509797495],[130.995124163,33.50974972099999],[130.994508327,33.509376946],[130.994006109,33.509213054],[130.992916109,33.509015]]]}},{"type":"Feature","id":"40214:50312010","properties":{"id":"40214:50312010","meshCode":"50312010","cityCode":"40214","city":"豊前市","lat":33.5137884,"lon":131.0066916,"areaKm2":0.7278759,"populated2020":false,"population2020":null,"populationNote":"境界またぎ・収録外等のため人口未集計"},"geometry":{"type":"Polygon","coordinates":[[[131.012157445,33.510233027000005],[131.011616939,33.510227494999995],[131.010864163,33.509970559],[131.009632218,33.510150559],[131.008305837,33.510599162],[131.007149728,33.51085610799999],[131.00639749700002,33.510736108],[131.005743061,33.51072777500001],[131.005328612,33.510847225000006],[131.004270558,33.51167],[131.003577782,33.51206944100001],[131.002923333,33.512189441000004],[131.001438054,33.512175558999985],[131.0,33.511174],[131.0,33.516666666666666],[131.0125,33.516666666666666],[131.0125,33.51004117680306],[131.012157445,33.510233027000005]]]}},{"type":"Feature","id":"40214:50312011","properties":{"id":"40214:50312011","meshCode":"50312011","cityCode":"40214","city":"豊前市","lat":33.513881,"lon":131.0177186,"areaKm2":0.6560074,"populated2020":false,"population2020":null,"populationNote":"境界またぎ・収録外等のため人口未集計"},"geometry":{"type":"Polygon","coordinates":[[[131.017664721,33.511711667],[131.017293891,33.511463054],[131.016826394,33.510138333],[131.016084721,33.509838613],[131.015343061,33.509110279000005],[131.014721388,33.509110279],[131.01363472100002,33.509756387],[131.012794721,33.509859162],[131.0125,33.51004117680306],[131.0125,33.516666666666666],[131.025,33.516666666666666],[131.025,33.513275359999994],[131.02459166,33.513244721],[131.02397,33.513399162000006],[131.023195551,33.513141946],[131.022464994,33.51328749499999],[131.021516394,33.51294500000001],[131.020851115,33.512525],[131.019965837,33.51268833299999],[131.019376939,33.512602775],[131.018581115,33.512054441],[131.017664721,33.511711667]]]}},{"type":"Feature","id":"40214:50312013","properties":{"id":"40214:50312013","meshCode":"50312013","cityCode":"40214","city":"豊前市","lat":33.5138872,"lon":131.0457277,"areaKm2":0.5258465,"populated2020":false,"population2020":null,"populationNote":"境界またぎ・収録外等のため人口未集計"},"geometry":{"type":"Polygon","coordinates":[[[131.04912917,33.510223613],[131.047722503,33.511071667],[131.047373606,33.511080279],[131.04707917,33.51090889200001],[131.046784721,33.510497775],[131.046250272,33.510437775],[131.045500558,33.50991],[131.045206109,33.509892775],[131.044028327,33.510081387],[131.044133333,33.51112110799999],[131.043310558,33.511920279],[131.042852218,33.51221999999999],[131.042557782,33.512571387],[131.042383333,33.51308555899999],[131.042350558,33.514010559],[131.042252503,33.514259162],[131.042056109,33.51439610799999],[131.041354994,33.514582495],[131.041202218,33.514711108],[131.041104163,33.51501944099999],[131.040973333,33.515096667],[131.040242503,33.515293613],[131.038966667,33.516090279],[131.03775477348734,33.516666666666666],[131.05,33.51666666666666],[131.05,33.51007653200001],[131.04912917,33.510223613]]]}},{"type":"Feature","id":"40214:50312014","properties":{"id":"40214:50312014","meshCode":"50312014","cityCode":"40214","city":"豊前市","lat":33.5127861,"lon":131.05628,"areaKm2":0.9939321,"populated2020":false,"population2020":null,"populationNote":"境界またぎ・収録外等のため人口未集計"},"geometry":{"type":"Polygon","coordinates":[[[131.05558,33.508440279],[131.05521802962406,33.50833333333334],[131.05281547272696,33.50833333333334],[131.051607224,33.509890279],[131.05128,33.510044441000005],[131.05,33.51007653200001],[131.05,33.51666666666666],[131.0625,33.516666666666666],[131.0625,33.509706472849395],[131.06187083,33.509398054],[131.060946939,33.509154441],[131.060314163,33.50918889199999],[131.059420272,33.508940279],[131.058765837,33.50909416199999],[131.058220558,33.50876027899999],[131.057324994,33.508457495],[131.056528885,33.508491667],[131.056158054,33.50834610799999],[131.05558,33.508440279]]]}},{"type":"Feature","id":"40214:50312015","properties":{"id":"40214:50312015","meshCode":"50312015","cityCode":"40214","city":"豊前市","lat":33.5136416,"lon":131.0671702,"areaKm2":0.6284937,"populated2020":false,"population2020":null,"populationNote":"境界またぎ・収録外等のため人口未集計"},"geometry":{"type":"Polygon","coordinates":[[[131.06765083,33.509056386999994],[131.067424449,33.50920582900001],[131.06620306100004,33.50966833300001],[131.065158612,33.509989162],[131.063795551,33.509963333],[131.063272218,33.51020333300001],[131.063097497,33.51020333300001],[131.0625,33.509706472849395],[131.0625,33.516666666666666],[131.075,33.51666666666667],[131.075,33.516528027],[131.074367497,33.516193054],[131.073790558,33.51544027900001],[131.072579728,33.514746108],[131.072053606,33.51403444100001],[131.070459442,33.51276944100001],[131.069734163,33.511866946],[131.069576394,33.511302495],[131.068427224,33.50972305399999],[131.06765083,33.509056386999994]]]}},{"type":"Feature","id":"40214:50312012","properties":{"id":"40214:50312012","meshCode":"50312012","cityCode":"40214","city":"豊前市","lat":33.5151494,"lon":131.02623,"areaKm2":0.0843661,"populated2020":false,"population2020":null,"populationNote":"境界またぎ・収録外等のため人口未集計"},"geometry":{"type":"Polygon","coordinates":[[[131.02813916986602,33.51666666666667],[131.027814994,33.515688053999995],[131.02728083,33.51459138700001],[131.02679,33.513923333],[131.026365837,33.51351861300001],[131.025662503,33.512885],[131.02519166,33.513227775],[131.025,33.513275359999994],[131.025,33.516666666666666],[131.02813916986602,33.51666666666667]]]}},{"type":"Feature","id":"40214:50312016","properties":{"id":"40214:50312016","meshCode":"50312016","cityCode":"40214","city":"豊前市","lat":33.516617,"lon":131.0750694,"areaKm2":0.0001593,"populated2020":false,"population2020":null,"populationNote":"境界またぎ・収録外等のため人口未集計"},"geometry":{"type":"Polygon","coordinates":[[[131.0751921397171,33.51666666666667],[131.075035837,33.516543053999996],[131.075,33.516528027],[131.075,33.51666666666667],[131.0751921397171,33.51666666666667]]]}},{"type":"Feature","id":"40214:50302729","properties":{"id":"40214:50302729","meshCode":"50302729","cityCode":"40214","city":"豊前市","lat":33.5204793,"lon":130.9957925,"areaKm2":0.7066206,"populated2020":false,"population2020":null,"populationNote":"境界またぎ・収録外等のため人口未集計"},"geometry":{"type":"Polygon","coordinates":[[[130.990158612,33.517426108],[130.990269728,33.51844110799999],[130.990632776,33.519175829],[130.990683061,33.51946916200001],[130.991480558,33.520206946],[130.991943606,33.520925279],[130.99280083,33.522699162],[130.992861388,33.52323027900001],[130.993598327,33.52429305399999],[130.993814643,33.525],[131.0,33.525],[131.0,33.516666666666666],[130.99048975416528,33.516666666666666],[130.990158612,33.517426108]]]}},{"type":"Feature","id":"40214:50312020","properties":{"id":"40214:50312020","meshCode":"50312020","cityCode":"40214","city":"豊前市","lat":33.5208333,"lon":131.00625,"areaKm2":1.0731102,"populated2020":false,"population2020":null,"populationNote":"境界またぎ・収録外等のため人口未集計"},"geometry":{"type":"Polygon","coordinates":[[[131.0125,33.516666666666666],[131.0,33.516666666666666],[131.0,33.525],[131.0125,33.525],[131.0125,33.516666666666666]]]}},{"type":"Feature","id":"40214:50312021","properties":{"id":"40214:50312021","meshCode":"50312021","cityCode":"40214","city":"豊前市","lat":33.5208333,"lon":131.01875,"areaKm2":1.0731103,"populated2020":false,"population2020":null,"populationNote":"境界またぎ・収録外等のため人口未集計"},"geometry":{"type":"Polygon","coordinates":[[[131.025,33.516666666666666],[131.0125,33.516666666666666],[131.0125,33.525],[131.025,33.525000000000006],[131.025,33.516666666666666]]]}},{"type":"Feature","id":"40214:50312022","properties":{"id":"40214:50312022","meshCode":"50312022","cityCode":"40214","city":"豊前市","lat":33.5214557,"lon":131.0309432,"areaKm2":0.8974456,"populated2020":false,"population2020":null,"populationNote":"境界またぎ・収録外等のため人口未集計"},"geometry":{"type":"Polygon","coordinates":[[[131.030720272,33.51830222499999],[131.030567782,33.518336387],[131.029836939,33.518833333],[131.029586109,33.51885916199999],[131.029422776,33.518790559],[131.028698054,33.518055279],[131.02813916986602,33.51666666666667],[131.025,33.516666666666666],[131.025,33.525000000000006],[131.0375,33.525],[131.0375,33.51684092599279],[131.037056109,33.51721389200001],[131.036696109,33.51813055900001],[131.035813061,33.519081667],[131.033961115,33.518670279],[131.032990558,33.51877305399999],[131.032161946,33.518644721],[131.031431115,33.518670279],[131.030720272,33.51830222499999]]]}},{"type":"Feature","id":"40214:50312023","properties":{"id":"40214:50312023","meshCode":"50312023","cityCode":"40214","city":"豊前市","lat":33.5208342,"lon":131.0437513,"areaKm2":1.0728822,"populated2020":false,"population2020":null,"populationNote":"境界またぎ・収録外等のため人口未集計"},"geometry":{"type":"Polygon","coordinates":[[[131.0375,33.51684092599279],[131.0375,33.525],[131.05,33.525000000000006],[131.05,33.51666666666666],[131.03775477348734,33.516666666666666],[131.0375,33.51684092599279]]]}},{"type":"Feature","id":"40214:50312024","properties":{"id":"40214:50312024","meshCode":"50312024","cityCode":"40214","city":"豊前市","lat":33.5208333,"lon":131.05625,"areaKm2":1.073111,"populated2020":true,"population2020":0.9977,"populationNote":"収録500mメッシュ人口の合算（原典収録外は補完しない）"},"geometry":{"type":"Polygon","coordinates":[[[131.0625,33.516666666666666],[131.05,33.51666666666666],[131.05,33.525000000000006],[131.0625,33.525],[131.0625,33.516666666666666]]]}},{"type":"Feature","id":"40214:50312025","properties":{"id":"40214:50312025","meshCode":"50312025","cityCode":"40214","city":"豊前市","lat":33.5208333,"lon":131.06875,"areaKm2":1.0731114,"populated2020":true,"population2020":2.0032,"populationNote":"収録500mメッシュ人口の合算（原典収録外は補完しない）"},"geometry":{"type":"Polygon","coordinates":[[[131.075,33.51666666666667],[131.0625,33.516666666666666],[131.0625,33.525],[131.075,33.525],[131.075,33.51666666666667]]]}},{"type":"Feature","id":"40214:50312026","properties":{"id":"40214:50312026","meshCode":"50312026","cityCode":"40214","city":"豊前市","lat":33.5218979,"lon":131.0802331,"areaKm2":0.7358038,"populated2020":false,"population2020":null,"populationNote":"境界またぎ・収録外等のため人口未集計"},"geometry":{"type":"Polygon","coordinates":[[[131.080399442,33.518185559],[131.079697224,33.518199162],[131.07841166,33.517929721],[131.078017497,33.517929720999994],[131.077674721,33.518051108],[131.077263606,33.517983613],[131.076406667,33.51770082899999],[131.076269728,33.517431667],[131.075464163,33.517027775],[131.0751921397171,33.51666666666667],[131.075,33.51666666666667],[131.075,33.525],[131.0875,33.525],[131.0875,33.52280354889242],[131.087107497,33.52244889199999],[131.086970272,33.52188361299999],[131.085205253,33.52117],[131.084705551,33.52112416200001],[131.08414,33.521178053999996],[131.0839,33.521124162],[131.083557497,33.520585559],[131.083403333,33.520451108],[131.083008885,33.520343333],[131.082786109,33.520127775],[131.08229,33.518878613],[131.082135551,33.518770829],[131.08150166000001,33.51875722500001],[131.080884721,33.518313054],[131.080399442,33.518185559]]]}},{"type":"Feature","id":"40214:50312027","properties":{"id":"40214:50312027","meshCode":"50312027","cityCode":"40214","city":"豊前市","lat":33.5243419,"lon":131.088669,"areaKm2":0.0340525,"populated2020":false,"population2020":null,"populationNote":"境界またぎ・収録外等のため人口未集計"},"geometry":{"type":"Polygon","coordinates":[[[131.090841388,33.524768054],[131.090584163,33.524579441],[131.09031,33.524579441],[131.090216667,33.52438527899999],[131.089942503,33.524277495],[131.089102776,33.52452],[131.088674163,33.52398138699999],[131.088502776,33.523604441],[131.0875,33.52280354889242],[131.0875,33.525],[131.090971141,33.525000000000006],[131.090841388,33.524768054]]]}},{"type":"Feature","id":"40214:50302739","properties":{"id":"40214:50302739","meshCode":"50302739","cityCode":"40214","city":"豊前市","lat":33.5277315,"lon":130.9977531,"areaKm2":0.2831536,"populated2020":false,"population2020":null,"populationNote":"境界またぎ・収録外等のため人口未集計"},"geometry":{"type":"Polygon","coordinates":[[[130.993779728,33.525456387000006],[130.994173061,33.52609833300001],[130.994475837,33.527081946],[130.995020272,33.527626387],[130.995787497,33.527951666999996],[130.996060272,33.528221108],[130.996453891,33.528411387000006],[130.996968327,33.528879162],[130.99714,33.529101387],[130.997391946,33.53024138699999],[130.997623061,33.53068555899999],[130.999041115,33.531815],[130.999255279,33.532118333],[130.999312503,33.532612225],[131.0,33.533028586],[131.0,33.525],[130.993814643,33.525],[130.993779728,33.525456387000006]]]}},{"type":"Feature","id":"40214:50312030","properties":{"id":"40214:50312030","meshCode":"50312030","cityCode":"40214","city":"豊前市","lat":33.5291424,"lon":131.00628,"areaKm2":1.0665673,"populated2020":false,"population2020":null,"populationNote":"境界またぎ・収録外等のため人口未集計"},"geometry":{"type":"Polygon","coordinates":[[[131.0125,33.525],[131.0,33.525],[131.0,33.533028586],[131.000312776,33.533184441],[131.00055555100002,33.533184440999996],[131.00121277600002,33.532993613],[131.00197,33.532971387],[131.002184163,33.53305],[131.0023534761992,33.53333333333333],[131.0125,33.53333333333333],[131.0125,33.525]]]}},{"type":"Feature","id":"40214:50312031","properties":{"id":"40214:50312031","meshCode":"50312031","cityCode":"40214","city":"豊前市","lat":33.5291667,"lon":131.01875,"areaKm2":1.073009,"populated2020":true,"population2020":11.0775,"populationNote":"収録500mメッシュ人口の合算（原典収録外は補完しない）"},"geometry":{"type":"Polygon","coordinates":[[[131.025,33.525000000000006],[131.0125,33.525],[131.0125,33.53333333333333],[131.025,33.53333333333333],[131.025,33.525000000000006]]]}},{"type":"Feature","id":"40214:50312032","properties":{"id":"40214:50312032","meshCode":"50312032","cityCode":"40214","city":"豊前市","lat":33.5291667,"lon":131.03125,"areaKm2":1.073009,"populated2020":false,"population2020":null,"populationNote":"境界またぎ・収録外等のため人口未集計"},"geometry":{"type":"Polygon","coordinates":[[[131.0375,33.525],[131.025,33.525000000000006],[131.025,33.53333333333333],[131.0375,33.533333333333324],[131.0375,33.525]]]}},{"type":"Feature","id":"40214:50312033","properties":{"id":"40214:50312033","meshCode":"50312033","cityCode":"40214","city":"豊前市","lat":33.5291667,"lon":131.04375,"areaKm2":1.0730093,"populated2020":false,"population2020":null,"populationNote":"境界またぎ・収録外等のため人口未集計"},"geometry":{"type":"Polygon","coordinates":[[[131.05,33.525000000000006],[131.0375,33.525],[131.0375,33.533333333333324],[131.05,33.53333333333333],[131.05,33.525000000000006]]]}},{"type":"Feature","id":"40214:50312034","properties":{"id":"40214:50312034","meshCode":"50312034","cityCode":"40214","city":"豊前市","lat":33.5291667,"lon":131.05625,"areaKm2":1.0730095,"populated2020":true,"population2020":22.1323,"populationNote":"収録500mメッシュ人口の合算（原典収録外は補完しない）"},"geometry":{"type":"Polygon","coordinates":[[[131.0625,33.525],[131.05,33.525000000000006],[131.05,33.53333333333333],[131.0625,33.53333333333333],[131.0625,33.525]]]}},{"type":"Feature","id":"40214:50312035","properties":{"id":"40214:50312035","meshCode":"50312035","cityCode":"40214","city":"豊前市","lat":33.5291667,"lon":131.06875,"areaKm2":1.0730099,"populated2020":false,"population2020":null,"populationNote":"境界またぎ・収録外等のため人口未集計"},"geometry":{"type":"Polygon","coordinates":[[[131.075,33.525],[131.0625,33.525],[131.0625,33.53333333333333],[131.075,33.53333333333333],[131.075,33.525]]]}},{"type":"Feature","id":"40214:50312036","properties":{"id":"40214:50312036","meshCode":"50312036","cityCode":"40214","city":"豊前市","lat":33.5291667,"lon":131.08125,"areaKm2":1.0730103,"populated2020":true,"population2020":3.0146,"populationNote":"収録500mメッシュ人口の合算（原典収録外は補完しない）"},"geometry":{"type":"Polygon","coordinates":[[[131.0875,33.525],[131.075,33.525],[131.075,33.53333333333333],[131.0875,33.53333333333333],[131.0875,33.525]]]}},{"type":"Feature","id":"40214:50312037","properties":{"id":"40214:50312037","meshCode":"50312037","cityCode":"40214","city":"豊前市","lat":33.5295999,"lon":131.0903755,"areaKm2":0.474852,"populated2020":false,"population2020":null,"populationNote":"境界またぎ・収録外等のため人口未集計"},"geometry":{"type":"Polygon","coordinates":[[[131.093273061,33.52883],[131.092827497,33.52822389199999],[131.092819442,33.527821387],[131.092682218,33.52733666700001],[131.091876939,33.526959721],[131.091568612,33.52636722500001],[131.091098327,33.525804441000005],[131.091064163,33.525225829],[131.090971141,33.525000000000006],[131.0875,33.525],[131.0875,33.53333333333333],[131.09343610879517,33.533333333333324],[131.093991115,33.53241],[131.094162218,33.531601946],[131.094556394,33.531171108],[131.094044163,33.530510828999994],[131.093855551,33.529756946],[131.09330722400003,33.52958194600001],[131.09317,33.529447495],[131.093273061,33.52883]]]}},{"type":"Feature","id":"40214:50312040","properties":{"id":"40214:50312040","meshCode":"50312040","cityCode":"40214","city":"豊前市","lat":33.5362515,"lon":131.0092611,"areaKm2":0.4296263,"populated2020":false,"population2020":null,"populationNote":"境界またぎ・収録外等のため人口未集計"},"geometry":{"type":"Polygon","coordinates":[[[131.002645837,33.53376555900001],[131.003188612,33.53414722499999],[131.004110272,33.53449527899999],[131.00441,33.53476472100001],[131.005165279,33.535744441],[131.005479728,33.535968892],[131.005879728,33.536193613],[131.007108612,33.536563892],[131.007908612,33.53723749499999],[131.007971388,33.537454162],[131.008414449,33.537488054],[131.009057224,33.53794805399999],[131.00927166,33.53850916199999],[131.010185837,33.539193892],[131.010691388,33.54011166699999],[131.01062,33.540358613],[131.010005551,33.541020829000004],[131.009836278052,33.541666666666664],[131.0125,33.541666666666664],[131.0125,33.53333333333333],[131.0023534761992,33.53333333333333],[131.002645837,33.53376555900001]]]}},{"type":"Feature","id":"40214:50312041","properties":{"id":"40214:50312041","meshCode":"50312041","cityCode":"40214","city":"豊前市","lat":33.5375,"lon":131.01875,"areaKm2":1.0729074,"populated2020":true,"population2020":21.1111,"populationNote":"収録500mメッシュ人口の合算（原典収録外は補完しない）"},"geometry":{"type":"Polygon","coordinates":[[[131.025,33.53333333333333],[131.0125,33.53333333333333],[131.0125,33.541666666666664],[131.025,33.541666666666664],[131.025,33.53333333333333]]]}},{"type":"Feature","id":"40214:50312042","properties":{"id":"40214:50312042","meshCode":"50312042","cityCode":"40214","city":"豊前市","lat":33.5375,"lon":131.03125,"areaKm2":1.0729075,"populated2020":false,"population2020":null,"populationNote":"境界またぎ・収録外等のため人口未集計"},"geometry":{"type":"Polygon","coordinates":[[[131.0375,33.533333333333324],[131.025,33.53333333333333],[131.025,33.541666666666664],[131.0375,33.541666666666664],[131.0375,33.533333333333324]]]}},{"type":"Feature","id":"40214:50312043","properties":{"id":"40214:50312043","meshCode":"50312043","cityCode":"40214","city":"豊前市","lat":33.5375,"lon":131.04375,"areaKm2":1.0729078,"populated2020":true,"population2020":5.0027,"populationNote":"収録500mメッシュ人口の合算（原典収録外は補完しない）"},"geometry":{"type":"Polygon","coordinates":[[[131.05,33.53333333333333],[131.0375,33.533333333333324],[131.0375,33.541666666666664],[131.05,33.541666666666664],[131.05,33.53333333333333]]]}},{"type":"Feature","id":"40214:50312044","properties":{"id":"40214:50312044","meshCode":"50312044","cityCode":"40214","city":"豊前市","lat":33.5375,"lon":131.05625,"areaKm2":1.072908,"populated2020":false,"population2020":null,"populationNote":"境界またぎ・収録外等のため人口未集計"},"geometry":{"type":"Polygon","coordinates":[[[131.0625,33.53333333333333],[131.05,33.53333333333333],[131.05,33.541666666666664],[131.0625,33.54166666666667],[131.0625,33.53333333333333]]]}},{"type":"Feature","id":"40214:50312045","properties":{"id":"40214:50312045","meshCode":"50312045","cityCode":"40214","city":"豊前市","lat":33.5375,"lon":131.06875,"areaKm2":1.0729084,"populated2020":true,"population2020":43.2527,"populationNote":"収録500mメッシュ人口の合算（原典収録外は補完しない）"},"geometry":{"type":"Polygon","coordinates":[[[131.075,33.53333333333333],[131.0625,33.53333333333333],[131.0625,33.54166666666667],[131.075,33.54166666666667],[131.075,33.53333333333333]]]}},{"type":"Feature","id":"40214:50312046","properties":{"id":"40214:50312046","meshCode":"50312046","cityCode":"40214","city":"豊前市","lat":33.5375,"lon":131.08125,"areaKm2":1.0729088,"populated2020":true,"population2020":34.2019,"populationNote":"収録500mメッシュ人口の合算（原典収録外は補完しない）"},"geometry":{"type":"Polygon","coordinates":[[[131.0875,33.53333333333333],[131.075,33.53333333333333],[131.075,33.54166666666667],[131.0875,33.541666666666664],[131.0875,33.53333333333333]]]}},{"type":"Feature","id":"40214:50312047","properties":{"id":"40214:50312047","meshCode":"50312047","cityCode":"40214","city":"豊前市","lat":33.5382204,"lon":131.0925363,"areaKm2":0.7850276,"populated2020":false,"population2020":null,"populationNote":"境界またぎ・収録外等のため人口未集計"},"geometry":{"type":"Polygon","coordinates":[[[131.093425551,33.535654162],[131.093528327,33.53446972100001],[131.093271388,33.533675279],[131.09343610879517,33.533333333333324],[131.0875,33.53333333333333],[131.0875,33.541666666666664],[131.1,33.541666666666664],[131.1,33.53907453200001],[131.098769728,33.538430829000006],[131.097109442,33.53740222500001],[131.096492218,33.537496387],[131.096012503,33.537685],[131.095738612,33.537617495],[131.094590272,33.53685],[131.093596667,33.53596389199999],[131.093425551,33.535654162]]]}},{"type":"Feature","id":"40214:50312048","properties":{"id":"40214:50312048","meshCode":"50312048","cityCode":"40214","city":"豊前市","lat":33.5407595,"lon":131.1016839,"areaKm2":0.0703567,"populated2020":false,"population2020":null,"populationNote":"境界またぎ・収録外等のため人口未集計"},"geometry":{"type":"Polygon","coordinates":[[[131.10435083,33.54166666666667],[131.10435083,33.54143527899999],[131.104025279,33.54105833300001],[131.103528612,33.540735279],[131.1031,33.540573892],[131.10243166,33.54006222500001],[131.101300558,33.53972555899999],[131.1,33.53907453200001],[131.1,33.541666666666664],[131.10435083,33.54166666666667]]]}},{"type":"Feature","id":"40214:50312050","properties":{"id":"40214:50312050","meshCode":"50312050","cityCode":"40214","city":"豊前市","lat":33.5447015,"lon":131.0112618,"areaKm2":0.1691844,"populated2020":false,"population2020":null,"populationNote":"境界またぎ・収録外等のため人口未集計"},"geometry":{"type":"Polygon","coordinates":[[[131.009836278052,33.541666666666664],[131.009669728,33.542150829],[131.009469728,33.543800559000005],[131.009946939,33.545732775],[131.010203891,33.546148054],[131.010832776,33.546742775],[131.011118327,33.547292775],[131.011261388,33.547820559],[131.01184722400004,33.548112225],[131.012217782,33.548985],[131.012060558,33.549142225],[131.011946394,33.549467494999995],[131.012149883,33.55],[131.0125,33.55],[131.0125,33.541666666666664],[131.009836278052,33.541666666666664]]]}},{"type":"Feature","id":"40214:50312051","properties":{"id":"40214:50312051","meshCode":"50312051","cityCode":"40214","city":"豊前市","lat":33.5458333,"lon":131.01875,"areaKm2":1.0728058,"populated2020":true,"population2020":3.0226,"populationNote":"収録500mメッシュ人口の合算（原典収録外は補完しない）"},"geometry":{"type":"Polygon","coordinates":[[[131.025,33.541666666666664],[131.0125,33.541666666666664],[131.0125,33.55],[131.025,33.54999999999999],[131.025,33.541666666666664]]]}},{"type":"Feature","id":"40214:50312052","properties":{"id":"40214:50312052","meshCode":"50312052","cityCode":"40214","city":"豊前市","lat":33.5458333,"lon":131.03125,"areaKm2":1.072806,"populated2020":true,"population2020":19.108,"populationNote":"収録500mメッシュ人口の合算（原典収録外は補完しない）"},"geometry":{"type":"Polygon","coordinates":[[[131.0375,33.541666666666664],[131.025,33.541666666666664],[131.025,33.54999999999999],[131.0375,33.54999999999999],[131.0375,33.541666666666664]]]}},{"type":"Feature","id":"40214:50312053","properties":{"id":"40214:50312053","meshCode":"50312053","cityCode":"40214","city":"豊前市","lat":33.5458333,"lon":131.04375,"areaKm2":1.0728062,"populated2020":false,"population2020":null,"populationNote":"境界またぎ・収録外等のため人口未集計"},"geometry":{"type":"Polygon","coordinates":[[[131.05,33.541666666666664],[131.0375,33.541666666666664],[131.0375,33.54999999999999],[131.05,33.55],[131.05,33.541666666666664]]]}},{"type":"Feature","id":"40214:50312054","properties":{"id":"40214:50312054","meshCode":"50312054","cityCode":"40214","city":"豊前市","lat":33.5458333,"lon":131.05625,"areaKm2":1.0728066,"populated2020":true,"population2020":31.2077,"populationNote":"収録500mメッシュ人口の合算（原典収録外は補完しない）"},"geometry":{"type":"Polygon","coordinates":[[[131.0625,33.54166666666667],[131.05,33.541666666666664],[131.05,33.55],[131.0625,33.55],[131.0625,33.54166666666667]]]}},{"type":"Feature","id":"40214:50312055","properties":{"id":"40214:50312055","meshCode":"50312055","cityCode":"40214","city":"豊前市","lat":33.5458333,"lon":131.06875,"areaKm2":1.0728068,"populated2020":true,"population2020":24.1532,"populationNote":"収録500mメッシュ人口の合算（原典収録外は補完しない）"},"geometry":{"type":"Polygon","coordinates":[[[131.075,33.54166666666667],[131.0625,33.54166666666667],[131.0625,33.55],[131.075,33.54999999999999],[131.075,33.54166666666667]]]}},{"type":"Feature","id":"40214:50312056","properties":{"id":"40214:50312056","meshCode":"50312056","cityCode":"40214","city":"豊前市","lat":33.5458333,"lon":131.08125,"areaKm2":1.0728073,"populated2020":true,"population2020":40.2343,"populationNote":"収録500mメッシュ人口の合算（原典収録外は補完しない）"},"geometry":{"type":"Polygon","coordinates":[[[131.0875,33.541666666666664],[131.075,33.54166666666667],[131.075,33.54999999999999],[131.0875,33.54999999999999],[131.0875,33.541666666666664]]]}},{"type":"Feature","id":"40214:50312057","properties":{"id":"40214:50312057","meshCode":"50312057","cityCode":"40214","city":"豊前市","lat":33.5458333,"lon":131.09375,"areaKm2":1.0728078,"populated2020":false,"population2020":null,"populationNote":"境界またぎ・収録外等のため人口未集計"},"geometry":{"type":"Polygon","coordinates":[[[131.1,33.541666666666664],[131.0875,33.541666666666664],[131.0875,33.54999999999999],[131.1,33.55],[131.1,33.541666666666664]]]}},{"type":"Feature","id":"40214:50312058","properties":{"id":"40214:50312058","meshCode":"50312058","cityCode":"40214","city":"豊前市","lat":33.5463775,"lon":131.1056684,"areaKm2":0.9002659,"populated2020":false,"population2020":null,"populationNote":"境界またぎ・収録外等のため人口未集計"},"geometry":{"type":"Polygon","coordinates":[[[131.106234994,33.543882775],[131.105789442,33.543976946],[131.104899442,33.542956667000006],[131.104693606,33.54248555899999],[131.10435083,33.54205444099999],[131.10435083,33.54166666666667],[131.1,33.541666666666664],[131.1,33.55],[131.1125,33.55],[131.1125,33.54685616458652],[131.112202218,33.546587225000025],[131.111261388,33.54483972100001],[131.111004163,33.544637775000005],[131.110713061,33.544166387],[131.109659728,33.543103613],[131.109282776,33.542861108000004],[131.108683061,33.54278055900001],[131.10756917,33.542888054],[131.107380558,33.542941946],[131.106560558,33.54368082900001],[131.106234994,33.543882775]]]}},{"type":"Feature","id":"40214:50312059","properties":{"id":"40214:50312059","meshCode":"50312059","cityCode":"40214","city":"豊前市","lat":33.5487922,"lon":131.113012,"areaKm2":0.0283471,"populated2020":false,"population2020":null,"populationNote":"境界またぎ・収録外等のため人口未集計"},"geometry":{"type":"Polygon","coordinates":[[[131.11376917,33.549410559],[131.113255279,33.54830666699999],[131.113272218,33.547768053999995],[131.11317917,33.547569720999995],[131.1125,33.54685616458652],[131.1125,33.55],[131.113934112,33.55],[131.11376917,33.549410559]]]}},{"type":"Feature","id":"40214:50312060","properties":{"id":"40214:50312060","meshCode":"50312060","cityCode":"40214","city":"豊前市","lat":33.5525161,"lon":131.0122798,"areaKm2":0.0099753,"populated2020":false,"population2020":null,"populationNote":"境界またぎ・収録外等のため人口未集計"},"geometry":{"type":"MultiPolygon","coordinates":[[[[131.012149883,33.55],[131.0125,33.55066966440677],[131.0125,33.55],[131.012149883,33.55]]],[[[131.012203061,33.552075],[131.012045837,33.552299441],[131.011960272,33.552658892],[131.011988885,33.55331305400001],[131.01211749700002,33.553582495],[131.0125,33.553883535225],[131.0125,33.55185360291712],[131.012203061,33.552075]]]]}},{"type":"Feature","id":"40214:50312061","properties":{"id":"40214:50312061","meshCode":"50312061","cityCode":"40214","city":"豊前市","lat":33.5539225,"lon":131.0192752,"areaKm2":0.9703438,"populated2020":false,"population2020":null,"populationNote":"境界またぎ・収録外等のため人口未集計"},"geometry":{"type":"Polygon","coordinates":[[[131.0125,33.55066966440677],[131.01283166,33.551458054],[131.0125,33.55185360291712],[131.0125,33.553883535225],[131.013338885,33.55477222500001],[131.01387416300003,33.554714721],[131.014231388,33.554950559000005],[131.014831388,33.555477775],[131.014937497,33.556255279],[131.015594449,33.556580829],[131.01555166000003,33.557119721],[131.015208612,33.557535],[131.015380272,33.55783805400001],[131.01549802901164,33.55833333333334],[131.025,33.558333333333344],[131.025,33.54999999999999],[131.0125,33.55],[131.0125,33.55066966440677]]]}},{"type":"Feature","id":"40214:50312062","properties":{"id":"40214:50312062","meshCode":"50312062","cityCode":"40214","city":"豊前市","lat":33.5541667,"lon":131.03125,"areaKm2":1.0727046,"populated2020":true,"population2020":51.2526,"populationNote":"収録500mメッシュ人口の合算（原典収録外は補完しない）"},"geometry":{"type":"Polygon","coordinates":[[[131.0375,33.54999999999999],[131.025,33.54999999999999],[131.025,33.558333333333344],[131.0375,33.558333333333344],[131.0375,33.54999999999999]]]}},{"type":"Feature","id":"40214:50312063","properties":{"id":"40214:50312063","meshCode":"50312063","cityCode":"40214","city":"豊前市","lat":33.5541667,"lon":131.04375,"areaKm2":1.0727046,"populated2020":true,"population2020":54.2759,"populationNote":"収録500mメッシュ人口の合算（原典収録外は補完しない）"},"geometry":{"type":"Polygon","coordinates":[[[131.05,33.55],[131.0375,33.54999999999999],[131.0375,33.558333333333344],[131.05,33.558333333333344],[131.05,33.55]]]}},{"type":"Feature","id":"40214:50312064","properties":{"id":"40214:50312064","meshCode":"50312064","cityCode":"40214","city":"豊前市","lat":33.5541667,"lon":131.05625,"areaKm2":1.072705,"populated2020":true,"population2020":84.4603,"populationNote":"収録500mメッシュ人口の合算（原典収録外は補完しない）"},"geometry":{"type":"Polygon","coordinates":[[[131.0625,33.55],[131.05,33.55],[131.05,33.558333333333344],[131.0625,33.558333333333344],[131.0625,33.55]]]}},{"type":"Feature","id":"40214:50312065","properties":{"id":"40214:50312065","meshCode":"50312065","cityCode":"40214","city":"豊前市","lat":33.5541667,"lon":131.06875,"areaKm2":1.0727054,"populated2020":true,"population2020":114.6826,"populationNote":"収録500mメッシュ人口の合算（原典収録外は補完しない）"},"geometry":{"type":"Polygon","coordinates":[[[131.075,33.54999999999999],[131.0625,33.55],[131.0625,33.558333333333344],[131.075,33.558333333333344],[131.075,33.54999999999999]]]}},{"type":"Feature","id":"40214:50312066","properties":{"id":"40214:50312066","meshCode":"50312066","cityCode":"40214","city":"豊前市","lat":33.5541667,"lon":131.08125,"areaKm2":1.0727058,"populated2020":true,"population2020":69.4137,"populationNote":"収録500mメッシュ人口の合算（原典収録外は補完しない）"},"geometry":{"type":"Polygon","coordinates":[[[131.0875,33.54999999999999],[131.075,33.54999999999999],[131.075,33.558333333333344],[131.0875,33.558333333333344],[131.0875,33.54999999999999]]]}},{"type":"Feature","id":"40214:50312067","properties":{"id":"40214:50312067","meshCode":"50312067","cityCode":"40214","city":"豊前市","lat":33.5541667,"lon":131.09375,"areaKm2":1.0727063,"populated2020":true,"population2020":95.5535,"populationNote":"収録500mメッシュ人口の合算（原典収録外は補完しない）"},"geometry":{"type":"Polygon","coordinates":[[[131.1,33.55],[131.0875,33.54999999999999],[131.0875,33.558333333333344],[131.1,33.55833333333334],[131.1,33.55]]]}},{"type":"Feature","id":"40214:50312068","properties":{"id":"40214:50312068","meshCode":"50312068","cityCode":"40214","city":"豊前市","lat":33.5541667,"lon":131.10625,"areaKm2":1.0727068,"populated2020":true,"population2020":10.041,"populationNote":"収録500mメッシュ人口の合算（原典収録外は補完しない）"},"geometry":{"type":"Polygon","coordinates":[[[131.1125,33.55],[131.1,33.55],[131.1,33.55833333333334],[131.1125,33.558333333333344],[131.1125,33.55]]]}},{"type":"Feature","id":"40214:50312069","properties":{"id":"40214:50312069","meshCode":"50312069","cityCode":"40214","city":"豊前市","lat":33.5552161,"lon":131.1147274,"areaKm2":0.3197728,"populated2020":false,"population2020":null,"populationNote":"境界またぎ・収録外等のため人口未集計"},"geometry":{"type":"Polygon","coordinates":[[[131.11567,33.554038053999996],[131.114881388,33.55215333299999],[131.114144449,33.55113],[131.113934112,33.55],[131.1125,33.55],[131.1125,33.558333333333344],[131.11854121908794,33.55833333333334],[131.118503061,33.557830279],[131.11869166,33.55739944100001],[131.118623061,33.557062775],[131.117724721,33.555967495],[131.117142218,33.555455828999996],[131.116816394,33.554984441],[131.116302218,33.55468833300001],[131.115858054,33.55426694599999],[131.11567,33.554038053999996]]]}},{"type":"Feature","id":"40214:50312071","properties":{"id":"40214:50312071","meshCode":"50312071","cityCode":"40214","city":"豊前市","lat":33.5603692,"lon":131.0215037,"areaKm2":0.3260036,"populated2020":false,"population2020":null,"populationNote":"境界またぎ・収録外等のため人口未集計"},"geometry":{"type":"Polygon","coordinates":[[[131.015564994,33.558766387],[131.016008054,33.559271667],[131.01605083,33.55955222499999],[131.01635083,33.559799162],[131.016550272,33.56037],[131.016907224,33.56070666699999],[131.01772166,33.560381107999994],[131.018250272,33.56038110800001],[131.019307782,33.560639161999994],[131.020618885,33.561407225],[131.022261946,33.562900279],[131.022908612,33.563289721000004],[131.023994721,33.564120279],[131.025,33.564321802],[131.025,33.558333333333344],[131.01549802901164,33.55833333333334],[131.015564994,33.558766387]]]}},{"type":"Feature","id":"40214:50312072","properties":{"id":"40214:50312072","meshCode":"50312072","cityCode":"40214","city":"豊前市","lat":33.5621874,"lon":131.0316395,"areaKm2":0.9773974,"populated2020":false,"population2020":null,"populationNote":"境界またぎ・収録外等のため人口未集計"},"geometry":{"type":"Polygon","coordinates":[[[131.0375,33.558333333333344],[131.025,33.558333333333344],[131.025,33.564321802],[131.026803891,33.564594441000004],[131.027646667,33.565043333],[131.029032503,33.564987225],[131.029532503,33.565110829],[131.029732503,33.56526805399999],[131.029861115,33.565526108],[131.03009824857398,33.56666666666668],[131.0375,33.56666666666668],[131.0375,33.558333333333344]]]}},{"type":"Feature","id":"40214:50312073","properties":{"id":"40214:50312073","meshCode":"50312073","cityCode":"40214","city":"豊前市","lat":33.5625,"lon":131.04375,"areaKm2":1.072603,"populated2020":false,"population2020":null,"populationNote":"境界またぎ・収録外等のため人口未集計"},"geometry":{"type":"Polygon","coordinates":[[[131.05,33.558333333333344],[131.0375,33.558333333333344],[131.0375,33.56666666666668],[131.05,33.56666666666668],[131.05,33.558333333333344]]]}},{"type":"Feature","id":"40214:50312074","properties":{"id":"40214:50312074","meshCode":"50312074","cityCode":"40214","city":"豊前市","lat":33.5625,"lon":131.05625,"areaKm2":1.0726034,"populated2020":false,"population2020":null,"populationNote":"境界またぎ・収録外等のため人口未集計"},"geometry":{"type":"Polygon","coordinates":[[[131.0625,33.558333333333344],[131.05,33.558333333333344],[131.05,33.56666666666668],[131.0625,33.56666666666668],[131.0625,33.558333333333344]]]}},{"type":"Feature","id":"40214:50312075","properties":{"id":"40214:50312075","meshCode":"50312075","cityCode":"40214","city":"豊前市","lat":33.5625,"lon":131.06875,"areaKm2":1.0726038,"populated2020":true,"population2020":20.1486,"populationNote":"収録500mメッシュ人口の合算（原典収録外は補完しない）"},"geometry":{"type":"Polygon","coordinates":[[[131.075,33.558333333333344],[131.0625,33.558333333333344],[131.0625,33.56666666666668],[131.075,33.56666666666668],[131.075,33.558333333333344]]]}},{"type":"Feature","id":"40214:50312076","properties":{"id":"40214:50312076","meshCode":"50312076","cityCode":"40214","city":"豊前市","lat":33.5625,"lon":131.08125,"areaKm2":1.0726042,"populated2020":true,"population2020":98.6243,"populationNote":"収録500mメッシュ人口の合算（原典収録外は補完しない）"},"geometry":{"type":"Polygon","coordinates":[[[131.0875,33.558333333333344],[131.075,33.558333333333344],[131.075,33.56666666666668],[131.0875,33.56666666666668],[131.0875,33.558333333333344]]]}},{"type":"Feature","id":"40214:50312077","properties":{"id":"40214:50312077","meshCode":"50312077","cityCode":"40214","city":"豊前市","lat":33.5625,"lon":131.09375,"areaKm2":1.0726048,"populated2020":true,"population2020":340.8413,"populationNote":"収録500mメッシュ人口の合算（原典収録外は補完しない）"},"geometry":{"type":"Polygon","coordinates":[[[131.1,33.55833333333334],[131.0875,33.558333333333344],[131.0875,33.56666666666668],[131.1,33.56666666666668],[131.1,33.55833333333334]]]}},{"type":"Feature","id":"40214:50312078","properties":{"id":"40214:50312078","meshCode":"50312078","cityCode":"40214","city":"豊前市","lat":33.5625,"lon":131.10625,"areaKm2":1.0726052,"populated2020":true,"population2020":215.2488,"populationNote":"収録500mメッシュ人口の合算（原典収録外は補完しない）"},"geometry":{"type":"Polygon","coordinates":[[[131.1125,33.558333333333344],[131.1,33.55833333333334],[131.1,33.56666666666668],[131.1125,33.56666666666668],[131.1125,33.558333333333344]]]}},{"type":"Feature","id":"40214:50312079","properties":{"id":"40214:50312079","meshCode":"50312079","cityCode":"40214","city":"豊前市","lat":33.5627314,"lon":131.1163362,"areaKm2":0.6518291,"populated2020":true,"population2020":9.0517,"populationNote":"収録500mメッシュ人口の合算（原典収録外は補完しない）"},"geometry":{"type":"Polygon","coordinates":[[[131.11854121908794,33.55833333333334],[131.1125,33.558333333333344],[131.1125,33.56666666666668],[131.12119807980483,33.56666666666668],[131.120752218,33.56551916200001],[131.120677782,33.565065559],[131.120763333,33.563248054],[131.120352503,33.56262861300001],[131.120130558,33.56189222500001],[131.119736394,33.561299721],[131.119342218,33.56004777500001],[131.11854121908794,33.55833333333334]]]}},{"type":"Feature","id":"40214:50312082","properties":{"id":"40214:50312082","meshCode":"50312082","cityCode":"40214","city":"豊前市","lat":33.5697027,"lon":131.0352108,"areaKm2":0.3187129,"populated2020":false,"population2020":null,"populationNote":"境界またぎ・収録外等のため人口未集計"},"geometry":{"type":"Polygon","coordinates":[[[131.03009824857398,33.56666666666668],[131.031061115,33.566951667],[131.031861388,33.56745694599999],[131.032118612,33.56813],[131.032452218,33.568378892],[131.03258083,33.56870444100001],[131.032666394,33.569725829],[131.032994721,33.570477495],[131.032966394,33.57087055900001],[131.033066394,33.571117495],[131.034485279,33.571910829000004],[131.035271115,33.572505559],[131.035828054,33.57308944099999],[131.036113891,33.573931108],[131.036528327,33.574458613],[131.037073995,33.574999999999996],[131.0375,33.574999999999996],[131.0375,33.56666666666668],[131.03009824857398,33.56666666666668]]]}},{"type":"Feature","id":"40214:50312083","properties":{"id":"40214:50312083","meshCode":"50312083","cityCode":"40214","city":"豊前市","lat":33.5708333,"lon":131.04375,"areaKm2":1.0725016,"populated2020":false,"population2020":null,"populationNote":"境界またぎ・収録外等のため人口未集計"},"geometry":{"type":"Polygon","coordinates":[[[131.05,33.56666666666668],[131.0375,33.56666666666668],[131.0375,33.574999999999996],[131.05,33.575],[131.05,33.56666666666668]]]}},{"type":"Feature","id":"40214:50312084","properties":{"id":"40214:50312084","meshCode":"50312084","cityCode":"40214","city":"豊前市","lat":33.5708333,"lon":131.05625,"areaKm2":1.0725018,"populated2020":false,"population2020":null,"populationNote":"境界またぎ・収録外等のため人口未集計"},"geometry":{"type":"Polygon","coordinates":[[[131.0625,33.56666666666668],[131.05,33.56666666666668],[131.05,33.575],[131.0625,33.575],[131.0625,33.56666666666668]]]}},{"type":"Feature","id":"40214:50312085","properties":{"id":"40214:50312085","meshCode":"50312085","cityCode":"40214","city":"豊前市","lat":33.5708333,"lon":131.06875,"areaKm2":1.0725022,"populated2020":true,"population2020":6.0346,"populationNote":"収録500mメッシュ人口の合算（原典収録外は補完しない）"},"geometry":{"type":"Polygon","coordinates":[[[131.075,33.56666666666668],[131.0625,33.56666666666668],[131.0625,33.575],[131.075,33.57500000000001],[131.075,33.56666666666668]]]}},{"type":"Feature","id":"40214:50312086","properties":{"id":"40214:50312086","meshCode":"50312086","cityCode":"40214","city":"豊前市","lat":33.5708333,"lon":131.08125,"areaKm2":1.0725026,"populated2020":true,"population2020":2.0125,"populationNote":"収録500mメッシュ人口の合算（原典収録外は補完しない）"},"geometry":{"type":"Polygon","coordinates":[[[131.0875,33.56666666666668],[131.075,33.56666666666668],[131.075,33.57500000000001],[131.0875,33.575],[131.0875,33.56666666666668]]]}},{"type":"Feature","id":"40214:50312087","properties":{"id":"40214:50312087","meshCode":"50312087","cityCode":"40214","city":"豊前市","lat":33.5708333,"lon":131.09375,"areaKm2":1.0725032,"populated2020":false,"population2020":null,"populationNote":"境界またぎ・収録外等のため人口未集計"},"geometry":{"type":"Polygon","coordinates":[[[131.1,33.56666666666668],[131.0875,33.56666666666668],[131.0875,33.575],[131.1,33.575],[131.1,33.56666666666668]]]}},{"type":"Feature","id":"40214:50312088","properties":{"id":"40214:50312088","meshCode":"50312088","cityCode":"40214","city":"豊前市","lat":33.5708333,"lon":131.10625,"areaKm2":1.0725036,"populated2020":true,"population2020":205.2038,"populationNote":"収録500mメッシュ人口の合算（原典収録外は補完しない）"},"geometry":{"type":"Polygon","coordinates":[[[131.1125,33.56666666666668],[131.1,33.56666666666668],[131.1,33.575],[131.1125,33.575],[131.1125,33.56666666666668]]]}},{"type":"Feature","id":"40214:50312089","properties":{"id":"40214:50312089","meshCode":"50312089","cityCode":"40214","city":"豊前市","lat":33.5710688,"lon":131.1183299,"areaKm2":0.9885656,"populated2020":true,"population2020":280.8522,"populationNote":"収録500mメッシュ人口の合算（原典収録外は補完しない）"},"geometry":{"type":"Polygon","coordinates":[[[131.125,33.570872613],[131.122929442,33.568468333],[131.122397497,33.567983053999995],[131.121797497,33.567619721],[131.12119807980483,33.56666666666668],[131.1125,33.56666666666668],[131.1125,33.575],[131.125,33.57500000000001],[131.125,33.570872613]]]}},{"type":"Feature","id":"40214:50312180","properties":{"id":"40214:50312180","meshCode":"50312180","cityCode":"40214","city":"豊前市","lat":33.5736939,"lon":131.1262472,"areaKm2":0.0744099,"populated2020":false,"population2020":null,"populationNote":"境界またぎ・収録外等のため人口未集計"},"geometry":{"type":"Polygon","coordinates":[[[131.128258716,33.575],[131.128188054,33.57474444100001],[131.128313606,33.574474441],[131.128091115,33.574003333],[131.127267782,33.573340559],[131.126008885,33.572565829],[131.125746939,33.572197495000005],[131.125414994,33.571247495],[131.125,33.570872613],[131.125,33.57500000000001],[131.128258716,33.575]]]}},{"type":"Feature","id":"40214:50312092","properties":{"id":"40214:50312092","meshCode":"50312092","cityCode":"40214","city":"豊前市","lat":33.5751602,"lon":131.0373518,"areaKm2":0.0010988,"populated2020":false,"population2020":null,"populationNote":"境界またぎ・収録外等のため人口未集計"},"geometry":{"type":"Polygon","coordinates":[[[131.03709083,33.575028054],[131.037247782,33.575218892],[131.0375,33.57546074539701],[131.0375,33.574999999999996],[131.03709083,33.575028054]]]}},{"type":"Feature","id":"40214:50312093","properties":{"id":"40214:50312093","meshCode":"50312093","cityCode":"40214","city":"豊前市","lat":33.5788154,"lon":131.0448338,"areaKm2":0.8677542,"populated2020":true,"population2020":9.0462,"populationNote":"収録500mメッシュ人口の合算（原典収録外は補完しない）"},"geometry":{"type":"Polygon","coordinates":[[[131.038304994,33.576352225],[131.038447782,33.577194162000005],[131.038868054,33.577784721],[131.03921083,33.578099162],[131.03951083,33.57881749500001],[131.040453606,33.579715279],[131.040682218,33.580500829],[131.041053891,33.580792775000006],[131.041482503,33.58139889200002],[131.042038054,33.58304361300001],[131.04206591392395,33.583333333333336],[131.05,33.583333333333336],[131.05,33.575],[131.0375,33.574999999999996],[131.0375,33.57546074539701],[131.03791917,33.57582500000001],[131.038304994,33.576352225]]]}},{"type":"Feature","id":"40214:50312094","properties":{"id":"40214:50312094","meshCode":"50312094","cityCode":"40214","city":"豊前市","lat":33.5791667,"lon":131.05625,"areaKm2":1.0724002,"populated2020":true,"population2020":5.0385,"populationNote":"収録500mメッシュ人口の合算（原典収録外は補完しない）"},"geometry":{"type":"Polygon","coordinates":[[[131.0625,33.575],[131.05,33.575],[131.05,33.583333333333336],[131.0625,33.583333333333336],[131.0625,33.575]]]}},{"type":"Feature","id":"40214:50312095","properties":{"id":"40214:50312095","meshCode":"50312095","cityCode":"40214","city":"豊前市","lat":33.5791667,"lon":131.06875,"areaKm2":1.0724006,"populated2020":true,"population2020":6.0348,"populationNote":"収録500mメッシュ人口の合算（原典収録外は補完しない）"},"geometry":{"type":"Polygon","coordinates":[[[131.075,33.57500000000001],[131.0625,33.575],[131.0625,33.583333333333336],[131.075,33.583333333333336],[131.075,33.57500000000001]]]}},{"type":"Feature","id":"40214:50312096","properties":{"id":"40214:50312096","meshCode":"50312096","cityCode":"40214","city":"豊前市","lat":33.5791667,"lon":131.08125,"areaKm2":1.072401,"populated2020":true,"population2020":35.2286,"populationNote":"収録500mメッシュ人口の合算（原典収録外は補完しない）"},"geometry":{"type":"Polygon","coordinates":[[[131.0875,33.575],[131.075,33.57500000000001],[131.075,33.583333333333336],[131.0875,33.583333333333336],[131.0875,33.575]]]}},{"type":"Feature","id":"40214:50312097","properties":{"id":"40214:50312097","meshCode":"50312097","cityCode":"40214","city":"豊前市","lat":33.5791667,"lon":131.09375,"areaKm2":1.0724016,"populated2020":true,"population2020":1.0068,"populationNote":"収録500mメッシュ人口の合算（原典収録外は補完しない）"},"geometry":{"type":"Polygon","coordinates":[[[131.1,33.575],[131.0875,33.575],[131.0875,33.583333333333336],[131.1,33.583333333333336],[131.1,33.575]]]}},{"type":"Feature","id":"40214:50312098","properties":{"id":"40214:50312098","meshCode":"50312098","cityCode":"40214","city":"豊前市","lat":33.5791667,"lon":131.10625,"areaKm2":1.072402,"populated2020":true,"population2020":105.641,"populationNote":"収録500mメッシュ人口の合算（原典収録外は補完しない）"},"geometry":{"type":"Polygon","coordinates":[[[131.1125,33.575],[131.1,33.575],[131.1,33.583333333333336],[131.1125,33.58333333333334],[131.1125,33.575]]]}},{"type":"Feature","id":"40214:50312099","properties":{"id":"40214:50312099","meshCode":"50312099","cityCode":"40214","city":"豊前市","lat":33.5791667,"lon":131.11875,"areaKm2":1.0724028,"populated2020":true,"population2020":359.0633,"populationNote":"収録500mメッシュ人口の合算（原典収録外は補完しない）"},"geometry":{"type":"Polygon","coordinates":[[[131.125,33.57500000000001],[131.1125,33.575],[131.1125,33.58333333333334],[131.125,33.583333333333336],[131.125,33.57500000000001]]]}},{"type":"Feature","id":"40214:50312190","properties":{"id":"40214:50312190","meshCode":"50312190","cityCode":"40214","city":"豊前市","lat":33.5801275,"lon":131.1292197,"areaKm2":0.6156218,"populated2020":true,"population2020":null,"populationNote":"境界またぎ・収録外等のため人口未集計"},"geometry":{"type":"Polygon","coordinates":[[[131.131332776,33.57977555899999],[131.130267497,33.578180829],[131.129388885,33.57627277500001],[131.128995551,33.575673892000005],[131.128258716,33.575],[131.125,33.57500000000001],[131.125,33.583333333333336],[131.1375,33.583333333333336],[131.1375,33.58258978460087],[131.137382776,33.582551946],[131.137038885,33.582624441],[131.13672832700001,33.58215916200001],[131.13622166,33.582024162],[131.135507782,33.581501667],[131.13541194600003,33.581304162],[131.135503606,33.58094361300001],[131.133594721,33.580703333],[131.132023333,33.580286666999996],[131.131332776,33.57977555899999]]]}},{"type":"Feature","id":"40214:50312191","properties":{"id":"40214:50312191","meshCode":"50312191","cityCode":"40214","city":"豊前市","lat":33.5830392,"lon":131.1381845,"areaKm2":0.0084838,"populated2020":true,"population2020":null,"populationNote":"境界またぎ・収録外等のため人口未集計"},"geometry":{"type":"Polygon","coordinates":[[[131.139139416,33.583333333],[131.13840917,33.582615279],[131.138224721,33.582569441000004],[131.137904449,33.582862775],[131.1375,33.58258978460087],[131.1375,33.583333333333336],[131.139139416,33.583333333]]]}},{"type":"Feature","id":"40214:50313003","properties":{"id":"40214:50313003","meshCode":"50313003","cityCode":"40214","city":"豊前市","lat":33.5866475,"lon":131.0472496,"areaKm2":0.4159686,"populated2020":false,"population2020":null,"populationNote":"境界またぎ・収録外等のため人口未集計"},"geometry":{"type":"Polygon","coordinates":[[[131.042009442,33.583863054000005],[131.04230916999995,33.584513892000075],[131.04253778200007,33.5848169460001],[131.04383805399993,33.585366946000136],[131.04556639400005,33.58717194600007],[131.04644972800008,33.58890333300008],[131.04679111500002,33.59033972100008],[131.04725917000007,33.59106972100005],[131.04745946789373,33.591666666666676],[131.05,33.591666666666676],[131.05,33.583333333333336],[131.04206591392395,33.583333333333336],[131.042009442,33.583863054000005]]]}},{"type":"Feature","id":"40214:50313004","properties":{"id":"40214:50313004","meshCode":"50313004","cityCode":"40214","city":"豊前市","lat":33.5875,"lon":131.05625,"areaKm2":1.0722986,"populated2020":true,"population2020":41.1884,"populationNote":"収録500mメッシュ人口の合算（原典収録外は補完しない）"},"geometry":{"type":"Polygon","coordinates":[[[131.0625,33.583333333333336],[131.05,33.583333333333336],[131.05,33.591666666666676],[131.0625,33.591666666666676],[131.0625,33.583333333333336]]]}},{"type":"Feature","id":"40214:50313005","properties":{"id":"40214:50313005","meshCode":"50313005","cityCode":"40214","city":"豊前市","lat":33.5875,"lon":131.06875,"areaKm2":1.072299,"populated2020":false,"population2020":null,"populationNote":"境界またぎ・収録外等のため人口未集計"},"geometry":{"type":"Polygon","coordinates":[[[131.075,33.583333333333336],[131.0625,33.583333333333336],[131.0625,33.591666666666676],[131.075,33.591666666666676],[131.075,33.583333333333336]]]}},{"type":"Feature","id":"40214:50313006","properties":{"id":"40214:50313006","meshCode":"50313006","cityCode":"40214","city":"豊前市","lat":33.5875,"lon":131.08125,"areaKm2":1.0722994,"populated2020":true,"population2020":4.036,"populationNote":"収録500mメッシュ人口の合算（原典収録外は補完しない）"},"geometry":{"type":"Polygon","coordinates":[[[131.0875,33.583333333333336],[131.075,33.583333333333336],[131.075,33.591666666666676],[131.0875,33.591666666666676],[131.0875,33.583333333333336]]]}},{"type":"Feature","id":"40214:50313007","properties":{"id":"40214:50313007","meshCode":"50313007","cityCode":"40214","city":"豊前市","lat":33.5875,"lon":131.09375,"areaKm2":1.0722999,"populated2020":true,"population2020":44.2686,"populationNote":"収録500mメッシュ人口の合算（原典収録外は補完しない）"},"geometry":{"type":"Polygon","coordinates":[[[131.1,33.583333333333336],[131.0875,33.583333333333336],[131.0875,33.591666666666676],[131.1,33.591666666666676],[131.1,33.583333333333336]]]}},{"type":"Feature","id":"40214:50313008","properties":{"id":"40214:50313008","meshCode":"50313008","cityCode":"40214","city":"豊前市","lat":33.5875,"lon":131.10625,"areaKm2":1.0723004,"populated2020":true,"population2020":47.3004,"populationNote":"収録500mメッシュ人口の合算（原典収録外は補完しない）"},"geometry":{"type":"Polygon","coordinates":[[[131.1125,33.58333333333334],[131.1,33.583333333333336],[131.1,33.591666666666676],[131.1125,33.591666666666676],[131.1125,33.58333333333334]]]}},{"type":"Feature","id":"40214:50313009","properties":{"id":"40214:50313009","meshCode":"50313009","cityCode":"40214","city":"豊前市","lat":33.5875,"lon":131.11875,"areaKm2":1.0723012,"populated2020":true,"population2020":326.0187,"populationNote":"収録500mメッシュ人口の合算（原典収録外は補完しない）"},"geometry":{"type":"Polygon","coordinates":[[[131.125,33.583333333333336],[131.1125,33.58333333333334],[131.1125,33.591666666666676],[131.125,33.591666666666676],[131.125,33.583333333333336]]]}},{"type":"Feature","id":"40214:50313100","properties":{"id":"40214:50313100","meshCode":"50313100","cityCode":"40214","city":"豊前市","lat":33.5875,"lon":131.13125,"areaKm2":1.0723017,"populated2020":true,"population2020":770.641,"populationNote":"収録500mメッシュ人口の合算（原典収録外は補完しない）"},"geometry":{"type":"Polygon","coordinates":[[[131.1375,33.583333333333336],[131.125,33.583333333333336],[131.125,33.591666666666676],[131.1375,33.591666666666676],[131.1375,33.583333333333336]]]}},{"type":"Feature","id":"40214:50313101","properties":{"id":"40214:50313101","meshCode":"50313101","cityCode":"40214","city":"豊前市","lat":33.5886254,"lon":131.1424651,"areaKm2":0.6933981,"populated2020":true,"population2020":null,"populationNote":"境界またぎ・収録外等のため人口未集計"},"geometry":{"type":"Polygon","coordinates":[[[131.142953606,33.586142495],[131.142173606,33.58581416199999],[131.14133,33.585299441],[131.140560558,33.584691946],[131.1391394163492,33.583333333333336],[131.1375,33.583333333333336],[131.1375,33.591666666666676],[131.15,33.591666666666676],[131.15,33.58976855899999],[131.149381388,33.58957777500001],[131.149063606,33.589088892],[131.148595551,33.58875972100001],[131.147748612,33.588408054],[131.147194994,33.588029162],[131.146242503,33.58758833300001],[131.145166667,33.586637225],[131.144550272,33.586390829],[131.143724163,33.58634],[131.142953606,33.586142495]]]}},{"type":"Feature","id":"40214:50313102","properties":{"id":"40214:50313102","meshCode":"50313102","cityCode":"40214","city":"豊前市","lat":33.5909266,"lon":131.151155,"areaKm2":0.0391189,"populated2020":true,"population2020":null,"populationNote":"境界またぎ・収録外等のため人口未集計"},"geometry":{"type":"Polygon","coordinates":[[[131.15309094670212,33.591666666666676],[131.151909442,33.590466107999994],[131.150488612,33.589855828999994],[131.15,33.58976855899999],[131.15,33.591666666666676],[131.15309094670212,33.591666666666676]]]}},{"type":"Feature","id":"40214:50313013","properties":{"id":"40214:50313013","meshCode":"50313013","cityCode":"40214","city":"豊前市","lat":33.5938393,"lon":131.0490594,"areaKm2":0.093246,"populated2020":false,"population2020":null,"populationNote":"境界またぎ・収録外等のため人口未集計"},"geometry":{"type":"Polygon","coordinates":[[[131.04767083000002,33.59233],[131.04791000000012,33.592741946],[131.04791360600007,33.593601667000144],[131.04799472100012,33.59392527900007],[131.04869499400002,33.59575055900012],[131.05,33.59734964],[131.05,33.591666666666676],[131.04745946789373,33.591666666666676],[131.04767083000002,33.59233]]]}},{"type":"Feature","id":"40214:50313014","properties":{"id":"40214:50313014","meshCode":"50313014","cityCode":"40214","city":"豊前市","lat":33.5957008,"lon":131.0564627,"areaKm2":1.0304018,"populated2020":true,"population2020":18.114,"populationNote":"収録500mメッシュ人口の合算（原典収録外は補完しない）"},"geometry":{"type":"Polygon","coordinates":[[[131.0625,33.591666666666676],[131.05,33.591666666666676],[131.05,33.59734964],[131.05072917000018,33.597829162000096],[131.05099666699994,33.59813389200008],[131.05112221800016,33.598419162000035],[131.05139666700006,33.59865194600014],[131.05152805399996,33.598960278999996],[131.05200221799998,33.599071666999926],[131.05303766500003,33.6],[131.0625,33.60000000000001],[131.0625,33.591666666666676]]]}},{"type":"Feature","id":"40214:50313015","properties":{"id":"40214:50313015","meshCode":"50313015","cityCode":"40214","city":"豊前市","lat":33.5958333,"lon":131.06875,"areaKm2":1.0721973,"populated2020":true,"population2020":18.1047,"populationNote":"収録500mメッシュ人口の合算（原典収録外は補完しない）"},"geometry":{"type":"Polygon","coordinates":[[[131.075,33.591666666666676],[131.0625,33.591666666666676],[131.0625,33.60000000000001],[131.075,33.6],[131.075,33.591666666666676]]]}},{"type":"Feature","id":"40214:50313016","properties":{"id":"40214:50313016","meshCode":"50313016","cityCode":"40214","city":"豊前市","lat":33.5958333,"lon":131.08125,"areaKm2":1.0721977,"populated2020":true,"population2020":138.0354,"populationNote":"収録500mメッシュ人口の合算（原典収録外は補完しない）"},"geometry":{"type":"Polygon","coordinates":[[[131.0875,33.591666666666676],[131.075,33.591666666666676],[131.075,33.6],[131.0875,33.6],[131.0875,33.591666666666676]]]}},{"type":"Feature","id":"40214:50313017","properties":{"id":"40214:50313017","meshCode":"50313017","cityCode":"40214","city":"豊前市","lat":33.5958333,"lon":131.09375,"areaKm2":1.0721982,"populated2020":true,"population2020":123.7619,"populationNote":"収録500mメッシュ人口の合算（原典収録外は補完しない）"},"geometry":{"type":"Polygon","coordinates":[[[131.1,33.591666666666676],[131.0875,33.591666666666676],[131.0875,33.6],[131.1,33.6],[131.1,33.591666666666676]]]}},{"type":"Feature","id":"40214:50313018","properties":{"id":"40214:50313018","meshCode":"50313018","cityCode":"40214","city":"豊前市","lat":33.5958333,"lon":131.10625,"areaKm2":1.0721988,"populated2020":true,"population2020":144.8788,"populationNote":"収録500mメッシュ人口の合算（原典収録外は補完しない）"},"geometry":{"type":"Polygon","coordinates":[[[131.1125,33.591666666666676],[131.1,33.591666666666676],[131.1,33.6],[131.1125,33.6],[131.1125,33.591666666666676]]]}},{"type":"Feature","id":"40214:50313019","properties":{"id":"40214:50313019","meshCode":"50313019","cityCode":"40214","city":"豊前市","lat":33.5958333,"lon":131.11875,"areaKm2":1.0721995,"populated2020":true,"population2020":284.6782,"populationNote":"収録500mメッシュ人口の合算（原典収録外は補完しない）"},"geometry":{"type":"Polygon","coordinates":[[[131.125,33.591666666666676],[131.1125,33.591666666666676],[131.1125,33.6],[131.125,33.60000000000001],[131.125,33.591666666666676]]]}},{"type":"Feature","id":"40214:50313110","properties":{"id":"40214:50313110","meshCode":"50313110","cityCode":"40214","city":"豊前市","lat":33.5958333,"lon":131.13125,"areaKm2":1.0722,"populated2020":true,"population2020":987.8754,"populationNote":"収録500mメッシュ人口の合算（原典収録外は補完しない）"},"geometry":{"type":"Polygon","coordinates":[[[131.1375,33.591666666666676],[131.125,33.591666666666676],[131.125,33.60000000000001],[131.1375,33.6],[131.1375,33.591666666666676]]]}},{"type":"Feature","id":"40214:50313111","properties":{"id":"40214:50313111","meshCode":"50313111","cityCode":"40214","city":"豊前市","lat":33.5958333,"lon":131.14375,"areaKm2":1.0722008,"populated2020":true,"population2020":699.4273,"populationNote":"収録500mメッシュ人口の合算（原典収録外は補完しない）"},"geometry":{"type":"Polygon","coordinates":[[[131.15,33.591666666666676],[131.1375,33.591666666666676],[131.1375,33.6],[131.15,33.6],[131.15,33.591666666666676]]]}},{"type":"Feature","id":"40214:50313112","properties":{"id":"40214:50313112","meshCode":"50313112","cityCode":"40214","city":"豊前市","lat":33.596357,"lon":131.1527967,"areaKm2":0.4577076,"populated2020":true,"population2020":null,"populationNote":"境界またぎ・収録外等のため人口未集計"},"geometry":{"type":"Polygon","coordinates":[[[131.155121388,33.595565829],[131.155084721,33.595252775000006],[131.155198885,33.594987495],[131.154177224,33.59341249500001],[131.153826939,33.592674162],[131.15309094670212,33.591666666666676],[131.15,33.591666666666676],[131.15,33.6],[131.157250558,33.60000000000001],[131.157010558,33.598895279000004],[131.156737782,33.598342495],[131.156163606,33.597927495],[131.155907224,33.597630279],[131.155406394,33.596070829],[131.155121388,33.595565829]]]}},{"type":"Feature","id":"40214:50313024","properties":{"id":"40214:50313024","meshCode":"50313024","cityCode":"40214","city":"豊前市","lat":33.6024963,"lon":131.0590558,"areaKm2":0.3966736,"populated2020":true,"population2020":4.0222,"populationNote":"収録500mメッシュ人口の合算（原典収録外は補完しない）"},"geometry":{"type":"Polygon","coordinates":[[[131.05343972800006,33.600682495],[131.05382221800005,33.60108944100012],[131.054245551,33.60127305400011],[131.054439442,33.601663612999964],[131.05519055800016,33.602201387000086],[131.05554555100014,33.602732775],[131.05655722400002,33.60362833300002],[131.05702610900008,33.603958613000145],[131.05766389100006,33.60412166699996],[131.05806166000002,33.604377494999994],[131.05885221800008,33.605113612999965],[131.06015917000002,33.60554582900004],[131.0625,33.607273118330575],[131.0625,33.60000000000001],[131.05303766500003,33.6],[131.05343972800006,33.600682495]]]}},{"type":"Feature","id":"40214:50313025","properties":{"id":"40214:50313025","meshCode":"50313025","cityCode":"40214","city":"豊前市","lat":33.6041326,"lon":131.0688009,"areaKm2":1.0625843,"populated2020":true,"population2020":26.1628,"populationNote":"収録500mメッシュ人口の合算（原典収録外は補完しない）"},"geometry":{"type":"Polygon","coordinates":[[[131.075,33.6],[131.0625,33.60000000000001],[131.0625,33.607273118330575],[131.06283888500013,33.60750749499999],[131.06329722400017,33.60766610800005],[131.06409286646382,33.60833333333333],[131.075,33.60833333333333],[131.075,33.6]]]}},{"type":"Feature","id":"40214:50313026","properties":{"id":"40214:50313026","meshCode":"50313026","cityCode":"40214","city":"豊前市","lat":33.6041667,"lon":131.08125,"areaKm2":1.072096,"populated2020":true,"population2020":29.1596,"populationNote":"収録500mメッシュ人口の合算（原典収録外は補完しない）"},"geometry":{"type":"Polygon","coordinates":[[[131.0875,33.6],[131.075,33.6],[131.075,33.60833333333333],[131.0875,33.60833333333333],[131.0875,33.6]]]}},{"type":"Feature","id":"40214:50313027","properties":{"id":"40214:50313027","meshCode":"50313027","cityCode":"40214","city":"豊前市","lat":33.6041667,"lon":131.09375,"areaKm2":1.0720965,"populated2020":true,"population2020":166.8295,"populationNote":"収録500mメッシュ人口の合算（原典収録外は補完しない）"},"geometry":{"type":"Polygon","coordinates":[[[131.1,33.6],[131.0875,33.6],[131.0875,33.60833333333333],[131.1,33.60833333333333],[131.1,33.6]]]}},{"type":"Feature","id":"40214:50313028","properties":{"id":"40214:50313028","meshCode":"50313028","cityCode":"40214","city":"豊前市","lat":33.6041667,"lon":131.10625,"areaKm2":1.0720972,"populated2020":true,"population2020":716.9186,"populationNote":"収録500mメッシュ人口の合算（原典収録外は補完しない）"},"geometry":{"type":"Polygon","coordinates":[[[131.1125,33.6],[131.1,33.6],[131.1,33.60833333333333],[131.1125,33.608333333333334],[131.1125,33.6]]]}},{"type":"Feature","id":"40214:50313029","properties":{"id":"40214:50313029","meshCode":"50313029","cityCode":"40214","city":"豊前市","lat":33.6041667,"lon":131.11875,"areaKm2":1.0720977,"populated2020":true,"population2020":771.825,"populationNote":"収録500mメッシュ人口の合算（原典収録外は補完しない）"},"geometry":{"type":"Polygon","coordinates":[[[131.125,33.60000000000001],[131.1125,33.6],[131.1125,33.608333333333334],[131.125,33.60833333333333],[131.125,33.60000000000001]]]}},{"type":"Feature","id":"40214:50313120","properties":{"id":"40214:50313120","meshCode":"50313120","cityCode":"40214","city":"豊前市","lat":33.6041667,"lon":131.13125,"areaKm2":1.0720984,"populated2020":true,"population2020":1111.43,"populationNote":"収録500mメッシュ人口の合算（原典収録外は補完しない）"},"geometry":{"type":"Polygon","coordinates":[[[131.1375,33.6],[131.125,33.60000000000001],[131.125,33.60833333333333],[131.1375,33.608333333333334],[131.1375,33.6]]]}},{"type":"Feature","id":"40214:50313121","properties":{"id":"40214:50313121","meshCode":"50313121","cityCode":"40214","city":"豊前市","lat":33.6041667,"lon":131.14375,"areaKm2":1.0720992,"populated2020":true,"population2020":1316.5819,"populationNote":"収録500mメッシュ人口の合算（原典収録外は補完しない）"},"geometry":{"type":"Polygon","coordinates":[[[131.15,33.6],[131.1375,33.6],[131.1375,33.608333333333334],[131.15,33.60833333333333],[131.15,33.6]]]}},{"type":"Feature","id":"40214:50313122","properties":{"id":"40214:50313122","meshCode":"50313122","cityCode":"40214","city":"豊前市","lat":33.6047843,"lon":131.1535209,"areaKm2":0.5237194,"populated2020":true,"population2020":null,"populationNote":"境界またぎ・収録外等のため人口未集計"},"geometry":{"type":"Polygon","coordinates":[[[131.157328054,33.600515559],[131.157250558,33.60000000000001],[131.15,33.6],[131.15,33.60833333333333],[131.1601911150271,33.608333333333334],[131.160071946,33.60755305399999],[131.159575279,33.607243054],[131.158610272,33.60701944099999],[131.15784083,33.605789161999994],[131.157381115,33.605348333],[131.157059442,33.605670829],[131.156814994,33.605750828999994],[131.155601946,33.604894441],[131.154926109,33.604849720999994],[131.154661388,33.60469638699999],[131.153728885,33.603814441000004],[131.152829442,33.602351108],[131.152906939,33.602229721],[131.156261388,33.60079972100001],[131.157328054,33.600515559]]]}},{"type":"Feature","id":"40214:50313035","properties":{"id":"40214:50313035","meshCode":"50313035","cityCode":"40214","city":"豊前市","lat":33.6118199,"lon":131.0713049,"areaKm2":0.5863591,"populated2020":true,"population2020":null,"populationNote":"境界またぎ・収録外等のため人口未集計"},"geometry":{"type":"Polygon","coordinates":[[[131.0647041630001,33.608772495000046],[131.0661533330001,33.60949110800005],[131.0664983270001,33.610363891999995],[131.06795555100018,33.611893613],[131.068045279,33.61225082900007],[131.06794250300015,33.61256805400012],[131.06916749700008,33.61374055900007],[131.06934416299998,33.614128333],[131.0703111150001,33.61517333300009],[131.0714569127897,33.616666666666674],[131.075,33.616666666666674],[131.075,33.60833333333333],[131.06409286646382,33.60833333333333],[131.0647041630001,33.608772495000046]]]}},{"type":"Feature","id":"40214:50313036","properties":{"id":"40214:50313036","meshCode":"50313036","cityCode":"40214","city":"豊前市","lat":33.6125,"lon":131.08125,"areaKm2":1.0719944,"populated2020":true,"population2020":124.7539,"populationNote":"収録500mメッシュ人口の合算（原典収録外は補完しない）"},"geometry":{"type":"Polygon","coordinates":[[[131.0875,33.60833333333333],[131.075,33.60833333333333],[131.075,33.616666666666674],[131.0875,33.61666666666667],[131.0875,33.60833333333333]]]}},{"type":"Feature","id":"40214:50313037","properties":{"id":"40214:50313037","meshCode":"50313037","cityCode":"40214","city":"豊前市","lat":33.6125,"lon":131.09375,"areaKm2":1.0719948,"populated2020":true,"population2020":502.8014,"populationNote":"収録500mメッシュ人口の合算（原典収録外は補完しない）"},"geometry":{"type":"Polygon","coordinates":[[[131.1,33.60833333333333],[131.0875,33.60833333333333],[131.0875,33.61666666666667],[131.1,33.616666666666674],[131.1,33.60833333333333]]]}},{"type":"Feature","id":"40214:50313038","properties":{"id":"40214:50313038","meshCode":"50313038","cityCode":"40214","city":"豊前市","lat":33.6125,"lon":131.10625,"areaKm2":1.0719954,"populated2020":true,"population2020":592.7538,"populationNote":"収録500mメッシュ人口の合算（原典収録外は補完しない）"},"geometry":{"type":"Polygon","coordinates":[[[131.1125,33.608333333333334],[131.1,33.60833333333333],[131.1,33.616666666666674],[131.1125,33.61666666666667],[131.1125,33.608333333333334]]]}},{"type":"Feature","id":"40214:50313039","properties":{"id":"40214:50313039","meshCode":"50313039","cityCode":"40214","city":"豊前市","lat":33.6125,"lon":131.11875,"areaKm2":1.071996,"populated2020":true,"population2020":2089.9831,"populationNote":"収録500mメッシュ人口の合算（原典収録外は補完しない）"},"geometry":{"type":"Polygon","coordinates":[[[131.125,33.60833333333333],[131.1125,33.608333333333334],[131.1125,33.61666666666667],[131.125,33.61666666666667],[131.125,33.60833333333333]]]}},{"type":"Feature","id":"40214:50313130","properties":{"id":"40214:50313130","meshCode":"50313130","cityCode":"40214","city":"豊前市","lat":33.6125,"lon":131.13125,"areaKm2":1.0719968,"populated2020":true,"population2020":1412.06,"populationNote":"収録500mメッシュ人口の合算（原典収録外は補完しない）"},"geometry":{"type":"Polygon","coordinates":[[[131.1375,33.608333333333334],[131.125,33.60833333333333],[131.125,33.61666666666667],[131.1375,33.61666666666667],[131.1375,33.608333333333334]]]}},{"type":"Feature","id":"40214:50313131","properties":{"id":"40214:50313131","meshCode":"50313131","cityCode":"40214","city":"豊前市","lat":33.6125,"lon":131.14375,"areaKm2":1.0719976,"populated2020":true,"population2020":698.2094,"populationNote":"収録500mメッシュ人口の合算（原典収録外は補完しない）"},"geometry":{"type":"Polygon","coordinates":[[[131.15,33.60833333333333],[131.1375,33.608333333333334],[131.1375,33.61666666666667],[131.15,33.61666666666667],[131.15,33.60833333333333]]]}},{"type":"Feature","id":"40214:50313132","properties":{"id":"40214:50313132","meshCode":"50313132","cityCode":"40214","city":"豊前市","lat":33.6126071,"lon":131.1560473,"areaKm2":1.03334,"populated2020":true,"population2020":null,"populationNote":"境界またぎ・収録外等のため人口未集計"},"geometry":{"type":"Polygon","coordinates":[[[131.1625,33.61094422870968],[131.16152917,33.610118892],[131.161415279,33.610077225],[131.161150558,33.610189162000005],[131.160995837,33.610070829],[131.16082083,33.609716108],[131.160955279,33.609508613],[131.160849442,33.609109162],[131.160759728,33.608949162],[131.160324163,33.60859138699999],[131.1601911150271,33.608333333333334],[131.15,33.60833333333333],[131.15,33.61666666666667],[131.16096836590492,33.61666666666667],[131.161671167,33.61653223399999],[131.1625,33.61656613607612],[131.1625,33.61094422870968]]]}},{"type":"Feature","id":"40214:50313133","properties":{"id":"40214:50313133","meshCode":"50313133","cityCode":"40214","city":"豊前市","lat":33.6141437,"lon":131.1639121,"areaKm2":0.1485801,"populated2020":true,"population2020":null,"populationNote":"境界またぎ・収録外等のため人口未集計"},"geometry":{"type":"Polygon","coordinates":[[[131.16505083,33.61248972100001],[131.165360272,33.611595279],[131.165315551,33.611457775],[131.165140272,33.611435559],[131.164635551,33.611604721],[131.164309728,33.611608054],[131.163234994,33.61137000000001],[131.1625,33.61094422870968],[131.1625,33.61656613607612],[131.162646537,33.61664361300001],[131.162686278,33.61659127],[131.16254131,33.61652423400001],[131.164196174,33.616572225],[131.1649361721676,33.61666666666667],[131.16613399493417,33.61666666666667],[131.166023606,33.61610361300001],[131.165294721,33.61513527899999],[131.164981388,33.61440527900001],[131.164875837,33.61355222500001],[131.164948885,33.613245279],[131.165152503,33.61295610799999],[131.16505083,33.61248972100001]]]}},{"type":"Feature","id":"40214:50313045","properties":{"id":"40214:50313045","meshCode":"50313045","cityCode":"40214","city":"豊前市","lat":33.6182133,"lon":131.0737234,"areaKm2":0.0910591,"populated2020":true,"population2020":null,"populationNote":"境界またぎ・収録外等のため人口未集計"},"geometry":{"type":"Polygon","coordinates":[[[131.0714569127897,33.616666666666674],[131.07204221799998,33.61788000000013],[131.07248472100014,33.61838666700004],[131.07264527900008,33.618831946000064],[131.0735649940001,33.619444721000036],[131.07465610900002,33.62082472099997],[131.075,33.621392558999794],[131.075,33.616666666666674],[131.0714569127897,33.616666666666674]]]}},{"type":"Feature","id":"40214:50313046","properties":{"id":"40214:50313046","meshCode":"50313046","cityCode":"40214","city":"豊前市","lat":33.6206639,"lon":131.0815245,"areaKm2":1.0168869,"populated2020":true,"population2020":292.6529,"populationNote":"収録500mメッシュ人口の合算（原典収録外は補完しない）"},"geometry":{"type":"Polygon","coordinates":[[[131.0875,33.61666666666667],[131.075,33.616666666666674],[131.075,33.621392558999794],[131.07578888500018,33.62266749500003],[131.07655555099996,33.623650279],[131.07686917000012,33.623928053999975],[131.07768333299998,33.62425861300005],[131.07774306099998,33.624413333000064],[131.07807861200013,33.624469720999976],[131.07858027200007,33.62478416199997],[131.07915155599994,33.62500000000001],[131.0875,33.62500000000001],[131.0875,33.61666666666667]]]}},{"type":"Feature","id":"40214:50313047","properties":{"id":"40214:50313047","meshCode":"50313047","cityCode":"40214","city":"豊前市","lat":33.6203791,"lon":131.0927916,"areaKm2":0.8712304,"populated2020":true,"population2020":778.743,"populationNote":"収録500mメッシュ人口の合算（原典収録外は補完しない）"},"geometry":{"type":"Polygon","coordinates":[[[131.097482023,33.621013594999965],[131.1,33.61816395500011],[131.1,33.616666666666674],[131.0875,33.61666666666667],[131.0875,33.62500000000001],[131.09420828800012,33.625],[131.09366520100002,33.623517342000135],[131.09428625199996,33.62323527900014],[131.09540485100013,33.62347805400003],[131.09713862500018,33.623302405000004],[131.09758762599995,33.62233816200007],[131.09758520100002,33.621809694000035],[131.097485603,33.621722387000034],[131.09744758800014,33.62125319799998],[131.097482023,33.621013594999965]]]}},{"type":"Feature","id":"40214:50313048","properties":{"id":"40214:50313048","meshCode":"50313048","cityCode":"40214","city":"豊前市","lat":33.6198134,"lon":131.1091204,"areaKm2":0.3833784,"populated2020":false,"population2020":null,"populationNote":"境界またぎ・収録外等のため人口未集計"},"geometry":{"type":"Polygon","coordinates":[[[131.10011079100016,33.618100837999926],[131.1008221400001,33.61806127000005],[131.10186749700017,33.617637252000115],[131.10182428000007,33.61753226999997],[131.10193268500007,33.61750563099997],[131.10196064900003,33.61757657700002],[131.102550661,33.617541649000145],[131.10271516199998,33.61749033299998],[131.102720687,33.61741860399997],[131.102853761,33.617489089999935],[131.103555733,33.61734307199993],[131.10380038900018,33.617458748000104],[131.10398523999993,33.61766713500004],[131.10474229600004,33.617505640000104],[131.10579793800002,33.61704573000002],[131.10656778199996,33.61696681099999],[131.10777599200003,33.6171153240001],[131.10794902700013,33.61789591899998],[131.10894668000014,33.617926152999985],[131.1090636450001,33.61817022500009],[131.10799167300001,33.62105977500005],[131.10798455300016,33.623909892000086],[131.1125,33.623911176552895],[131.1125,33.61666666666667],[131.1,33.616666666666674],[131.1,33.61816395500011],[131.10011079100016,33.618100837999926]]]}},{"type":"Feature","id":"40214:50313049","properties":{"id":"40214:50313049","meshCode":"50313049","cityCode":"40214","city":"豊前市","lat":33.6205757,"lon":131.1198529,"areaKm2":0.8308223,"populated2020":true,"population2020":888.3525,"populationNote":"収録500mメッシュ人口の合算（原典収録外は補完しない）"},"geometry":{"type":"Polygon","coordinates":[[[131.11337726299996,33.623910207],[131.11304067400013,33.61789118900009],[131.11364804200014,33.61785835100005],[131.114095045,33.617412063000074],[131.11422748400003,33.61748615299995],[131.11413526600006,33.617600568000114],[131.11420383899997,33.61769734199993],[131.1146943450001,33.617805810999975],[131.115718314,33.61853548600005],[131.11578372200006,33.61868898200009],[131.11537134900016,33.619152919000044],[131.11537783400001,33.61941214400008],[131.11547426699997,33.61939465800003],[131.1154737610001,33.619179514],[131.11569837900004,33.61886082900003],[131.11593350199996,33.61867009000014],[131.11606478600004,33.618764459000026],[131.11592666700005,33.61895041400009],[131.11626197100009,33.619145721],[131.11635871600004,33.619054639999995],[131.11663963699993,33.61924877499996],[131.116424994,33.61949866700007],[131.11635791200013,33.61945577500006],[131.11630380000008,33.61950949500004],[131.11635946800004,33.61955358600005],[131.11588005200008,33.62001927900013],[131.11562450099996,33.61983294600009],[131.11550644600004,33.61961616200012],[131.11561208800003,33.619874279000044],[131.11634413699994,33.620375198000026],[131.11639041500007,33.62082991900007],[131.11663144,33.62139986499995],[131.11660335900012,33.62278238700015],[131.11653671900012,33.62310710800011],[131.116324578,33.62313373900008],[131.11625898800014,33.62316851400004],[131.11622108900008,33.62320543200007],[131.11516866400018,33.624814333000025],[131.116226589,33.62320830599993],[131.11651911800016,33.62311885600002],[131.116514553,33.623827216],[131.116394099,33.623820477000045],[131.11621878100004,33.624850541],[131.11588760100005,33.62500000000001],[131.12216652400002,33.62500000000001],[131.12215450100007,33.624604423000115],[131.1238686250001,33.62456191000001],[131.12388926100004,33.62500000000001],[131.125,33.625],[131.125,33.61666666666667],[131.1125,33.61666666666667],[131.1125,33.623911176552895],[131.11337726299996,33.623910207]]]}},{"type":"Feature","id":"40214:50313140","properties":{"id":"40214:50313140","meshCode":"50313140","cityCode":"40214","city":"豊前市","lat":33.6208103,"lon":131.1312507,"areaKm2":1.0654378,"populated2020":true,"population2020":2138.7997,"populationNote":"収録500mメッシュ人口の合算（原典収録外は補完しない）"},"geometry":{"type":"Polygon","coordinates":[[[131.1375,33.61666666666667],[131.125,33.61666666666667],[131.125,33.625],[131.130675681,33.62500000000001],[131.130581427,33.624371847],[131.130711816,33.624350883],[131.13071040200003,33.624415532],[131.131230856,33.624333468],[131.131488275,33.624285225],[131.131523528,33.62421729700001],[131.131720363,33.624233586],[131.131440259,33.625000000000014],[131.1375,33.62500000000001],[131.1375,33.61666666666667]]]}},{"type":"Feature","id":"40214:50313141","properties":{"id":"40214:50313141","meshCode":"50313141","cityCode":"40214","city":"豊前市","lat":33.6205116,"lon":131.1433443,"areaKm2":0.9718418,"populated2020":true,"population2020":1586.923,"populationNote":"収録500mメッシュ人口の合算（原典収録外は補完しない）"},"geometry":{"type":"Polygon","coordinates":[[[131.15,33.61666666666667],[131.1375,33.61666666666667],[131.1375,33.62500000000001],[131.139853359,33.62500000000001],[131.139887652,33.62480024300001],[131.139804968,33.624791054],[131.139821115,33.62470709],[131.140039429,33.624515081],[131.14031428,33.62444047700001],[131.140609754,33.624507595000004],[131.140540324,33.624764883000005],[131.140344215,33.624727234],[131.140326394,33.62477801799999],[131.141429987,33.62500000000001],[131.14170035,33.62500000000001],[131.141455694,33.624949495],[131.141491038,33.624814288],[131.142028781,33.62500000000001],[131.144705409,33.625000000000014],[131.14465850800002,33.624602883],[131.145489248,33.624315532000004],[131.146295331,33.62418383799999],[131.14655952,33.624002829],[131.14690086900004,33.623686117000005],[131.146829326,33.623253216],[131.147503463,33.62266106300001],[131.148204034,33.622574288],[131.148233852,33.622478666999996],[131.148326407,33.622557242999996],[131.148519442,33.622435207],[131.149601829,33.622327243],[131.149617834,33.62246709],[131.15,33.622358595],[131.15,33.61666666666667]]]}},{"type":"Feature","id":"40214:50313142","properties":{"id":"40214:50313142","meshCode":"50313142","cityCode":"40214","city":"豊前市","lat":33.6188422,"lon":131.1535066,"areaKm2":0.3510333,"populated2020":true,"population2020":166.0248,"populationNote":"収録500mメッシュ人口の合算（原典収録外は補完しない）"},"geometry":{"type":"Polygon","coordinates":[[[131.156481621,33.61929012600001],[131.15665214,33.619314793],[131.156625772,33.619260333],[131.15682511,33.619099207],[131.15690048,33.618926757],[131.156849235,33.618835161999996],[131.156680597,33.618942027],[131.156583891,33.618922351],[131.15656022,33.618734458999995],[131.157034073,33.618509252],[131.156911401,33.618693432],[131.156959857,33.61873345],[131.157264851,33.618331874000006],[131.157793554,33.617998117],[131.159209611,33.61731604500001],[131.159383645,33.617319207],[131.159708457,33.617148441],[131.160752088,33.616814486],[131.16096836590492,33.61666666666667],[131.15,33.61666666666667],[131.15,33.622358595],[131.150271608,33.622253613000005],[131.150643489,33.622220559],[131.150720376,33.622306586],[131.150990999,33.622278441],[131.15106406,33.622380613],[131.152666304,33.62189464899999],[131.153930467,33.621057829],[131.154401855,33.62053618],[131.154670246,33.620471531999996],[131.155859754,33.619603811],[131.156481621,33.61929012600001]]]}},{"type":"Feature","id":"40214:50313143","properties":{"id":"40214:50313143","meshCode":"50313143","cityCode":"40214","city":"豊前市","lat":33.6167638,"lon":131.1657504,"areaKm2":0.0018148,"populated2020":false,"population2020":null,"populationNote":"境界またぎ・収録外等のため人口未集計"},"geometry":{"type":"Polygon","coordinates":[[[131.164936174,33.616666667],[131.16569799,33.616846739],[131.166191829,33.61694884700001],[131.16613399493417,33.61666666666667],[131.164936174,33.616666667]]]}},{"type":"Feature","id":"40214:50313056","properties":{"id":"40214:50313056","meshCode":"50313056","cityCode":"40214","city":"豊前市","lat":33.6283125,"lon":131.0853533,"areaKm2":0.3133676,"populated2020":true,"population2020":null,"populationNote":"境界またぎ・収録外等のため人口未集計"},"geometry":{"type":"Polygon","coordinates":[[[131.08095055800007,33.62572666700004],[131.08134583699996,33.62596916200012],[131.0822602720001,33.62619833299999],[131.08316389100014,33.626652495000094],[131.08331666699996,33.62680666700005],[131.083477497,33.627525279],[131.08365666700013,33.62785582899999],[131.08400693900012,33.628107225],[131.08413083000016,33.62841138700014],[131.08508722400006,33.629429721],[131.08511360600005,33.62953527900004],[131.084763061,33.62985722500004],[131.08483166000008,33.63016138699999],[131.08436555100013,33.63047416199999],[131.08435499400002,33.630553613000075],[131.08469972800015,33.63135166700005],[131.08467083000005,33.63192916200012],[131.08510832699994,33.63214944100014],[131.085665888,33.63226470300009],[131.08576671900005,33.63273691900008],[131.08463488999996,33.63261317099995],[131.08457863800004,33.632898468000064],[131.0852974970002,33.633032667000066],[131.08531368401793,33.633333333333326],[131.0875,33.63333333333334],[131.0875,33.62500000000001],[131.07915155599994,33.62500000000001],[131.08095055800007,33.62572666700004]]]}},{"type":"Feature","id":"40214:50313057","properties":{"id":"40214:50313057","meshCode":"50313057","cityCode":"40214","city":"豊前市","lat":33.6284633,"lon":131.0903685,"areaKm2":0.4482902,"populated2020":true,"population2020":361.315,"populationNote":"収録500mメッシュ人口の合算（原典収録外は補完しない）"},"geometry":{"type":"Polygon","coordinates":[[[131.09373334600014,33.628522766],[131.094392685,33.62754241400006],[131.09453649800014,33.62714668500012],[131.0945114530001,33.626858577000064],[131.0947138260001,33.62658394599999],[131.09499295699993,33.62657120700009],[131.09536250299993,33.62635270300013],[131.095418495,33.62641042299992],[131.09567713399997,33.62613787400005],[131.09560560299997,33.62607345900011],[131.09550282700002,33.62611196400002],[131.09493630399993,33.62650669399999],[131.09396518800008,33.62642620700001],[131.09401721100005,33.62560233300008],[131.094170856,33.625149351000054],[131.09488932600004,33.62544319799991],[131.095198612,33.62587765799998],[131.0949035540001,33.6254367840001],[131.09424760100012,33.62516119800005],[131.09420828800012,33.625],[131.0875,33.62500000000001],[131.0875,33.63333333333334],[131.08922880662072,33.63333333333333],[131.091206693,33.63155960400013],[131.09200245099998,33.630465378000004],[131.09268138800007,33.62986606300007],[131.09276172500006,33.629690035999936],[131.09258228299996,33.62962331500006],[131.09279298299998,33.62959827000003],[131.09336356699998,33.62902063100006],[131.09329752300016,33.62885992799999],[131.093417445,33.6289392970001],[131.09358361900001,33.62867868500001],[131.093750623,33.62862947700006],[131.09360446200003,33.62853820700013],[131.09373334600014,33.628522766]]]}},{"type":"Feature","id":"40214:50313059","properties":{"id":"40214:50313059","meshCode":"50313059","cityCode":"40214","city":"豊前市","lat":33.6275621,"lon":131.118755,"areaKm2":0.3877193,"populated2020":false,"population2020":null,"populationNote":"境界またぎ・収録外等のため人口未集計"},"geometry":{"type":"MultiPolygon","coordinates":[[[[131.11525866400018,33.625266296999946],[131.11500168600003,33.630522315],[131.120713593,33.63040127000001],[131.12067042800004,33.62905214400012],[131.1215307650001,33.62903398200001],[131.12149029800003,33.62776825200013],[131.12294304800002,33.627321838000114],[131.12326373500014,33.62779832399991],[131.12354083000002,33.62808352299999],[131.123976835,33.628389477000106],[131.12457809299997,33.62863034200001],[131.12366119299998,33.62813173],[131.1233041370001,33.62778593700006],[131.12297569400005,33.627312072000045],[131.12219037599993,33.62610190099997],[131.12216652400002,33.62500000000001],[131.11588760100005,33.62500000000001],[131.11525866400018,33.625266296999946]]],[[[131.121083281,33.629996243],[131.1210793,33.629923297],[131.12101032400003,33.629925081],[131.121011608,33.62999793699999],[131.121083281,33.629996243]]],[[[131.120988716,33.630118784],[131.121089066,33.630197577000004],[131.121087652,33.630116793],[131.120988716,33.630118784]]],[[[131.12091808,33.630950108],[131.120864047,33.630998036],[131.120919339,33.630996991],[131.12091808,33.630950108]]],[[[131.12388926100004,33.62500000000001],[131.12395263300016,33.62631627899997],[131.125,33.626282423000006],[131.125,33.625],[131.12388926100004,33.62500000000001]]],[[[131.123837549,33.62905036],[131.124666861,33.631669972999994],[131.124652296,33.63256039600001],[131.124715681,33.632561054],[131.124737549,33.631653856],[131.123903061,33.62903560400001],[131.123837549,33.62905036]]],[[[131.121091388,33.630318946],[131.12102359300002,33.630393667],[131.121095266,33.630391883],[131.121091388,33.630318946]]],[[[131.124522672,33.633043099000005],[131.12494352839312,33.63333333333333],[131.124563372,33.633011144],[131.124522672,33.633043099000005]]]]}},{"type":"Feature","id":"40214:50313150","properties":{"id":"40214:50313150","meshCode":"50313150","cityCode":"40214","city":"豊前市","lat":33.6267719,"lon":131.1308597,"areaKm2":0.2335061,"populated2020":true,"population2020":32.277,"populationNote":"収録500mメッシュ人口の合算（原典収録外は補完しない）"},"geometry":{"type":"MultiPolygon","coordinates":[[[[131.126148625,33.626246883],[131.130507691,33.625439234],[131.130627873,33.625148595],[131.130696511,33.625143649],[131.130675681,33.62500000000001],[131.125,33.625],[131.125,33.626282423000006],[131.126148625,33.626246883]]],[[[131.131440259,33.625000000000014],[131.130861634,33.626569116999995],[131.130726485,33.626642739],[131.130766394,33.626524586],[131.130623152,33.626596054],[131.130536031,33.62664186500001],[131.13059166,33.626721243000006],[131.130370999,33.626849784],[131.130307834,33.62677645],[131.13017677,33.626850892],[131.130235084,33.626927018],[131.129469287,33.627364595],[131.129306965,33.62736936],[131.127247678,33.62916944100001],[131.127233619,33.631334009],[131.128849948,33.63134406300001],[131.128867302,33.628810604],[131.129531803,33.628231847],[131.130980065,33.627547036],[131.131829001,33.626923162],[131.1375,33.62624773164641],[131.1375,33.62500000000001],[131.131440259,33.625000000000014]]],[[[131.12919383830632,33.63333333333333],[131.12922307400004,33.633262252],[131.12907539530747,33.63333333333334],[131.12919383830632,33.63333333333333]]]]}},{"type":"Feature","id":"40214:50313151","properties":{"id":"40214:50313151","meshCode":"50313151","cityCode":"40214","city":"豊前市","lat":33.6266822,"lon":131.1419997,"areaKm2":0.0753016,"populated2020":false,"population2020":null,"populationNote":"境界またぎ・収録外等のため人口未集計"},"geometry":{"type":"MultiPolygon","coordinates":[[[[131.14172965,33.62506027],[131.14170035,33.62500000000001],[131.141429987,33.62500000000001],[131.14172965,33.62506027]]],[[[131.142028781,33.62500000000001],[131.142391323,33.625196108],[131.141724202,33.62588593699999],[131.141547613,33.625989288],[131.14077225700004,33.62614923400001],[131.140789831,33.626214946000005],[131.142274669,33.627203189],[131.142713891,33.627011532],[131.142408508,33.626529305999995],[131.144201803,33.62574637800001],[131.144169442,33.625467712],[131.144700856,33.625429305999994],[131.144897523,33.62708527],[131.1419069,33.628381748],[131.141082257,33.628467982000004],[131.141088262,33.628517387],[131.141950182,33.62842290099999],[131.144955357,33.627119918999995],[131.144705409,33.625000000000014],[131.142028781,33.62500000000001]]],[[[131.139202659,33.626047045],[131.141829961,33.627803405],[131.139784695,33.626385054],[131.14027847,33.625862793],[131.140369857,33.62592409],[131.140402114,33.62587671199999],[131.140187549,33.62576280200001],[131.140234449,33.625703514],[131.139896278,33.625266495000005],[131.139853359,33.62500000000001],[131.1375,33.62500000000001],[131.1375,33.62624773164641],[131.139202659,33.626047045]]]]}},{"type":"Feature","id":"40214:50313066","properties":{"id":"40214:50313066","meshCode":"50313066","cityCode":"40214","city":"豊前市","lat":33.6338062,"lon":131.0869167,"areaKm2":0.0114423,"populated2020":false,"population2020":null,"populationNote":"境界またぎ・収録外等のため人口未集計"},"geometry":{"type":"Polygon","coordinates":[[[131.08531875500012,33.63342745000012],[131.086466459,33.633426676000056],[131.08643962400004,33.63375964000005],[131.08665805400017,33.63398200000001],[131.08665948099997,33.63444772100007],[131.0872229050001,33.63444891000006],[131.08728998699996,33.63431381099997],[131.0875,33.63427077300522],[131.0875,33.63333333333334],[131.08531368401793,33.633333333333326],[131.08531875500012,33.63342745000012]]]}},{"type":"Feature","id":"40214:50313067","properties":{"id":"40214:50313067","meshCode":"50313067","cityCode":"40214","city":"豊前市","lat":33.6336748,"lon":131.0881388,"areaKm2":0.0100095,"populated2020":false,"population2020":null,"populationNote":"境界またぎ・収録外等のため人口未集計"},"geometry":{"type":"Polygon","coordinates":[[[131.08750077800005,33.63427015300011],[131.08845809299999,33.63394360400002],[131.08922880662072,33.63333333333333],[131.0875,33.63333333333334],[131.08750077800005,33.63427015300011]]]}},{"type":"Feature","id":"40214:50313069","properties":{"id":"40214:50313069","meshCode":"50313069","cityCode":"40214","city":"豊前市","lat":33.6333762,"lon":131.1249494,"areaKm2":6.57e-05,"populated2020":false,"population2020":null,"populationNote":"境界またぎ・収録外等のため人口未集計"},"geometry":{"type":"Polygon","coordinates":[[[131.125,33.633381216],[131.12486490339316,33.63333333333333],[131.125,33.633447874],[131.125,33.633381216]]]}},{"type":"Feature","id":"40214:50313160","properties":{"id":"40214:50313160","meshCode":"50313160","cityCode":"40214","city":"豊前市","lat":33.6337519,"lon":131.1282655,"areaKm2":0.0010314,"populated2020":false,"population2020":null,"populationNote":"境界またぎ・収録外等のため人口未集計"},"geometry":{"type":"MultiPolygon","coordinates":[[[[131.12503454,33.633390901],[131.125,33.633447874],[131.125129857,33.633557973],[131.12517013,33.63352403599999],[131.12503454,33.633390901]]],[[[131.12907539530747,33.63333333333334],[131.127536018,33.634073171],[131.127561855,33.634118586],[131.12919383830632,33.63333333333333],[131.12907539530747,33.63333333333334]]]]}}]}