{"type":"FeatureCollection","metadata":{"cityCode":"40216","city":"小郡市","resolution":1000,"boundaryDate":"2026-01-01","populationLabel":"2020年基準人口（国交省調整値）","method":"標準地域メッシュを行政界で切抜き。中心が区域外のとき区域内代表点を判定点にする。人口不明をゼロにしない。"},"features":[{"type":"Feature","id":"40216:50300402","properties":{"id":"40216:50300402","meshCode":"50300402","cityCode":"40216","city":"小郡市","lat":33.3415963,"lon":130.5374309,"areaKm2":0.0002084,"populated2020":true,"population2020":null,"populationNote":"境界またぎ・収録外等のため人口未集計"},"geometry":{"type":"Polygon","coordinates":[[[130.537339014,33.341563404999995],[130.53736539591486,33.34166666666667],[130.5375,33.34166666666667],[130.5375,33.3415022631581],[130.537339014,33.341563404999995]]]}},{"type":"Feature","id":"40216:50300403","properties":{"id":"40216:50300403","meshCode":"50300403","cityCode":"40216","city":"小郡市","lat":33.3415637,"lon":130.5377096,"areaKm2":0.0008938,"populated2020":false,"population2020":null,"populationNote":"境界またぎ・収録外等のため人口未集計"},"geometry":{"type":"Polygon","coordinates":[[[130.5375,33.3415022631581],[130.5375,33.34166666666667],[130.53798254173435,33.34166666666666],[130.537769844,33.34139979300001],[130.5375,33.3415022631581]]]}},{"type":"Feature","id":"40216:50300412","properties":{"id":"40216:50300412","meshCode":"50300412","cityCode":"40216","city":"小郡市","lat":33.3455631,"lon":130.5369866,"areaKm2":0.0689545,"populated2020":false,"population2020":null,"populationNote":"境界またぎ・収録外等のため人口未集計"},"geometry":{"type":"MultiPolygon","coordinates":[[[[130.537365486,33.341667017999995],[130.537480687,33.342117847000004],[130.5375,33.34166666666667],[130.537365486,33.341667017999995]]],[[[130.536919844,33.342762577],[130.535978457,33.342962297],[130.536641518,33.346490072],[130.537052361,33.349144792999994],[130.53707585,33.35],[130.5375,33.349999999999994],[130.5375,33.342482375678905],[130.536919844,33.342762577]]]]}},{"type":"Feature","id":"40216:50300413","properties":{"id":"40216:50300413","meshCode":"50300413","cityCode":"40216","city":"小郡市","lat":33.3474151,"lon":130.5431884,"areaKm2":0.618336,"populated2020":true,"population2020":null,"populationNote":"境界またぎ・収録外等のため人口未集計"},"geometry":{"type":"Polygon","coordinates":[[[130.5375,33.342482375678905],[130.5375,33.349999999999994],[130.55,33.349999999999994],[130.55,33.34540805400001],[130.54612847,33.345237577],[130.546042633,33.346787018],[130.545210415,33.346517577],[130.545056796,33.346240351],[130.541972905,33.346232856],[130.541329572,33.346019793],[130.540792348,33.345673126],[130.539263463,33.34338063100001],[130.53798254173435,33.34166666666666],[130.5375,33.34166666666667],[130.5375,33.3421138026921],[130.53781096,33.342048685],[130.537829014,33.34230618],[130.5375,33.342482375678905]]]}},{"type":"Feature","id":"40216:50300414","properties":{"id":"40216:50300414","meshCode":"50300414","cityCode":"40216","city":"小郡市","lat":33.3490141,"lon":130.5513322,"areaKm2":0.0455741,"populated2020":true,"population2020":null,"populationNote":"境界またぎ・収録外等のため人口未集計"},"geometry":{"type":"Polygon","coordinates":[[[130.550339857,33.34542313499999],[130.55,33.34540805400001],[130.55,33.349999999999994],[130.553776628,33.35],[130.55378987,33.34929785599999],[130.552355707,33.349228694],[130.552107639,33.34943174800001],[130.55022180300003,33.348384243000005],[130.550463748,33.348027855999995],[130.550144864,33.34786424299999],[130.550339857,33.34542313499999]]]}},{"type":"Feature","id":"40216:50300422","properties":{"id":"40216:50300422","meshCode":"50300422","cityCode":"40216","city":"小郡市","lat":33.3512807,"lon":130.5373227,"areaKm2":0.0102772,"populated2020":false,"population2020":null,"populationNote":"境界またぎ・収録外等のため人口未集計"},"geometry":{"type":"Polygon","coordinates":[[[130.53707585,33.350000351000006],[130.537122659,33.351713333],[130.5375,33.35335031444619],[130.5375,33.349999999999994],[130.53707585,33.350000351000006]]]}},{"type":"Feature","id":"40216:50300423","properties":{"id":"40216:50300423","meshCode":"50300423","cityCode":"40216","city":"小郡市","lat":33.3540709,"lon":130.543958,"areaKm2":1.0374456,"populated2020":true,"population2020":221.9416,"populationNote":"収録500mメッシュ人口の合算（原典収録外は補完しない）"},"geometry":{"type":"Polygon","coordinates":[[[130.5375,33.35335031444619],[130.537969105,33.355298748],[130.53918001319258,33.358333333333334],[130.55,33.358333333333334],[130.55,33.349999999999994],[130.5375,33.349999999999994],[130.5375,33.35335031444619]]]}},{"type":"Feature","id":"40216:50300424","properties":{"id":"40216:50300424","meshCode":"50300424","cityCode":"40216","city":"小郡市","lat":33.3547225,"lon":130.555566,"areaKm2":0.8942023,"populated2020":true,"population2020":116.8605,"populationNote":"収録500mメッシュ人口の合算（原典収録外は補完しない）"},"geometry":{"type":"Polygon","coordinates":[[[130.554958482,33.350466747999995],[130.554923204,33.350966468],[130.55360987,33.350266189],[130.553776628,33.35],[130.55,33.349999999999994],[130.55,33.358333333333334],[130.5625,33.358333333333334],[130.5625,33.355207933890725],[130.562334047,33.355207865],[130.562334047,33.354707585999996],[130.562215992,33.354702586],[130.5625,33.3540188092918],[130.5625,33.35337778650997],[130.558804319,33.353232027000004],[130.558851543,33.352410081],[130.55784821,33.352315919],[130.557904319,33.351422027],[130.55711904,33.351387577],[130.557148482,33.35055091],[130.554958482,33.350466747999995]]]}},{"type":"Feature","id":"40216:50300425","properties":{"id":"40216:50300425","meshCode":"50300425","cityCode":"40216","city":"小郡市","lat":33.3567774,"lon":130.5682635,"areaKm2":0.3762259,"populated2020":true,"population2020":null,"populationNote":"境界またぎ・収録外等のため人口未集計"},"geometry":{"type":"MultiPolygon","coordinates":[[[[130.5625,33.35337778650997],[130.5625,33.3540188092918],[130.562762101,33.353388135],[130.5625,33.35337778650997]]],[[[130.575,33.35773463999999],[130.573466926,33.356501558999994],[130.572844371,33.355834676],[130.572082698,33.354896892],[130.571737108,33.354274532],[130.571289896,33.354396757],[130.571024332,33.354550369],[130.57088406,33.35544286500001],[130.570653774,33.355418144],[130.570642114,33.35521509000001],[130.570169883,33.355215090000016],[130.570128495,33.35441786500001],[130.569851284,33.354417865],[130.569827665,33.35521036],[130.5625,33.355207933890725],[130.5625,33.358333333333334],[130.575,33.358333333333334],[130.575,33.35773463999999]]]]}},{"type":"Feature","id":"40216:50300426","properties":{"id":"40216:50300426","meshCode":"50300426","cityCode":"40216","city":"小郡市","lat":33.3581314,"lon":130.575257,"areaKm2":0.0024104,"populated2020":false,"population2020":null,"populationNote":"境界またぎ・収録外等のため人口未集計"},"geometry":{"type":"Polygon","coordinates":[[[130.575767873,33.358333333],[130.575193502,33.35787591900001],[130.575,33.35773463999999],[130.575,33.358333333333334],[130.575767873,33.358333333]]]}},{"type":"Feature","id":"40216:50300433","properties":{"id":"40216:50300433","meshCode":"50300433","cityCode":"40216","city":"小郡市","lat":33.3623704,"lon":130.5450209,"areaKm2":0.8534011,"populated2020":true,"population2020":60.9731,"populationNote":"収録500mメッシュ人口の合算（原典収録外は補完しない）"},"geometry":{"type":"Polygon","coordinates":[[[130.53958831400004,33.359670054],[130.539674436,33.361273369],[130.539838872,33.361990595],[130.54005249,33.36209392800001],[130.540229157,33.363172811],[130.540258054,33.365217234],[130.540619442,33.365251685000004],[130.540742776,33.36611362199999],[130.54195917,33.36634139600001],[130.54198946796896,33.36666666666666],[130.55,33.36666666666667],[130.55,33.358333333333334],[130.53918001319258,33.358333333333334],[130.539378872,33.358798108],[130.53958831400004,33.359670054]]]}},{"type":"Feature","id":"40216:50300434","properties":{"id":"40216:50300434","meshCode":"50300434","cityCode":"40216","city":"小郡市","lat":33.3625,"lon":130.55625,"areaKm2":1.075079,"populated2020":true,"population2020":448.475,"populationNote":"収録500mメッシュ人口の合算（原典収録外は補完しない）"},"geometry":{"type":"Polygon","coordinates":[[[130.5625,33.358333333333334],[130.55,33.358333333333334],[130.55,33.36666666666667],[130.5625,33.36666666666666],[130.5625,33.358333333333334]]]}},{"type":"Feature","id":"40216:50300435","properties":{"id":"40216:50300435","meshCode":"50300435","cityCode":"40216","city":"小郡市","lat":33.3625,"lon":130.56875,"areaKm2":1.0750766,"populated2020":true,"population2020":68.9201,"populationNote":"収録500mメッシュ人口の合算（原典収録外は補完しない）"},"geometry":{"type":"Polygon","coordinates":[[[130.575,33.358333333333334],[130.5625,33.358333333333334],[130.5625,33.36666666666666],[130.575,33.36666666666667],[130.575,33.358333333333334]]]}},{"type":"Feature","id":"40216:50300436","properties":{"id":"40216:50300436","meshCode":"50300436","cityCode":"40216","city":"小郡市","lat":33.3629122,"lon":130.5765758,"areaKm2":0.2515311,"populated2020":false,"population2020":null,"populationNote":"境界またぎ・収録外等のため人口未集計"},"geometry":{"type":"Polygon","coordinates":[[[130.577936654,33.36216081100001],[130.577940869,33.361513595000005],[130.577739624,33.360694811],[130.577044617,33.35946286499999],[130.57576787342072,33.35833333333334],[130.575,33.358333333333334],[130.575,33.36666666666667],[130.57802839179897,33.36666666666667],[130.57766406,33.365901477],[130.577432114,33.364873982000006],[130.577600986,33.364880315],[130.577646122,33.365090703],[130.578872905,33.365544396],[130.578767536,33.365070423000006],[130.57879762600004,33.36217095500001],[130.577936654,33.36216081100001]]]}},{"type":"Feature","id":"40216:50300443","properties":{"id":"40216:50300443","meshCode":"50300443","cityCode":"40216","city":"小郡市","lat":33.3708128,"lon":130.5460167,"areaKm2":0.6850271,"populated2020":false,"population2020":null,"populationNote":"境界またぎ・収録外等のため人口未集計"},"geometry":{"type":"Polygon","coordinates":[[[130.54198946796896,33.36666666666666],[130.54190166,33.369251108],[130.542102776,33.370881667],[130.54211917,33.37408110799999],[130.54203871600004,33.375],[130.55,33.37500000000001],[130.55,33.36666666666667],[130.54198946796896,33.36666666666666]]]}},{"type":"Feature","id":"40216:50300444","properties":{"id":"40216:50300444","meshCode":"50300444","cityCode":"40216","city":"小郡市","lat":33.3708333,"lon":130.55625,"areaKm2":1.074978,"populated2020":true,"population2020":1235.9841,"populationNote":"収録500mメッシュ人口の合算（原典収録外は補完しない）"},"geometry":{"type":"Polygon","coordinates":[[[130.5625,33.36666666666666],[130.55,33.36666666666667],[130.55,33.37500000000001],[130.5625,33.37500000000001],[130.5625,33.36666666666666]]]}},{"type":"Feature","id":"40216:50300445","properties":{"id":"40216:50300445","meshCode":"50300445","cityCode":"40216","city":"小郡市","lat":33.3708333,"lon":130.56875,"areaKm2":1.0749754,"populated2020":true,"population2020":441.5167,"populationNote":"収録500mメッシュ人口の合算（原典収録外は補完しない）"},"geometry":{"type":"Polygon","coordinates":[[[130.575,33.36666666666667],[130.5625,33.36666666666666],[130.5625,33.37500000000001],[130.575,33.375],[130.575,33.36666666666667]]]}},{"type":"Feature","id":"40216:50300446","properties":{"id":"40216:50300446","meshCode":"50300446","cityCode":"40216","city":"小郡市","lat":33.3708642,"lon":130.576801,"areaKm2":0.303325,"populated2020":false,"population2020":null,"populationNote":"境界またぎ・収録外等のため人口未集計"},"geometry":{"type":"Polygon","coordinates":[[[130.577951842,33.369302036],[130.579027121,33.36928731500001],[130.579018236,33.367963982],[130.579188794,33.36756981100001],[130.578468781,33.367108982000005],[130.57802839179897,33.36666666666667],[130.575,33.36666666666667],[130.575,33.375],[130.579502049,33.37500000000001],[130.57931463,33.374452036],[130.578835733,33.373562595],[130.578712399,33.373508144],[130.578324903,33.373567315],[130.578336563,33.37284314400001],[130.578101569,33.372862874],[130.578186848,33.371800649],[130.57805767800002,33.371810649],[130.578151569,33.371080928],[130.577937121,33.37107370299999],[130.577951842,33.369302036]]]}},{"type":"Feature","id":"40216:50300453","properties":{"id":"40216:50300453","meshCode":"50300453","cityCode":"40216","city":"小郡市","lat":33.3791884,"lon":130.5459691,"areaKm2":0.6931433,"populated2020":true,"population2020":998.9213,"populationNote":"収録500mメッシュ人口の合算（原典収録外は補完しない）"},"geometry":{"type":"Polygon","coordinates":[[[130.541938054,33.376149721],[130.542095227,33.37893302700001],[130.541795642,33.381469305999985],[130.5418326330011,33.38333333333333],[130.55,33.38333333333334],[130.55,33.37500000000001],[130.54203871600004,33.375],[130.541938054,33.376149721]]]}},{"type":"Feature","id":"40216:50300454","properties":{"id":"40216:50300454","meshCode":"50300454","cityCode":"40216","city":"小郡市","lat":33.3791667,"lon":130.55625,"areaKm2":1.074877,"populated2020":true,"population2020":1695.2095,"populationNote":"収録500mメッシュ人口の合算（原典収録外は補完しない）"},"geometry":{"type":"Polygon","coordinates":[[[130.5625,33.37500000000001],[130.55,33.37500000000001],[130.55,33.38333333333334],[130.5625,33.38333333333333],[130.5625,33.37500000000001]]]}},{"type":"Feature","id":"40216:50300455","properties":{"id":"40216:50300455","meshCode":"50300455","cityCode":"40216","city":"小郡市","lat":33.3791667,"lon":130.56875,"areaKm2":1.0748744,"populated2020":true,"population2020":401.679,"populationNote":"収録500mメッシュ人口の合算（原典収録外は補完しない）"},"geometry":{"type":"Polygon","coordinates":[[[130.575,33.375],[130.5625,33.37500000000001],[130.5625,33.38333333333333],[130.575,33.38333333333333],[130.575,33.375]]]}},{"type":"Feature","id":"40216:50300456","properties":{"id":"40216:50300456","meshCode":"50300456","cityCode":"40216","city":"小郡市","lat":33.3795558,"lon":130.5782815,"areaKm2":0.5496128,"populated2020":true,"population2020":null,"populationNote":"境界またぎ・収録外等のため人口未集計"},"geometry":{"type":"Polygon","coordinates":[[[130.58103438400002,33.378557712],[130.580636602,33.377310269999995],[130.579731855,33.375275081000005],[130.579502049,33.37500000000001],[130.575,33.375],[130.575,33.38333333333333],[130.5836481714883,33.38333333333333],[130.583351102,33.383130568],[130.582857497,33.383051676],[130.582610545,33.382558919000004],[130.582443593,33.381289811],[130.582267198,33.381285090000006],[130.582240791,33.380124306000006],[130.581635512,33.380139027000006],[130.581611894,33.379336009],[130.581077173,33.379336009],[130.58103438400002,33.378557712]]]}},{"type":"Feature","id":"40216:50300463","properties":{"id":"40216:50300463","meshCode":"50300463","cityCode":"40216","city":"小郡市","lat":33.3874951,"lon":130.5459223,"areaKm2":0.7012097,"populated2020":true,"population2020":2712.3187,"populationNote":"収録500mメッシュ人口の合算（原典収録外は補完しない）"},"geometry":{"type":"Polygon","coordinates":[[[130.541781388,33.386333891999996],[130.541888327,33.387216667],[130.54184583700317,33.391666666666666],[130.55,33.391666666666666],[130.55,33.38333333333334],[130.5418326330011,33.38333333333333],[130.541781388,33.386333891999996]]]}},{"type":"Feature","id":"40216:50300464","properties":{"id":"40216:50300464","meshCode":"50300464","cityCode":"40216","city":"小郡市","lat":33.3875,"lon":130.55625,"areaKm2":1.0747758,"populated2020":true,"population2020":3031.6457,"populationNote":"収録500mメッシュ人口の合算（原典収録外は補完しない）"},"geometry":{"type":"Polygon","coordinates":[[[130.5625,33.38333333333333],[130.55,33.38333333333334],[130.55,33.391666666666666],[130.5625,33.391666666666666],[130.5625,33.38333333333333]]]}},{"type":"Feature","id":"40216:50300465","properties":{"id":"40216:50300465","meshCode":"50300465","cityCode":"40216","city":"小郡市","lat":33.3875,"lon":130.56875,"areaKm2":1.0747734,"populated2020":true,"population2020":258.7245,"populationNote":"収録500mメッシュ人口の合算（原典収録外は補完しない）"},"geometry":{"type":"Polygon","coordinates":[[[130.575,33.38333333333333],[130.5625,33.38333333333333],[130.5625,33.391666666666666],[130.575,33.39166666666667],[130.575,33.38333333333333]]]}},{"type":"Feature","id":"40216:50300466","properties":{"id":"40216:50300466","meshCode":"50300466","cityCode":"40216","city":"小郡市","lat":33.3876671,"lon":130.5809249,"areaKm2":1.0120673,"populated2020":true,"population2020":null,"populationNote":"境界またぎ・収録外等のため人口未集計"},"geometry":{"type":"Polygon","coordinates":[[[130.587152503,33.387497225],[130.587355279,33.387066108],[130.587361115,33.38662249499999],[130.58707917,33.386257775],[130.586697224,33.385971946],[130.585636394,33.38569833299999],[130.585554163,33.385565279000005],[130.585577782,33.385279440999994],[130.585801115,33.38489],[130.586036109,33.384742225],[130.585516394,33.38397582899999],[130.584952218,33.38368499999999],[130.584076667,33.383625829],[130.5836481714883,33.38333333333333],[130.575,33.38333333333333],[130.575,33.39166666666667],[130.5875,33.39166666666666],[130.5875,33.38915793286109],[130.58738166,33.388857495],[130.5875,33.388745092167945],[130.5875,33.38840066984546],[130.587181946,33.388143054],[130.587152503,33.387497225]]]}},{"type":"Feature","id":"40216:50300467","properties":{"id":"40216:50300467","meshCode":"50300467","cityCode":"40216","city":"小郡市","lat":33.3908089,"lon":130.5880161,"areaKm2":0.020258,"populated2020":true,"population2020":null,"populationNote":"境界またぎ・収録外等のため人口未集計"},"geometry":{"type":"MultiPolygon","coordinates":[[[[130.58761083,33.388468333],[130.5875,33.38840066984546],[130.5875,33.388745092167945],[130.587646109,33.388606108],[130.58761083,33.388468333]]],[[[130.588941388,33.39139333300001],[130.588304163,33.39060249500001],[130.58808083,33.39004055899999],[130.5875,33.38915793286109],[130.5875,33.39166666666666],[130.5889970819321,33.39166666666666],[130.588941388,33.39139333300001]]]]}},{"type":"Feature","id":"40216:50300473","properties":{"id":"40216:50300473","meshCode":"50300473","cityCode":"40216","city":"小郡市","lat":33.3958536,"lon":130.5458828,"areaKm2":0.7078921,"populated2020":true,"population2020":2929.7195,"populationNote":"収録500mメッシュ人口の合算（原典収録外は補完しない）"},"geometry":{"type":"Polygon","coordinates":[[[130.54184583700317,33.391666666666666],[130.541648003,33.4],[130.55,33.4],[130.55,33.391666666666666],[130.54184583700317,33.391666666666666]]]}},{"type":"Feature","id":"40216:50300474","properties":{"id":"40216:50300474","meshCode":"50300474","cityCode":"40216","city":"小郡市","lat":33.3958333,"lon":130.55625,"areaKm2":1.0746747,"populated2020":true,"population2020":5687.8913,"populationNote":"収録500mメッシュ人口の合算（原典収録外は補完しない）"},"geometry":{"type":"Polygon","coordinates":[[[130.5625,33.391666666666666],[130.55,33.391666666666666],[130.55,33.4],[130.5625,33.39999999999999],[130.5625,33.391666666666666]]]}},{"type":"Feature","id":"40216:50300475","properties":{"id":"40216:50300475","meshCode":"50300475","cityCode":"40216","city":"小郡市","lat":33.3958333,"lon":130.56875,"areaKm2":1.0746722,"populated2020":true,"population2020":135.8565,"populationNote":"収録500mメッシュ人口の合算（原典収録外は補完しない）"},"geometry":{"type":"Polygon","coordinates":[[[130.575,33.39166666666667],[130.5625,33.391666666666666],[130.5625,33.39999999999999],[130.575,33.4],[130.575,33.39166666666667]]]}},{"type":"Feature","id":"40216:50300476","properties":{"id":"40216:50300476","meshCode":"50300476","cityCode":"40216","city":"小郡市","lat":33.3958333,"lon":130.58125,"areaKm2":1.0746698,"populated2020":true,"population2020":854.6478,"populationNote":"収録500mメッシュ人口の合算（原典収録外は補完しない）"},"geometry":{"type":"Polygon","coordinates":[[[130.5875,33.39166666666666],[130.575,33.39166666666667],[130.575,33.4],[130.5875,33.4],[130.5875,33.39166666666666]]]}},{"type":"Feature","id":"40216:50300477","properties":{"id":"40216:50300477","meshCode":"50300477","cityCode":"40216","city":"小郡市","lat":33.396534,"lon":130.5891742,"areaKm2":0.2631607,"populated2020":true,"population2020":null,"populationNote":"境界またぎ・収録外等のため人口未集計"},"geometry":{"type":"Polygon","coordinates":[[[130.591018612,33.395397775000006],[130.590395837,33.39532861299999],[130.58954083,33.394074721],[130.589455551,33.39272166700001],[130.589106109,33.392201666999995],[130.5889970819321,33.39166666666666],[130.5875,33.39166666666666],[130.5875,33.4],[130.591431505,33.4],[130.591482776,33.399808892],[130.591418054,33.399660829],[130.591632503,33.399027495000006],[130.591979442,33.39865805400001],[130.591388885,33.39822666700001],[130.591471115,33.39794555899999],[130.590998054,33.397573613],[130.591068612,33.397342225],[130.591485837,33.397421108],[130.591532776,33.397066108],[130.591186109,33.396947775],[130.591018612,33.395397775000006]]]}},{"type":"Feature","id":"40216:50300483","properties":{"id":"40216:50300483","meshCode":"50300483","cityCode":"40216","city":"小郡市","lat":33.4041852,"lon":130.5458071,"areaKm2":0.720844,"populated2020":true,"population2020":1273.6639,"populationNote":"収録500mメッシュ人口の合算（原典収録外は補完しない）"},"geometry":{"type":"Polygon","coordinates":[[[130.541683606,33.403265278999996],[130.54145379998312,33.40833333333333],[130.55,33.40833333333333],[130.55,33.4],[130.541648003,33.4],[130.541683606,33.403265278999996]]]}},{"type":"Feature","id":"40216:50300484","properties":{"id":"40216:50300484","meshCode":"50300484","cityCode":"40216","city":"小郡市","lat":33.4041667,"lon":130.55625,"areaKm2":1.0745736,"populated2020":true,"population2020":4540.7013,"populationNote":"収録500mメッシュ人口の合算（原典収録外は補完しない）"},"geometry":{"type":"Polygon","coordinates":[[[130.5625,33.39999999999999],[130.55,33.4],[130.55,33.40833333333333],[130.5625,33.40833333333333],[130.5625,33.39999999999999]]]}},{"type":"Feature","id":"40216:50300485","properties":{"id":"40216:50300485","meshCode":"50300485","cityCode":"40216","city":"小郡市","lat":33.4041667,"lon":130.56875,"areaKm2":1.074571,"populated2020":true,"population2020":157.0508,"populationNote":"収録500mメッシュ人口の合算（原典収録外は補完しない）"},"geometry":{"type":"Polygon","coordinates":[[[130.575,33.4],[130.5625,33.39999999999999],[130.5625,33.40833333333333],[130.575,33.40833333333333],[130.575,33.4]]]}},{"type":"Feature","id":"40216:50300486","properties":{"id":"40216:50300486","meshCode":"50300486","cityCode":"40216","city":"小郡市","lat":33.4041667,"lon":130.58125,"areaKm2":1.0745686,"populated2020":true,"population2020":538.6411,"populationNote":"収録500mメッシュ人口の合算（原典収録外は補完しない）"},"geometry":{"type":"Polygon","coordinates":[[[130.5875,33.4],[130.575,33.4],[130.575,33.40833333333333],[130.5875,33.40833333333333],[130.5875,33.4]]]}},{"type":"Feature","id":"40216:50300487","properties":{"id":"40216:50300487","meshCode":"50300487","cityCode":"40216","city":"小郡市","lat":33.4048972,"lon":130.592621,"areaKm2":0.7893814,"populated2020":true,"population2020":null,"populationNote":"境界またぎ・収録外等のため人口未集計"},"geometry":{"type":"Polygon","coordinates":[[[130.593066109,33.40252194600001],[130.592149442,33.401067774999994],[130.591738327,33.401200829000004],[130.591562218,33.400988892],[130.591300558,33.400488892],[130.591431505,33.4],[130.5875,33.4],[130.5875,33.40833333333333],[130.59945272406836,33.40833333333333],[130.59910917,33.40665944100001],[130.599206109,33.406528892],[130.598935837,33.406282495],[130.599144449,33.405969441],[130.598703891,33.405521108],[130.599156109,33.405008613],[130.598756667,33.404604441],[130.598512776,33.403187225],[130.597978054,33.403290829],[130.59790166,33.40308389199999],[130.596873333,33.403221945999995],[130.596711946,33.402963054],[130.596112776,33.40300249500001],[130.595818885,33.402770829],[130.595378327,33.402933613],[130.59442917,33.402142495],[130.593066109,33.40252194600001]]]}},{"type":"Feature","id":"40216:50300493","properties":{"id":"40216:50300493","meshCode":"50300493","cityCode":"40216","city":"小郡市","lat":33.4125209,"lon":130.5456294,"areaKm2":0.7512944,"populated2020":true,"population2020":398.9389,"populationNote":"収録500mメッシュ人口の合算（原典収録外は補完しない）"},"geometry":{"type":"Polygon","coordinates":[[[130.54120232490345,33.412499999999994],[130.541189442,33.41590000000001],[130.5412830609862,33.416666666666664],[130.55,33.416666666666664],[130.55,33.40833333333333],[130.54145379998312,33.40833333333333],[130.54120232490345,33.412499999999994]]]}},{"type":"Feature","id":"40216:50300494","properties":{"id":"40216:50300494","meshCode":"50300494","cityCode":"40216","city":"小郡市","lat":33.4125,"lon":130.55625,"areaKm2":1.0744724,"populated2020":true,"population2020":4266.3915,"populationNote":"収録500mメッシュ人口の合算（原典収録外は補完しない）"},"geometry":{"type":"Polygon","coordinates":[[[130.5625,33.40833333333333],[130.55,33.40833333333333],[130.55,33.416666666666664],[130.5625,33.41666666666666],[130.5625,33.40833333333333]]]}},{"type":"Feature","id":"40216:50300495","properties":{"id":"40216:50300495","meshCode":"50300495","cityCode":"40216","city":"小郡市","lat":33.4125,"lon":130.56875,"areaKm2":1.0744699,"populated2020":true,"population2020":258.9821,"populationNote":"収録500mメッシュ人口の合算（原典収録外は補完しない）"},"geometry":{"type":"Polygon","coordinates":[[[130.575,33.40833333333333],[130.5625,33.40833333333333],[130.5625,33.41666666666666],[130.575,33.416666666666664],[130.575,33.40833333333333]]]}},{"type":"Feature","id":"40216:50300496","properties":{"id":"40216:50300496","meshCode":"50300496","cityCode":"40216","city":"小郡市","lat":33.4125,"lon":130.58125,"areaKm2":1.0744674,"populated2020":true,"population2020":559.0702,"populationNote":"収録500mメッシュ人口の合算（原典収録外は補完しない）"},"geometry":{"type":"Polygon","coordinates":[[[130.5875,33.40833333333333],[130.575,33.40833333333333],[130.575,33.416666666666664],[130.5875,33.41666666666667],[130.5875,33.40833333333333]]]}},{"type":"Feature","id":"40216:50300497","properties":{"id":"40216:50300497","meshCode":"50300497","cityCode":"40216","city":"小郡市","lat":33.4125212,"lon":130.5937129,"areaKm2":1.0679104,"populated2020":true,"population2020":299.7961,"populationNote":"収録500mメッシュ人口の合算（原典収録外は補完しない）"},"geometry":{"type":"Polygon","coordinates":[[[130.6,33.410063640000004],[130.599799728,33.410023054],[130.59945272406836,33.40833333333333],[130.5875,33.40833333333333],[130.5875,33.41666666666667],[130.6,33.416666666666664],[130.6,33.410063640000004]]]}},{"type":"Feature","id":"40216:50300498","properties":{"id":"40216:50300498","meshCode":"50300498","cityCode":"40216","city":"小郡市","lat":33.4137665,"lon":130.6039625,"areaKm2":0.4803604,"populated2020":true,"population2020":null,"populationNote":"境界またぎ・収録外等のため人口未集計"},"geometry":{"type":"Polygon","coordinates":[[[130.604802776,33.411568333],[130.604212218,33.41136389199999],[130.604094721,33.41105833300001],[130.603025279,33.410545559],[130.601488612,33.410365829],[130.6,33.410063640000004],[130.6,33.416666666666664],[130.60688080425163,33.416666666666664],[130.608844994,33.413993333],[130.610166939,33.412371667],[130.606864994,33.412115559],[130.606383061,33.412006946000005],[130.605554449,33.411647225],[130.604802776,33.411568333]]]}},{"type":"Feature","id":"40216:50301403","properties":{"id":"40216:50301403","meshCode":"50301403","cityCode":"40216","city":"小郡市","lat":33.4210332,"lon":130.545223,"areaKm2":0.8141188,"populated2020":true,"population2020":419.6043,"populationNote":"収録500mメッシュ人口の合算（原典収録外は補完しない）"},"geometry":{"type":"Polygon","coordinates":[[[130.5412830609862,33.416666666666664],[130.541288145,33.418108748],[130.541003061,33.41973055900001],[130.54109917,33.420626108],[130.541064163,33.421222775],[130.540015279,33.422855279],[130.538574994,33.424736946],[130.538202581,33.425],[130.55,33.425],[130.55,33.416666666666664],[130.5412830609862,33.416666666666664]]]}},{"type":"Feature","id":"40216:50301404","properties":{"id":"40216:50301404","meshCode":"50301404","cityCode":"40216","city":"小郡市","lat":33.4208333,"lon":130.55625,"areaKm2":1.0743712,"populated2020":true,"population2020":1486.4627,"populationNote":"収録500mメッシュ人口の合算（原典収録外は補完しない）"},"geometry":{"type":"Polygon","coordinates":[[[130.5625,33.41666666666666],[130.55,33.416666666666664],[130.55,33.425],[130.5625,33.425],[130.5625,33.41666666666666]]]}},{"type":"Feature","id":"40216:50301405","properties":{"id":"40216:50301405","meshCode":"50301405","cityCode":"40216","city":"小郡市","lat":33.4208333,"lon":130.56875,"areaKm2":1.0743688,"populated2020":true,"population2020":1240.0276,"populationNote":"収録500mメッシュ人口の合算（原典収録外は補完しない）"},"geometry":{"type":"Polygon","coordinates":[[[130.575,33.416666666666664],[130.5625,33.41666666666666],[130.5625,33.425],[130.575,33.425],[130.575,33.416666666666664]]]}},{"type":"Feature","id":"40216:50301406","properties":{"id":"40216:50301406","meshCode":"50301406","cityCode":"40216","city":"小郡市","lat":33.4208333,"lon":130.58125,"areaKm2":1.0743664,"populated2020":true,"population2020":453.4992,"populationNote":"収録500mメッシュ人口の合算（原典収録外は補完しない）"},"geometry":{"type":"Polygon","coordinates":[[[130.5875,33.41666666666667],[130.575,33.416666666666664],[130.575,33.425],[130.5875,33.425],[130.5875,33.41666666666667]]]}},{"type":"Feature","id":"40216:50301407","properties":{"id":"40216:50301407","meshCode":"50301407","cityCode":"40216","city":"小郡市","lat":33.4206345,"lon":130.5934458,"areaKm2":1.0111153,"populated2020":true,"population2020":null,"populationNote":"境界またぎ・収録外等のため人口未集計"},"geometry":{"type":"Polygon","coordinates":[[[130.6,33.416666666666664],[130.5875,33.41666666666667],[130.5875,33.425],[130.595497717,33.425],[130.596008612,33.42477249499999],[130.598354163,33.423402775],[130.599333891,33.422513892000005],[130.6,33.421646027],[130.6,33.416666666666664]]]}},{"type":"Feature","id":"40216:50301408","properties":{"id":"40216:50301408","meshCode":"50301408","cityCode":"40216","city":"小郡市","lat":33.4183958,"lon":130.6027533,"areaKm2":0.2164971,"populated2020":true,"population2020":null,"populationNote":"境界またぎ・収録外等のため人口未集計"},"geometry":{"type":"Polygon","coordinates":[[[130.605055279,33.419291108],[130.60664166,33.41726082899999],[130.606700272,33.416905829],[130.60688080425163,33.416666666666664],[130.6,33.416666666666664],[130.6,33.421646027],[130.600586394,33.420768333],[130.600727224,33.420701946],[130.60202166,33.42050694600001],[130.602637224,33.420326667],[130.60437408600004,33.419636],[130.605055279,33.419291108]]]}},{"type":"Feature","id":"40216:50301412","properties":{"id":"40216:50301412","meshCode":"50301412","cityCode":"40216","city":"小郡市","lat":33.4312181,"lon":130.5369754,"areaKm2":0.0496923,"populated2020":true,"population2020":2.9925,"populationNote":"収録500mメッシュ人口の合算（原典収録外は補完しない）"},"geometry":{"type":"Polygon","coordinates":[[[130.537367782,33.426298613],[130.537206394,33.429193053999995],[130.536758885,33.430281387],[130.536521388,33.431566667],[130.536060558,33.432572775],[130.53556082978093,33.43333333333333],[130.5375,33.43333333333333],[130.5375,33.425835010542805],[130.537367782,33.426298613]]]}},{"type":"Feature","id":"40216:50301413","properties":{"id":"40216:50301413","meshCode":"50301413","cityCode":"40216","city":"小郡市","lat":33.4291758,"lon":130.5437641,"areaKm2":1.0717743,"populated2020":true,"population2020":301.1974,"populationNote":"収録500mメッシュ人口の合算（原典収録外は補完しない）"},"geometry":{"type":"Polygon","coordinates":[[[130.537752218,33.425420279],[130.5375,33.425835010542805],[130.5375,33.43333333333333],[130.55,33.43333333333333],[130.55,33.425],[130.538202581,33.425],[130.537752218,33.425420279]]]}},{"type":"Feature","id":"40216:50301414","properties":{"id":"40216:50301414","meshCode":"50301414","cityCode":"40216","city":"小郡市","lat":33.4291667,"lon":130.55625,"areaKm2":1.07427,"populated2020":true,"population2020":3641.0865,"populationNote":"収録500mメッシュ人口の合算（原典収録外は補完しない）"},"geometry":{"type":"Polygon","coordinates":[[[130.5625,33.425],[130.55,33.425],[130.55,33.43333333333333],[130.5625,33.43333333333333],[130.5625,33.425]]]}},{"type":"Feature","id":"40216:50301415","properties":{"id":"40216:50301415","meshCode":"50301415","cityCode":"40216","city":"小郡市","lat":33.4291667,"lon":130.56875,"areaKm2":1.0742676,"populated2020":true,"population2020":3436.4618,"populationNote":"収録500mメッシュ人口の合算（原典収録外は補完しない）"},"geometry":{"type":"Polygon","coordinates":[[[130.575,33.425],[130.5625,33.425],[130.5625,33.43333333333333],[130.575,33.43333333333333],[130.575,33.425]]]}},{"type":"Feature","id":"40216:50301416","properties":{"id":"40216:50301416","meshCode":"50301416","cityCode":"40216","city":"小郡市","lat":33.428934,"lon":130.5808367,"areaKm2":0.9903436,"populated2020":true,"population2020":null,"populationNote":"境界またぎ・収録外等のため人口未集計"},"geometry":{"type":"Polygon","coordinates":[[[130.5875,33.425],[130.575,33.425],[130.575,33.43333333333333],[130.58431114082236,33.43333333333333],[130.585012776,33.432096108],[130.584208327,33.431689162],[130.584354994,33.431323892],[130.584729442,33.431427225],[130.584942776,33.431041667],[130.58512778200003,33.431068054],[130.585337782,33.430656387],[130.585761115,33.43063333300001],[130.586023606,33.430125],[130.586846939,33.430308054],[130.5875,33.43035169536194],[130.5875,33.425]]]}},{"type":"Feature","id":"40216:50301417","properties":{"id":"40216:50301417","meshCode":"50301417","cityCode":"40216","city":"小郡市","lat":33.4267119,"lon":130.5899652,"areaKm2":0.1949065,"populated2020":true,"population2020":null,"populationNote":"境界またぎ・収録外等のため人口未集計"},"geometry":{"type":"Polygon","coordinates":[[[130.592227224,33.426665],[130.595497717,33.425],[130.5875,33.425],[130.5875,33.43035169536194],[130.58783,33.430255],[130.588466939,33.429887494999996],[130.58855083,33.429743054],[130.588344994,33.42963889199999],[130.588341388,33.429458054],[130.589334449,33.428659721],[130.589782218,33.42838110800001],[130.590188054,33.42827610799999],[130.591037782,33.42750499999999],[130.592227224,33.426665]]]}},{"type":"Feature","id":"40216:50301422","properties":{"id":"40216:50301422","meshCode":"50301422","cityCode":"40216","city":"小郡市","lat":33.4358443,"lon":130.5365674,"areaKm2":0.1011106,"populated2020":true,"population2020":355.6477,"populationNote":"収録500mメッシュ人口の合算（原典収録外は補完しない）"},"geometry":{"type":"Polygon","coordinates":[[[130.53556082978093,33.43333333333333],[130.535151388,33.434389161999995],[130.535815837,33.435241387000005],[130.536016667,33.43588582900001],[130.535939728,33.436167775],[130.535387497,33.436600559000006],[130.535331388,33.437374162],[130.535478327,33.437538333],[130.537002218,33.438265829],[130.536470752,33.438981946],[130.536770272,33.43912277500001],[130.5375,33.439121227901595],[130.5375,33.43333333333333],[130.53556082978093,33.43333333333333]]]}},{"type":"Feature","id":"40216:50301423","properties":{"id":"40216:50301423","meshCode":"50301423","cityCode":"40216","city":"小郡市","lat":33.43698,"lon":130.5439082,"areaKm2":0.9308207,"populated2020":true,"population2020":null,"populationNote":"境界またぎ・収録外等のため人口未集計"},"geometry":{"type":"Polygon","coordinates":[[[130.55,33.43333333333333],[130.5375,33.43333333333333],[130.5375,33.439121227901595],[130.537791362,33.43921130599999],[130.538368054,33.43986361299999],[130.539088327,33.440447225],[130.539486939,33.440873333000006],[130.539979027,33.441009613],[130.54023593990658,33.44166666666667],[130.540492335,33.441564667],[130.542134968,33.439707973000004],[130.543646252,33.439099694],[130.54416406,33.439849919],[130.54381166,33.440112225],[130.545395837,33.44153916199999],[130.546597639,33.440590414000006],[130.547402503,33.441342775],[130.548657471,33.440873162],[130.549629728,33.440760559],[130.549622503,33.441258892],[130.55,33.441229667],[130.55,33.43333333333333]]]}},{"type":"Feature","id":"40216:50301424","properties":{"id":"40216:50301424","meshCode":"50301424","cityCode":"40216","city":"小郡市","lat":33.4374893,"lon":130.5562661,"areaKm2":1.0712627,"populated2020":true,"population2020":2184.8003,"populationNote":"収録500mメッシュ人口の合算（原典収録外は補完しない）"},"geometry":{"type":"Polygon","coordinates":[[[130.5625,33.43333333333333],[130.55,33.43333333333333],[130.55,33.441229667],[130.550426667,33.4412],[130.55080938972665,33.44166666666667],[130.5625,33.44166666666666],[130.5625,33.43333333333333]]]}},{"type":"Feature","id":"40216:50301425","properties":{"id":"40216:50301425","meshCode":"50301425","cityCode":"40216","city":"小郡市","lat":33.4373881,"lon":130.5685836,"areaKm2":1.0405865,"populated2020":true,"population2020":2816.9862,"populationNote":"収録500mメッシュ人口の合算（原典収録外は補完しない）"},"geometry":{"type":"Polygon","coordinates":[[[130.575,33.43333333333333],[130.5625,33.43333333333333],[130.5625,33.44166666666666],[130.572768612,33.441657775],[130.572398054,33.440818054],[130.573275837,33.440470559000005],[130.575,33.439942252],[130.575,33.43333333333333]]]}},{"type":"Feature","id":"40216:50301426","properties":{"id":"40216:50301426","meshCode":"50301426","cityCode":"40216","city":"小郡市","lat":33.4356321,"lon":130.578184,"areaKm2":0.3302017,"populated2020":true,"population2020":null,"populationNote":"境界またぎ・収録外等のため人口未集計"},"geometry":{"type":"Polygon","coordinates":[[[130.581095837,33.436440829],[130.582496667,33.43731999999999],[130.582772776,33.436910559],[130.58137166,33.435832495],[130.581298327,33.435589721],[130.581431115,33.435336946],[130.582707782,33.434059721],[130.583166109,33.433387225000004],[130.583306109,33.433347775],[130.584110272,33.43371027900001],[130.58431114082236,33.43333333333333],[130.575,33.43333333333333],[130.575,33.439942252],[130.576079728,33.439644162000015],[130.575761115,33.438795559000006],[130.576566939,33.438570829],[130.577894994,33.438033333],[130.578496667,33.43751527900001],[130.580149442,33.43681082900001],[130.580662218,33.436475279],[130.581095837,33.436440829]]]}},{"type":"Feature","id":"40216:50301433","properties":{"id":"40216:50301433","meshCode":"50301433","cityCode":"40216","city":"小郡市","lat":33.4416759,"lon":130.5402801,"areaKm2":1.78e-05,"populated2020":true,"population2020":null,"populationNote":"境界またぎ・収録外等のため人口未集計"},"geometry":{"type":"Polygon","coordinates":[[[130.54023593990658,33.44166666666667],[130.54024358,33.441693946],[130.5403510254618,33.44166666666667],[130.54023593990658,33.44166666666667]]]}},{"type":"Feature","id":"40216:50301434","properties":{"id":"40216:50301434","meshCode":"50301434","cityCode":"40216","city":"小郡市","lat":33.4451502,"lon":130.5572442,"areaKm2":0.7378171,"populated2020":true,"population2020":null,"populationNote":"境界またぎ・収録外等のため人口未集計"},"geometry":{"type":"Polygon","coordinates":[[[130.55080938972665,33.44166666666667],[130.552311946,33.443674441],[130.552661388,33.444573054],[130.552731388,33.445136667],[130.552563606,33.445464441],[130.553143061,33.447145279000004],[130.55319166000004,33.44786666700001],[130.553072776,33.448640278999996],[130.553156667,33.448987775],[130.553595837,33.449929162],[130.554707782,33.449463333],[130.555448885,33.449483054],[130.555896394,33.449332225],[130.556693606,33.449430559],[130.557050272,33.449391387000006],[130.55791,33.449083054],[130.559487497,33.44823916199999],[130.559718054,33.448036108000004],[130.560165551,33.44806222500001],[130.56066221800003,33.447806387],[130.561494163,33.447662495],[130.561703891,33.447891667000015],[130.561885837,33.447924441],[130.561906667,33.448022775000005],[130.5625,33.448072663741605],[130.5625,33.44166666666666],[130.55080938972665,33.44166666666667]]]}},{"type":"Feature","id":"40216:50301435","properties":{"id":"40216:50301435","meshCode":"50301435","cityCode":"40216","city":"小郡市","lat":33.444322,"lon":130.5657765,"areaKm2":0.3935289,"populated2020":true,"population2020":null,"populationNote":"境界またぎ・収録外等のため人口未集計"},"geometry":{"type":"Polygon","coordinates":[[[130.568834994,33.443785],[130.571407782,33.442853891999995],[130.571450272,33.442549162],[130.571700558,33.442075559],[130.57274243898118,33.44166666666667],[130.5625,33.44166666666666],[130.5625,33.448072663741605],[130.562796394,33.44811416200001],[130.563173606,33.448304441],[130.563516394,33.448304441],[130.565040558,33.448724162000005],[130.565355279,33.448697775],[130.565571946,33.448297775],[130.566424994,33.44769444100001],[130.565893606,33.446645559],[130.566830558,33.44626527900001],[130.566705837,33.446045829],[130.566033061,33.446126387],[130.5659,33.445847495],[130.567363061,33.44472777499999],[130.567488885,33.444976946000004],[130.569114163,33.444401108],[130.568834994,33.443785]]]}}]}