{"type":"FeatureCollection","metadata":{"cityCode":"40212","city":"大川市","resolution":1000,"boundaryDate":"2026-01-01","populationLabel":"2020年基準人口（国交省調整値）","method":"標準地域メッシュを行政界で切抜き。中心が区域外のとき区域内代表点を判定点にする。人口不明をゼロにしない。"},"features":[{"type":"Feature","id":"40212:49306208","properties":{"id":"40212:49306208","meshCode":"49306208","cityCode":"40212","city":"大川市","lat":33.1730951,"lon":130.3570481,"areaKm2":0.3984456,"populated2020":true,"population2020":null,"populationNote":"境界またぎ・収録外等のため人口未集計"},"geometry":{"type":"Polygon","coordinates":[[[130.356003333,33.170718613000005],[130.352144994,33.17079638700001],[130.35211917,33.173406107999995],[130.352237134,33.175],[130.3625,33.17499999999999],[130.3625,33.17080836841755],[130.361791388,33.171580279],[130.360819728,33.171123892000004],[130.359514994,33.172558892],[130.358920558,33.172255279000005],[130.358583606,33.172211667000006],[130.357660558,33.171552225],[130.356361946,33.170811667],[130.356003333,33.170718613000005]]]}},{"type":"Feature","id":"40212:49306209","properties":{"id":"40212:49306209","meshCode":"49306209","cityCode":"40212","city":"大川市","lat":33.1734918,"lon":130.3643996,"areaKm2":0.1311226,"populated2020":true,"population2020":null,"populationNote":"境界またぎ・収録外等のため人口未集計"},"geometry":{"type":"Polygon","coordinates":[[[130.3625,33.17080836841755],[130.3625,33.17499999999999],[130.366852088,33.175],[130.367045551,33.174485279],[130.367542218,33.17401444099999],[130.3625,33.17080836841755]]]}},{"type":"Feature","id":"40212:49306218","properties":{"id":"40212:49306218","meshCode":"49306218","cityCode":"40212","city":"大川市","lat":33.1793524,"lon":130.3571091,"areaKm2":0.9181405,"populated2020":true,"population2020":554.7098,"populationNote":"収録500mメッシュ人口の合算（原典収録外は補完しない）"},"geometry":{"type":"Polygon","coordinates":[[[130.352521388,33.177400559000006],[130.35312000000002,33.180462225],[130.35000000000002,33.18119905399999],[130.35000000000002,33.18333333333332],[130.3625,33.18333333333333],[130.3625,33.17499999999999],[130.352237134,33.175],[130.352521388,33.177400559000006]]]}},{"type":"Feature","id":"40212:49306219","properties":{"id":"40212:49306219","meshCode":"49306219","cityCode":"40212","city":"大川市","lat":33.179545,"lon":130.3651697,"areaKm2":0.445874,"populated2020":true,"population2020":null,"populationNote":"境界またぎ・収録外等のため人口未集計"},"geometry":{"type":"Polygon","coordinates":[[[130.368401946,33.179622775],[130.367815837,33.17873833299999],[130.365893606,33.177606946],[130.36619444900003,33.177351667],[130.366751946,33.17655166699999],[130.366854163,33.17586582900001],[130.366774994,33.17553082900001],[130.366852088,33.175],[130.3625,33.17499999999999],[130.3625,33.18333333333333],[130.36889455326389,33.18333333333333],[130.368658054,33.183025279],[130.368491115,33.182134441],[130.368661115,33.181895000000004],[130.368423333,33.180323333],[130.368401946,33.179622775]]]}},{"type":"Feature","id":"40212:49306311","properties":{"id":"40212:49306311","meshCode":"49306311","cityCode":"40212","city":"大川市","lat":33.1817327,"lon":130.391063,"areaKm2":0.2082227,"populated2020":true,"population2020":null,"populationNote":"境界またぎ・収録外等のため人口未集計"},"geometry":{"type":"Polygon","coordinates":[[[130.392197497,33.179170559000006],[130.390502776,33.179843612999996],[130.38770055800003,33.180747225000005],[130.387715551,33.180991946000006],[130.388296109,33.182683333],[130.388248612,33.182786667],[130.387971946,33.182913613],[130.3875,33.18295752152112],[130.3875,33.18333333333332],[130.39544111531913,33.18333333333332],[130.394227224,33.182048054],[130.393179857,33.182072135],[130.393695279,33.181275],[130.393233606,33.180895279000005],[130.392337224,33.179364721],[130.392197497,33.179170559000006]]]}},{"type":"Feature","id":"40212:49306217","properties":{"id":"40212:49306217","meshCode":"49306217","cityCode":"40212","city":"大川市","lat":33.1824292,"lon":130.3486015,"areaKm2":0.055092,"populated2020":false,"population2020":null,"populationNote":"境界またぎ・収録外等のため人口未集計"},"geometry":{"type":"Polygon","coordinates":[[[130.35000000000002,33.18119905399999],[130.348160558,33.181627774999995],[130.34688917,33.18204694600001],[130.346856939,33.182193053999995],[130.347059728,33.182801667],[130.34704291798963,33.18333333333333],[130.35000000000002,33.18333333333332],[130.35000000000002,33.18119905399999]]]}},{"type":"Feature","id":"40212:49306310","properties":{"id":"40212:49306310","meshCode":"49306310","cityCode":"40212","city":"大川市","lat":33.1831556,"lon":130.3869599,"areaKm2":0.0047362,"populated2020":true,"population2020":null,"populationNote":"境界またぎ・収録外等のため人口未集計"},"geometry":{"type":"MultiPolygon","coordinates":[[[[130.38709527900002,33.182970559000005],[130.386498885,33.183118613],[130.38605910418195,33.18333333333332],[130.3875,33.18333333333332],[130.3875,33.18295752152112],[130.38709527900002,33.182970559000005]]],[[[130.3776282753558,33.18333333333332],[130.37733166,33.183106667],[130.37709917,33.183241946],[130.37711119308798,33.18333333333333],[130.3776282753558,33.18333333333332]]],[[[130.37795224406904,33.18333333333332],[130.377895279,33.18326722500001],[130.37772286513086,33.18333333333333],[130.37795224406904,33.18333333333332]]],[[[130.37888847,33.18333333300001],[130.37889642009463,33.18333333333333],[130.378895551,33.183330279],[130.37888847,33.18333333300001]]]]}},{"type":"Feature","id":"40212:49306227","properties":{"id":"40212:49306227","meshCode":"49306227","cityCode":"40212","city":"大川市","lat":33.1882721,"lon":130.3461717,"areaKm2":0.594785,"populated2020":true,"population2020":352.8761,"populationNote":"収録500mメッシュ人口の合算（原典収録外は補完しない）"},"geometry":{"type":"Polygon","coordinates":[[[130.346950272,33.18367777500001],[130.34631,33.183870000000006],[130.345717782,33.184811108000005],[130.34471027200001,33.185722775],[130.344346667,33.186623054],[130.343055837,33.18757249499999],[130.34292083,33.187729441],[130.342746939,33.18821055899999],[130.342579442,33.18835666700001],[130.342164449,33.188435279],[130.340554994,33.188445829],[130.340529442,33.191047775],[130.34038116707984,33.19166666666667],[130.35000000000002,33.19166666666667],[130.35000000000002,33.18333333333332],[130.34704291798963,33.18333333333333],[130.346950272,33.18367777500001]]]}},{"type":"Feature","id":"40212:49306228","properties":{"id":"40212:49306228","meshCode":"49306228","cityCode":"40212","city":"大川市","lat":33.1875,"lon":130.35625,"areaKm2":1.0772461,"populated2020":true,"population2020":676.5729,"populationNote":"収録500mメッシュ人口の合算（原典収録外は補完しない）"},"geometry":{"type":"Polygon","coordinates":[[[130.3625,33.18333333333333],[130.35000000000002,33.18333333333332],[130.35000000000002,33.19166666666667],[130.3625,33.19166666666667],[130.3625,33.18333333333333]]]}},{"type":"Feature","id":"40212:49306229","properties":{"id":"40212:49306229","meshCode":"49306229","cityCode":"40212","city":"大川市","lat":33.1879012,"lon":130.368261,"areaKm2":0.9513512,"populated2020":true,"population2020":null,"populationNote":"境界またぎ・収録外等のため人口未集計"},"geometry":{"type":"Polygon","coordinates":[[[130.375,33.186373251999996],[130.373786394,33.185186667],[130.372145551,33.186275279],[130.371402776,33.185549162],[130.371399728,33.185382225],[130.370818054,33.18537722500001],[130.370564449,33.18528527899999],[130.36889455326389,33.18333333333333],[130.3625,33.18333333333333],[130.3625,33.19166666666667],[130.375,33.19166666666668],[130.375,33.186373251999996]]]}},{"type":"Feature","id":"40212:49306320","properties":{"id":"40212:49306320","meshCode":"49306320","cityCode":"40212","city":"大川市","lat":33.188027,"lon":130.3817582,"areaKm2":0.896925,"populated2020":true,"population2020":null,"populationNote":"境界またぎ・収録外等のため人口未集計"},"geometry":{"type":"Polygon","coordinates":[[[130.381534994,33.185069721],[130.380402503,33.18569666700001],[130.380245837,33.185431387],[130.379732503,33.184129721],[130.379133333,33.18428194599999],[130.37889642009463,33.18333333333333],[130.378054163,33.183651946],[130.37795224406904,33.18333333333332],[130.37711119308798,33.18333333333333],[130.377426109,33.184289162],[130.376454721,33.184821667],[130.376461388,33.185056946],[130.376879442,33.185638333],[130.377226667,33.185929721],[130.37793166,33.185419162],[130.378014721,33.185476945999994],[130.378082776,33.18585777500001],[130.377930272,33.18603889199999],[130.378004163,33.186218613],[130.377274721,33.18676305399999],[130.37791166,33.187411667],[130.376949728,33.188069999999996],[130.376721946,33.188121667],[130.375,33.186373251999996],[130.375,33.19166666666668],[130.3875,33.19166666666667],[130.3875,33.18333333333332],[130.38605910418195,33.18333333333332],[130.385246109,33.183523054],[130.38418917,33.184046387],[130.381534994,33.185069721]]]}},{"type":"Feature","id":"40212:49306321","properties":{"id":"40212:49306321","meshCode":"49306321","cityCode":"40212","city":"大川市","lat":33.1877616,"lon":130.3927158,"areaKm2":0.8873832,"populated2020":true,"population2020":null,"populationNote":"境界またぎ・収録外等のため人口未集計"},"geometry":{"type":"Polygon","coordinates":[[[130.398612503,33.187817225],[130.39657406,33.18566266700001],[130.396554501,33.185538865000005],[130.396817471,33.185366865000006],[130.396567302,33.185020802],[130.396878003,33.184787495],[130.39544111531913,33.18333333333332],[130.3875,33.18333333333332],[130.3875,33.19166666666667],[130.4,33.19166666666668],[130.4,33.19138397300001],[130.397679248,33.189006802],[130.39880275,33.188149946],[130.398612503,33.187817225]]]}},{"type":"Feature","id":"40212:49306322","properties":{"id":"40212:49306322","meshCode":"49306322","cityCode":"40212","city":"大川市","lat":33.1915726,"lon":130.4001039,"areaKm2":0.0004548,"populated2020":true,"population2020":null,"populationNote":"境界またぎ・収録外等のため人口未集計"},"geometry":{"type":"Polygon","coordinates":[[[130.400025253,33.191407468],[130.4,33.19166666666668],[130.40031180263148,33.19166666666667],[130.400025253,33.191407468]]]}},{"type":"Feature","id":"40212:49306237","properties":{"id":"40212:49306237","meshCode":"49306237","cityCode":"40212","city":"大川市","lat":33.1958905,"lon":130.3449174,"areaKm2":0.8754448,"populated2020":true,"population2020":391.2151,"populationNote":"収録500mメッシュ人口の合算（原典収録外は補完しない）"},"geometry":{"type":"Polygon","coordinates":[[[130.34038116707984,33.19166666666667],[130.340014163,33.193660559],[130.339464501,33.2],[130.35000000000002,33.199999999999996],[130.35000000000002,33.19166666666667],[130.34038116707984,33.19166666666667]]]}},{"type":"Feature","id":"40212:49306238","properties":{"id":"40212:49306238","meshCode":"49306238","cityCode":"40212","city":"大川市","lat":33.1958333,"lon":130.35625,"areaKm2":1.0771454,"populated2020":true,"population2020":813.2402,"populationNote":"収録500mメッシュ人口の合算（原典収録外は補完しない）"},"geometry":{"type":"Polygon","coordinates":[[[130.3625,33.19166666666667],[130.35000000000002,33.19166666666667],[130.35000000000002,33.199999999999996],[130.3625,33.2],[130.3625,33.19166666666667]]]}},{"type":"Feature","id":"40212:49306239","properties":{"id":"40212:49306239","meshCode":"49306239","cityCode":"40212","city":"大川市","lat":33.1958333,"lon":130.36875,"areaKm2":1.0771418,"populated2020":true,"population2020":1696.4953,"populationNote":"収録500mメッシュ人口の合算（原典収録外は補完しない）"},"geometry":{"type":"Polygon","coordinates":[[[130.375,33.19166666666668],[130.3625,33.19166666666667],[130.3625,33.2],[130.375,33.199999999999996],[130.375,33.19166666666668]]]}},{"type":"Feature","id":"40212:49306330","properties":{"id":"40212:49306330","meshCode":"49306330","cityCode":"40212","city":"大川市","lat":33.1958333,"lon":130.38125,"areaKm2":1.0771382,"populated2020":true,"population2020":1953.9602,"populationNote":"収録500mメッシュ人口の合算（原典収録外は補完しない）"},"geometry":{"type":"Polygon","coordinates":[[[130.3875,33.19166666666667],[130.375,33.19166666666668],[130.375,33.199999999999996],[130.3875,33.2],[130.3875,33.19166666666667]]]}},{"type":"Feature","id":"40212:49306331","properties":{"id":"40212:49306331","meshCode":"49306331","cityCode":"40212","city":"大川市","lat":33.1958469,"lon":130.3937148,"areaKm2":1.0706899,"populated2020":true,"population2020":943.2551,"populationNote":"収録500mメッシュ人口の合算（原典収録外は補完しない）"},"geometry":{"type":"Polygon","coordinates":[[[130.4,33.194044440999996],[130.399571115,33.19401353200001],[130.399178249,33.193723495],[130.398955668,33.193390946],[130.4,33.193138279],[130.4,33.19166666666668],[130.3875,33.19166666666667],[130.3875,33.2],[130.4,33.2],[130.4,33.194044440999996]]]}},{"type":"Feature","id":"40212:49306332","properties":{"id":"40212:49306332","meshCode":"49306332","cityCode":"40212","city":"大川市","lat":33.1969052,"lon":130.4061764,"areaKm2":0.7931998,"populated2020":true,"population2020":null,"populationNote":"境界またぎ・収録外等のため人口未集計"},"geometry":{"type":"MultiPolygon","coordinates":[[[[130.400819248,33.19295127899999],[130.401592866,33.19285366700001],[130.40031180263148,33.19166666666667],[130.4,33.19166666666668],[130.4,33.193138279],[130.400570078,33.193088135],[130.400819248,33.19295127899999]]],[[[130.4125,33.193960695537776],[130.411534721,33.19388472100001],[130.410911115,33.193913054],[130.41077,33.193687495],[130.410597497,33.193673613],[130.409252218,33.19405582900001],[130.406668327,33.19405472100001],[130.406207782,33.193880829],[130.405747497,33.19385749500001],[130.403355279,33.193956667],[130.402294617,33.194068586],[130.401874643,33.19400925200001],[130.40082847,33.194098468],[130.4,33.194044440999996],[130.4,33.2],[130.4125,33.199999999999996],[130.4125,33.193960695537776]]]]}},{"type":"Feature","id":"40212:49306333","properties":{"id":"40212:49306333","meshCode":"49306333","cityCode":"40212","city":"大川市","lat":33.1970723,"lon":130.4169043,"areaKm2":0.556024,"populated2020":true,"population2020":null,"populationNote":"境界またぎ・収録外等のため人口未集計"},"geometry":{"type":"Polygon","coordinates":[[[130.417917224,33.193814162],[130.415730558,33.193591387],[130.415373333,33.193721667],[130.414342218,33.193889162000005],[130.4125,33.193960695537776],[130.4125,33.199999999999996],[130.42105869,33.2],[130.4209962,33.19980163999999],[130.422193891,33.199748054000004],[130.42184153,33.19850874800001],[130.422453476,33.198332613],[130.421925227,33.197438775],[130.421878145,33.197174586],[130.421512049,33.197227414000004],[130.420330272,33.194857495],[130.420343061,33.19451082900001],[130.417917224,33.193814162]]]}},{"type":"Feature","id":"40212:49306247","properties":{"id":"40212:49306247","meshCode":"49306247","cityCode":"40212","city":"大川市","lat":33.2039879,"lon":130.3449662,"areaKm2":0.8606976,"populated2020":true,"population2020":591.4843,"populationNote":"収録500mメッシュ人口の合算（原典収録外は補完しない）"},"geometry":{"type":"Polygon","coordinates":[[[130.339464501,33.2],[130.339386939,33.202739721],[130.339467224,33.203732225],[130.33970221800004,33.205017225],[130.339872776,33.205468613],[130.34062917000003,33.206623613],[130.341002503,33.20704555900001],[130.342035837,33.207892225],[130.3428016087412,33.20833333333334],[130.35000000000002,33.20833333333334],[130.35000000000002,33.199999999999996],[130.339464501,33.2]]]}},{"type":"Feature","id":"40212:49306248","properties":{"id":"40212:49306248","meshCode":"49306248","cityCode":"40212","city":"大川市","lat":33.2041667,"lon":130.35625,"areaKm2":1.0770449,"populated2020":true,"population2020":533.8307,"populationNote":"収録500mメッシュ人口の合算（原典収録外は補完しない）"},"geometry":{"type":"Polygon","coordinates":[[[130.3625,33.2],[130.35000000000002,33.199999999999996],[130.35000000000002,33.20833333333334],[130.3625,33.20833333333334],[130.3625,33.2]]]}},{"type":"Feature","id":"40212:49306249","properties":{"id":"40212:49306249","meshCode":"49306249","cityCode":"40212","city":"大川市","lat":33.2041667,"lon":130.36875,"areaKm2":1.0770412,"populated2020":true,"population2020":2776.5458,"populationNote":"収録500mメッシュ人口の合算（原典収録外は補完しない）"},"geometry":{"type":"Polygon","coordinates":[[[130.375,33.199999999999996],[130.3625,33.2],[130.3625,33.20833333333334],[130.375,33.20833333333334],[130.375,33.199999999999996]]]}},{"type":"Feature","id":"40212:49306340","properties":{"id":"40212:49306340","meshCode":"49306340","cityCode":"40212","city":"大川市","lat":33.2041667,"lon":130.38125,"areaKm2":1.0770376,"populated2020":true,"population2020":3050.2011,"populationNote":"収録500mメッシュ人口の合算（原典収録外は補完しない）"},"geometry":{"type":"Polygon","coordinates":[[[130.3875,33.2],[130.375,33.199999999999996],[130.375,33.20833333333334],[130.3875,33.208333333333336],[130.3875,33.2]]]}},{"type":"Feature","id":"40212:49306341","properties":{"id":"40212:49306341","meshCode":"49306341","cityCode":"40212","city":"大川市","lat":33.2041667,"lon":130.39375,"areaKm2":1.077034,"populated2020":true,"population2020":966.5119,"populationNote":"収録500mメッシュ人口の合算（原典収録外は補完しない）"},"geometry":{"type":"Polygon","coordinates":[[[130.4,33.2],[130.3875,33.2],[130.3875,33.208333333333336],[130.4,33.208333333333336],[130.4,33.2]]]}},{"type":"Feature","id":"40212:49306342","properties":{"id":"40212:49306342","meshCode":"49306342","cityCode":"40212","city":"大川市","lat":33.2041667,"lon":130.40625,"areaKm2":1.0770305,"populated2020":true,"population2020":756.0357,"populationNote":"収録500mメッシュ人口の合算（原典収録外は補完しない）"},"geometry":{"type":"Polygon","coordinates":[[[130.4125,33.199999999999996],[130.4,33.2],[130.4,33.208333333333336],[130.4125,33.20833333333334],[130.4125,33.199999999999996]]]}},{"type":"Feature","id":"40212:49306343","properties":{"id":"40212:49306343","meshCode":"49306343","cityCode":"40212","city":"大川市","lat":33.203688,"lon":130.4160395,"areaKm2":0.5385455,"populated2020":true,"population2020":null,"populationNote":"境界またぎ・収録外等のため人口未集計"},"geometry":{"type":"Polygon","coordinates":[[[130.419523891,33.201937494999996],[130.419648612,33.202176945999994],[130.419894838,33.202118162],[130.419953061,33.20196264000001],[130.419804449,33.201463333],[130.41996917,33.20126],[130.420128327,33.201246667],[130.42022277600003,33.201595829000006],[130.420400272,33.201559720999995],[130.420341997,33.201114387],[130.42095022,33.201052694],[130.421018444,33.201226414000004],[130.421382892,33.201211027],[130.421421141,33.200999468000006],[130.421283022,33.201014865],[130.421236446,33.20084816200001],[130.421364553,33.200828586],[130.42105869,33.2],[130.4125,33.199999999999996],[130.4125,33.20833333333334],[130.42075408604313,33.20833333333334],[130.420620558,33.207693613],[130.419548327,33.20776],[130.419284721,33.207008892],[130.41632166,33.20773472100001],[130.416078327,33.207229162],[130.413709728,33.207934162],[130.413558054,33.207568613],[130.41437011700003,33.207300613],[130.41429022,33.20694619799999],[130.414483256,33.206880332999994],[130.414408366,33.206747252],[130.414679637,33.20660853200001],[130.414591414,33.206392775],[130.41525083,33.206220829],[130.415448327,33.20623749500001],[130.41674978000003,33.20576513500001],[130.420304449,33.204910559],[130.420089442,33.20427777500001],[130.419525279,33.204407775],[130.419293333,33.203940829],[130.419064163,33.203880559],[130.418754916,33.203198225],[130.419087224,33.20304082900001],[130.418895279,33.202415],[130.418638885,33.202493054],[130.418532776,33.202209161999996],[130.419523891,33.201937494999996]]]}},{"type":"Feature","id":"40212:49306257","properties":{"id":"40212:49306257","meshCode":"49306257","cityCode":"40212","city":"大川市","lat":33.2086506,"lon":130.3467761,"areaKm2":0.0435348,"populated2020":false,"population2020":null,"populationNote":"境界またぎ・収録外等のため人口未集計"},"geometry":{"type":"Polygon","coordinates":[[[130.343709442,33.208708613],[130.34498083,33.208976387],[130.34659333300002,33.209065829],[130.35000000000002,33.20891822499999],[130.35000000000002,33.20833333333334],[130.3428016087412,33.20833333333334],[130.343709442,33.208708613]]]}},{"type":"Feature","id":"40212:49306258","properties":{"id":"40212:49306258","meshCode":"49306258","cityCode":"40212","city":"大川市","lat":33.2104367,"lon":130.3591977,"areaKm2":0.3027116,"populated2020":true,"population2020":66.5319,"populationNote":"収録500mメッシュ人口の合算（原典収録外は補完しない）"},"geometry":{"type":"Polygon","coordinates":[[[130.352123333,33.20884027900001],[130.35502917,33.209231108000004],[130.355956109,33.209544721],[130.357691115,33.21048861300001],[130.35860166,33.211183613],[130.359033061,33.21162194600001],[130.36143083,33.214605],[130.362058612,33.215202774999995],[130.3625,33.2154220046439],[130.3625,33.20833333333334],[130.35000000000002,33.20833333333334],[130.35000000000002,33.20891822499999],[130.352123333,33.20884027900001]]]}},{"type":"Feature","id":"40212:49306259","properties":{"id":"40212:49306259","meshCode":"49306259","cityCode":"40212","city":"大川市","lat":33.2124288,"lon":130.3688485,"areaKm2":1.0569213,"populated2020":true,"population2020":2284.8503,"populationNote":"収録500mメッシュ人口の合算（原典収録外は補完しない）"},"geometry":{"type":"Polygon","coordinates":[[[130.375,33.20833333333334],[130.3625,33.20833333333334],[130.3625,33.2154220046439],[130.365022776,33.216395279],[130.36555442248226,33.21666666666667],[130.375,33.21666666666667],[130.375,33.20833333333334]]]}},{"type":"Feature","id":"40212:49306350","properties":{"id":"40212:49306350","meshCode":"49306350","cityCode":"40212","city":"大川市","lat":33.2125,"lon":130.38125,"areaKm2":1.0769369,"populated2020":true,"population2020":2060.9762,"populationNote":"収録500mメッシュ人口の合算（原典収録外は補完しない）"},"geometry":{"type":"Polygon","coordinates":[[[130.3875,33.208333333333336],[130.375,33.20833333333334],[130.375,33.21666666666667],[130.3875,33.216666666666676],[130.3875,33.208333333333336]]]}},{"type":"Feature","id":"40212:49306351","properties":{"id":"40212:49306351","meshCode":"49306351","cityCode":"40212","city":"大川市","lat":33.2125,"lon":130.39375,"areaKm2":1.0769334,"populated2020":true,"population2020":984.5142,"populationNote":"収録500mメッシュ人口の合算（原典収録外は補完しない）"},"geometry":{"type":"Polygon","coordinates":[[[130.4,33.208333333333336],[130.3875,33.208333333333336],[130.3875,33.216666666666676],[130.4,33.216666666666676],[130.4,33.208333333333336]]]}},{"type":"Feature","id":"40212:49306352","properties":{"id":"40212:49306352","meshCode":"49306352","cityCode":"40212","city":"大川市","lat":33.2125,"lon":130.40625,"areaKm2":1.07693,"populated2020":true,"population2020":1121.787,"populationNote":"収録500mメッシュ人口の合算（原典収録外は補完しない）"},"geometry":{"type":"Polygon","coordinates":[[[130.4125,33.20833333333334],[130.4,33.208333333333336],[130.4,33.216666666666676],[130.4125,33.21666666666667],[130.4125,33.20833333333334]]]}},{"type":"Feature","id":"40212:49306353","properties":{"id":"40212:49306353","meshCode":"49306353","cityCode":"40212","city":"大川市","lat":33.2124918,"lon":130.4164372,"areaKm2":0.6738562,"populated2020":true,"population2020":null,"populationNote":"境界またぎ・収録外等のため人口未集計"},"geometry":{"type":"Polygon","coordinates":[[[130.419705486,33.213011306],[130.419194397,33.211801811],[130.419174397,33.21149401800001],[130.420766628,33.21114483800001],[130.420843878,33.209484495],[130.42075408604313,33.20833333333334],[130.4125,33.20833333333334],[130.4125,33.21666666666667],[130.42199935087243,33.216666666666676],[130.421904825,33.216409495],[130.42102489,33.216392387],[130.420929883,33.215989486],[130.420720726,33.215986982],[130.420435733,33.215367234],[130.420561842,33.215314449999994],[130.420129351,33.214493586],[130.419860195,33.21373077500001],[130.419526316,33.21328436900001],[130.419705486,33.213011306]]]}},{"type":"Feature","id":"40212:49306269","properties":{"id":"40212:49306269","meshCode":"49306269","cityCode":"40212","city":"大川市","lat":33.2177462,"lon":130.3715886,"areaKm2":0.1707397,"populated2020":true,"population2020":155.6939,"populationNote":"収録500mメッシュ人口の合算（原典収録外は補完しない）"},"geometry":{"type":"Polygon","coordinates":[[[130.36555442248226,33.21666666666667],[130.367381946,33.217550278999994],[130.372681388,33.21925972100001],[130.375,33.219625414],[130.375,33.21666666666667],[130.36555442248226,33.21666666666667]]]}},{"type":"Feature","id":"40212:49306360","properties":{"id":"40212:49306360","meshCode":"49306360","cityCode":"40212","city":"大川市","lat":33.2204533,"lon":130.3821716,"areaKm2":0.8922489,"populated2020":true,"population2020":609.8128,"populationNote":"収録500mメッシュ人口の合算（原典収録外は補完しない）"},"geometry":{"type":"Polygon","coordinates":[[[130.376537211,33.22005279300001],[130.377756939,33.22069808999999],[130.378090817,33.22097588300001],[130.378385824,33.221305613],[130.378835253,33.22215035100001],[130.378936926,33.223453422999995],[130.378917315,33.22500000000001],[130.3875,33.225],[130.3875,33.216666666666676],[130.375,33.21666666666667],[130.375,33.219625414],[130.376537211,33.22005279300001]]]}},{"type":"Feature","id":"40212:49306361","properties":{"id":"40212:49306361","meshCode":"49306361","cityCode":"40212","city":"大川市","lat":33.2208333,"lon":130.39375,"areaKm2":1.0768328,"populated2020":true,"population2020":506.7756,"populationNote":"収録500mメッシュ人口の合算（原典収録外は補完しない）"},"geometry":{"type":"Polygon","coordinates":[[[130.4,33.216666666666676],[130.3875,33.216666666666676],[130.3875,33.225],[130.4,33.225],[130.4,33.216666666666676]]]}},{"type":"Feature","id":"40212:49306362","properties":{"id":"40212:49306362","meshCode":"49306362","cityCode":"40212","city":"大川市","lat":33.2208316,"lon":130.4062474,"areaKm2":1.076372,"populated2020":true,"population2020":669.5388,"populationNote":"収録500mメッシュ人口の合算（原典収録外は補完しない）"},"geometry":{"type":"Polygon","coordinates":[[[130.4125,33.21666666666667],[130.4,33.216666666666676],[130.4,33.225],[130.412368677,33.225],[130.412394604,33.22463118900001],[130.4125,33.22461981743108],[130.4125,33.21666666666667]]]}},{"type":"Feature","id":"40212:49306363","properties":{"id":"40212:49306363","meshCode":"49306363","cityCode":"40212","city":"大川市","lat":33.2195534,"lon":130.4171747,"areaKm2":0.5923068,"populated2020":true,"population2020":null,"populationNote":"境界またぎ・収録外等のため人口未集計"},"geometry":{"type":"Polygon","coordinates":[[[130.41302904,33.223294243],[130.423438482,33.22051867599999],[130.422892931,33.218457287999996],[130.42303904,33.21826728799999],[130.422971816,33.217998955],[130.422807095,33.21765590099999],[130.422412101,33.21774256799999],[130.42199935087243,33.216666666666676],[130.4125,33.21666666666667],[130.4125,33.22461981743108],[130.41356959800004,33.22442840499999],[130.413764877,33.22415591],[130.413753489,33.223881459],[130.412967652,33.223504793000004],[130.41302904,33.223294243]]]}},{"type":"Feature","id":"40212:49306370","properties":{"id":"40212:49306370","meshCode":"49306370","cityCode":"40212","city":"大川市","lat":33.2294847,"lon":130.382536,"areaKm2":0.8367114,"populated2020":true,"population2020":771.0028,"populationNote":"収録500mメッシュ人口の合算（原典収録外は補完しない）"},"geometry":{"type":"Polygon","coordinates":[[[130.378917315,33.22500000000001],[130.378854955,33.226989892],[130.379048262,33.22917884699999],[130.376306316,33.23129778399999],[130.375653243,33.23232059499999],[130.375,33.23268349500001],[130.375,33.233333333333334],[130.3875,33.233333333333334],[130.3875,33.225],[130.378917315,33.22500000000001]]]}},{"type":"Feature","id":"40212:49306371","properties":{"id":"40212:49306371","meshCode":"49306371","cityCode":"40212","city":"大川市","lat":33.2289137,"lon":130.3934214,"areaKm2":0.9998718,"populated2020":true,"population2020":1145.2092,"populationNote":"収録500mメッシュ人口の合算（原典収録外は補完しない）"},"geometry":{"type":"Polygon","coordinates":[[[130.4,33.225],[130.3875,33.225],[130.3875,33.233333333333334],[130.39473291801198,33.233333333333334],[130.395457964,33.23324688300001],[130.395389715,33.232269856],[130.395730156,33.232230081],[130.395724994,33.23211341399999],[130.396949079,33.23202608100001],[130.396932348,33.23188836],[130.399217652,33.231737856],[130.399141829,33.230762027],[130.4,33.23071588300001],[130.4,33.225]]]}},{"type":"Feature","id":"40212:49306372","properties":{"id":"40212:49306372","meshCode":"49306372","cityCode":"40212","city":"大川市","lat":33.2281812,"lon":130.4068191,"areaKm2":0.7859189,"populated2020":true,"population2020":null,"populationNote":"境界またぎ・収録外等のため人口未集計"},"geometry":{"type":"Polygon","coordinates":[[[130.4125,33.226393701974814],[130.41217904,33.226305630999995],[130.412135979,33.22604785600001],[130.412094047,33.225412018],[130.41211487700002,33.225337856],[130.41237404700001,33.225245351],[130.412368677,33.225],[130.4,33.225],[130.4,33.23071588300001],[130.401243761,33.230648964000004],[130.401229598,33.229734242999996],[130.402100441,33.229700631],[130.40284655,33.229793414],[130.403972101,33.229608414],[130.404015149,33.22996674800001],[130.405557095,33.229920080999996],[130.405620156,33.23098591000001],[130.406954877,33.23096924299999],[130.407022088,33.23191618900001],[130.409916252,33.231857577],[130.409993476,33.232042856],[130.410013476,33.232661189],[130.410776809,33.23265257700001],[130.410785422,33.23248646799999],[130.411805136,33.232479523],[130.4118869260123,33.233333333333334],[130.4125,33.233333333333334],[130.4125,33.226393701974814]]]}},{"type":"Feature","id":"40212:49306373","properties":{"id":"40212:49306373","meshCode":"49306373","cityCode":"40212","city":"大川市","lat":33.2302385,"lon":130.4135536,"areaKm2":0.1379495,"populated2020":true,"population2020":null,"populationNote":"境界またぎ・収録外等のため人口未集計"},"geometry":{"type":"Polygon","coordinates":[[[130.41427987,33.228475072],[130.4152007,33.227908404999994],[130.414980143,33.22738618900001],[130.414573476,33.227446459],[130.414461816,33.227253685],[130.414372918,33.227253685],[130.413178482,33.227443964],[130.41315987,33.227069802],[130.413536537,33.226974523],[130.413473476,33.226697856],[130.413124034,33.226762856],[130.413023761,33.226630351000004],[130.41256987,33.22652091],[130.4125,33.226393701974814],[130.4125,33.233333333333334],[130.4149185600123,33.233333333333334],[130.414899857,33.232435072],[130.414745136,33.232420631],[130.414696524,33.23075757699999],[130.414372918,33.23072868500001],[130.41427987,33.228475072]]]}},{"type":"Feature","id":"40212:49306279","properties":{"id":"40212:49306279","meshCode":"49306279","cityCode":"40212","city":"大川市","lat":33.2331159,"lon":130.3741032,"areaKm2":0.0087111,"populated2020":false,"population2020":null,"populationNote":"境界またぎ・収録外等のため人口未集計"},"geometry":{"type":"Polygon","coordinates":[[[130.374999909,33.232683550000004],[130.374632412,33.232860883],[130.373163256,33.233015018],[130.3729119967539,33.233333333333334],[130.375,33.233333333333334],[130.374999909,33.232683550000004]]]}},{"type":"Feature","id":"40212:49306289","properties":{"id":"40212:49306289","meshCode":"49306289","cityCode":"40212","city":"大川市","lat":33.2377078,"lon":130.3728488,"areaKm2":0.3503408,"populated2020":true,"population2020":695.0933,"populationNote":"収録500mメッシュ人口の合算（原典収録外は補完しない）"},"geometry":{"type":"Polygon","coordinates":[[[130.372882698,33.233373631000006],[130.37248048,33.23399973],[130.370647717,33.23608634200001],[130.370263268,33.23670272100001],[130.369836329,33.238080485999994],[130.369824656,33.23903299100001],[130.370129105,33.23976466700001],[130.370427432,33.240049395999996],[130.371640195,33.240878036],[130.37244906573002,33.24166666666667],[130.375,33.24166666666667],[130.375,33.233333333333334],[130.372882698,33.233373631000006]]]}},{"type":"Feature","id":"40212:49306380","properties":{"id":"40212:49306380","meshCode":"49306380","cityCode":"40212","city":"大川市","lat":33.2372135,"lon":130.3809505,"areaKm2":0.9943247,"populated2020":true,"population2020":1085.9281,"populationNote":"収録500mメッシュ人口の合算（原典収録外は補完しない）"},"geometry":{"type":"Polygon","coordinates":[[[130.3875,33.233333333333334],[130.375,33.233333333333334],[130.375,33.24166666666667],[130.3784689362541,33.24166666666666],[130.37868543500002,33.241465909999995],[130.382422387,33.241230081],[130.383056822,33.241002577],[130.385204604,33.240461189],[130.386610713,33.23956118900001],[130.3875,33.239233943871554],[130.3875,33.233333333333334]]]}},{"type":"Feature","id":"40212:49306381","properties":{"id":"40212:49306381","meshCode":"49306381","cityCode":"40212","city":"大川市","lat":33.2358216,"lon":130.3903572,"areaKm2":0.3179866,"populated2020":true,"population2020":null,"populationNote":"境界またぎ・収録外等のため人口未集計"},"geometry":{"type":"Polygon","coordinates":[[[130.394732931,33.233333694],[130.3875,33.233333333333334],[130.3875,33.239233943871554],[130.390970713,33.238602306],[130.391629598,33.238547027],[130.391539326,33.23801869399999],[130.391728482,33.238001748],[130.391576939,33.237076973],[130.393633982,33.236944189],[130.3934431,33.23412855],[130.394762659,33.234061189],[130.394732931,33.233333694]]]}},{"type":"Feature","id":"40212:49306382","properties":{"id":"40212:49306382","meshCode":"49306382","cityCode":"40212","city":"大川市","lat":33.2342404,"lon":130.4122197,"areaKm2":0.0108053,"populated2020":false,"population2020":null,"populationNote":"境界またぎ・収録外等のため人口未集計"},"geometry":{"type":"Polygon","coordinates":[[[130.411886939,33.233333685],[130.412004021,33.235209802],[130.4125,33.23519475971524],[130.4125,33.233333333333334],[130.411886939,33.233333685]]]}},{"type":"Feature","id":"40212:49306383","properties":{"id":"40212:49306383","meshCode":"49306383","cityCode":"40212","city":"大川市","lat":33.2342393,"lon":130.4137145,"areaKm2":0.0457647,"populated2020":false,"population2020":null,"populationNote":"境界またぎ・収録外等のため人口未集計"},"geometry":{"type":"Polygon","coordinates":[[[130.4125,33.23519475971524],[130.414981245,33.23504980199999],[130.4149185600123,33.233333333333334],[130.4125,33.233333333333334],[130.4125,33.23519475971524]]]}},{"type":"Feature","id":"40212:49306299","properties":{"id":"40212:49306299","meshCode":"49306299","cityCode":"40212","city":"大川市","lat":33.2429821,"lon":130.3740096,"areaKm2":0.057632,"populated2020":false,"population2020":null,"populationNote":"境界またぎ・収録外等のため人口未集計"},"geometry":{"type":"Polygon","coordinates":[[[130.372796291,33.242013072],[130.373296291,33.244264756999996],[130.37430406,33.244428396],[130.375,33.244736468],[130.375,33.24166666666667],[130.37244906573002,33.24166666666667],[130.372796291,33.242013072]]]}},{"type":"Feature","id":"40212:49306390","properties":{"id":"40212:49306390","meshCode":"49306390","cityCode":"40212","city":"大川市","lat":33.242909,"lon":130.3763484,"areaKm2":0.0761305,"populated2020":false,"population2020":null,"populationNote":"境界またぎ・収録外等のため人口未集計"},"geometry":{"type":"Polygon","coordinates":[[[130.375045992,33.244736468],[130.37611821,33.244412856],[130.377418495,33.243616189],[130.3784689362541,33.24166666666666],[130.375,33.24166666666667],[130.375045992,33.244736468]]]}}]}