{"type":"FeatureCollection","metadata":{"cityCode":"40219","city":"大野城市","resolution":500,"boundaryDate":"2026-01-01","populationLabel":"2020年基準人口（国交省調整値）","method":"標準地域メッシュを行政界で切抜き。中心が区域外のとき区域内代表点を判定点にする。人口不明をゼロにしない。"},"features":[{"type":"Feature","id":"40219:503013573","properties":{"id":"40219:503013573","meshCode":"503013573","cityCode":"40219","city":"大野城市","lat":33.4660108,"lon":130.4679167,"areaKm2":0.0235986,"populated2020":false,"population2020":null,"populationNote":"境界またぎ・原典収録外のため自治体内人口は未集計"},"geometry":{"type":"Polygon","coordinates":[[[130.46875,33.46529292989477],[130.466803333,33.466149162],[130.4654807003104,33.466666666666676],[130.46875,33.466666666666676],[130.46875,33.46529292989477]]]}},{"type":"Feature","id":"40219:503013574","properties":{"id":"40219:503013574","meshCode":"503013574","cityCode":"40219","city":"大野城市","lat":33.4645833,"lon":130.471875,"areaKm2":0.141447,"populated2020":false,"population2020":null,"populationNote":"境界またぎ・原典収録外のため自治体内人口は未集計"},"geometry":{"type":"Polygon","coordinates":[[[130.474566939,33.464611946],[130.474216667,33.46456389200001],[130.473823333,33.46400305400001],[130.473461388,33.46382],[130.472596939,33.464101666999994],[130.47146499400003,33.464173892],[130.470778612,33.464513333],[130.469948327,33.465068892000005],[130.46875,33.46529292989477],[130.46875,33.466666666666676],[130.475,33.46666666666667],[130.475,33.464570081],[130.474566939,33.464611946]]]}},{"type":"Feature","id":"40219:503013583","properties":{"id":"40219:503013583","meshCode":"503013583","cityCode":"40219","city":"大野城市","lat":33.4654722,"lon":130.4800527,"areaKm2":0.0872453,"populated2020":false,"population2020":null,"populationNote":"境界またぎ・原典収録外のため自治体内人口は未集計"},"geometry":{"type":"Polygon","coordinates":[[[130.480705279,33.464340279],[130.480498612,33.464383613],[130.480268612,33.464691667],[130.479858054,33.464823892000005],[130.47958832700002,33.464872225],[130.47930111500003,33.464790279000006],[130.479111388,33.464828892],[130.478918885,33.465384721],[130.478729442,33.465591387],[130.477962503,33.465834441],[130.477134994,33.46595972099999],[130.476672503,33.465918892],[130.475423061,33.465608333],[130.47529083000003,33.465425279],[130.475345551,33.464715279],[130.475288054,33.464609441],[130.475,33.464570081],[130.475,33.46666666666667],[130.48125,33.466666666666676],[130.48125,33.464447230639195],[130.480705279,33.464340279]]]}},{"type":"Feature","id":"40219:503013584","properties":{"id":"40219:503013584","meshCode":"503013584","cityCode":"40219","city":"大野城市","lat":33.4654954,"lon":130.4820305,"areaKm2":0.0371212,"populated2020":false,"population2020":null,"populationNote":"境界またぎ・原典収録外のため自治体内人口は未集計"},"geometry":{"type":"Polygon","coordinates":[[[130.48386647176113,33.466666666666676],[130.483161388,33.466075278999995],[130.48257527900003,33.465026107999996],[130.482184721,33.464626667000005],[130.481776667,33.464501387],[130.48125,33.464447230639195],[130.48125,33.466666666666676],[130.48386647176113,33.466666666666676]]]}},{"type":"Feature","id":"40219:503013661","properties":{"id":"40219:503013661","meshCode":"503013661","cityCode":"40219","city":"大野城市","lat":33.4706775,"lon":130.4559443,"areaKm2":0.0019818,"populated2020":false,"population2020":null,"populationNote":"境界またぎ・原典収録外のため自治体内人口は未集計"},"geometry":{"type":"Polygon","coordinates":[[[130.45625,33.470468151907454],[130.455690272,33.47062694600001],[130.45552524142866,33.47083333333333],[130.45625,33.47083333333333],[130.45625,33.470468151907454]]]}},{"type":"Feature","id":"40219:503013662","properties":{"id":"40219:503013662","meshCode":"503013662","cityCode":"40219","city":"大野城市","lat":33.4705965,"lon":130.4572787,"areaKm2":0.0168772,"populated2020":false,"population2020":null,"populationNote":"境界またぎ・原典収録外のため自治体内人口は未集計"},"geometry":{"type":"MultiPolygon","coordinates":[[[[130.462494721,33.469417225],[130.462374163,33.46959055899999],[130.462325279,33.470030829],[130.46218166,33.47018500000001],[130.461704721,33.470271387],[130.460989728,33.470697225],[130.46035405320995,33.47083333333333],[130.4625,33.47083333333333],[130.462494721,33.469417225]]],[[[130.45851500369636,33.470833333333324],[130.45810333300003,33.47041555900001],[130.457468327,33.47056694599999],[130.456443061,33.470444441],[130.45625,33.470468151907454],[130.45625,33.47083333333333],[130.45851500369636,33.470833333333324]]]]}},{"type":"Feature","id":"40219:503013671","properties":{"id":"40219:503013671","meshCode":"503013671","cityCode":"40219","city":"大野城市","lat":33.4686796,"lon":130.4672684,"areaKm2":0.1885504,"populated2020":false,"population2020":null,"populationNote":"境界またぎ・原典収録外のため自治体内人口は未集計"},"geometry":{"type":"Polygon","coordinates":[[[130.4654807,33.466666667000005],[130.465269442,33.467039441],[130.465154449,33.467795279],[130.46528083,33.467978054],[130.465763333,33.468286387],[130.465803606,33.469032495],[130.465619728,33.469494441],[130.465490558,33.46961722499999],[130.465208885,33.469626946],[130.463773061,33.469034721],[130.463416939,33.468933333],[130.463008885,33.46898638700001],[130.4625,33.46941148359098],[130.4625,33.47083333333333],[130.46875,33.47083333333333],[130.46875,33.466666666666676],[130.4654807,33.466666667000005]]]}},{"type":"Feature","id":"40219:503013672","properties":{"id":"40219:503013672","meshCode":"503013672","cityCode":"40219","city":"大野城市","lat":33.46875,"lon":130.471875,"areaKm2":0.2684519,"populated2020":false,"population2020":null,"populationNote":"境界またぎ・原典収録外のため自治体内人口は未集計"},"geometry":{"type":"Polygon","coordinates":[[[130.46875,33.466666666666676],[130.46875,33.47083333333333],[130.475,33.470833333333324],[130.475,33.46666666666667],[130.46875,33.466666666666676]]]}},{"type":"Feature","id":"40219:503013681","properties":{"id":"40219:503013681","meshCode":"503013681","cityCode":"40219","city":"大野城市","lat":33.46875,"lon":130.478125,"areaKm2":0.2684516,"populated2020":false,"population2020":null,"populationNote":"境界またぎ・原典収録外のため自治体内人口は未集計"},"geometry":{"type":"Polygon","coordinates":[[[130.475,33.46666666666667],[130.475,33.470833333333324],[130.48125,33.470833333333324],[130.48125,33.466666666666676],[130.475,33.46666666666667]]]}},{"type":"Feature","id":"40219:503013682","properties":{"id":"40219:503013682","meshCode":"503013682","cityCode":"40219","city":"大野城市","lat":33.46875,"lon":130.484375,"areaKm2":0.2353391,"populated2020":false,"population2020":null,"populationNote":"境界またぎ・原典収録外のため自治体内人口は未集計"},"geometry":{"type":"Polygon","coordinates":[[[130.487472776,33.46846527900001],[130.487016109,33.46804889199999],[130.486203061,33.467502495],[130.486007782,33.46744],[130.484511115,33.467355559],[130.484114994,33.467076387],[130.48386647176113,33.466666666666676],[130.48125,33.466666666666676],[130.48125,33.470833333333324],[130.4875,33.47083333333333],[130.487472776,33.46846527900001]]]}},{"type":"Feature","id":"40219:503013691","properties":{"id":"40219:503013691","meshCode":"503013691","cityCode":"40219","city":"大野城市","lat":33.4697324,"lon":130.4882065,"areaKm2":0.0322533,"populated2020":false,"population2020":null,"populationNote":"境界またぎ・原典収録外のため自治体内人口は未集計"},"geometry":{"type":"Polygon","coordinates":[[[130.490000272,33.470467775],[130.489276394,33.470246108000005],[130.488406109,33.469141387],[130.4875,33.46848427527268],[130.4875,33.47083333333333],[130.48964248632134,33.47083333333333],[130.490000272,33.470467775]]]}},{"type":"Feature","id":"40219:503013663","properties":{"id":"40219:503013663","meshCode":"503013663","cityCode":"40219","city":"大野城市","lat":33.4729685,"lon":130.4556831,"areaKm2":0.0535906,"populated2020":false,"population2020":null,"populationNote":"境界またぎ・原典収録外のため自治体内人口は未集計"},"geometry":{"type":"Polygon","coordinates":[[[130.454145279,33.474448613],[130.454156667,33.474655829],[130.454912218,33.474985559000004],[130.45625,33.47500000000001],[130.45625,33.47083333333333],[130.45552524142866,33.47083333333333],[130.455337224,33.471154162000005],[130.455615551,33.47203749500001],[130.45561,33.472249162],[130.45521083,33.472905829],[130.454596109,33.473180279],[130.454581946,33.474126108],[130.454145279,33.474448613]]]}},{"type":"Feature","id":"40219:503013664","properties":{"id":"40219:503013664","meshCode":"503013664","cityCode":"40219","city":"大野城市","lat":33.4729167,"lon":130.459375,"areaKm2":0.265177,"populated2020":false,"population2020":null,"populationNote":"境界またぎ・原典収録外のため自治体内人口は未集計"},"geometry":{"type":"Polygon","coordinates":[[[130.46035405320995,33.47083333333333],[130.45896194600002,33.471144721],[130.458657224,33.470995559],[130.45851500369636,33.470833333333324],[130.45625,33.47083333333333],[130.45625,33.47500000000001],[130.4625,33.475],[130.4625,33.47083333333333],[130.46035405320995,33.47083333333333]]]}},{"type":"Feature","id":"40219:503013673","properties":{"id":"40219:503013673","meshCode":"503013673","cityCode":"40219","city":"大野城市","lat":33.4729167,"lon":130.465625,"areaKm2":0.2684396,"populated2020":false,"population2020":null,"populationNote":"境界またぎ・原典収録外のため自治体内人口は未集計"},"geometry":{"type":"Polygon","coordinates":[[[130.4625,33.47083333333333],[130.4625,33.475],[130.46875,33.47500000000001],[130.46875,33.47083333333333],[130.4625,33.47083333333333]]]}},{"type":"Feature","id":"40219:503013674","properties":{"id":"40219:503013674","meshCode":"503013674","cityCode":"40219","city":"大野城市","lat":33.4729167,"lon":130.471875,"areaKm2":0.2684393,"populated2020":false,"population2020":null,"populationNote":"境界またぎ・原典収録外のため自治体内人口は未集計"},"geometry":{"type":"Polygon","coordinates":[[[130.46875,33.47083333333333],[130.46875,33.47500000000001],[130.475,33.475],[130.475,33.470833333333324],[130.46875,33.47083333333333]]]}},{"type":"Feature","id":"40219:503013683","properties":{"id":"40219:503013683","meshCode":"503013683","cityCode":"40219","city":"大野城市","lat":33.4729167,"lon":130.478125,"areaKm2":0.2684389,"populated2020":false,"population2020":null,"populationNote":"境界またぎ・原典収録外のため自治体内人口は未集計"},"geometry":{"type":"Polygon","coordinates":[[[130.475,33.470833333333324],[130.475,33.475],[130.48125,33.475],[130.48125,33.470833333333324],[130.475,33.470833333333324]]]}},{"type":"Feature","id":"40219:503013684","properties":{"id":"40219:503013684","meshCode":"503013684","cityCode":"40219","city":"大野城市","lat":33.4729167,"lon":130.484375,"areaKm2":0.2684385,"populated2020":false,"population2020":null,"populationNote":"境界またぎ・原典収録外のため自治体内人口は未集計"},"geometry":{"type":"Polygon","coordinates":[[[130.48125,33.470833333333324],[130.48125,33.475],[130.4875,33.475],[130.4875,33.47083333333333],[130.48125,33.470833333333324]]]}},{"type":"Feature","id":"40219:503013693","properties":{"id":"40219:503013693","meshCode":"503013693","cityCode":"40219","city":"大野城市","lat":33.4729632,"lon":130.4880219,"areaKm2":0.0398132,"populated2020":false,"population2020":null,"populationNote":"境界またぎ・原典収録外のため自治体内人口は未集計"},"geometry":{"type":"Polygon","coordinates":[[[130.488024643,33.47500000000001],[130.48821917,33.473971387000006],[130.488566939,33.473040279],[130.48841166,33.472688891999994],[130.488023891,33.472238892],[130.488023891,33.471983613],[130.48834,33.47164666700001],[130.489066667,33.471331387],[130.48964248632134,33.47083333333333],[130.4875,33.47083333333333],[130.4875,33.475],[130.488024643,33.47500000000001]]]}},{"type":"Feature","id":"40219:503013761","properties":{"id":"40219:503013761","meshCode":"503013761","cityCode":"40219","city":"大野城市","lat":33.4770456,"lon":130.4561858,"areaKm2":0.026944,"populated2020":false,"population2020":null,"populationNote":"境界またぎ・原典収録外のため自治体内人口は未集計"},"geometry":{"type":"Polygon","coordinates":[[[130.454973502,33.47500000000001],[130.455417782,33.475149162],[130.456127224,33.475825279],[130.456144449,33.477],[130.455724994,33.477355829000004],[130.455458054,33.478061108000006],[130.45529138800003,33.478287225],[130.45426789481016,33.47916666666666],[130.45625,33.479166666666664],[130.45625,33.47500000000001],[130.454973502,33.47500000000001]]]}},{"type":"Feature","id":"40219:503013762","properties":{"id":"40219:503013762","meshCode":"503013762","cityCode":"40219","city":"大野城市","lat":33.4770833,"lon":130.459375,"areaKm2":0.2684274,"populated2020":false,"population2020":null,"populationNote":"境界またぎ・原典収録外のため自治体内人口は未集計"},"geometry":{"type":"Polygon","coordinates":[[[130.45625,33.47500000000001],[130.45625,33.479166666666664],[130.4625,33.479166666666664],[130.4625,33.475],[130.45625,33.47500000000001]]]}},{"type":"Feature","id":"40219:503013771","properties":{"id":"40219:503013771","meshCode":"503013771","cityCode":"40219","city":"大野城市","lat":33.4770833,"lon":130.465625,"areaKm2":0.268427,"populated2020":false,"population2020":null,"populationNote":"境界またぎ・原典収録外のため自治体内人口は未集計"},"geometry":{"type":"Polygon","coordinates":[[[130.4625,33.475],[130.4625,33.479166666666664],[130.46875,33.479166666666664],[130.46875,33.47500000000001],[130.4625,33.475]]]}},{"type":"Feature","id":"40219:503013772","properties":{"id":"40219:503013772","meshCode":"503013772","cityCode":"40219","city":"大野城市","lat":33.4770833,"lon":130.471875,"areaKm2":0.2684266,"populated2020":false,"population2020":null,"populationNote":"境界またぎ・原典収録外のため自治体内人口は未集計"},"geometry":{"type":"Polygon","coordinates":[[[130.46875,33.47500000000001],[130.46875,33.479166666666664],[130.475,33.479166666666664],[130.475,33.475],[130.46875,33.47500000000001]]]}},{"type":"Feature","id":"40219:503013781","properties":{"id":"40219:503013781","meshCode":"503013781","cityCode":"40219","city":"大野城市","lat":33.4770833,"lon":130.478125,"areaKm2":0.2684262,"populated2020":false,"population2020":null,"populationNote":"境界またぎ・原典収録外のため自治体内人口は未集計"},"geometry":{"type":"Polygon","coordinates":[[[130.475,33.475],[130.475,33.479166666666664],[130.48125,33.479166666666664],[130.48125,33.475],[130.475,33.475]]]}},{"type":"Feature","id":"40219:503013782","properties":{"id":"40219:503013782","meshCode":"503013782","cityCode":"40219","city":"大野城市","lat":33.4770833,"lon":130.484375,"areaKm2":0.2474918,"populated2020":false,"population2020":null,"populationNote":"境界またぎ・原典収録外のため自治体内人口は未集計"},"geometry":{"type":"Polygon","coordinates":[[[130.48711179075923,33.479166666666664],[130.487001388,33.478688613],[130.486481388,33.478204721],[130.486418327,33.47799777499999],[130.486800272,33.477311667],[130.487090272,33.47640944100001],[130.4875,33.47572511214158],[130.4875,33.475],[130.48125,33.475],[130.48125,33.479166666666664],[130.48711179075923,33.479166666666664]]]}},{"type":"Feature","id":"40219:503013791","properties":{"id":"40219:503013791","meshCode":"503013791","cityCode":"40219","city":"大野城市","lat":33.475519,"lon":130.4875839,"areaKm2":0.0021127,"populated2020":false,"population2020":null,"populationNote":"境界またぎ・原典収録外のため自治体内人口は未集計"},"geometry":{"type":"Polygon","coordinates":[[[130.4875,33.47572511214158],[130.487808612,33.475355279000006],[130.488024643,33.47500000000001],[130.4875,33.475],[130.4875,33.47572511214158]]]}},{"type":"Feature","id":"40219:503013763","properties":{"id":"40219:503013763","meshCode":"503013763","cityCode":"40219","city":"大野城市","lat":33.4812315,"lon":130.454779,"areaKm2":0.122179,"populated2020":false,"population2020":null,"populationNote":"境界またぎ・原典収録外のため自治体内人口は未集計"},"geometry":{"type":"Polygon","coordinates":[[[130.45426789481016,33.47916666666666],[130.453628327,33.480007775],[130.453418612,33.481102775],[130.45297917,33.481740559],[130.453004994,33.48232527900001],[130.453438885,33.48311249499999],[130.45338732787943,33.483333333333334],[130.45625,33.48333333333334],[130.45625,33.479166666666664],[130.45426789481016,33.47916666666666]]]}},{"type":"Feature","id":"40219:503013764","properties":{"id":"40219:503013764","meshCode":"503013764","cityCode":"40219","city":"大野城市","lat":33.48125,"lon":130.459375,"areaKm2":0.2684147,"populated2020":false,"population2020":null,"populationNote":"境界またぎ・原典収録外のため自治体内人口は未集計"},"geometry":{"type":"Polygon","coordinates":[[[130.45625,33.479166666666664],[130.45625,33.48333333333334],[130.4625,33.483333333333334],[130.4625,33.479166666666664],[130.45625,33.479166666666664]]]}},{"type":"Feature","id":"40219:503013773","properties":{"id":"40219:503013773","meshCode":"503013773","cityCode":"40219","city":"大野城市","lat":33.48125,"lon":130.465625,"areaKm2":0.2684143,"populated2020":false,"population2020":null,"populationNote":"境界またぎ・原典収録外のため自治体内人口は未集計"},"geometry":{"type":"Polygon","coordinates":[[[130.4625,33.479166666666664],[130.4625,33.483333333333334],[130.46875,33.483333333333334],[130.46875,33.479166666666664],[130.4625,33.479166666666664]]]}},{"type":"Feature","id":"40219:503013774","properties":{"id":"40219:503013774","meshCode":"503013774","cityCode":"40219","city":"大野城市","lat":33.48125,"lon":130.471875,"areaKm2":0.2684139,"populated2020":false,"population2020":null,"populationNote":"境界またぎ・原典収録外のため自治体内人口は未集計"},"geometry":{"type":"Polygon","coordinates":[[[130.46875,33.479166666666664],[130.46875,33.483333333333334],[130.475,33.48333333333334],[130.475,33.479166666666664],[130.46875,33.479166666666664]]]}},{"type":"Feature","id":"40219:503013783","properties":{"id":"40219:503013783","meshCode":"503013783","cityCode":"40219","city":"大野城市","lat":33.48125,"lon":130.478125,"areaKm2":0.2684136,"populated2020":true,"population2020":8.1182,"populationNote":"2020年基準の国交省調整値"},"geometry":{"type":"Polygon","coordinates":[[[130.475,33.479166666666664],[130.475,33.48333333333334],[130.48125,33.483333333333334],[130.48125,33.479166666666664],[130.475,33.479166666666664]]]}},{"type":"Feature","id":"40219:503013784","properties":{"id":"40219:503013784","meshCode":"503013784","cityCode":"40219","city":"大野城市","lat":33.48125,"lon":130.484375,"areaKm2":0.2235486,"populated2020":false,"population2020":null,"populationNote":"境界またぎ・原典収録外のため自治体内人口は未集計"},"geometry":{"type":"Polygon","coordinates":[[[130.486751284,33.48333333299999],[130.486179728,33.482750559],[130.485783333,33.481561946],[130.485869442,33.481369441000005],[130.486228612,33.48115027899999],[130.486573333,33.480616108],[130.486989728,33.480214162],[130.48711179075923,33.479166666666664],[130.48125,33.479166666666664],[130.48125,33.483333333333334],[130.486751284,33.48333333299999]]]}},{"type":"Feature","id":"40219:503013861","properties":{"id":"40219:503013861","meshCode":"503013861","cityCode":"40219","city":"大野城市","lat":33.4854167,"lon":130.453125,"areaKm2":0.1510627,"populated2020":false,"population2020":null,"populationNote":"境界またぎ・原典収録外のため自治体内人口は未集計"},"geometry":{"type":"Polygon","coordinates":[[[130.45312,33.484072495],[130.45292166,33.485292775000005],[130.452338885,33.48545361299999],[130.452201115,33.485660559],[130.452307224,33.486563054],[130.452548612,33.487078333],[130.45290104034154,33.4875],[130.45625,33.487500000000004],[130.45625,33.48333333333334],[130.45338732787943,33.483333333333334],[130.45312,33.484072495]]]}},{"type":"Feature","id":"40219:503013862","properties":{"id":"40219:503013862","meshCode":"503013862","cityCode":"40219","city":"大野城市","lat":33.4854167,"lon":130.459375,"areaKm2":0.268402,"populated2020":false,"population2020":null,"populationNote":"境界またぎ・原典収録外のため自治体内人口は未集計"},"geometry":{"type":"Polygon","coordinates":[[[130.45625,33.48333333333334],[130.45625,33.487500000000004],[130.4625,33.4875],[130.4625,33.483333333333334],[130.45625,33.48333333333334]]]}},{"type":"Feature","id":"40219:503013871","properties":{"id":"40219:503013871","meshCode":"503013871","cityCode":"40219","city":"大野城市","lat":33.4854167,"lon":130.465625,"areaKm2":0.2684016,"populated2020":false,"population2020":null,"populationNote":"境界またぎ・原典収録外のため自治体内人口は未集計"},"geometry":{"type":"Polygon","coordinates":[[[130.4625,33.483333333333334],[130.4625,33.4875],[130.46875,33.4875],[130.46875,33.483333333333334],[130.4625,33.483333333333334]]]}},{"type":"Feature","id":"40219:503013872","properties":{"id":"40219:503013872","meshCode":"503013872","cityCode":"40219","city":"大野城市","lat":33.4854167,"lon":130.471875,"areaKm2":0.2684013,"populated2020":false,"population2020":null,"populationNote":"境界またぎ・原典収録外のため自治体内人口は未集計"},"geometry":{"type":"Polygon","coordinates":[[[130.46875,33.483333333333334],[130.46875,33.4875],[130.475,33.487500000000004],[130.475,33.48333333333334],[130.46875,33.483333333333334]]]}},{"type":"Feature","id":"40219:503013881","properties":{"id":"40219:503013881","meshCode":"503013881","cityCode":"40219","city":"大野城市","lat":33.4854167,"lon":130.478125,"areaKm2":0.2684009,"populated2020":false,"population2020":null,"populationNote":"境界またぎ・原典収録外のため自治体内人口は未集計"},"geometry":{"type":"Polygon","coordinates":[[[130.475,33.48333333333334],[130.475,33.487500000000004],[130.48125,33.4875],[130.48125,33.483333333333334],[130.475,33.48333333333334]]]}},{"type":"Feature","id":"40219:503013882","properties":{"id":"40219:503013882","meshCode":"503013882","cityCode":"40219","city":"大野城市","lat":33.4854167,"lon":130.484375,"areaKm2":0.2039688,"populated2020":false,"population2020":null,"populationNote":"境界またぎ・原典収録外のため自治体内人口は未集計"},"geometry":{"type":"Polygon","coordinates":[[[130.48471025827348,33.48749999999999],[130.485068054,33.486844162000004],[130.48600166,33.485975559],[130.486768612,33.483489440999996],[130.4867512841188,33.48333333333334],[130.48125,33.483333333333334],[130.48125,33.4875],[130.48471025827348,33.48749999999999]]]}},{"type":"Feature","id":"40219:503013863","properties":{"id":"40219:503013863","meshCode":"503013863","cityCode":"40219","city":"大野城市","lat":33.4895028,"lon":130.4547819,"areaKm2":0.1450457,"populated2020":false,"population2020":null,"populationNote":"境界またぎ・原典収録外のため自治体内人口は未集計"},"geometry":{"type":"Polygon","coordinates":[[[130.452924721,33.487528333],[130.45341,33.48846444099999],[130.453450272,33.488719721],[130.45322917,33.4898],[130.452904721,33.490250278999994],[130.452634721,33.490861387],[130.452462503,33.49091916199999],[130.451853606,33.49089],[130.451635279,33.491005559],[130.45153791200548,33.49166666666667],[130.45625,33.49166666666667],[130.45625,33.487500000000004],[130.452924721,33.487528333]]]}},{"type":"Feature","id":"40219:503013864","properties":{"id":"40219:503013864","meshCode":"503013864","cityCode":"40219","city":"大野城市","lat":33.4895833,"lon":130.459375,"areaKm2":0.2683893,"populated2020":false,"population2020":null,"populationNote":"境界またぎ・原典収録外のため自治体内人口は未集計"},"geometry":{"type":"Polygon","coordinates":[[[130.45625,33.487500000000004],[130.45625,33.49166666666667],[130.4625,33.49166666666667],[130.4625,33.4875],[130.45625,33.487500000000004]]]}},{"type":"Feature","id":"40219:503013873","properties":{"id":"40219:503013873","meshCode":"503013873","cityCode":"40219","city":"大野城市","lat":33.4895833,"lon":130.465625,"areaKm2":0.268389,"populated2020":true,"population2020":30.5074,"populationNote":"2020年基準の国交省調整値"},"geometry":{"type":"Polygon","coordinates":[[[130.4625,33.4875],[130.4625,33.49166666666667],[130.46875,33.491666666666674],[130.46875,33.4875],[130.4625,33.4875]]]}},{"type":"Feature","id":"40219:503013874","properties":{"id":"40219:503013874","meshCode":"503013874","cityCode":"40219","city":"大野城市","lat":33.4895833,"lon":130.471875,"areaKm2":0.2683886,"populated2020":false,"population2020":null,"populationNote":"境界またぎ・原典収録外のため自治体内人口は未集計"},"geometry":{"type":"Polygon","coordinates":[[[130.46875,33.4875],[130.46875,33.491666666666674],[130.475,33.491666666666674],[130.475,33.487500000000004],[130.46875,33.4875]]]}},{"type":"Feature","id":"40219:503013883","properties":{"id":"40219:503013883","meshCode":"503013883","cityCode":"40219","city":"大野城市","lat":33.4895833,"lon":130.478125,"areaKm2":0.2683882,"populated2020":true,"population2020":794.3069,"populationNote":"2020年基準の国交省調整値"},"geometry":{"type":"Polygon","coordinates":[[[130.475,33.487500000000004],[130.475,33.491666666666674],[130.48125,33.491666666666674],[130.48125,33.4875],[130.475,33.487500000000004]]]}},{"type":"Feature","id":"40219:503013884","properties":{"id":"40219:503013884","meshCode":"503013884","cityCode":"40219","city":"大野城市","lat":33.4894456,"lon":130.4826521,"areaKm2":0.1104574,"populated2020":true,"population2020":563.9918,"populationNote":"2020年基準の国交省調整値"},"geometry":{"type":"Polygon","coordinates":[[[130.48349044090037,33.49166666666667],[130.483120558,33.490814721],[130.483123333,33.490336108],[130.483318885,33.490129162],[130.48390194600003,33.48977527900001],[130.484120272,33.489274721],[130.484373061,33.487970559000004],[130.48471025827348,33.48749999999999],[130.48125,33.4875],[130.48125,33.491666666666674],[130.48349044090037,33.49166666666667]]]}},{"type":"Feature","id":"40219:503013961","properties":{"id":"40219:503013961","meshCode":"503013961","cityCode":"40219","city":"大野城市","lat":33.49375,"lon":130.453125,"areaKm2":0.2190582,"populated2020":false,"population2020":null,"populationNote":"境界またぎ・原典収録外のため自治体内人口は未集計"},"geometry":{"type":"Polygon","coordinates":[[[130.451537912,33.491666667],[130.45151166,33.492004441],[130.451186939,33.49239666700001],[130.451072218,33.492743333],[130.451109442,33.49322694599999],[130.45126166,33.493729720999994],[130.451267497,33.494235279],[130.45075083,33.49510666700001],[130.450894449,33.495424162],[130.45131398358006,33.49583333333333],[130.45625,33.49583333333333],[130.45625,33.49166666666667],[130.451537912,33.491666667]]]}},{"type":"Feature","id":"40219:503013962","properties":{"id":"40219:503013962","meshCode":"503013962","cityCode":"40219","city":"大野城市","lat":33.49375,"lon":130.459375,"areaKm2":0.2683767,"populated2020":true,"population2020":18.2173,"populationNote":"2020年基準の国交省調整値"},"geometry":{"type":"Polygon","coordinates":[[[130.45625,33.49166666666667],[130.45625,33.49583333333333],[130.4625,33.49583333333333],[130.4625,33.49166666666667],[130.45625,33.49166666666667]]]}},{"type":"Feature","id":"40219:503013971","properties":{"id":"40219:503013971","meshCode":"503013971","cityCode":"40219","city":"大野城市","lat":33.49375,"lon":130.465625,"areaKm2":0.2683763,"populated2020":true,"population2020":1670.0045,"populationNote":"2020年基準の国交省調整値"},"geometry":{"type":"Polygon","coordinates":[[[130.4625,33.49166666666667],[130.4625,33.49583333333333],[130.46875,33.49583333333333],[130.46875,33.491666666666674],[130.4625,33.49166666666667]]]}},{"type":"Feature","id":"40219:503013972","properties":{"id":"40219:503013972","meshCode":"503013972","cityCode":"40219","city":"大野城市","lat":33.49375,"lon":130.471875,"areaKm2":0.2683759,"populated2020":true,"population2020":342.9796,"populationNote":"2020年基準の国交省調整値"},"geometry":{"type":"Polygon","coordinates":[[[130.46875,33.491666666666674],[130.46875,33.49583333333333],[130.475,33.49583333333333],[130.475,33.491666666666674],[130.46875,33.491666666666674]]]}},{"type":"Feature","id":"40219:503013981","properties":{"id":"40219:503013981","meshCode":"503013981","cityCode":"40219","city":"大野城市","lat":33.49375,"lon":130.478125,"areaKm2":0.2683755,"populated2020":true,"population2020":981.1148,"populationNote":"2020年基準の国交省調整値"},"geometry":{"type":"Polygon","coordinates":[[[130.475,33.491666666666674],[130.475,33.49583333333333],[130.48125,33.49583333333333],[130.48125,33.491666666666674],[130.475,33.491666666666674]]]}},{"type":"Feature","id":"40219:503013982","properties":{"id":"40219:503013982","meshCode":"503013982","cityCode":"40219","city":"大野城市","lat":33.4936774,"lon":130.4825121,"areaKm2":0.108019,"populated2020":true,"population2020":null,"populationNote":"境界またぎ・原典収録外のため自治体内人口は未集計"},"geometry":{"type":"Polygon","coordinates":[[[130.483924994,33.49583333333334],[130.483766939,33.495230829],[130.484036939,33.494893892],[130.483907782,33.494188892],[130.483775551,33.493895279],[130.48349044090037,33.49166666666667],[130.48125,33.491666666666674],[130.48125,33.49583333333333],[130.483924994,33.49583333333334]]]}},{"type":"Feature","id":"40219:503013963","properties":{"id":"40219:503013963","meshCode":"503013963","cityCode":"40219","city":"大野城市","lat":33.4979167,"lon":130.453125,"areaKm2":0.2225102,"populated2020":true,"population2020":1078.5906,"populationNote":"2020年基準の国交省調整値"},"geometry":{"type":"Polygon","coordinates":[[[130.451500272,33.495999441],[130.451635279,33.49636249499999],[130.451560558,33.496694721000004],[130.450882776,33.49772],[130.450822503,33.498208613],[130.450336939,33.498802775],[130.450736394,33.499358892],[130.45147,33.499815000000005],[130.451634423,33.5],[130.45625,33.5],[130.45625,33.49583333333333],[130.45131398358006,33.49583333333333],[130.451500272,33.495999441]]]}},{"type":"Feature","id":"40219:503013964","properties":{"id":"40219:503013964","meshCode":"503013964","cityCode":"40219","city":"大野城市","lat":33.4979167,"lon":130.459375,"areaKm2":0.268364,"populated2020":true,"population2020":1111.4364,"populationNote":"2020年基準の国交省調整値"},"geometry":{"type":"Polygon","coordinates":[[[130.45625,33.49583333333333],[130.45625,33.5],[130.4625,33.5],[130.4625,33.49583333333333],[130.45625,33.49583333333333]]]}},{"type":"Feature","id":"40219:503013973","properties":{"id":"40219:503013973","meshCode":"503013973","cityCode":"40219","city":"大野城市","lat":33.4979167,"lon":130.465625,"areaKm2":0.2683636,"populated2020":true,"population2020":956.9246,"populationNote":"2020年基準の国交省調整値"},"geometry":{"type":"Polygon","coordinates":[[[130.4625,33.49583333333333],[130.4625,33.5],[130.46875,33.5],[130.46875,33.49583333333333],[130.4625,33.49583333333333]]]}},{"type":"Feature","id":"40219:503013974","properties":{"id":"40219:503013974","meshCode":"503013974","cityCode":"40219","city":"大野城市","lat":33.4979167,"lon":130.471875,"areaKm2":0.2683632,"populated2020":true,"population2020":1027.2709,"populationNote":"2020年基準の国交省調整値"},"geometry":{"type":"Polygon","coordinates":[[[130.46875,33.49583333333333],[130.46875,33.5],[130.475,33.49999999999999],[130.475,33.49583333333333],[130.46875,33.49583333333333]]]}},{"type":"Feature","id":"40219:503013983","properties":{"id":"40219:503013983","meshCode":"503013983","cityCode":"40219","city":"大野城市","lat":33.4979167,"lon":130.478125,"areaKm2":0.2683629,"populated2020":true,"population2020":1596.879,"populationNote":"2020年基準の国交省調整値"},"geometry":{"type":"Polygon","coordinates":[[[130.475,33.49583333333333],[130.475,33.49999999999999],[130.48125,33.5],[130.48125,33.49583333333333],[130.475,33.49583333333333]]]}},{"type":"Feature","id":"40219:503013984","properties":{"id":"40219:503013984","meshCode":"503013984","cityCode":"40219","city":"大野城市","lat":33.4978072,"lon":130.4826542,"areaKm2":0.1284378,"populated2020":true,"population2020":null,"populationNote":"境界またぎ・原典収録外のため自治体内人口は未集計"},"geometry":{"type":"Polygon","coordinates":[[[130.484413333,33.499637224999994],[130.484467782,33.49873],[130.484114449,33.49815972100001],[130.484042776,33.497647225],[130.484048327,33.49743527900001],[130.484332776,33.496836108],[130.484321388,33.496754162],[130.484125837,33.496662775],[130.483924994,33.49583333333334],[130.48125,33.49583333333333],[130.48125,33.5],[130.484768418,33.50000000000001],[130.484413333,33.499637224999994]]]}},{"type":"Feature","id":"40219:503023061","properties":{"id":"40219:503023061","meshCode":"503023061","cityCode":"40219","city":"大野城市","lat":33.5010281,"lon":130.4529202,"areaKm2":0.0569863,"populated2020":true,"population2020":null,"populationNote":"境界またぎ・原典収録外のため自治体内人口は未集計"},"geometry":{"type":"Polygon","coordinates":[[[130.451634423,33.5],[130.451933891,33.50085582900001],[130.452620558,33.501700559],[130.452741115,33.501758333],[130.453039728,33.501801667],[130.45334416300003,33.501686108],[130.453539442,33.50121],[130.453740558,33.501036666999994],[130.455403606,33.500745279],[130.455558612,33.501149721],[130.455808327,33.501306107999994],[130.455897497,33.50177082900001],[130.45625,33.5020660343105],[130.45625,33.5],[130.451634423,33.5]]]}},{"type":"Feature","id":"40219:503023062","properties":{"id":"40219:503023062","meshCode":"503023062","cityCode":"40219","city":"大野城市","lat":33.5020833,"lon":130.459375,"areaKm2":0.2080937,"populated2020":true,"population2020":null,"populationNote":"境界またぎ・原典収録外のため自治体内人口は未集計"},"geometry":{"type":"Polygon","coordinates":[[[130.456813891,33.502471108],[130.457408327,33.502714162],[130.458108885,33.502848892],[130.459051115,33.502685279000005],[130.45928083,33.502718892000004],[130.459604527,33.502925865],[130.460356083,33.50292513499999],[130.46035345,33.503022946],[130.460272218,33.503021972999996],[130.460269027,33.504025865],[130.460031946,33.50402808100001],[130.46020161825336,33.50416666666667],[130.4625,33.50416666666668],[130.4625,33.5],[130.45625,33.5],[130.45625,33.5020660343105],[130.456813891,33.502471108]]]}},{"type":"Feature","id":"40219:503023071","properties":{"id":"40219:503023071","meshCode":"503023071","cityCode":"40219","city":"大野城市","lat":33.5020833,"lon":130.465625,"areaKm2":0.2683509,"populated2020":true,"population2020":1424.3542,"populationNote":"2020年基準の国交省調整値"},"geometry":{"type":"Polygon","coordinates":[[[130.4625,33.5],[130.4625,33.50416666666668],[130.46875,33.50416666666667],[130.46875,33.5],[130.4625,33.5]]]}},{"type":"Feature","id":"40219:503023072","properties":{"id":"40219:503023072","meshCode":"503023072","cityCode":"40219","city":"大野城市","lat":33.5020833,"lon":130.471875,"areaKm2":0.2683506,"populated2020":true,"population2020":1344.1232,"populationNote":"2020年基準の国交省調整値"},"geometry":{"type":"Polygon","coordinates":[[[130.46875,33.5],[130.46875,33.50416666666667],[130.475,33.50416666666667],[130.475,33.49999999999999],[130.46875,33.5]]]}},{"type":"Feature","id":"40219:503023081","properties":{"id":"40219:503023081","meshCode":"503023081","cityCode":"40219","city":"大野城市","lat":33.5020833,"lon":130.478125,"areaKm2":0.2683502,"populated2020":true,"population2020":1524.2068,"populationNote":"2020年基準の国交省調整値"},"geometry":{"type":"Polygon","coordinates":[[[130.475,33.49999999999999],[130.475,33.50416666666667],[130.48125,33.50416666666666],[130.48125,33.5],[130.475,33.49999999999999]]]}},{"type":"Feature","id":"40219:503023082","properties":{"id":"40219:503023082","meshCode":"503023082","cityCode":"40219","city":"大野城市","lat":33.5020833,"lon":130.484375,"areaKm2":0.2431177,"populated2020":true,"population2020":1646.3124,"populationNote":"2020年基準の国交省調整値"},"geometry":{"type":"Polygon","coordinates":[[[130.487325551,33.502751387],[130.487095837,33.501885],[130.487242218,33.501276108000006],[130.48648693900003,33.50053249500001],[130.48582917,33.500896108],[130.484768418,33.50000000000001],[130.48125,33.5],[130.48125,33.50416666666666],[130.4875,33.50416666666667],[130.4875,33.50296877745356],[130.487325551,33.502751387]]]}},{"type":"Feature","id":"40219:503023091","properties":{"id":"40219:503023091","meshCode":"503023091","cityCode":"40219","city":"大野城市","lat":33.5035578,"lon":130.4877178,"areaKm2":0.0085062,"populated2020":true,"population2020":null,"populationNote":"境界またぎ・原典収録外のため自治体内人口は未集計"},"geometry":{"type":"Polygon","coordinates":[[[130.48910272203923,33.50416666666667],[130.488628327,33.50366972100001],[130.488382218,33.503766667],[130.488101946,33.50370194600001],[130.4875,33.50296877745356],[130.4875,33.50416666666667],[130.48910272203923,33.50416666666667]]]}},{"type":"Feature","id":"40219:503023064","properties":{"id":"40219:503023064","meshCode":"503023064","cityCode":"40219","city":"大野城市","lat":33.5050655,"lon":130.4623439,"areaKm2":0.0186534,"populated2020":true,"population2020":null,"populationNote":"境界またぎ・原典収録外のため自治体内人口は未集計"},"geometry":{"type":"Polygon","coordinates":[[[130.46020161825336,33.50416666666667],[130.460604306,33.504589333],[130.460842918,33.505020386999995],[130.461507082,33.504792135],[130.461862776,33.504781946],[130.462105551,33.504933892],[130.462199728,33.505110559],[130.462078885,33.505932495],[130.462219728,33.50602555900001],[130.4625,33.506016671965334],[130.4625,33.50416666666668],[130.46020161825336,33.50416666666667]]]}},{"type":"Feature","id":"40219:503023073","properties":{"id":"40219:503023073","meshCode":"503023073","cityCode":"40219","city":"大野城市","lat":33.50625,"lon":130.465625,"areaKm2":0.2058603,"populated2020":true,"population2020":null,"populationNote":"境界またぎ・原典収録外のため自治体内人口は未集計"},"geometry":{"type":"Polygon","coordinates":[[[130.4625,33.506016671965334],[130.463253891,33.506388054],[130.464096939,33.50693944099999],[130.465084449,33.50713694600001],[130.46624,33.507688892],[130.467272776,33.507931946],[130.46789263315824,33.50833333333334],[130.46875,33.50833333333333],[130.46875,33.50416666666667],[130.4625,33.50416666666668],[130.4625,33.506016671965334]]]}},{"type":"Feature","id":"40219:503023074","properties":{"id":"40219:503023074","meshCode":"503023074","cityCode":"40219","city":"大野城市","lat":33.50625,"lon":130.471875,"areaKm2":0.2683379,"populated2020":true,"population2020":1623.6576,"populationNote":"2020年基準の国交省調整値"},"geometry":{"type":"Polygon","coordinates":[[[130.46875,33.50416666666667],[130.46875,33.50833333333333],[130.475,33.50833333333334],[130.475,33.50416666666667],[130.46875,33.50416666666667]]]}},{"type":"Feature","id":"40219:503023083","properties":{"id":"40219:503023083","meshCode":"503023083","cityCode":"40219","city":"大野城市","lat":33.50625,"lon":130.478125,"areaKm2":0.2683375,"populated2020":true,"population2020":1378.0605,"populationNote":"2020年基準の国交省調整値"},"geometry":{"type":"Polygon","coordinates":[[[130.475,33.50416666666667],[130.475,33.50833333333334],[130.48125,33.50833333333333],[130.48125,33.50416666666666],[130.475,33.50416666666667]]]}},{"type":"Feature","id":"40219:503023084","properties":{"id":"40219:503023084","meshCode":"503023084","cityCode":"40219","city":"大野城市","lat":33.50625,"lon":130.484375,"areaKm2":0.2680139,"populated2020":true,"population2020":1861.8726,"populationNote":"2020年基準の国交省調整値"},"geometry":{"type":"Polygon","coordinates":[[[130.487238366,33.508333333],[130.4875,33.50809364878144],[130.4875,33.50416666666667],[130.48125,33.50416666666666],[130.48125,33.50833333333333],[130.487238366,33.508333333]]]}},{"type":"Feature","id":"40219:503023093","properties":{"id":"40219:503023093","meshCode":"503023093","cityCode":"40219","city":"大野城市","lat":33.5061928,"lon":130.4877578,"areaKm2":0.0353817,"populated2020":true,"population2020":null,"populationNote":"境界またぎ・原典収録外のため自治体内人口は未集計"},"geometry":{"type":"Polygon","coordinates":[[[130.4875,33.50809364878144],[130.488167782,33.507273613],[130.488005837,33.506959441],[130.488047782,33.506687774999996],[130.487955551,33.506427495],[130.488107497,33.505508053999996],[130.488261388,33.50543972100001],[130.488871946,33.505445279],[130.488854163,33.505243892],[130.48918722400003,33.505009162],[130.489311946,33.504718612999994],[130.489279442,33.504404721],[130.48910272203923,33.50416666666667],[130.4875,33.50416666666667],[130.4875,33.50809364878144]]]}},{"type":"Feature","id":"40219:503023171","properties":{"id":"40219:503023171","meshCode":"503023171","cityCode":"40219","city":"大野城市","lat":33.5090379,"lon":130.4686673,"areaKm2":0.0032982,"populated2020":true,"population2020":null,"populationNote":"境界またぎ・原典収録外のため自治体内人口は未集計"},"geometry":{"type":"Polygon","coordinates":[[[130.467944994,33.508443613],[130.468536109,33.50864666700001],[130.468652503,33.509416667],[130.46875,33.5094824640165],[130.46875,33.50833333333333],[130.46789263315824,33.50833333333334],[130.467944994,33.508443613]]]}},{"type":"Feature","id":"40219:503023172","properties":{"id":"40219:503023172","meshCode":"503023172","cityCode":"40219","city":"大野城市","lat":33.5092607,"lon":130.4717465,"areaKm2":0.084451,"populated2020":true,"population2020":null,"populationNote":"境界またぎ・原典収録外のため自治体内人口は未集計"},"geometry":{"type":"MultiPolygon","coordinates":[[[[130.468924163,33.5096],[130.469078054,33.509598054],[130.469225551,33.510006387000004],[130.470136394,33.510243613],[130.470487497,33.509921667],[130.472039442,33.509414721],[130.472317782,33.50937861300001],[130.47283917,33.509473333],[130.473276394,33.509333054],[130.47349917,33.509336667],[130.474551388,33.509545],[130.475,33.508763559],[130.475,33.50833333333334],[130.46875,33.50833333333333],[130.46875,33.5094824640165],[130.468924163,33.5096]]],[[[130.475,33.51187138700001],[130.474748003,33.512188162],[130.47466582505734,33.5125],[130.475,33.512499999999996],[130.475,33.51187138700001]]]]}},{"type":"Feature","id":"40219:503023181","properties":{"id":"40219:503023181","meshCode":"503023181","cityCode":"40219","city":"大野城市","lat":33.5104167,"lon":130.478125,"areaKm2":0.215618,"populated2020":true,"population2020":null,"populationNote":"境界またぎ・原典収録外のため自治体内人口は未集計"},"geometry":{"type":"Polygon","coordinates":[[[130.475006394,33.508751667000006],[130.47508083,33.508648892000004],[130.475484163,33.508697225000006],[130.475794994,33.508889162],[130.475851946,33.509176667000006],[130.475942503,33.50925472099999],[130.476671388,33.509106387],[130.4767662,33.50922002699999],[130.476962438,33.509095306],[130.477118301,33.51043169399999],[130.477029754,33.510744892],[130.476260947,33.511814666999996],[130.475466472,33.511376829],[130.475,33.51187138700001],[130.475,33.512499999999996],[130.48125,33.5125],[130.48125,33.50833333333333],[130.475,33.50833333333334],[130.475006394,33.508751667000006]]]}},{"type":"Feature","id":"40219:503023182","properties":{"id":"40219:503023182","meshCode":"503023182","cityCode":"40219","city":"大野城市","lat":33.5104167,"lon":130.484375,"areaKm2":0.2230786,"populated2020":true,"population2020":1589.0625,"populationNote":"2020年基準の国交省調整値"},"geometry":{"type":"Polygon","coordinates":[[[130.486387497,33.512241667000005],[130.485881946,33.512106946],[130.486051946,33.51154027900001],[130.486311803,33.511073892],[130.485973256,33.510479775],[130.486034163,33.510284999999996],[130.486361388,33.50989],[130.486827497,33.509536387],[130.487112776,33.50897249500001],[130.487171115,33.508395],[130.4872383656365,33.50833333333333],[130.48125,33.50833333333333],[130.48125,33.5125],[130.48628192530362,33.5125],[130.486387497,33.512241667000005]]]}},{"type":"Feature","id":"40219:503023174","properties":{"id":"40219:503023174","meshCode":"503023174","cityCode":"40219","city":"大野城市","lat":33.5128548,"lon":130.4748695,"areaKm2":0.0017763,"populated2020":true,"population2020":null,"populationNote":"境界またぎ・原典収録外のため自治体内人口は未集計"},"geometry":{"type":"MultiPolygon","coordinates":[[[[130.47466582505734,33.5125],[130.474785642,33.512954135],[130.475,33.51319555900001],[130.475,33.512499999999996],[130.47466582505734,33.5125]]],[[[130.474887108,33.51547780200001],[130.475,33.515594162],[130.475,33.515378721],[130.474887108,33.51547780200001]]]]}},{"type":"Feature","id":"40219:503023183","properties":{"id":"40219:503023183","meshCode":"503023183","cityCode":"40219","city":"大野城市","lat":33.5145833,"lon":130.478125,"areaKm2":0.2580249,"populated2020":true,"population2020":604.3578,"populationNote":"2020年基準の国交省調整値"},"geometry":{"type":"Polygon","coordinates":[[[130.475,33.51319555900001],[130.475577419,33.51387963999999],[130.475345772,33.513970027],[130.475551388,33.514329027],[130.47523642,33.51466510800002],[130.475189001,33.515206279],[130.475,33.515378721],[130.475,33.515594162],[130.47547166,33.516285532],[130.475450921,33.516533972999994],[130.47576136122012,33.516666666666666],[130.48125,33.51666666666667],[130.48125,33.5125],[130.475,33.512499999999996],[130.475,33.51319555900001]]]}},{"type":"Feature","id":"40219:503023184","properties":{"id":"40219:503023184","meshCode":"503023184","cityCode":"40219","city":"大野城市","lat":33.5145833,"lon":130.484375,"areaKm2":0.2509474,"populated2020":true,"population2020":2226.9787,"populationNote":"2020年基準の国交省調整値"},"geometry":{"type":"Polygon","coordinates":[[[130.4875,33.5141191489118],[130.486683061,33.513758613],[130.486193061,33.51333472100001],[130.486166939,33.512856387],[130.48628192530362,33.5125],[130.48125,33.5125],[130.48125,33.51666666666667],[130.4875,33.516666666666666],[130.4875,33.5141191489118]]]}},{"type":"Feature","id":"40219:503023193","properties":{"id":"40219:503023193","meshCode":"503023193","cityCode":"40219","city":"大野城市","lat":33.5153708,"lon":130.4878857,"areaKm2":0.0344941,"populated2020":true,"population2020":null,"populationNote":"境界またぎ・原典収録外のため自治体内人口は未集計"},"geometry":{"type":"Polygon","coordinates":[[[130.49081302151154,33.51666666666666],[130.489490272,33.515832225],[130.488954163,33.515745],[130.488392218,33.515528613],[130.488023061,33.514758333],[130.4875,33.5141191489118],[130.4875,33.516666666666666],[130.49081302151154,33.51666666666666]]]}},{"type":"Feature","id":"40219:503023281","properties":{"id":"40219:503023281","meshCode":"503023281","cityCode":"40219","city":"大野城市","lat":33.51875,"lon":130.478125,"areaKm2":0.1737221,"populated2020":true,"population2020":null,"populationNote":"境界またぎ・原典収録外のため自治体内人口は未集計"},"geometry":{"type":"Polygon","coordinates":[[[130.475761362,33.51666666700001],[130.476461388,33.517102495],[130.476948612,33.517563892],[130.47720610900004,33.518073613000006],[130.477248327,33.51872916199999],[130.477609442,33.518968333000004],[130.477895837,33.519315829],[130.477944449,33.519855829],[130.476929442,33.520531108],[130.4771341187755,33.520833333333336],[130.48125,33.520833333333336],[130.48125,33.51666666666667],[130.475761362,33.51666666700001]]]}},{"type":"Feature","id":"40219:503023282","properties":{"id":"40219:503023282","meshCode":"503023282","cityCode":"40219","city":"大野城市","lat":33.51875,"lon":130.484375,"areaKm2":0.2682991,"populated2020":true,"population2020":3271.2438,"populationNote":"2020年基準の国交省調整値"},"geometry":{"type":"Polygon","coordinates":[[[130.48125,33.51666666666667],[130.48125,33.520833333333336],[130.4875,33.52083333333334],[130.4875,33.516666666666666],[130.48125,33.51666666666667]]]}},{"type":"Feature","id":"40219:503023291","properties":{"id":"40219:503023291","meshCode":"503023291","cityCode":"40219","city":"大野城市","lat":33.51875,"lon":130.490625,"areaKm2":0.2376017,"populated2020":true,"population2020":2318.5134,"populationNote":"2020年基準の国交省調整値"},"geometry":{"type":"Polygon","coordinates":[[[130.49375,33.51868085299154],[130.49081302151154,33.51666666666666],[130.4875,33.516666666666666],[130.4875,33.52083333333334],[130.49375,33.52083333333334],[130.49375,33.51868085299154]]]}},{"type":"Feature","id":"40219:503023292","properties":{"id":"40219:503023292","meshCode":"503023292","cityCode":"40219","city":"大野城市","lat":33.5197219,"lon":130.4942761,"areaKm2":0.0156445,"populated2020":true,"population2020":null,"populationNote":"境界またぎ・原典収録外のため自治体内人口は未集計"},"geometry":{"type":"Polygon","coordinates":[[[130.49429976648742,33.520833333333336],[130.494813606,33.519678892],[130.494603061,33.519411108],[130.49375,33.51868085299154],[130.49375,33.52083333333334],[130.49429976648742,33.520833333333336]]]}},{"type":"Feature","id":"40219:503023283","properties":{"id":"40219:503023283","meshCode":"503023283","cityCode":"40219","city":"大野城市","lat":33.5229167,"lon":130.478125,"areaKm2":0.1432184,"populated2020":true,"population2020":936.0834,"populationNote":"2020年基準の国交省調整値"},"geometry":{"type":"Polygon","coordinates":[[[130.4771341187755,33.520833333333336],[130.477581946,33.521424162],[130.47720917,33.522060829],[130.477863606,33.522640829],[130.477993061,33.522868892],[130.477972218,33.52316694600001],[130.477658054,33.523636108],[130.478240272,33.52390249500001],[130.478884721,33.524367775],[130.478936394,33.524605],[130.478737782,33.524855829],[130.478721284,33.525000000000006],[130.48125,33.52499999999999],[130.48125,33.520833333333336],[130.4771341187755,33.520833333333336]]]}},{"type":"Feature","id":"40219:503023284","properties":{"id":"40219:503023284","meshCode":"503023284","cityCode":"40219","city":"大野城市","lat":33.5229167,"lon":130.484375,"areaKm2":0.2682864,"populated2020":true,"population2020":3575.641,"populationNote":"2020年基準の国交省調整値"},"geometry":{"type":"Polygon","coordinates":[[[130.48125,33.520833333333336],[130.48125,33.52499999999999],[130.4875,33.525000000000006],[130.4875,33.52083333333334],[130.48125,33.520833333333336]]]}},{"type":"Feature","id":"40219:503023293","properties":{"id":"40219:503023293","meshCode":"503023293","cityCode":"40219","city":"大野城市","lat":33.5229167,"lon":130.490625,"areaKm2":0.2384648,"populated2020":true,"population2020":3484.108,"populationNote":"2020年基準の国交省調整値"},"geometry":{"type":"Polygon","coordinates":[[[130.492058223,33.525],[130.492674163,33.524030558999996],[130.493259728,33.522147225],[130.49375,33.52175997775836],[130.49375,33.52083333333334],[130.4875,33.52083333333334],[130.4875,33.525000000000006],[130.492058223,33.525]]]}},{"type":"Feature","id":"40219:503023294","properties":{"id":"40219:503023294","meshCode":"503023294","cityCode":"40219","city":"大野城市","lat":33.5213631,"lon":130.4939033,"areaKm2":0.0031268,"populated2020":true,"population2020":null,"populationNote":"境界またぎ・原典収録外のため自治体内人口は未集計"},"geometry":{"type":"Polygon","coordinates":[[[130.493895551,33.521660279],[130.49412221800003,33.521231108],[130.49429976648742,33.520833333333336],[130.49375,33.52083333333334],[130.49375,33.52175997775836],[130.493895551,33.521660279]]]}},{"type":"Feature","id":"40219:503023381","properties":{"id":"40219:503023381","meshCode":"503023381","cityCode":"40219","city":"大野城市","lat":33.527066,"lon":130.480197,"areaKm2":0.1078168,"populated2020":true,"population2020":null,"populationNote":"境界またぎ・原典収録外のため自治体内人口は未集計"},"geometry":{"type":"Polygon","coordinates":[[[130.478700558,33.52518055899999],[130.478580558,33.525325],[130.479144163,33.525641108],[130.47878166,33.526064441],[130.478666667,33.526341667000004],[130.479367497,33.526838054],[130.479116667,33.527107775],[130.479092503,33.527342225],[130.478814163,33.527973333],[130.47764490040123,33.52916666666667],[130.48125,33.529166666666676],[130.48125,33.52499999999999],[130.478721284,33.525000000000006],[130.478700558,33.52518055899999]]]}},{"type":"Feature","id":"40219:503023382","properties":{"id":"40219:503023382","meshCode":"503023382","cityCode":"40219","city":"大野城市","lat":33.5270833,"lon":130.484375,"areaKm2":0.2682737,"populated2020":true,"population2020":4643.0597,"populationNote":"2020年基準の国交省調整値"},"geometry":{"type":"Polygon","coordinates":[[[130.48125,33.52499999999999],[130.48125,33.529166666666676],[130.4875,33.52916666666667],[130.4875,33.525000000000006],[130.48125,33.52499999999999]]]}},{"type":"Feature","id":"40219:503023391","properties":{"id":"40219:503023391","meshCode":"503023391","cityCode":"40219","city":"大野城市","lat":33.5270833,"lon":130.490625,"areaKm2":0.1753842,"populated2020":true,"population2020":null,"populationNote":"境界またぎ・原典収録外のため自治体内人口は未集計"},"geometry":{"type":"Polygon","coordinates":[[[130.4901489122638,33.52916666666667],[130.490505551,33.528462775],[130.491032218,33.528811108000006],[130.491992503,33.528260559],[130.491743333,33.526720829],[130.491358054,33.526616387],[130.492058223,33.525],[130.4875,33.525000000000006],[130.4875,33.52916666666667],[130.4901489122638,33.52916666666667]]]}},{"type":"Feature","id":"40219:503023383","properties":{"id":"40219:503023383","meshCode":"503023383","cityCode":"40219","city":"大野城市","lat":33.53125,"lon":130.478125,"areaKm2":0.216461,"populated2020":true,"population2020":null,"populationNote":"境界またぎ・原典収録外のため自治体内人口は未集計"},"geometry":{"type":"Polygon","coordinates":[[[130.477628885,33.529181387],[130.476413891,33.530421387000004],[130.476122503,33.530210559],[130.476012218,33.530231387],[130.475498885,33.530624441],[130.475918327,33.530951946],[130.475382218,33.531426667],[130.475853333,33.53181582900001],[130.475942503,33.532015279],[130.476177224,33.532010559],[130.476216109,33.53214722500001],[130.476222503,33.532598892],[130.47584433193725,33.53333333333333],[130.48125,33.533333333333324],[130.48125,33.529166666666676],[130.477628885,33.529181387]]]}},{"type":"Feature","id":"40219:503023384","properties":{"id":"40219:503023384","meshCode":"503023384","cityCode":"40219","city":"大野城市","lat":33.53125,"lon":130.484375,"areaKm2":0.268261,"populated2020":true,"population2020":2050.2707,"populationNote":"2020年基準の国交省調整値"},"geometry":{"type":"Polygon","coordinates":[[[130.48125,33.529166666666676],[130.48125,33.533333333333324],[130.4875,33.533333333333324],[130.4875,33.52916666666667],[130.48125,33.529166666666676]]]}},{"type":"Feature","id":"40219:503023393","properties":{"id":"40219:503023393","meshCode":"503023393","cityCode":"40219","city":"大野城市","lat":33.53125,"lon":130.490625,"areaKm2":0.1574027,"populated2020":true,"population2020":null,"populationNote":"境界またぎ・原典収録外のため自治体内人口は未集計"},"geometry":{"type":"Polygon","coordinates":[[[130.49375,33.532947824120576],[130.493006109,33.532780829],[130.492766394,33.532302225],[130.492592218,33.532153054],[130.490291115,33.531082225000006],[130.489325279,33.530541108],[130.4901489122638,33.52916666666667],[130.4875,33.52916666666667],[130.4875,33.533333333333324],[130.49375,33.53333333333334],[130.49375,33.532947824120576]]]}},{"type":"Feature","id":"40219:503023394","properties":{"id":"40219:503023394","meshCode":"503023394","cityCode":"40219","city":"大野城市","lat":33.5320817,"lon":130.4976868,"areaKm2":0.1039591,"populated2020":true,"population2020":null,"populationNote":"境界またぎ・原典収録外のため自治体内人口は未集計"},"geometry":{"type":"Polygon","coordinates":[[[130.499979442,33.531163613],[130.499539442,33.530978613],[130.499271115,33.53094527900001],[130.49754,33.531235],[130.495743606,33.531893333],[130.49510083,33.532230279],[130.495066667,33.532627225000006],[130.49474917,33.53296916199999],[130.494385837,33.533016387],[130.49375,33.532947824120576],[130.49375,33.53333333333334],[130.5,33.53333333333334],[130.499979442,33.531163613]]]}},{"type":"Feature","id":"40219:503024303","properties":{"id":"40219:503024303","meshCode":"503024303","cityCode":"40219","city":"大野城市","lat":33.5322364,"lon":130.5013498,"areaKm2":0.0626081,"populated2020":true,"population2020":null,"populationNote":"境界またぎ・原典収録外のため自治体内人口は未集計"},"geometry":{"type":"Polygon","coordinates":[[[130.505817912,33.533333333],[130.505166109,33.53248555900001],[130.50499917,33.53243333299999],[130.504857497,33.532485559],[130.504402218,33.532993333],[130.503997497,33.533088054000004],[130.50344083,33.532869721000004],[130.503036109,33.532613613],[130.50240083,33.53186277499999],[130.501914994,33.531892225],[130.501492503,33.53181861299999],[130.500657782,33.531538612999995],[130.50036917,33.531320279],[130.5,33.531171865],[130.5,33.53333333333334],[130.505817912,33.533333333]]]}},{"type":"Feature","id":"40219:503023472","properties":{"id":"40219:503023472","meshCode":"503023472","cityCode":"40219","city":"大野城市","lat":33.5374347,"lon":130.4749162,"areaKm2":0.0002502,"populated2020":true,"population2020":null,"populationNote":"境界またぎ・原典収録外のため自治体内人口は未集計"},"geometry":{"type":"Polygon","coordinates":[[[130.475,33.53730719799999],[130.474791115,33.537466108],[130.47475475800877,33.5375],[130.475,33.5375],[130.475,33.53730719799999]]]}},{"type":"Feature","id":"40219:503023481","properties":{"id":"40219:503023481","meshCode":"503023481","cityCode":"40219","city":"大野城市","lat":33.5354167,"lon":130.478125,"areaKm2":0.2179706,"populated2020":true,"population2020":3126.3945,"populationNote":"2020年基準の国交省調整値"},"geometry":{"type":"Polygon","coordinates":[[[130.47584433193725,33.53333333333333],[130.475768612,33.533753613],[130.476302218,33.534274441],[130.476518885,33.53491889200001],[130.47699,33.53542777500001],[130.477044994,33.535655559],[130.475,33.53730719799999],[130.475,33.5375],[130.48125,33.53750000000001],[130.48125,33.533333333333324],[130.47584433193725,33.53333333333333]]]}},{"type":"Feature","id":"40219:503023482","properties":{"id":"40219:503023482","meshCode":"503023482","cityCode":"40219","city":"大野城市","lat":33.5354167,"lon":130.484375,"areaKm2":0.2682483,"populated2020":true,"population2020":589.9216,"populationNote":"2020年基準の国交省調整値"},"geometry":{"type":"Polygon","coordinates":[[[130.48125,33.533333333333324],[130.48125,33.53750000000001],[130.4875,33.5375],[130.4875,33.533333333333324],[130.48125,33.533333333333324]]]}},{"type":"Feature","id":"40219:503023491","properties":{"id":"40219:503023491","meshCode":"503023491","cityCode":"40219","city":"大野城市","lat":33.5354167,"lon":130.490625,"areaKm2":0.268248,"populated2020":true,"population2020":1262.4021,"populationNote":"2020年基準の国交省調整値"},"geometry":{"type":"Polygon","coordinates":[[[130.4875,33.533333333333324],[130.4875,33.5375],[130.49375,33.5375],[130.49375,33.53333333333334],[130.4875,33.533333333333324]]]}},{"type":"Feature","id":"40219:503023492","properties":{"id":"40219:503023492","meshCode":"503023492","cityCode":"40219","city":"大野城市","lat":33.5354167,"lon":130.496875,"areaKm2":0.2682476,"populated2020":true,"population2020":1299.0259,"populationNote":"2020年基準の国交省調整値"},"geometry":{"type":"Polygon","coordinates":[[[130.49375,33.53333333333334],[130.49375,33.5375],[130.5,33.5375],[130.5,33.53333333333334],[130.49375,33.53333333333334]]]}},{"type":"Feature","id":"40219:503024401","properties":{"id":"40219:503024401","meshCode":"503024401","cityCode":"40219","city":"大野城市","lat":33.5354167,"lon":130.503125,"areaKm2":0.2671383,"populated2020":true,"population2020":191.0731,"populationNote":"2020年基準の国交省調整値"},"geometry":{"type":"Polygon","coordinates":[[[130.506075279,33.53366972100001],[130.50581791225503,33.53333333333333],[130.5,33.53333333333334],[130.5,33.5375],[130.50625,33.5375],[130.50625,33.53373407216739],[130.506075279,33.53366972100001]]]}},{"type":"Feature","id":"40219:503024402","properties":{"id":"40219:503024402","meshCode":"503024402","cityCode":"40219","city":"大野城市","lat":33.5354167,"lon":130.509375,"areaKm2":0.1639517,"populated2020":false,"population2020":null,"populationNote":"境界またぎ・原典収録外のため自治体内人口は未集計"},"geometry":{"type":"Polygon","coordinates":[[[130.5125,33.53619317607386],[130.510848612,33.535561108],[130.50625,33.53373407216739],[130.50625,33.5375],[130.5125,33.5375],[130.5125,33.53619317607386]]]}},{"type":"Feature","id":"40219:503024411","properties":{"id":"40219:503024411","meshCode":"503024411","cityCode":"40219","city":"大野城市","lat":33.5367883,"lon":130.5131913,"areaKm2":0.0176913,"populated2020":false,"population2020":null,"populationNote":"境界またぎ・原典収録外のため自治体内人口は未集計"},"geometry":{"type":"Polygon","coordinates":[[[130.51450367320797,33.5375],[130.51432083,33.536975559000005],[130.5125,33.53619317607386],[130.5125,33.5375],[130.51450367320797,33.5375]]]}},{"type":"Feature","id":"40219:503023473","properties":{"id":"40219:503023473","meshCode":"503023473","cityCode":"40219","city":"大野城市","lat":33.5387986,"lon":130.4683746,"areaKm2":0.0069469,"populated2020":true,"population2020":null,"populationNote":"境界またぎ・原典収録外のため自治体内人口は未集計"},"geometry":{"type":"MultiPolygon","coordinates":[[[[130.46875,33.53805686167249],[130.46792,33.538726946],[130.46875,33.53954787444458],[130.46875,33.53805686167249]]],[[[130.468523333,33.540724441],[130.46875,33.54093941843914],[130.46875,33.54031201144188],[130.468523333,33.540724441]]]]}},{"type":"Feature","id":"40219:503023474","properties":{"id":"40219:503023474","meshCode":"503023474","cityCode":"40219","city":"大野城市","lat":33.5395833,"lon":130.471875,"areaKm2":0.2107945,"populated2020":true,"population2020":null,"populationNote":"境界またぎ・原典収録外のため自治体内人口は未集計"},"geometry":{"type":"Polygon","coordinates":[[[130.47465166,33.537596107999995],[130.474802218,33.537768892],[130.474007782,33.538269162000006],[130.473136939,33.539231108],[130.471883061,33.53816361300001],[130.471351946,33.538630559],[130.470935837,33.53831916199999],[130.469894449,33.53817305399999],[130.469411388,33.537973333],[130.468931388,33.537893612999994],[130.46875,33.53805686167249],[130.46875,33.53954787444458],[130.468982776,33.539858613],[130.46875,33.54031201144188],[130.46875,33.54093941843914],[130.469350272,33.54145277500002],[130.46911697836373,33.541666666666664],[130.475,33.54166666666667],[130.475,33.5375],[130.47475475800877,33.5375],[130.47465166,33.537596107999995]]]}},{"type":"Feature","id":"40219:503023483","properties":{"id":"40219:503023483","meshCode":"503023483","cityCode":"40219","city":"大野城市","lat":33.5395833,"lon":130.478125,"areaKm2":0.268236,"populated2020":true,"population2020":3359.9864,"populationNote":"2020年基準の国交省調整値"},"geometry":{"type":"Polygon","coordinates":[[[130.475,33.5375],[130.475,33.54166666666667],[130.48125,33.541666666666664],[130.48125,33.53750000000001],[130.475,33.5375]]]}},{"type":"Feature","id":"40219:503023484","properties":{"id":"40219:503023484","meshCode":"503023484","cityCode":"40219","city":"大野城市","lat":33.5395833,"lon":130.484375,"areaKm2":0.2682356,"populated2020":true,"population2020":754.0431,"populationNote":"2020年基準の国交省調整値"},"geometry":{"type":"Polygon","coordinates":[[[130.48125,33.53750000000001],[130.48125,33.541666666666664],[130.4875,33.541666666666664],[130.4875,33.5375],[130.48125,33.53750000000001]]]}},{"type":"Feature","id":"40219:503023493","properties":{"id":"40219:503023493","meshCode":"503023493","cityCode":"40219","city":"大野城市","lat":33.5395833,"lon":130.490625,"areaKm2":0.2682353,"populated2020":true,"population2020":1533.3517,"populationNote":"2020年基準の国交省調整値"},"geometry":{"type":"Polygon","coordinates":[[[130.4875,33.5375],[130.4875,33.541666666666664],[130.49375,33.54166666666667],[130.49375,33.5375],[130.4875,33.5375]]]}},{"type":"Feature","id":"40219:503023494","properties":{"id":"40219:503023494","meshCode":"503023494","cityCode":"40219","city":"大野城市","lat":33.5395833,"lon":130.496875,"areaKm2":0.2682349,"populated2020":true,"population2020":1652.8023,"populationNote":"2020年基準の国交省調整値"},"geometry":{"type":"Polygon","coordinates":[[[130.49375,33.5375],[130.49375,33.54166666666667],[130.5,33.541666666666664],[130.5,33.5375],[130.49375,33.5375]]]}},{"type":"Feature","id":"40219:503024403","properties":{"id":"40219:503024403","meshCode":"503024403","cityCode":"40219","city":"大野城市","lat":33.5395833,"lon":130.503125,"areaKm2":0.2682346,"populated2020":false,"population2020":null,"populationNote":"境界またぎ・原典収録外のため自治体内人口は未集計"},"geometry":{"type":"Polygon","coordinates":[[[130.5,33.5375],[130.5,33.541666666666664],[130.50625,33.541666666666664],[130.50625,33.5375],[130.5,33.5375]]]}},{"type":"Feature","id":"40219:503024404","properties":{"id":"40219:503024404","meshCode":"503024404","cityCode":"40219","city":"大野城市","lat":33.5395833,"lon":130.509375,"areaKm2":0.2269598,"populated2020":false,"population2020":null,"populationNote":"境界またぎ・原典収録外のため自治体内人口は未集計"},"geometry":{"type":"Polygon","coordinates":[[[130.508691479242,33.54166666666667],[130.509120272,33.541115829],[130.509747782,33.54100222499999],[130.511048054,33.540475279000006],[130.512381946,33.539707495],[130.5125,33.53949034339761],[130.5125,33.5375],[130.50625,33.5375],[130.50625,33.541666666666664],[130.508691479242,33.54166666666667]]]}},{"type":"Feature","id":"40219:503024413","properties":{"id":"40219:503024413","meshCode":"503024413","cityCode":"40219","city":"大野城市","lat":33.5383829,"lon":130.5128934,"areaKm2":0.0190189,"populated2020":false,"population2020":null,"populationNote":"境界またぎ・原典収録外のため自治体内人口は未集計"},"geometry":{"type":"Polygon","coordinates":[[[130.51251861200004,33.539456107999996],[130.51314,33.538537225],[130.513433606,33.538228613],[130.514575551,33.53788333300001],[130.51450367320797,33.5375],[130.5125,33.5375],[130.51251861200004,33.539456107999996]]]}},{"type":"Feature","id":"40219:503023571","properties":{"id":"40219:503023571","meshCode":"503023571","cityCode":"40219","city":"大野城市","lat":33.5420899,"lon":130.4687374,"areaKm2":2.61e-05,"populated2020":true,"population2020":null,"populationNote":"境界またぎ・原典収録外のため自治体内人口は未集計"},"geometry":{"type":"Polygon","coordinates":[[[130.468699728,33.542064162],[130.46875,33.542115575685585],[130.46875,33.54201488697595],[130.468699728,33.542064162]]]}},{"type":"Feature","id":"40219:503023572","properties":{"id":"40219:503023572","meshCode":"503023572","cityCode":"40219","city":"大野城市","lat":33.54375,"lon":130.471875,"areaKm2":0.2169066,"populated2020":true,"population2020":null,"populationNote":"境界またぎ・原典収録外のため自治体内人口は未集計"},"geometry":{"type":"Polygon","coordinates":[[[130.469116978,33.541666667],[130.46875,33.54201488697595],[130.46875,33.542115575685585],[130.469034449,33.542406666999995],[130.469659442,33.54282055899999],[130.469745279,33.543578613],[130.47063666700004,33.543749440999996],[130.470644721,33.544148054],[130.47110778200002,33.544096667000005],[130.4698596197392,33.545833333333334],[130.475,33.545833333333334],[130.475,33.54166666666667],[130.469116978,33.541666667]]]}},{"type":"Feature","id":"40219:503023581","properties":{"id":"40219:503023581","meshCode":"503023581","cityCode":"40219","city":"大野城市","lat":33.54375,"lon":130.478125,"areaKm2":0.2682233,"populated2020":true,"population2020":2661.7467,"populationNote":"2020年基準の国交省調整値"},"geometry":{"type":"Polygon","coordinates":[[[130.475,33.54166666666667],[130.475,33.545833333333334],[130.48125,33.545833333333334],[130.48125,33.541666666666664],[130.475,33.54166666666667]]]}},{"type":"Feature","id":"40219:503023582","properties":{"id":"40219:503023582","meshCode":"503023582","cityCode":"40219","city":"大野城市","lat":33.54375,"lon":130.484375,"areaKm2":0.268223,"populated2020":true,"population2020":486.32,"populationNote":"2020年基準の国交省調整値"},"geometry":{"type":"Polygon","coordinates":[[[130.48125,33.541666666666664],[130.48125,33.545833333333334],[130.4875,33.545833333333334],[130.4875,33.541666666666664],[130.48125,33.541666666666664]]]}},{"type":"Feature","id":"40219:503023591","properties":{"id":"40219:503023591","meshCode":"503023591","cityCode":"40219","city":"大野城市","lat":33.54375,"lon":130.490625,"areaKm2":0.2682226,"populated2020":true,"population2020":1859.7459,"populationNote":"2020年基準の国交省調整値"},"geometry":{"type":"Polygon","coordinates":[[[130.4875,33.541666666666664],[130.4875,33.545833333333334],[130.49375,33.545833333333334],[130.49375,33.54166666666667],[130.4875,33.541666666666664]]]}},{"type":"Feature","id":"40219:503023592","properties":{"id":"40219:503023592","meshCode":"503023592","cityCode":"40219","city":"大野城市","lat":33.54375,"lon":130.496875,"areaKm2":0.2682222,"populated2020":true,"population2020":664.5568,"populationNote":"2020年基準の国交省調整値"},"geometry":{"type":"Polygon","coordinates":[[[130.49375,33.54166666666667],[130.49375,33.545833333333334],[130.5,33.545833333333334],[130.5,33.541666666666664],[130.49375,33.54166666666667]]]}},{"type":"Feature","id":"40219:503024501","properties":{"id":"40219:503024501","meshCode":"503024501","cityCode":"40219","city":"大野城市","lat":33.54375,"lon":130.503125,"areaKm2":0.2682219,"populated2020":false,"population2020":null,"populationNote":"境界またぎ・原典収録外のため自治体内人口は未集計"},"geometry":{"type":"Polygon","coordinates":[[[130.5,33.541666666666664],[130.5,33.545833333333334],[130.50625,33.545833333333334],[130.50625,33.541666666666664],[130.5,33.541666666666664]]]}},{"type":"Feature","id":"40219:503024502","properties":{"id":"40219:503024502","meshCode":"503024502","cityCode":"40219","city":"大野城市","lat":33.543708,"lon":130.5074595,"areaKm2":0.10516,"populated2020":false,"population2020":null,"populationNote":"境界またぎ・原典収録外のため自治体内人口は未集計"},"geometry":{"type":"Polygon","coordinates":[[[130.509069728,33.54568527899999],[130.509074994,33.545016667],[130.50829166,33.542666108000006],[130.508306667,33.54229110799999],[130.508691479242,33.54166666666667],[130.50625,33.541666666666664],[130.50625,33.545833333333334],[130.5091523455863,33.545833333333334],[130.509069728,33.54568527899999]]]}},{"type":"Feature","id":"40219:503023573","properties":{"id":"40219:503023573","meshCode":"503023573","cityCode":"40219","city":"大野城市","lat":33.5476162,"lon":130.4686544,"areaKm2":0.0011778,"populated2020":true,"population2020":null,"populationNote":"境界またぎ・原典収録外のため自治体内人口は未集計"},"geometry":{"type":"Polygon","coordinates":[[[130.46875,33.5473447288805],[130.468420558,33.547804162000006],[130.46875,33.54804878926011],[130.46875,33.5473447288805]]]}},{"type":"Feature","id":"40219:503023574","properties":{"id":"40219:503023574","meshCode":"503023574","cityCode":"40219","city":"大野城市","lat":33.5479167,"lon":130.471875,"areaKm2":0.2316381,"populated2020":true,"population2020":2585.4134,"populationNote":"2020年基準の国交省調整値"},"geometry":{"type":"Polygon","coordinates":[[[130.4698596197392,33.545833333333334],[130.46875,33.5473447288805],[130.46875,33.54804878926011],[130.469683891,33.548734441],[130.470871388,33.549344721],[130.470978054,33.549595279],[130.47089428,33.55],[130.475,33.54999999999999],[130.475,33.545833333333334],[130.4698596197392,33.545833333333334]]]}},{"type":"Feature","id":"40219:503023583","properties":{"id":"40219:503023583","meshCode":"503023583","cityCode":"40219","city":"大野城市","lat":33.5479167,"lon":130.478125,"areaKm2":0.2682106,"populated2020":true,"population2020":431.8945,"populationNote":"2020年基準の国交省調整値"},"geometry":{"type":"Polygon","coordinates":[[[130.475,33.545833333333334],[130.475,33.54999999999999],[130.48125,33.54999999999999],[130.48125,33.545833333333334],[130.475,33.545833333333334]]]}},{"type":"Feature","id":"40219:503023584","properties":{"id":"40219:503023584","meshCode":"503023584","cityCode":"40219","city":"大野城市","lat":33.5479167,"lon":130.484375,"areaKm2":0.2682103,"populated2020":true,"population2020":750.9853,"populationNote":"2020年基準の国交省調整値"},"geometry":{"type":"Polygon","coordinates":[[[130.48125,33.545833333333334],[130.48125,33.54999999999999],[130.4875,33.55],[130.4875,33.545833333333334],[130.48125,33.545833333333334]]]}},{"type":"Feature","id":"40219:503023593","properties":{"id":"40219:503023593","meshCode":"503023593","cityCode":"40219","city":"大野城市","lat":33.5479167,"lon":130.490625,"areaKm2":0.2682099,"populated2020":true,"population2020":1961.6027,"populationNote":"2020年基準の国交省調整値"},"geometry":{"type":"Polygon","coordinates":[[[130.4875,33.545833333333334],[130.4875,33.55],[130.49375,33.54999999999999],[130.49375,33.545833333333334],[130.4875,33.545833333333334]]]}},{"type":"Feature","id":"40219:503023594","properties":{"id":"40219:503023594","meshCode":"503023594","cityCode":"40219","city":"大野城市","lat":33.5479167,"lon":130.496875,"areaKm2":0.2682095,"populated2020":true,"population2020":553.5312,"populationNote":"2020年基準の国交省調整値"},"geometry":{"type":"Polygon","coordinates":[[[130.49375,33.545833333333334],[130.49375,33.54999999999999],[130.5,33.54999999999999],[130.5,33.545833333333334],[130.49375,33.545833333333334]]]}},{"type":"Feature","id":"40219:503024503","properties":{"id":"40219:503024503","meshCode":"503024503","cityCode":"40219","city":"大野城市","lat":33.5479167,"lon":130.503125,"areaKm2":0.2501962,"populated2020":false,"population2020":null,"populationNote":"境界またぎ・原典収録外のため自治体内人口は未集計"},"geometry":{"type":"Polygon","coordinates":[[[130.50394,33.549925279],[130.504564994,33.549633333],[130.505192503,33.549016386999995],[130.505627497,33.549006946],[130.50625,33.54862906921645],[130.50625,33.545833333333334],[130.5,33.545833333333334],[130.5,33.54999999999999],[130.503599857,33.55],[130.50394,33.549925279]]]}},{"type":"Feature","id":"40219:503024504","properties":{"id":"40219:503024504","meshCode":"503024504","cityCode":"40219","city":"大野城市","lat":33.5472625,"lon":130.5078091,"areaKm2":0.0696794,"populated2020":false,"population2020":null,"populationNote":"境界またぎ・原典収録外のため自治体内人口は未集計"},"geometry":{"type":"Polygon","coordinates":[[[130.50625,33.54862906921645],[130.50674083000004,33.548181387],[130.507115279,33.547953613],[130.508943606,33.54805805400001],[130.509383333,33.547219721000005],[130.509342776,33.54657944099999],[130.5091523455863,33.545833333333334],[130.50625,33.545833333333334],[130.50625,33.54862906921645]]]}},{"type":"Feature","id":"40219:503023671","properties":{"id":"40219:503023671","meshCode":"503023671","cityCode":"40219","city":"大野城市","lat":33.5537819,"lon":130.4687103,"areaKm2":0.0010122,"populated2020":true,"population2020":null,"populationNote":"境界またぎ・原典収録外のため自治体内人口は未集計"},"geometry":{"type":"Polygon","coordinates":[[[130.46875,33.55354541603019],[130.468637782,33.55387972100001],[130.46831215092618,33.55416666666667],[130.46875,33.55416666666667],[130.46875,33.55354541603019]]]}},{"type":"Feature","id":"40219:503023672","properties":{"id":"40219:503023672","meshCode":"503023672","cityCode":"40219","city":"大野城市","lat":33.5520833,"lon":130.471875,"areaKm2":0.2092263,"populated2020":true,"population2020":2046.9742,"populationNote":"2020年基準の国交省調整値"},"geometry":{"type":"Polygon","coordinates":[[[130.47089428,33.55],[130.470462218,33.55052472100001],[130.469801946,33.551713054],[130.469310558,33.55302472100001],[130.468755279,33.553529721],[130.46875,33.55416666666667],[130.47282111562754,33.55416666666666],[130.473701388,33.553171946],[130.474437497,33.553109162000005],[130.475,33.553178413999994],[130.475,33.54999999999999],[130.47089428,33.55]]]}},{"type":"Feature","id":"40219:503023681","properties":{"id":"40219:503023681","meshCode":"503023681","cityCode":"40219","city":"大野城市","lat":33.5520833,"lon":130.478125,"areaKm2":0.2108221,"populated2020":true,"population2020":null,"populationNote":"境界またぎ・原典収録外のため自治体内人口は未集計"},"geometry":{"type":"Polygon","coordinates":[[[130.475,33.553178413999994],[130.475647497,33.553232495],[130.475890272,33.553105559],[130.476197782,33.55233249500001],[130.47730055800002,33.55297305399999],[130.477838054,33.55252527900001],[130.479126394,33.553335000000004],[130.479526109,33.55369],[130.47959083,33.553809721000015],[130.479518054,33.554035279],[130.47956152041155,33.554166666666674],[130.48125,33.55416666666666],[130.48125,33.54999999999999],[130.475,33.54999999999999],[130.475,33.553178413999994]]]}},{"type":"Feature","id":"40219:503023682","properties":{"id":"40219:503023682","meshCode":"503023682","cityCode":"40219","city":"大野城市","lat":33.5520833,"lon":130.484375,"areaKm2":0.2681976,"populated2020":true,"population2020":980.7552,"populationNote":"2020年基準の国交省調整値"},"geometry":{"type":"Polygon","coordinates":[[[130.48125,33.54999999999999],[130.48125,33.55416666666666],[130.4875,33.55416666666666],[130.4875,33.55],[130.48125,33.54999999999999]]]}},{"type":"Feature","id":"40219:503023691","properties":{"id":"40219:503023691","meshCode":"503023691","cityCode":"40219","city":"大野城市","lat":33.5520833,"lon":130.490625,"areaKm2":0.2681972,"populated2020":true,"population2020":1227.5069,"populationNote":"2020年基準の国交省調整値"},"geometry":{"type":"Polygon","coordinates":[[[130.4875,33.55],[130.4875,33.55416666666666],[130.49375,33.55416666666666],[130.49375,33.54999999999999],[130.4875,33.55]]]}},{"type":"Feature","id":"40219:503023692","properties":{"id":"40219:503023692","meshCode":"503023692","cityCode":"40219","city":"大野城市","lat":33.5520833,"lon":130.496875,"areaKm2":0.2681968,"populated2020":true,"population2020":888.8847,"populationNote":"2020年基準の国交省調整値"},"geometry":{"type":"Polygon","coordinates":[[[130.49375,33.54999999999999],[130.49375,33.55416666666666],[130.5,33.55416666666666],[130.5,33.54999999999999],[130.49375,33.54999999999999]]]}},{"type":"Feature","id":"40219:503024601","properties":{"id":"40219:503024601","meshCode":"503024601","cityCode":"40219","city":"大野城市","lat":33.5520833,"lon":130.503125,"areaKm2":0.1536349,"populated2020":false,"population2020":null,"populationNote":"境界またぎ・原典収録外のため自治体内人口は未集計"},"geometry":{"type":"Polygon","coordinates":[[[130.50429943543216,33.55416666666666],[130.504136109,33.553845279],[130.504277782,33.55310999999999],[130.504146109,33.55278277499999],[130.503893891,33.552414721],[130.503124994,33.551683892],[130.502907497,33.551086108],[130.502933061,33.55045222500001],[130.503024163,33.550266946],[130.503599857,33.55],[130.5,33.54999999999999],[130.5,33.55416666666666],[130.50429943543216,33.55416666666666]]]}},{"type":"Feature","id":"40219:503023673","properties":{"id":"40219:503023673","meshCode":"503023673","cityCode":"40219","city":"大野城市","lat":33.5562901,"lon":130.4675367,"areaKm2":0.1025041,"populated2020":true,"population2020":null,"populationNote":"境界またぎ・原典収録外のため自治体内人口は未集計"},"geometry":{"type":"Polygon","coordinates":[[[130.468277497,33.554198333],[130.467442218,33.555000279000005],[130.4644513616948,33.55833333333334],[130.46875,33.55833333333334],[130.46875,33.55416666666667],[130.468277497,33.554198333]]]}},{"type":"Feature","id":"40219:503023674","properties":{"id":"40219:503023674","meshCode":"503023674","cityCode":"40219","city":"大野城市","lat":33.5561038,"lon":130.4699871,"areaKm2":0.1197566,"populated2020":true,"population2020":null,"populationNote":"境界またぎ・原典収録外のため自治体内人口は未集計"},"geometry":{"type":"Polygon","coordinates":[[[130.470546057,33.558333333],[130.470977782,33.55805944099999],[130.471217224,33.55751833299999],[130.470946939,33.556466108],[130.471773333,33.55535222500001],[130.471912503,33.555215559000004],[130.472087224,33.555204161999995],[130.47279583700004,33.554461108],[130.47282111562754,33.55416666666666],[130.46875,33.55416666666667],[130.46875,33.55833333333334],[130.470546057,33.558333333]]]}},{"type":"Feature","id":"40219:503023683","properties":{"id":"40219:503023683","meshCode":"503023683","cityCode":"40219","city":"大野城市","lat":33.5553879,"lon":130.4809236,"areaKm2":0.0170891,"populated2020":true,"population2020":null,"populationNote":"境界またぎ・原典収録外のため自治体内人口は未集計"},"geometry":{"type":"Polygon","coordinates":[[[130.47956152041155,33.554166666666674],[130.480016394,33.554498892],[130.48125,33.55635973697053],[130.48125,33.55416666666666],[130.47956152041155,33.554166666666674]]]}},{"type":"Feature","id":"40219:503023684","properties":{"id":"40219:503023684","meshCode":"503023684","cityCode":"40219","city":"大野城市","lat":33.55625,"lon":130.484375,"areaKm2":0.2332792,"populated2020":true,"population2020":391.329,"populationNote":"2020年基準の国交省調整値"},"geometry":{"type":"Polygon","coordinates":[[[130.48125,33.55635973697053],[130.481777224,33.556905829],[130.482768054,33.557450558999996],[130.48345917,33.55766],[130.484562776,33.557828892],[130.48511632946125,33.55833333333334],[130.4875,33.558333333333344],[130.4875,33.55416666666666],[130.48125,33.55416666666666],[130.48125,33.55635973697053]]]}},{"type":"Feature","id":"40219:503023693","properties":{"id":"40219:503023693","meshCode":"503023693","cityCode":"40219","city":"大野城市","lat":33.55625,"lon":130.490625,"areaKm2":0.2681845,"populated2020":true,"population2020":82.1378,"populationNote":"2020年基準の国交省調整値"},"geometry":{"type":"Polygon","coordinates":[[[130.4875,33.55416666666666],[130.4875,33.558333333333344],[130.49375,33.55833333333334],[130.49375,33.55416666666666],[130.4875,33.55416666666666]]]}},{"type":"Feature","id":"40219:503023694","properties":{"id":"40219:503023694","meshCode":"503023694","cityCode":"40219","city":"大野城市","lat":33.55625,"lon":130.496875,"areaKm2":0.2681841,"populated2020":true,"population2020":433.7807,"populationNote":"2020年基準の国交省調整値"},"geometry":{"type":"Polygon","coordinates":[[[130.49375,33.55416666666666],[130.49375,33.55833333333334],[130.5,33.55833333333334],[130.5,33.55416666666666],[130.49375,33.55416666666666]]]}},{"type":"Feature","id":"40219:503024603","properties":{"id":"40219:503024603","meshCode":"503024603","cityCode":"40219","city":"大野城市","lat":33.55625,"lon":130.503125,"areaKm2":0.15227,"populated2020":true,"population2020":null,"populationNote":"境界またぎ・原典収録外のため自治体内人口は未集計"},"geometry":{"type":"Polygon","coordinates":[[[130.502698223,33.558333333],[130.503008885,33.557978613],[130.50344389100002,33.556868613],[130.503373333,33.55655999999999],[130.503478885,33.555964161999995],[130.50364083,33.55578861299999],[130.503893891,33.55507694600001],[130.504338612,33.55422027899999],[130.50429943543216,33.55416666666666],[130.5,33.55416666666666],[130.5,33.55833333333334],[130.502698223,33.558333333]]]}},{"type":"Feature","id":"40219:503023762","properties":{"id":"40219:503023762","meshCode":"503023762","cityCode":"40219","city":"大野城市","lat":33.5612949,"lon":130.4615817,"areaKm2":0.0211576,"populated2020":true,"population2020":null,"populationNote":"境界またぎ・原典収録外のため自治体内人口は未集計"},"geometry":{"type":"Polygon","coordinates":[[[130.4625,33.560361033464105],[130.462171946,33.560696946],[130.461872503,33.560469162],[130.461290272,33.560886108],[130.460785279,33.561007495000005],[130.460563333,33.56120110799999],[130.460927224,33.561544162000004],[130.461512776,33.56189638699999],[130.4625,33.56218546363557],[130.4625,33.560361033464105]]]}},{"type":"Feature","id":"40219:503023771","properties":{"id":"40219:503023771","meshCode":"503023771","cityCode":"40219","city":"大野城市","lat":33.5604167,"lon":130.465625,"areaKm2":0.2175445,"populated2020":true,"population2020":466.3915,"populationNote":"2020年基準の国交省調整値"},"geometry":{"type":"Polygon","coordinates":[[[130.4644513616948,33.55833333333334],[130.4625,33.560361033464105],[130.4625,33.56218546363557],[130.46409546061756,33.56250000000001],[130.46686897925562,33.56250000000001],[130.467668327,33.561477225000004],[130.467893333,33.561080559000004],[130.467993891,33.560630559],[130.46875,33.55954170216641],[130.46875,33.55833333333334],[130.4644513616948,33.55833333333334]]]}},{"type":"Feature","id":"40219:503023772","properties":{"id":"40219:503023772","meshCode":"503023772","cityCode":"40219","city":"大野城市","lat":33.558935,"lon":130.4689642,"areaKm2":0.0077025,"populated2020":true,"population2020":null,"populationNote":"境界またぎ・原典収録外のため自治体内人口は未集計"},"geometry":{"type":"Polygon","coordinates":[[[130.46875,33.55954170216641],[130.469278054,33.55880305400001],[130.47054605610384,33.558333333333344],[130.46875,33.55833333333334],[130.46875,33.55954170216641]]]}},{"type":"Feature","id":"40219:503023782","properties":{"id":"40219:503023782","meshCode":"503023782","cityCode":"40219","city":"大野城市","lat":33.5595294,"lon":130.4863841,"areaKm2":0.0436955,"populated2020":true,"population2020":null,"populationNote":"境界またぎ・原典収録外のため自治体内人口は未集計"},"geometry":{"type":"Polygon","coordinates":[[[130.48521166,33.558402225],[130.485261946,33.558668612999995],[130.485038612,33.559252775],[130.485145279,33.559452224999994],[130.485498054,33.55973],[130.485669442,33.560186387],[130.486601388,33.560117774999995],[130.4875,33.56075188835729],[130.4875,33.558333333333344],[130.48511632946125,33.55833333333334],[130.48521166,33.558402225]]]}},{"type":"Feature","id":"40219:503023791","properties":{"id":"40219:503023791","meshCode":"503023791","cityCode":"40219","city":"大野城市","lat":33.5595285,"lon":130.4913046,"areaKm2":0.0768903,"populated2020":true,"population2020":null,"populationNote":"境界またぎ・原典収録外のため自治体内人口は未集計"},"geometry":{"type":"Polygon","coordinates":[[[130.4875,33.56075188835729],[130.488536109,33.560396387],[130.488550558,33.560265279],[130.488334721,33.559945559],[130.488286109,33.559666387],[130.488548327,33.55933249500001],[130.488708327,33.558903892],[130.489019442,33.55859999999999],[130.48917166,33.558624721],[130.489581946,33.559143053999996],[130.489886394,33.559393613],[130.491620272,33.560003054],[130.49311917,33.55893277500001],[130.493294163,33.558934441],[130.493468885,33.55908082900001],[130.49375,33.55906916604411],[130.49375,33.55833333333334],[130.4875,33.558333333333344],[130.4875,33.56075188835729]]]}},{"type":"Feature","id":"40219:503023792","properties":{"id":"40219:503023792","meshCode":"503023792","cityCode":"40219","city":"大野城市","lat":33.559456,"lon":130.4977248,"areaKm2":0.1077798,"populated2020":false,"population2020":null,"populationNote":"境界またぎ・原典収録外のため自治体内人口は未集計"},"geometry":{"type":"Polygon","coordinates":[[[130.49375,33.55906916604411],[130.494479442,33.559211946000005],[130.49485917,33.559189162],[130.495356667,33.559398054],[130.496338612,33.560044441],[130.496419728,33.560200279],[130.498022776,33.560443333],[130.498766394,33.560666108],[130.5,33.56045566699999],[130.5,33.55833333333334],[130.49375,33.55833333333334],[130.49375,33.55906916604411]]]}},{"type":"Feature","id":"40219:503024701","properties":{"id":"40219:503024701","meshCode":"503024701","cityCode":"40219","city":"大野城市","lat":33.5594325,"lon":130.5009731,"areaKm2":0.0390502,"populated2020":true,"population2020":null,"populationNote":"境界またぎ・原典収録外のため自治体内人口は未集計"},"geometry":{"type":"Polygon","coordinates":[[[130.5,33.56045566699999],[130.50185778200003,33.559821667],[130.50197917,33.559100559],[130.502543606,33.558623892],[130.5026982226348,33.55833333333334],[130.5,33.55833333333334],[130.5,33.56045566699999]]]}},{"type":"Feature","id":"40219:503023773","properties":{"id":"40219:503023773","meshCode":"503023773","cityCode":"40219","city":"大野城市","lat":33.5630143,"lon":130.4655249,"areaKm2":0.0180053,"populated2020":true,"population2020":null,"populationNote":"境界またぎ・原典収録外のため自治体内人口は未集計"},"geometry":{"type":"Polygon","coordinates":[[[130.46420083,33.562541108],[130.464267224,33.562828613],[130.464622218,33.562857225],[130.464790272,33.563453333000005],[130.464838885,33.563536946],[130.465015279,33.563574721],[130.466227224,33.563112495000006],[130.46671444900002,33.562785829000006],[130.46686897925562,33.56250000000001],[130.46409546061756,33.56250000000001],[130.46420083,33.562541108]]]}}]}