{"type":"FeatureCollection","metadata":{"cityCode":"40218","city":"春日市","resolution":500,"boundaryDate":"2026-01-01","populationLabel":"2020年基準人口（国交省調整値）","method":"標準地域メッシュを行政界で切抜き。中心が区域外のとき区域内代表点を判定点にする。人口不明をゼロにしない。"},"features":[{"type":"Feature","id":"40218:503013954","properties":{"id":"40218:503013954","meshCode":"503013954","cityCode":"40218","city":"春日市","lat":33.4993117,"lon":130.4491537,"areaKm2":0.0222037,"populated2020":false,"population2020":null,"populationNote":"境界またぎ・原典収録外のため自治体内人口は未集計"},"geometry":{"type":"Polygon","coordinates":[[[130.449578612,33.498694441],[130.448906667,33.498896667],[130.448088054,33.49944777500001],[130.447723333,33.49999999999999],[130.45,33.5],[130.45,33.49871530600001],[130.449578612,33.498694441]]]}},{"type":"Feature","id":"40218:503013963","properties":{"id":"40218:503013963","meshCode":"503013963","cityCode":"40218","city":"春日市","lat":33.4993047,"lon":130.4503381,"areaKm2":0.0112345,"populated2020":true,"population2020":null,"populationNote":"境界またぎ・原典収録外のため自治体内人口は未集計"},"geometry":{"type":"Polygon","coordinates":[[[130.45162083,33.499977225],[130.450615837,33.499250559],[130.450336939,33.498802775],[130.45,33.49871530600001],[130.45,33.5],[130.45162083,33.499977225]]]}},{"type":"Feature","id":"40218:503023052","properties":{"id":"40218:503023052","meshCode":"503023052","cityCode":"40218","city":"春日市","lat":33.5020833,"lon":130.446875,"areaKm2":0.1400693,"populated2020":false,"population2020":null,"populationNote":"境界またぎ・原典収録外のため自治体内人口は未集計"},"geometry":{"type":"Polygon","coordinates":[[[130.447708885,33.50003027899999],[130.447683061,33.501264721000005],[130.447395837,33.501861667],[130.44718917,33.502006108],[130.446088885,33.502181667],[130.44549166,33.50289889199999],[130.445425551,33.503161387],[130.44617166,33.503695279],[130.4464028364169,33.50416666666666],[130.45,33.50416666666667],[130.45,33.5],[130.447708885,33.50003027899999]]]}},{"type":"Feature","id":"40218:503023061","properties":{"id":"40218:503023061","meshCode":"503023061","cityCode":"40218","city":"春日市","lat":33.5020833,"lon":130.453125,"areaKm2":0.2113663,"populated2020":true,"population2020":1420.0957,"populationNote":"2020年基準の国交省調整値"},"geometry":{"type":"Polygon","coordinates":[[[130.456247782,33.502064440999995],[130.455897497,33.50177082900001],[130.455808327,33.501306107999994],[130.455558612,33.501149721],[130.455403606,33.500745279],[130.453740558,33.501036666999994],[130.453539442,33.50121],[130.45334416300003,33.501686108],[130.452890558,33.501801667],[130.452620558,33.501700559],[130.452043061,33.501019441],[130.451634423,33.5],[130.45,33.5],[130.45,33.50416666666667],[130.45625,33.50416666666667],[130.456247782,33.502064440999995]]]}},{"type":"Feature","id":"40218:503023062","properties":{"id":"40218:503023062","meshCode":"503023062","cityCode":"40218","city":"春日市","lat":33.5035244,"lon":130.4582603,"areaKm2":0.0602565,"populated2020":true,"population2020":null,"populationNote":"境界またぎ・原典収録外のため自治体内人口は未集計"},"geometry":{"type":"Polygon","coordinates":[[[130.46020161825336,33.50416666666667],[130.460031946,33.50402808100001],[130.460269027,33.504025865],[130.460272218,33.503021972999996],[130.46035345,33.503022946],[130.460356083,33.50292513499999],[130.459604527,33.502925865],[130.45928083,33.502718892000004],[130.459051115,33.502685279000005],[130.458292776,33.502848892],[130.45773,33.502791108],[130.457072218,33.502610559000004],[130.45625,33.5020660343105],[130.45625,33.50416666666667],[130.46020161825336,33.50416666666667]]]}},{"type":"Feature","id":"40218:503023054","properties":{"id":"40218:503023054","meshCode":"503023054","cityCode":"40218","city":"春日市","lat":33.506124,"lon":130.4490924,"areaKm2":0.0953286,"populated2020":true,"population2020":null,"populationNote":"境界またぎ・原典収録外のため自治体内人口は未集計"},"geometry":{"type":"Polygon","coordinates":[[[130.446441388,33.504363613],[130.446627497,33.504555559],[130.447168327,33.504675],[130.447483606,33.505381667],[130.448027497,33.50575944100001],[130.448157224,33.505953054],[130.448243061,33.506845829],[130.447990558,33.507953891999996],[130.44822586312318,33.50833333333334],[130.45,33.50833333333334],[130.45,33.50416666666667],[130.4464028364169,33.50416666666666],[130.446441388,33.504363613]]]}},{"type":"Feature","id":"40218:503023063","properties":{"id":"40218:503023063","meshCode":"503023063","cityCode":"40218","city":"春日市","lat":33.50625,"lon":130.453125,"areaKm2":0.268339,"populated2020":true,"population2020":946.5537,"populationNote":"2020年基準の国交省調整値"},"geometry":{"type":"Polygon","coordinates":[[[130.45,33.50416666666667],[130.45,33.50833333333334],[130.45625,33.50833333333334],[130.45625,33.50416666666667],[130.45,33.50416666666667]]]}},{"type":"Feature","id":"40218:503023064","properties":{"id":"40218:503023064","meshCode":"503023064","cityCode":"40218","city":"春日市","lat":33.50625,"lon":130.459375,"areaKm2":0.2496864,"populated2020":true,"population2020":967.9754,"populationNote":"2020年基準の国交省調整値"},"geometry":{"type":"Polygon","coordinates":[[[130.462477224,33.50600277499999],[130.462219728,33.50602555900001],[130.462078885,33.505932495],[130.462199728,33.505110559],[130.462105551,33.504933892],[130.461862776,33.504781946],[130.461507082,33.504792135],[130.460842918,33.505020386999995],[130.460604306,33.504589333],[130.46020161825336,33.50416666666667],[130.45625,33.50416666666667],[130.45625,33.50833333333334],[130.4625,33.50833333333334],[130.462477224,33.50600277499999]]]}},{"type":"Feature","id":"40218:503023073","properties":{"id":"40218:503023073","meshCode":"503023073","cityCode":"40218","city":"春日市","lat":33.5072006,"lon":130.4638765,"areaKm2":0.0624774,"populated2020":true,"population2020":null,"populationNote":"境界またぎ・原典収録外のため自治体内人口は未集計"},"geometry":{"type":"Polygon","coordinates":[[[130.467892633,33.508333333],[130.467272776,33.507931946],[130.46624,33.507688892],[130.465084449,33.50713694600001],[130.464096939,33.50693944099999],[130.463253891,33.506388054],[130.4625,33.506016671965334],[130.4625,33.50833333333334],[130.467892633,33.508333333]]]}},{"type":"Feature","id":"40218:503023151","properties":{"id":"40218:503023151","meshCode":"503023151","cityCode":"40218","city":"春日市","lat":33.5116793,"lon":130.4429933,"areaKm2":0.022988,"populated2020":true,"population2020":null,"populationNote":"境界またぎ・原典収録外のため自治体内人口は未集計"},"geometry":{"type":"Polygon","coordinates":[[[130.44375,33.510926051916734],[130.442299728,33.511616667000006],[130.44112279716379,33.5125],[130.44375,33.512499999999996],[130.44375,33.510926051916734]]]}},{"type":"Feature","id":"40218:503023152","properties":{"id":"40218:503023152","meshCode":"503023152","cityCode":"40218","city":"春日市","lat":33.5104167,"lon":130.446875,"areaKm2":0.202495,"populated2020":true,"population2020":null,"populationNote":"境界またぎ・原典収録外のため自治体内人口は未集計"},"geometry":{"type":"Polygon","coordinates":[[[130.448312503,33.508567775],[130.44375,33.510926051916734],[130.44375,33.512499999999996],[130.45,33.512499999999996],[130.45,33.50833333333334],[130.44822586312318,33.50833333333334],[130.448312503,33.508567775]]]}},{"type":"Feature","id":"40218:503023161","properties":{"id":"40218:503023161","meshCode":"503023161","cityCode":"40218","city":"春日市","lat":33.5104167,"lon":130.453125,"areaKm2":0.2683263,"populated2020":true,"population2020":502.2082,"populationNote":"2020年基準の国交省調整値"},"geometry":{"type":"Polygon","coordinates":[[[130.45,33.50833333333334],[130.45,33.512499999999996],[130.45625,33.5125],[130.45625,33.50833333333334],[130.45,33.50833333333334]]]}},{"type":"Feature","id":"40218:503023162","properties":{"id":"40218:503023162","meshCode":"503023162","cityCode":"40218","city":"春日市","lat":33.5104167,"lon":130.459375,"areaKm2":0.268326,"populated2020":true,"population2020":1379.9324,"populationNote":"2020年基準の国交省調整値"},"geometry":{"type":"Polygon","coordinates":[[[130.45625,33.50833333333334],[130.45625,33.5125],[130.4625,33.51250000000001],[130.4625,33.50833333333334],[130.45625,33.50833333333334]]]}},{"type":"Feature","id":"40218:503023171","properties":{"id":"40218:503023171","meshCode":"503023171","cityCode":"40218","city":"春日市","lat":33.5104167,"lon":130.465625,"areaKm2":0.265028,"populated2020":true,"population2020":1658.3342,"populationNote":"2020年基準の国交省調整値"},"geometry":{"type":"Polygon","coordinates":[[[130.468652503,33.509416667],[130.468536109,33.50864666700001],[130.467944994,33.508443613],[130.46789263315824,33.50833333333334],[130.4625,33.50833333333334],[130.4625,33.51250000000001],[130.46875,33.51250000000001],[130.46875,33.5094824640165],[130.468652503,33.509416667]]]}},{"type":"Feature","id":"40218:503023172","properties":{"id":"40218:503023172","meshCode":"503023172","cityCode":"40218","city":"春日市","lat":33.5104167,"lon":130.471875,"areaKm2":0.1838739,"populated2020":true,"population2020":null,"populationNote":"境界またぎ・原典収録外のため自治体内人口は未集計"},"geometry":{"type":"Polygon","coordinates":[[[130.474664553,33.512470495],[130.474748003,33.512188162],[130.475,33.51187138700001],[130.475,33.508763559],[130.474551388,33.509545],[130.47349917,33.509336667],[130.473276394,33.509333054],[130.47283917,33.509473333],[130.472317782,33.50937861300001],[130.472039442,33.509414721],[130.470487497,33.509921667],[130.470136394,33.510243613],[130.469225551,33.510006387000004],[130.469078054,33.509598054],[130.468924163,33.5096],[130.46875,33.5094824640165],[130.46875,33.51250000000001],[130.474664553,33.512470495]]]}},{"type":"Feature","id":"40218:503023181","properties":{"id":"40218:503023181","meshCode":"503023181","cityCode":"40218","city":"春日市","lat":33.5103312,"lon":130.4760578,"areaKm2":0.0527068,"populated2020":true,"population2020":null,"populationNote":"境界またぎ・原典収録外のため自治体内人口は未集計"},"geometry":{"type":"Polygon","coordinates":[[[130.475,33.51187138700001],[130.475466472,33.511376829],[130.476260947,33.511814666999996],[130.477029754,33.510744892],[130.477118301,33.51043169399999],[130.476962438,33.509095306],[130.4767662,33.50922002699999],[130.476671388,33.509106387],[130.475942503,33.50925472099999],[130.475851946,33.509176667000006],[130.475794994,33.508889162],[130.475301115,33.508640279],[130.47508083,33.508648892000004],[130.475,33.508763559],[130.475,33.51187138700001]]]}},{"type":"Feature","id":"40218:503023144","properties":{"id":"40218:503023144","meshCode":"503023144","cityCode":"40218","city":"春日市","lat":33.5165065,"lon":130.4372547,"areaKm2":0.0015877,"populated2020":true,"population2020":null,"populationNote":"境界またぎ・原典収録外のため自治体内人口は未集計"},"geometry":{"type":"Polygon","coordinates":[[[130.4375,33.51630872141869],[130.436671115,33.516627494999994],[130.43662141442294,33.516666666666666],[130.4375,33.51666666666667],[130.4375,33.51630872141869]]]}},{"type":"Feature","id":"40218:503023153","properties":{"id":"40218:503023153","meshCode":"503023153","cityCode":"40218","city":"春日市","lat":33.5145833,"lon":130.440625,"areaKm2":0.2095165,"populated2020":true,"population2020":null,"populationNote":"境界またぎ・原典収録外のため自治体内人口は未集計"},"geometry":{"type":"Polygon","coordinates":[[[130.44112279716379,33.5125],[130.440543333,33.512958613],[130.439804994,33.513068613],[130.439593061,33.513855],[130.438949442,33.513993054000004],[130.438928327,33.514165829],[130.438714721,33.514306387000005],[130.438434994,33.515453333],[130.437967224,33.515525559],[130.43788138800002,33.515905279],[130.437623891,33.515941387],[130.4375,33.51630872141869],[130.4375,33.51666666666667],[130.44375,33.516666666666666],[130.44375,33.512499999999996],[130.44112279716379,33.5125]]]}},{"type":"Feature","id":"40218:503023154","properties":{"id":"40218:503023154","meshCode":"503023154","cityCode":"40218","city":"春日市","lat":33.5145833,"lon":130.446875,"areaKm2":0.2683141,"populated2020":true,"population2020":2067.4287,"populationNote":"2020年基準の国交省調整値"},"geometry":{"type":"Polygon","coordinates":[[[130.44375,33.512499999999996],[130.44375,33.516666666666666],[130.45,33.516666666666666],[130.45,33.512499999999996],[130.44375,33.512499999999996]]]}},{"type":"Feature","id":"40218:503023163","properties":{"id":"40218:503023163","meshCode":"503023163","cityCode":"40218","city":"春日市","lat":33.5145833,"lon":130.453125,"areaKm2":0.2683137,"populated2020":true,"population2020":1204.0135,"populationNote":"2020年基準の国交省調整値"},"geometry":{"type":"Polygon","coordinates":[[[130.45,33.512499999999996],[130.45,33.516666666666666],[130.45625,33.51666666666666],[130.45625,33.5125],[130.45,33.512499999999996]]]}},{"type":"Feature","id":"40218:503023164","properties":{"id":"40218:503023164","meshCode":"503023164","cityCode":"40218","city":"春日市","lat":33.5145833,"lon":130.459375,"areaKm2":0.2683133,"populated2020":true,"population2020":2261.516,"populationNote":"2020年基準の国交省調整値"},"geometry":{"type":"Polygon","coordinates":[[[130.45625,33.5125],[130.45625,33.51666666666666],[130.4625,33.51666666666667],[130.4625,33.51250000000001],[130.45625,33.5125]]]}},{"type":"Feature","id":"40218:503023173","properties":{"id":"40218:503023173","meshCode":"503023173","cityCode":"40218","city":"春日市","lat":33.5145833,"lon":130.465625,"areaKm2":0.2683129,"populated2020":true,"population2020":2064.7331,"populationNote":"2020年基準の国交省調整値"},"geometry":{"type":"Polygon","coordinates":[[[130.4625,33.51250000000001],[130.4625,33.51666666666667],[130.46875,33.516666666666666],[130.46875,33.51250000000001],[130.4625,33.51250000000001]]]}},{"type":"Feature","id":"40218:503023174","properties":{"id":"40218:503023174","meshCode":"503023174","cityCode":"40218","city":"春日市","lat":33.5145833,"lon":130.471875,"areaKm2":0.2665365,"populated2020":true,"population2020":1293.5731,"populationNote":"2020年基準の国交省調整値"},"geometry":{"type":"Polygon","coordinates":[[[130.474887108,33.51547780200001],[130.475,33.515378721],[130.475,33.51319555900001],[130.474785642,33.512954135],[130.47466582505734,33.5125],[130.46875,33.51250000000001],[130.46875,33.516666666666666],[130.475,33.516666666666666],[130.475,33.515594162],[130.474887108,33.51547780200001]]]}},{"type":"Feature","id":"40218:503023183","properties":{"id":"40218:503023183","meshCode":"503023183","cityCode":"40218","city":"春日市","lat":33.514235,"lon":130.4752473,"areaKm2":0.0102867,"populated2020":true,"population2020":null,"populationNote":"境界またぎ・原典収録外のため自治体内人口は未集計"},"geometry":{"type":"MultiPolygon","coordinates":[[[[130.475450921,33.516533972999994],[130.47547166,33.516285532],[130.475,33.515594162],[130.475,33.516666666666666],[130.47576136122012,33.516666666666666],[130.475450921,33.516533972999994]]],[[[130.475,33.515378721],[130.475189001,33.515206279],[130.47523642,33.51466510800002],[130.475551388,33.514329027],[130.475345772,33.513970027],[130.475577419,33.51387963999999],[130.475,33.51319555900001],[130.475,33.515378721]]]]}},{"type":"Feature","id":"40218:503023242","properties":{"id":"40218:503023242","meshCode":"503023242","cityCode":"40218","city":"春日市","lat":33.5189422,"lon":130.4365303,"areaKm2":0.077425,"populated2020":true,"population2020":null,"populationNote":"境界またぎ・原典収録外のため自治体内人口は未集計"},"geometry":{"type":"Polygon","coordinates":[[[130.436621414,33.516666667],[130.436082776,33.517577225],[130.435799442,33.518501667],[130.435420558,33.51917194599999],[130.43563083,33.519285829000005],[130.435472503,33.519571667],[130.435422503,33.519871946],[130.4346787332843,33.52083333333334],[130.4375,33.520833333333336],[130.4375,33.51666666666667],[130.436621414,33.516666667]]]}},{"type":"Feature","id":"40218:503023251","properties":{"id":"40218:503023251","meshCode":"503023251","cityCode":"40218","city":"春日市","lat":33.51875,"lon":130.440625,"areaKm2":0.2683018,"populated2020":true,"population2020":2633.1515,"populationNote":"2020年基準の国交省調整値"},"geometry":{"type":"Polygon","coordinates":[[[130.4375,33.51666666666667],[130.4375,33.520833333333336],[130.44375,33.520833333333336],[130.44375,33.516666666666666],[130.4375,33.51666666666667]]]}},{"type":"Feature","id":"40218:503023252","properties":{"id":"40218:503023252","meshCode":"503023252","cityCode":"40218","city":"春日市","lat":33.51875,"lon":130.446875,"areaKm2":0.2683014,"populated2020":true,"population2020":2793.9028,"populationNote":"2020年基準の国交省調整値"},"geometry":{"type":"Polygon","coordinates":[[[130.44375,33.516666666666666],[130.44375,33.520833333333336],[130.45,33.52083333333334],[130.45,33.516666666666666],[130.44375,33.516666666666666]]]}},{"type":"Feature","id":"40218:503023261","properties":{"id":"40218:503023261","meshCode":"503023261","cityCode":"40218","city":"春日市","lat":33.51875,"lon":130.453125,"areaKm2":0.268301,"populated2020":true,"population2020":1978.4498,"populationNote":"2020年基準の国交省調整値"},"geometry":{"type":"Polygon","coordinates":[[[130.45,33.516666666666666],[130.45,33.52083333333334],[130.45625,33.52083333333334],[130.45625,33.51666666666666],[130.45,33.516666666666666]]]}},{"type":"Feature","id":"40218:503023262","properties":{"id":"40218:503023262","meshCode":"503023262","cityCode":"40218","city":"春日市","lat":33.51875,"lon":130.459375,"areaKm2":0.2683006,"populated2020":true,"population2020":1588.578,"populationNote":"2020年基準の国交省調整値"},"geometry":{"type":"Polygon","coordinates":[[[130.45625,33.51666666666666],[130.45625,33.52083333333334],[130.4625,33.520833333333336],[130.4625,33.51666666666667],[130.45625,33.51666666666666]]]}},{"type":"Feature","id":"40218:503023271","properties":{"id":"40218:503023271","meshCode":"503023271","cityCode":"40218","city":"春日市","lat":33.51875,"lon":130.465625,"areaKm2":0.2683002,"populated2020":true,"population2020":1606.1064,"populationNote":"2020年基準の国交省調整値"},"geometry":{"type":"Polygon","coordinates":[[[130.4625,33.51666666666667],[130.4625,33.520833333333336],[130.46875,33.520833333333336],[130.46875,33.516666666666666],[130.4625,33.51666666666667]]]}},{"type":"Feature","id":"40218:503023272","properties":{"id":"40218:503023272","meshCode":"503023272","cityCode":"40218","city":"春日市","lat":33.51875,"lon":130.471875,"areaKm2":0.2682998,"populated2020":true,"population2020":840.0658,"populationNote":"2020年基準の国交省調整値"},"geometry":{"type":"Polygon","coordinates":[[[130.46875,33.516666666666666],[130.46875,33.520833333333336],[130.475,33.520833333333336],[130.475,33.516666666666666],[130.46875,33.516666666666666]]]}},{"type":"Feature","id":"40218:503023281","properties":{"id":"40218:503023281","meshCode":"503023281","cityCode":"40218","city":"春日市","lat":33.5187814,"lon":130.4761675,"areaKm2":0.0945768,"populated2020":true,"population2020":null,"populationNote":"境界またぎ・原典収録外のため自治体内人口は未集計"},"geometry":{"type":"Polygon","coordinates":[[[130.4771341187755,33.520833333333336],[130.476929442,33.520531108],[130.477971946,33.519819721000005],[130.477895837,33.519315829],[130.477609442,33.518968333000004],[130.477248327,33.51872916199999],[130.477146394,33.517875279],[130.476770558,33.51738361299999],[130.475987004,33.516763108000006],[130.47576136122012,33.516666666666666],[130.475,33.516666666666666],[130.475,33.520833333333336],[130.4771341187755,33.520833333333336]]]}},{"type":"Feature","id":"40218:503023244","properties":{"id":"40218:503023244","meshCode":"503023244","cityCode":"40218","city":"春日市","lat":33.5229167,"lon":130.434375,"areaKm2":0.1061651,"populated2020":true,"population2020":null,"populationNote":"境界またぎ・原典収録外のため自治体内人口は未集計"},"geometry":{"type":"Polygon","coordinates":[[[130.434606939,33.52093722499999],[130.434781946,33.521835829],[130.43464917,33.522044721],[130.434285279,33.522313054],[130.434045551,33.52290555900001],[130.435273333,33.523809721],[130.43698083,33.524917495],[130.437374163,33.524906108],[130.43738869,33.525],[130.4375,33.525000000000006],[130.4375,33.520833333333336],[130.4346787332843,33.52083333333334],[130.434606939,33.52093722499999]]]}},{"type":"Feature","id":"40218:503023253","properties":{"id":"40218:503023253","meshCode":"503023253","cityCode":"40218","city":"春日市","lat":33.5229167,"lon":130.440625,"areaKm2":0.2682891,"populated2020":true,"population2020":2895.439,"populationNote":"2020年基準の国交省調整値"},"geometry":{"type":"Polygon","coordinates":[[[130.4375,33.520833333333336],[130.4375,33.525000000000006],[130.44375,33.525],[130.44375,33.520833333333336],[130.4375,33.520833333333336]]]}},{"type":"Feature","id":"40218:503023254","properties":{"id":"40218:503023254","meshCode":"503023254","cityCode":"40218","city":"春日市","lat":33.5229167,"lon":130.446875,"areaKm2":0.2682887,"populated2020":true,"population2020":2376.115,"populationNote":"2020年基準の国交省調整値"},"geometry":{"type":"Polygon","coordinates":[[[130.44375,33.520833333333336],[130.44375,33.525],[130.45,33.525],[130.45,33.52083333333334],[130.44375,33.520833333333336]]]}},{"type":"Feature","id":"40218:503023263","properties":{"id":"40218:503023263","meshCode":"503023263","cityCode":"40218","city":"春日市","lat":33.5229167,"lon":130.453125,"areaKm2":0.2682883,"populated2020":true,"population2020":3157.0399,"populationNote":"2020年基準の国交省調整値"},"geometry":{"type":"Polygon","coordinates":[[[130.45,33.52083333333334],[130.45,33.525],[130.45625,33.525],[130.45625,33.52083333333334],[130.45,33.52083333333334]]]}},{"type":"Feature","id":"40218:503023264","properties":{"id":"40218:503023264","meshCode":"503023264","cityCode":"40218","city":"春日市","lat":33.5229167,"lon":130.459375,"areaKm2":0.2682879,"populated2020":true,"population2020":2368.4608,"populationNote":"2020年基準の国交省調整値"},"geometry":{"type":"Polygon","coordinates":[[[130.45625,33.52083333333334],[130.45625,33.525],[130.4625,33.525000000000006],[130.4625,33.520833333333336],[130.45625,33.52083333333334]]]}},{"type":"Feature","id":"40218:503023273","properties":{"id":"40218:503023273","meshCode":"503023273","cityCode":"40218","city":"春日市","lat":33.5229167,"lon":130.465625,"areaKm2":0.2682875,"populated2020":true,"population2020":787.197,"populationNote":"2020年基準の国交省調整値"},"geometry":{"type":"Polygon","coordinates":[[[130.4625,33.520833333333336],[130.4625,33.525000000000006],[130.46875,33.52499999999999],[130.46875,33.520833333333336],[130.4625,33.520833333333336]]]}},{"type":"Feature","id":"40218:503023274","properties":{"id":"40218:503023274","meshCode":"503023274","cityCode":"40218","city":"春日市","lat":33.5229167,"lon":130.471875,"areaKm2":0.2682871,"populated2020":true,"population2020":791.1152,"populationNote":"2020年基準の国交省調整値"},"geometry":{"type":"Polygon","coordinates":[[[130.46875,33.520833333333336],[130.46875,33.52499999999999],[130.475,33.525],[130.475,33.520833333333336],[130.46875,33.520833333333336]]]}},{"type":"Feature","id":"40218:503023283","properties":{"id":"40218:503023283","meshCode":"503023283","cityCode":"40218","city":"春日市","lat":33.5229182,"lon":130.4764978,"areaKm2":0.1250683,"populated2020":true,"population2020":null,"populationNote":"境界またぎ・原典収録外のため自治体内人口は未集計"},"geometry":{"type":"Polygon","coordinates":[[[130.478721284,33.525000000000006],[130.478936394,33.524605],[130.478884721,33.524367775],[130.478240272,33.52390249500001],[130.477658054,33.523636108],[130.477972218,33.52316694600001],[130.477993061,33.522868892],[130.477863606,33.522640829],[130.47720917,33.522060829],[130.477581946,33.521424162],[130.477235551,33.520935279],[130.4771341187755,33.520833333333336],[130.475,33.520833333333336],[130.475,33.525],[130.478721284,33.525000000000006]]]}},{"type":"Feature","id":"40218:503023342","properties":{"id":"40218:503023342","meshCode":"503023342","cityCode":"40218","city":"春日市","lat":33.5271083,"lon":130.4366862,"areaKm2":0.0502007,"populated2020":true,"population2020":null,"populationNote":"境界またぎ・原典収録外のため自治体内人口は未集計"},"geometry":{"type":"Polygon","coordinates":[[[130.43738869,33.525],[130.437404994,33.52521555900001],[130.437160558,33.525531667],[130.43548917,33.52755499999999],[130.43632083,33.528152225],[130.43581221800002,33.52892000000001],[130.43615687490518,33.52916666666667],[130.4375,33.52916666666667],[130.4375,33.525000000000006],[130.43738869,33.525]]]}},{"type":"Feature","id":"40218:503023351","properties":{"id":"40218:503023351","meshCode":"503023351","cityCode":"40218","city":"春日市","lat":33.5270833,"lon":130.440625,"areaKm2":0.2682764,"populated2020":true,"population2020":2561.7344,"populationNote":"2020年基準の国交省調整値"},"geometry":{"type":"Polygon","coordinates":[[[130.4375,33.525000000000006],[130.4375,33.52916666666667],[130.44375,33.529166666666676],[130.44375,33.525],[130.4375,33.525000000000006]]]}},{"type":"Feature","id":"40218:503023352","properties":{"id":"40218:503023352","meshCode":"503023352","cityCode":"40218","city":"春日市","lat":33.5270833,"lon":130.446875,"areaKm2":0.268276,"populated2020":true,"population2020":2618.9344,"populationNote":"2020年基準の国交省調整値"},"geometry":{"type":"Polygon","coordinates":[[[130.44375,33.525],[130.44375,33.529166666666676],[130.45,33.52916666666667],[130.45,33.525],[130.44375,33.525]]]}},{"type":"Feature","id":"40218:503023361","properties":{"id":"40218:503023361","meshCode":"503023361","cityCode":"40218","city":"春日市","lat":33.5270833,"lon":130.453125,"areaKm2":0.2682756,"populated2020":true,"population2020":2166.766,"populationNote":"2020年基準の国交省調整値"},"geometry":{"type":"Polygon","coordinates":[[[130.45,33.525],[130.45,33.52916666666667],[130.45625,33.52916666666667],[130.45625,33.525],[130.45,33.525]]]}},{"type":"Feature","id":"40218:503023362","properties":{"id":"40218:503023362","meshCode":"503023362","cityCode":"40218","city":"春日市","lat":33.5270833,"lon":130.459375,"areaKm2":0.2682752,"populated2020":true,"population2020":2602.5362,"populationNote":"2020年基準の国交省調整値"},"geometry":{"type":"Polygon","coordinates":[[[130.45625,33.525],[130.45625,33.52916666666667],[130.4625,33.52916666666667],[130.4625,33.525000000000006],[130.45625,33.525]]]}},{"type":"Feature","id":"40218:503023371","properties":{"id":"40218:503023371","meshCode":"503023371","cityCode":"40218","city":"春日市","lat":33.5270833,"lon":130.465625,"areaKm2":0.2682748,"populated2020":true,"population2020":1433.5892,"populationNote":"2020年基準の国交省調整値"},"geometry":{"type":"Polygon","coordinates":[[[130.4625,33.525000000000006],[130.4625,33.52916666666667],[130.46875,33.52916666666667],[130.46875,33.52499999999999],[130.4625,33.525000000000006]]]}},{"type":"Feature","id":"40218:503023372","properties":{"id":"40218:503023372","meshCode":"503023372","cityCode":"40218","city":"春日市","lat":33.5270833,"lon":130.471875,"areaKm2":0.2682745,"populated2020":true,"population2020":1744.01,"populationNote":"2020年基準の国交省調整値"},"geometry":{"type":"Polygon","coordinates":[[[130.46875,33.52499999999999],[130.46875,33.52916666666667],[130.475,33.52916666666667],[130.475,33.525],[130.46875,33.52499999999999]]]}},{"type":"Feature","id":"40218:503023381","properties":{"id":"40218:503023381","meshCode":"503023381","cityCode":"40218","city":"春日市","lat":33.5270833,"lon":130.478125,"areaKm2":0.1604573,"populated2020":true,"population2020":null,"populationNote":"境界またぎ・原典収録外のため自治体内人口は未集計"},"geometry":{"type":"Polygon","coordinates":[[[130.477683891,33.529130829],[130.478814163,33.527973333],[130.479092503,33.527342225],[130.479116667,33.527107775],[130.479367497,33.526838054],[130.478666667,33.526341667000004],[130.47878166,33.526064441],[130.479144163,33.525641108],[130.478580558,33.525325],[130.478700558,33.52518055899999],[130.478721284,33.525000000000006],[130.475,33.525],[130.475,33.52916666666667],[130.477683891,33.529130829]]]}},{"type":"Feature","id":"40218:503023344","properties":{"id":"40218:503023344","meshCode":"503023344","cityCode":"40218","city":"春日市","lat":33.5295132,"lon":130.4370931,"areaKm2":0.0047527,"populated2020":true,"population2020":null,"populationNote":"境界またぎ・原典収録外のため自治体内人口は未集計"},"geometry":{"type":"Polygon","coordinates":[[[130.436194163,33.529193333],[130.436714163,33.529531387],[130.437018327,33.529531387],[130.4375,33.52984441738688],[130.4375,33.52916666666667],[130.436194163,33.529193333]]]}},{"type":"Feature","id":"40218:503023353","properties":{"id":"40218:503023353","meshCode":"503023353","cityCode":"40218","city":"春日市","lat":33.5312806,"lon":130.4426128,"areaKm2":0.1301309,"populated2020":true,"population2020":null,"populationNote":"境界またぎ・原典収録外のため自治体内人口は未集計"},"geometry":{"type":"Polygon","coordinates":[[[130.4375,33.52984441738688],[130.438728885,33.530649441],[130.438983891,33.530406387],[130.43974472100004,33.530713892],[130.440117224,33.530191945999995],[130.440349442,33.530294162000004],[130.440814163,33.530829441],[130.441105551,33.530818054],[130.441228612,33.53098889200001],[130.441413061,33.53099833299999],[130.441532503,33.53150249499999],[130.441873891,33.531362225],[130.442116667,33.53185500000001],[130.442326939,33.531786667],[130.442495279,33.532183613],[130.442898612,33.532742225],[130.443018327,33.533227775],[130.44293535649206,33.53333333333333],[130.44375,33.533333333333324],[130.44375,33.529166666666676],[130.4375,33.52916666666667],[130.4375,33.52984441738688]]]}},{"type":"Feature","id":"40218:503023354","properties":{"id":"40218:503023354","meshCode":"503023354","cityCode":"40218","city":"春日市","lat":33.53125,"lon":130.446875,"areaKm2":0.2682633,"populated2020":true,"population2020":2811.4682,"populationNote":"2020年基準の国交省調整値"},"geometry":{"type":"Polygon","coordinates":[[[130.44375,33.529166666666676],[130.44375,33.533333333333324],[130.45,33.53333333333334],[130.45,33.52916666666667],[130.44375,33.529166666666676]]]}},{"type":"Feature","id":"40218:503023363","properties":{"id":"40218:503023363","meshCode":"503023363","cityCode":"40218","city":"春日市","lat":33.53125,"lon":130.453125,"areaKm2":0.2682629,"populated2020":true,"population2020":2601.2165,"populationNote":"2020年基準の国交省調整値"},"geometry":{"type":"Polygon","coordinates":[[[130.45,33.52916666666667],[130.45,33.53333333333334],[130.45625,33.53333333333333],[130.45625,33.52916666666667],[130.45,33.52916666666667]]]}},{"type":"Feature","id":"40218:503023364","properties":{"id":"40218:503023364","meshCode":"503023364","cityCode":"40218","city":"春日市","lat":33.53125,"lon":130.459375,"areaKm2":0.2682625,"populated2020":true,"population2020":3134.1946,"populationNote":"2020年基準の国交省調整値"},"geometry":{"type":"Polygon","coordinates":[[[130.45625,33.52916666666667],[130.45625,33.53333333333333],[130.4625,33.533333333333324],[130.4625,33.52916666666667],[130.45625,33.52916666666667]]]}},{"type":"Feature","id":"40218:503023373","properties":{"id":"40218:503023373","meshCode":"503023373","cityCode":"40218","city":"春日市","lat":33.53125,"lon":130.465625,"areaKm2":0.2682621,"populated2020":true,"population2020":1433.1386,"populationNote":"2020年基準の国交省調整値"},"geometry":{"type":"Polygon","coordinates":[[[130.4625,33.52916666666667],[130.4625,33.533333333333324],[130.46875,33.53333333333333],[130.46875,33.52916666666667],[130.4625,33.52916666666667]]]}},{"type":"Feature","id":"40218:503023374","properties":{"id":"40218:503023374","meshCode":"503023374","cityCode":"40218","city":"春日市","lat":33.53125,"lon":130.471875,"areaKm2":0.2682618,"populated2020":true,"population2020":1221.0579,"populationNote":"2020年基準の国交省調整値"},"geometry":{"type":"Polygon","coordinates":[[[130.46875,33.52916666666667],[130.46875,33.53333333333333],[130.475,33.533333333333324],[130.475,33.52916666666667],[130.46875,33.52916666666667]]]}},{"type":"Feature","id":"40218:503023383","properties":{"id":"40218:503023383","meshCode":"503023383","cityCode":"40218","city":"春日市","lat":33.5311922,"lon":130.4753279,"areaKm2":0.051801,"populated2020":true,"population2020":null,"populationNote":"境界またぎ・原典収録外のため自治体内人口は未集計"},"geometry":{"type":"Polygon","coordinates":[[[130.475844332,33.533333333],[130.476222503,33.532598892],[130.476216109,33.53214722500001],[130.476177224,33.532010559],[130.475942503,33.532015279],[130.475853333,33.53181582900001],[130.475382218,33.531426667],[130.475918327,33.530951946],[130.475498885,33.530624441],[130.476012218,33.530231387],[130.476122503,33.530210559],[130.476413891,33.530421387000004],[130.47764490040123,33.52916666666667],[130.475,33.52916666666667],[130.475,33.533333333333324],[130.475844332,33.533333333]]]}},{"type":"Feature","id":"40218:503023451","properties":{"id":"40218:503023451","meshCode":"503023451","cityCode":"40218","city":"春日市","lat":33.5354474,"lon":130.4427444,"areaKm2":0.0876061,"populated2020":true,"population2020":null,"populationNote":"境界またぎ・原典収録外のため自治体内人口は未集計"},"geometry":{"type":"Polygon","coordinates":[[[130.44293535649206,33.53333333333333],[130.442612503,33.533587775],[130.442355279,33.534146666999995],[130.442340558,33.534406667],[130.442434449,33.534619441],[130.441051115,33.536333054],[130.44061128099221,33.53750000000001],[130.44375,33.5375],[130.44375,33.533333333333324],[130.44293535649206,33.53333333333333]]]}},{"type":"Feature","id":"40218:503023452","properties":{"id":"40218:503023452","meshCode":"503023452","cityCode":"40218","city":"春日市","lat":33.5354167,"lon":130.446875,"areaKm2":0.2682506,"populated2020":true,"population2020":3258.9941,"populationNote":"2020年基準の国交省調整値"},"geometry":{"type":"Polygon","coordinates":[[[130.44375,33.533333333333324],[130.44375,33.5375],[130.45,33.53750000000001],[130.45,33.53333333333334],[130.44375,33.533333333333324]]]}},{"type":"Feature","id":"40218:503023461","properties":{"id":"40218:503023461","meshCode":"503023461","cityCode":"40218","city":"春日市","lat":33.5354167,"lon":130.453125,"areaKm2":0.2682502,"populated2020":true,"population2020":3197.3612,"populationNote":"2020年基準の国交省調整値"},"geometry":{"type":"Polygon","coordinates":[[[130.45,33.53333333333334],[130.45,33.53750000000001],[130.45625,33.5375],[130.45625,33.53333333333333],[130.45,33.53333333333334]]]}},{"type":"Feature","id":"40218:503023462","properties":{"id":"40218:503023462","meshCode":"503023462","cityCode":"40218","city":"春日市","lat":33.5354167,"lon":130.459375,"areaKm2":0.2669066,"populated2020":true,"population2020":3876.2004,"populationNote":"2020年基準の国交省調整値"},"geometry":{"type":"Polygon","coordinates":[[[130.461660272,33.53748194599999],[130.462293606,33.53730027899999],[130.4625,33.537110148146056],[130.4625,33.533333333333324],[130.45625,33.53333333333333],[130.45625,33.5375],[130.461660272,33.53748194599999]]]}},{"type":"Feature","id":"40218:503023471","properties":{"id":"40218:503023471","meshCode":"503023471","cityCode":"40218","city":"春日市","lat":33.5354167,"lon":130.465625,"areaKm2":0.2275037,"populated2020":true,"population2020":null,"populationNote":"境界またぎ・原典収録外のため自治体内人口は未集計"},"geometry":{"type":"Polygon","coordinates":[[[130.4625,33.537110148146056],[130.462945551,33.536678054],[130.462953061,33.536198332999994],[130.463394721,33.535841387],[130.463773606,33.53603889200001],[130.464053891,33.535816946],[130.464226939,33.535987774999995],[130.464321946,33.53637416200001],[130.464721946,33.536351387],[130.465233333,33.536880000000004],[130.465283333,33.537103892],[130.46576585428488,33.5375],[130.46614589129808,33.5375],[130.467167497,33.536642775],[130.467306667,33.537322225],[130.46742666700004,33.537441667],[130.467565276515,33.53750000000001],[130.46875,33.5375],[130.46875,33.53333333333333],[130.4625,33.533333333333324],[130.4625,33.537110148146056]]]}},{"type":"Feature","id":"40218:503023472","properties":{"id":"40218:503023472","meshCode":"503023472","cityCode":"40218","city":"春日市","lat":33.5354167,"lon":130.471875,"areaKm2":0.2679987,"populated2020":true,"population2020":4197.8308,"populationNote":"2020年基準の国交省調整値"},"geometry":{"type":"Polygon","coordinates":[[[130.474791115,33.537466108],[130.475,33.53730719799999],[130.475,33.533333333333324],[130.46875,33.53333333333333],[130.46875,33.5375],[130.474791115,33.537466108]]]}},{"type":"Feature","id":"40218:503023481","properties":{"id":"40218:503023481","meshCode":"503023481","cityCode":"40218","city":"春日市","lat":33.5353271,"lon":130.4759509,"areaKm2":0.0502787,"populated2020":true,"population2020":null,"populationNote":"境界またぎ・原典収録外のため自治体内人口は未集計"},"geometry":{"type":"Polygon","coordinates":[[[130.475,33.53730719799999],[130.477044994,33.535655559],[130.47699,33.53542777500001],[130.476518885,33.53491889200001],[130.476302218,33.534274441],[130.475768612,33.533753613],[130.47584433193725,33.53333333333333],[130.475,33.533333333333324],[130.475,33.53730719799999]]]}},{"type":"Feature","id":"40218:503023453","properties":{"id":"40218:503023453","meshCode":"503023453","cityCode":"40218","city":"春日市","lat":33.5395833,"lon":130.440625,"areaKm2":0.1602265,"populated2020":true,"population2020":null,"populationNote":"境界またぎ・原典収録外のため自治体内人口は未集計"},"geometry":{"type":"Polygon","coordinates":[[[130.440594449,33.537535279],[130.440317497,33.53765305400001],[130.440278885,33.537839162],[130.44026083,33.538105],[130.440470558,33.538406946],[130.440407224,33.53878666699999],[130.439846939,33.53892527899999],[130.439297224,33.539725279],[130.440413606,33.54052305399999],[130.43977917,33.541165829],[130.43994099907061,33.541666666666664],[130.44375,33.541666666666664],[130.44375,33.5375],[130.440594449,33.537535279]]]}},{"type":"Feature","id":"40218:503023454","properties":{"id":"40218:503023454","meshCode":"503023454","cityCode":"40218","city":"春日市","lat":33.5395833,"lon":130.446875,"areaKm2":0.2682379,"populated2020":true,"population2020":2720.0947,"populationNote":"2020年基準の国交省調整値"},"geometry":{"type":"Polygon","coordinates":[[[130.44375,33.5375],[130.44375,33.541666666666664],[130.45,33.541666666666664],[130.45,33.53750000000001],[130.44375,33.5375]]]}},{"type":"Feature","id":"40218:503023463","properties":{"id":"40218:503023463","meshCode":"503023463","cityCode":"40218","city":"春日市","lat":33.5395833,"lon":130.453125,"areaKm2":0.2682375,"populated2020":true,"population2020":976.0227,"populationNote":"2020年基準の国交省調整値"},"geometry":{"type":"Polygon","coordinates":[[[130.45,33.53750000000001],[130.45,33.541666666666664],[130.45625,33.54166666666667],[130.45625,33.5375],[130.45,33.53750000000001]]]}},{"type":"Feature","id":"40218:503023464","properties":{"id":"40218:503023464","meshCode":"503023464","cityCode":"40218","city":"春日市","lat":33.5395833,"lon":130.459375,"areaKm2":0.1521432,"populated2020":true,"population2020":null,"populationNote":"境界またぎ・原典収録外のため自治体内人口は未集計"},"geometry":{"type":"Polygon","coordinates":[[[130.4580460051833,33.541666666666664],[130.45872166,33.540673053999996],[130.459200558,33.540259162000005],[130.459186939,33.540005559],[130.459638612,33.539348053999994],[130.460517224,33.53931389200001],[130.460659728,33.53923416199999],[130.46073083,33.538761386999994],[130.4615976179357,33.5375],[130.45625,33.5375],[130.45625,33.54166666666667],[130.4580460051833,33.541666666666664]]]}},{"type":"Feature","id":"40218:503023473","properties":{"id":"40218:503023473","meshCode":"503023473","cityCode":"40218","city":"春日市","lat":33.5376256,"lon":130.4683229,"areaKm2":0.0028075,"populated2020":true,"population2020":null,"populationNote":"境界またぎ・原典収録外のため自治体内人口は未集計"},"geometry":{"type":"MultiPolygon","coordinates":[[[[130.465939222,33.537672],[130.46614589129808,33.5375],[130.46576585428488,33.5375],[130.465939222,33.537672]]],[[[130.467565276515,33.53750000000001],[130.468331115,33.53777138699999],[130.46875,33.53785613850885],[130.46875,33.5375],[130.467565276515,33.53750000000001]]]]}},{"type":"Feature","id":"40218:503023474","properties":{"id":"40218:503023474","meshCode":"503023474","cityCode":"40218","city":"春日市","lat":33.5383643,"lon":130.4730321,"areaKm2":0.0536421,"populated2020":true,"population2020":null,"populationNote":"境界またぎ・原典収録外のため自治体内人口は未集計"},"geometry":{"type":"Polygon","coordinates":[[[130.46875,33.53785613850885],[130.469411388,33.537973333],[130.469894449,33.53817305399999],[130.470935837,33.53831916199999],[130.471351946,33.538630559],[130.471883061,33.53816361300001],[130.473136939,33.539231108],[130.474007782,33.538269162000006],[130.474815279,33.53774777499999],[130.47465166,33.537596107999995],[130.47475475800877,33.5375],[130.46875,33.5375],[130.46875,33.53785613850885]]]}},{"type":"Feature","id":"40218:503023551","properties":{"id":"40218:503023551","meshCode":"503023551","cityCode":"40218","city":"春日市","lat":33.5436761,"lon":130.4425943,"areaKm2":0.1113195,"populated2020":true,"population2020":null,"populationNote":"境界またぎ・原典収録外のため自治体内人口は未集計"},"geometry":{"type":"Polygon","coordinates":[[[130.439940999,33.54166666700001],[130.439727224,33.542295559],[130.439644721,33.542906946],[130.440454163,33.543100559],[130.441791946,33.543864162],[130.442381115,33.54435861299999],[130.442394163,33.544565279],[130.442029728,33.544571108],[130.442063891,33.545066667],[130.442258054,33.545540279],[130.44220597477354,33.545833333333334],[130.44375,33.54583333333334],[130.44375,33.541666666666664],[130.439940999,33.54166666700001]]]}},{"type":"Feature","id":"40218:503023552","properties":{"id":"40218:503023552","meshCode":"503023552","cityCode":"40218","city":"春日市","lat":33.54375,"lon":130.446875,"areaKm2":0.2682252,"populated2020":true,"population2020":3304.371,"populationNote":"2020年基準の国交省調整値"},"geometry":{"type":"Polygon","coordinates":[[[130.44375,33.541666666666664],[130.44375,33.54583333333334],[130.45,33.54583333333334],[130.45,33.541666666666664],[130.44375,33.541666666666664]]]}},{"type":"Feature","id":"40218:503023561","properties":{"id":"40218:503023561","meshCode":"503023561","cityCode":"40218","city":"春日市","lat":33.54375,"lon":130.453125,"areaKm2":0.2488564,"populated2020":true,"population2020":4342.6562,"populationNote":"2020年基準の国交省調整値"},"geometry":{"type":"Polygon","coordinates":[[[130.4544840938325,33.545833333333334],[130.454698054,33.545231108],[130.454994163,33.54483416200001],[130.455769442,33.54455749500001],[130.45625,33.54417686799283],[130.45625,33.54166666666667],[130.45,33.541666666666664],[130.45,33.54583333333334],[130.4544840938325,33.545833333333334]]]}},{"type":"Feature","id":"40218:503023562","properties":{"id":"40218:503023562","meshCode":"503023562","cityCode":"40218","city":"春日市","lat":33.5428361,"lon":130.4567752,"areaKm2":0.0256504,"populated2020":true,"population2020":null,"populationNote":"境界またぎ・原典収録外のため自治体内人口は未集計"},"geometry":{"type":"Polygon","coordinates":[[[130.45625,33.54417686799283],[130.457004721,33.543422495],[130.457474449,33.542520829],[130.4580460051833,33.541666666666664],[130.45625,33.54166666666667],[130.45625,33.54417686799283]]]}},{"type":"Feature","id":"40218:503023553","properties":{"id":"40218:503023553","meshCode":"503023553","cityCode":"40218","city":"春日市","lat":33.54642,"lon":130.4429063,"areaKm2":0.0150002,"populated2020":true,"population2020":null,"populationNote":"境界またぎ・原典収録外のため自治体内人口は未集計"},"geometry":{"type":"Polygon","coordinates":[[[130.44220597477354,33.545833333333334],[130.442163891,33.546600279],[130.442554163,33.546693054],[130.443141115,33.547064721],[130.443658327,33.546457694],[130.44375,33.54583333333334],[130.44220597477354,33.545833333333334]]]}},{"type":"Feature","id":"40218:503023554","properties":{"id":"40218:503023554","meshCode":"503023554","cityCode":"40218","city":"春日市","lat":33.5474683,"lon":130.4469766,"areaKm2":0.1049308,"populated2020":true,"population2020":null,"populationNote":"境界またぎ・原典収録外のため自治体内人口は未集計"},"geometry":{"type":"Polygon","coordinates":[[[130.4437738,33.546095306],[130.445031479,33.547260775],[130.445450272,33.547426667],[130.445638054,33.547005279000004],[130.445995837,33.547284162],[130.446064254,33.547731667],[130.448128327,33.547432225],[130.448865837,33.547233333],[130.449713606,33.549088054],[130.45,33.549091532],[130.45,33.54583333333334],[130.44375,33.54583333333334],[130.44375,33.54616999735124],[130.4437738,33.546095306]]]}},{"type":"Feature","id":"40218:503023563","properties":{"id":"40218:503023563","meshCode":"503023563","cityCode":"40218","city":"春日市","lat":33.5476046,"lon":130.4516769,"areaKm2":0.1106938,"populated2020":true,"population2020":null,"populationNote":"境界またぎ・原典収録外のため自治体内人口は未集計"},"geometry":{"type":"Polygon","coordinates":[[[130.45,33.549091532],[130.452234163,33.548802775],[130.453028885,33.548186666999996],[130.45293,33.547947495],[130.4537262,33.547300531999994],[130.453592244,33.547131829],[130.453334968,33.547014252],[130.453495305,33.54677263999999],[130.453922218,33.546647828999994],[130.45404808,33.546667892],[130.45428108900003,33.546872919],[130.454396304,33.546761532],[130.4544840938325,33.545833333333334],[130.45,33.54583333333334],[130.45,33.549091532]]]}}]}