{"type":"FeatureCollection","metadata":{"cityCode":"40212","city":"大川市","resolution":500,"boundaryDate":"2026-01-01","populationLabel":"2020年基準人口（国交省調整値）","method":"標準地域メッシュを行政界で切抜き。中心が区域外のとき区域内代表点を判定点にする。人口不明をゼロにしない。"},"features":[{"type":"Feature","id":"40212:493062081","properties":{"id":"40212:493062081","meshCode":"493062081","cityCode":"40212","city":"大川市","lat":33.1707743,"lon":130.3552189,"areaKm2":0.002787,"populated2020":false,"population2020":null,"populationNote":"境界またぎ・原典収録外のため自治体内人口は未集計"},"geometry":{"type":"Polygon","coordinates":[[[130.356234994,33.170760829],[130.355712218,33.170716108],[130.352144994,33.17079638700001],[130.35625,33.170833333333334],[130.356234994,33.170760829]]]}},{"type":"Feature","id":"40212:493062082","properties":{"id":"40212:493062082","meshCode":"493062082","cityCode":"40212","city":"大川市","lat":33.1707893,"lon":130.356278,"areaKm2":5.77e-05,"populated2020":true,"population2020":null,"populationNote":"境界またぎ・原典収録外のため自治体内人口は未集計"},"geometry":{"type":"MultiPolygon","coordinates":[[[[130.36247827056314,33.170833333333334],[130.3625,33.170833333333334],[130.3625,33.17080836841755],[130.36247827056314,33.170833333333334]]],[[[130.356361946,33.170811667],[130.35625,33.17076683816115],[130.35625,33.170833333333334],[130.356361946,33.170811667]]]]}},{"type":"Feature","id":"40212:493062091","properties":{"id":"40212:493062091","meshCode":"493062091","cityCode":"40212","city":"大川市","lat":33.1707943,"lon":130.3625291,"areaKm2":3.22e-05,"populated2020":true,"population2020":null,"populationNote":"境界またぎ・原典収録外のため自治体内人口は未集計"},"geometry":{"type":"Polygon","coordinates":[[[130.362524449,33.170780279],[130.3625,33.170833333333334],[130.3626057022057,33.170833333333334],[130.362524449,33.170780279]]]}},{"type":"Feature","id":"40212:493062083","properties":{"id":"40212:493062083","meshCode":"493062083","cityCode":"40212","city":"大川市","lat":33.1729167,"lon":130.353125,"areaKm2":0.1767674,"populated2020":false,"population2020":null,"populationNote":"境界またぎ・原典収録外のため自治体内人口は未集計"},"geometry":{"type":"Polygon","coordinates":[[[130.35214572154462,33.170833333333334],[130.35211917,33.173406107999995],[130.352237134,33.175],[130.35625,33.175],[130.35625,33.170833333333334],[130.35214572154462,33.170833333333334]]]}},{"type":"Feature","id":"40212:493062084","properties":{"id":"40212:493062084","meshCode":"493062084","cityCode":"40212","city":"大川市","lat":33.1729167,"lon":130.359375,"areaKm2":0.2188335,"populated2020":true,"population2020":8.0257,"populationNote":"2020年基準の国交省調整値"},"geometry":{"type":"Polygon","coordinates":[[[130.3625,33.170833333333334],[130.361791388,33.171580279],[130.360819728,33.171123892000004],[130.359514994,33.172558892],[130.358920558,33.172255279000005],[130.358583606,33.172211667000006],[130.357660558,33.171552225],[130.35639676589693,33.17083333333333],[130.35625,33.170833333333334],[130.35625,33.175],[130.3625,33.17499999999999],[130.3625,33.170833333333334]]]}},{"type":"Feature","id":"40212:493062093","properties":{"id":"40212:493062093","meshCode":"493062093","cityCode":"40212","city":"大川市","lat":33.1729167,"lon":130.365625,"areaKm2":0.1310904,"populated2020":true,"population2020":null,"populationNote":"境界またぎ・原典収録外のため自治体内人口は未集計"},"geometry":{"type":"Polygon","coordinates":[[[130.366852088,33.175],[130.367045551,33.174485279],[130.367542218,33.17401444099999],[130.3626057022057,33.170833333333334],[130.3625,33.170833333333334],[130.3625,33.17499999999999],[130.366852088,33.175]]]}},{"type":"Feature","id":"40212:493062181","properties":{"id":"40212:493062181","meshCode":"493062181","cityCode":"40212","city":"大川市","lat":33.1770833,"lon":130.353125,"areaKm2":0.161768,"populated2020":false,"population2020":null,"populationNote":"境界またぎ・原典収録外のため自治体内人口は未集計"},"geometry":{"type":"Polygon","coordinates":[[[130.352237134,33.175],[130.352379728,33.176486667000006],[130.35282745687616,33.179166666666674],[130.35625,33.179166666666674],[130.35625,33.175],[130.352237134,33.175]]]}},{"type":"Feature","id":"40212:493062182","properties":{"id":"40212:493062182","meshCode":"493062182","cityCode":"40212","city":"大川市","lat":33.1770833,"lon":130.359375,"areaKm2":0.2693427,"populated2020":true,"population2020":253.1653,"populationNote":"2020年基準の国交省調整値"},"geometry":{"type":"Polygon","coordinates":[[[130.35625,33.175],[130.35625,33.179166666666674],[130.3625,33.17916666666667],[130.3625,33.17499999999999],[130.35625,33.175]]]}},{"type":"Feature","id":"40212:493062191","properties":{"id":"40212:493062191","meshCode":"493062191","cityCode":"40212","city":"大川市","lat":33.1770833,"lon":130.365625,"areaKm2":0.1866993,"populated2020":true,"population2020":76.312,"populationNote":"2020年基準の国交省調整値"},"geometry":{"type":"Polygon","coordinates":[[[130.36809928138678,33.17916666666667],[130.367815837,33.17873833299999],[130.365893606,33.177606946],[130.36619444900003,33.177351667],[130.366751946,33.17655166699999],[130.366854163,33.17586582900001],[130.366774994,33.17553082900001],[130.366852088,33.175],[130.3625,33.17499999999999],[130.3625,33.17916666666667],[130.36809928138678,33.17916666666667]]]}},{"type":"Feature","id":"40212:493063111","properties":{"id":"40212:493063111","meshCode":"493063111","cityCode":"40212","city":"大川市","lat":33.1791565,"lon":130.3921546,"areaKm2":8.3e-06,"populated2020":true,"population2020":null,"populationNote":"境界またぎ・原典収録外のため自治体内人口は未集計"},"geometry":{"type":"Polygon","coordinates":[[[130.392157497,33.17914638700001],[130.39211230624946,33.17916666666667],[130.39219105593872,33.17916666666667],[130.392157497,33.17914638700001]]]}},{"type":"Feature","id":"40212:493062174","properties":{"id":"40212:493062174","meshCode":"493062174","cityCode":"40212","city":"大川市","lat":33.1823337,"lon":130.3484494,"areaKm2":0.055092,"populated2020":false,"population2020":null,"populationNote":"境界またぎ・原典収録外のため自治体内人口は未集計"},"geometry":{"type":"Polygon","coordinates":[[[130.35000000000002,33.18119905399999],[130.348160558,33.181627774999995],[130.34688917,33.18204694600001],[130.346856939,33.182193053999995],[130.347059728,33.182801667],[130.34704291798963,33.18333333333333],[130.35000000000002,33.18333333333332],[130.35000000000002,33.18119905399999]]]}},{"type":"Feature","id":"40212:493062183","properties":{"id":"40212:493062183","meshCode":"493062183","cityCode":"40212","city":"大川市","lat":33.18125,"lon":130.353125,"areaKm2":0.2176997,"populated2020":false,"population2020":null,"populationNote":"境界またぎ・原典収録外のため自治体内人口は未集計"},"geometry":{"type":"Polygon","coordinates":[[[130.35282745687616,33.179166666666674],[130.35312000000002,33.180462225],[130.35000000000002,33.18119905399999],[130.35000000000002,33.18333333333332],[130.35625,33.18333333333332],[130.35625,33.179166666666674],[130.35282745687616,33.179166666666674]]]}},{"type":"Feature","id":"40212:493062184","properties":{"id":"40212:493062184","meshCode":"493062184","cityCode":"40212","city":"大川市","lat":33.18125,"lon":130.359375,"areaKm2":0.2693301,"populated2020":true,"population2020":301.5445,"populationNote":"2020年基準の国交省調整値"},"geometry":{"type":"Polygon","coordinates":[[[130.35625,33.179166666666674],[130.35625,33.18333333333332],[130.3625,33.18333333333333],[130.3625,33.17916666666667],[130.35625,33.179166666666674]]]}},{"type":"Feature","id":"40212:493062193","properties":{"id":"40212:493062193","meshCode":"493062193","cityCode":"40212","city":"大川市","lat":33.18125,"lon":130.365625,"areaKm2":0.2590382,"populated2020":true,"population2020":211.4935,"populationNote":"2020年基準の国交省調整値"},"geometry":{"type":"Polygon","coordinates":[[[130.36875,33.18333333333333],[130.368491115,33.182134441],[130.368661115,33.181895000000004],[130.368423333,33.180323333],[130.368401946,33.179622775],[130.36809928138678,33.17916666666667],[130.3625,33.17916666666667],[130.3625,33.18333333333333],[130.36875,33.18333333333333]]]}},{"type":"Feature","id":"40212:493062194","properties":{"id":"40212:493062194","meshCode":"493062194","cityCode":"40212","city":"大川市","lat":33.183242,"lon":130.3687861,"areaKm2":0.0001365,"populated2020":true,"population2020":null,"populationNote":"境界またぎ・原典収録外のため自治体内人口は未集計"},"geometry":{"type":"Polygon","coordinates":[[[130.368894553,33.18333333300001],[130.36875,33.183150718958146],[130.36875,33.18333333333333],[130.368894553,33.18333333300001]]]}},{"type":"Feature","id":"40212:493063103","properties":{"id":"40212:493063103","meshCode":"493063103","cityCode":"40212","city":"大川市","lat":33.1831964,"lon":130.3773297,"areaKm2":0.0008883,"populated2020":true,"population2020":null,"populationNote":"境界またぎ・原典収録外のため自治体内人口は未集計"},"geometry":{"type":"MultiPolygon","coordinates":[[[[130.37889642009463,33.18333333333333],[130.378895551,33.183330279],[130.37888846922596,33.18333333333332],[130.37889642009463,33.18333333333333]]],[[[130.37795224406904,33.18333333333332],[130.377917497,33.183258054],[130.37772286513086,33.18333333333333],[130.37795224406904,33.18333333333332]]],[[[130.377628275,33.18333333300001],[130.377374721,33.18309582900001],[130.37709917,33.183241946],[130.37711119308798,33.18333333333333],[130.377628275,33.18333333300001]]]]}},{"type":"Feature","id":"40212:493063104","properties":{"id":"40212:493063104","meshCode":"493063104","cityCode":"40212","city":"大川市","lat":33.1831556,"lon":130.3869599,"areaKm2":0.0038479,"populated2020":true,"population2020":null,"populationNote":"境界またぎ・原典収録外のため自治体内人口は未集計"},"geometry":{"type":"Polygon","coordinates":[[[130.3875,33.18295752152112],[130.386693061,33.183056945999994],[130.38605910418195,33.18333333333332],[130.3875,33.18333333333332],[130.3875,33.18295752152112]]]}},{"type":"Feature","id":"40212:493063113","properties":{"id":"40212:493063113","meshCode":"493063113","cityCode":"40212","city":"大川市","lat":33.18125,"lon":130.390625,"areaKm2":0.1939382,"populated2020":true,"population2020":null,"populationNote":"境界またぎ・原典収録外のため自治体内人口は未集計"},"geometry":{"type":"Polygon","coordinates":[[[130.393179857,33.182072135],[130.393695279,33.181275],[130.393233606,33.180895279000005],[130.392337224,33.179364721],[130.392197497,33.179170559000006],[130.39211230624946,33.17916666666667],[130.390502776,33.179843612999996],[130.38770055800003,33.180747225000005],[130.387715551,33.180991946000006],[130.388296109,33.182683333],[130.388248612,33.182786667],[130.387971946,33.182913613],[130.3875,33.18295752152112],[130.3875,33.18333333333332],[130.39375,33.18333333333333],[130.39375,33.18205902630592],[130.393179857,33.182072135]]]}},{"type":"Feature","id":"40212:493063114","properties":{"id":"40212:493063114","meshCode":"493063114","cityCode":"40212","city":"大川市","lat":33.1825886,"lon":130.3942384,"areaKm2":0.0142762,"populated2020":true,"population2020":null,"populationNote":"境界またぎ・原典収録外のため自治体内人口は未集計"},"geometry":{"type":"Polygon","coordinates":[[[130.395441115,33.183333333],[130.394227224,33.182048054],[130.39375,33.18205902630592],[130.39375,33.18333333333333],[130.395441115,33.183333333]]]}},{"type":"Feature","id":"40212:493062271","properties":{"id":"40212:493062271","meshCode":"493062271","cityCode":"40212","city":"大川市","lat":33.1872007,"lon":130.343621,"areaKm2":0.0016348,"populated2020":false,"population2020":null,"populationNote":"境界またぎ・原典収録外のため自治体内人口は未集計"},"geometry":{"type":"Polygon","coordinates":[[[130.343727497,33.18703277499999],[130.343306939,33.187340000000006],[130.34313413390743,33.1875],[130.34375,33.1875],[130.343727497,33.18703277499999]]]}},{"type":"Feature","id":"40212:493062272","properties":{"id":"40212:493062272","meshCode":"493062272","cityCode":"40212","city":"大川市","lat":33.1854167,"lon":130.346875,"areaKm2":0.2075837,"populated2020":true,"population2020":63.4423,"populationNote":"2020年基準の国交省調整値"},"geometry":{"type":"Polygon","coordinates":[[[130.34704291798963,33.18333333333333],[130.346950272,33.18367777500001],[130.34631,33.183870000000006],[130.345717782,33.184811108000005],[130.34471027200001,33.185722775],[130.344346667,33.186623054],[130.34375,33.187019986561026],[130.34375,33.1875],[130.35000000000002,33.1875],[130.35000000000002,33.18333333333332],[130.34704291798963,33.18333333333333]]]}},{"type":"Feature","id":"40212:493062281","properties":{"id":"40212:493062281","meshCode":"493062281","cityCode":"40212","city":"大川市","lat":33.1854167,"lon":130.353125,"areaKm2":0.269318,"populated2020":false,"population2020":null,"populationNote":"境界またぎ・原典収録外のため自治体内人口は未集計"},"geometry":{"type":"Polygon","coordinates":[[[130.35000000000002,33.18333333333332],[130.35000000000002,33.1875],[130.35625,33.1875],[130.35625,33.18333333333332],[130.35000000000002,33.18333333333332]]]}},{"type":"Feature","id":"40212:493062282","properties":{"id":"40212:493062282","meshCode":"493062282","cityCode":"40212","city":"大川市","lat":33.1854167,"lon":130.359375,"areaKm2":0.2693176,"populated2020":true,"population2020":351.9331,"populationNote":"2020年基準の国交省調整値"},"geometry":{"type":"Polygon","coordinates":[[[130.35625,33.18333333333332],[130.35625,33.1875],[130.3625,33.1875],[130.3625,33.18333333333333],[130.35625,33.18333333333332]]]}},{"type":"Feature","id":"40212:493062291","properties":{"id":"40212:493062291","meshCode":"493062291","cityCode":"40212","city":"大川市","lat":33.1854167,"lon":130.365625,"areaKm2":0.2693171,"populated2020":true,"population2020":263.6584,"populationNote":"2020年基準の国交省調整値"},"geometry":{"type":"Polygon","coordinates":[[[130.3625,33.18333333333333],[130.3625,33.1875],[130.36875,33.1875],[130.36875,33.18333333333333],[130.3625,33.18333333333333]]]}},{"type":"Feature","id":"40212:493062292","properties":{"id":"40212:493062292","meshCode":"493062292","cityCode":"40212","city":"大川市","lat":33.1854201,"lon":130.3700752,"areaKm2":0.1434255,"populated2020":true,"population2020":null,"populationNote":"境界またぎ・原典収録外のため自治体内人口は未集計"},"geometry":{"type":"Polygon","coordinates":[[[130.375,33.186373251999996],[130.373786394,33.185186667],[130.372145551,33.186275279],[130.371402776,33.185549162],[130.371399728,33.185382225],[130.370818054,33.18537722500001],[130.370564449,33.18528527899999],[130.36889455326389,33.18333333333333],[130.36875,33.18333333333333],[130.36875,33.1875],[130.375,33.1875],[130.375,33.186373251999996]]]}},{"type":"Feature","id":"40212:493063201","properties":{"id":"40212:493063201","meshCode":"493063201","cityCode":"40212","city":"大川市","lat":33.1854167,"lon":130.378125,"areaKm2":0.1388537,"populated2020":true,"population2020":null,"populationNote":"境界またぎ・原典収録外のため自治体内人口は未集計"},"geometry":{"type":"MultiPolygon","coordinates":[[[[130.38125,33.18521964759088],[130.380402503,33.18569666700001],[130.38001221800002,33.18493416199999],[130.379732503,33.184129721],[130.379133333,33.18428194599999],[130.37889642009463,33.18333333333333],[130.378054163,33.183651946],[130.37795224406904,33.18333333333332],[130.37711119308798,33.18333333333333],[130.377426109,33.184289162],[130.376454721,33.184821667],[130.376537782,33.185225],[130.377203891,33.185922775],[130.37793166,33.185419162],[130.378014721,33.185476945999994],[130.378082776,33.18585777500001],[130.377930272,33.18603889199999],[130.378004163,33.186218613],[130.377274721,33.18676305399999],[130.37791166,33.187411667],[130.37783725946412,33.1875],[130.38125,33.1875],[130.38125,33.18521964759088]]],[[[130.37613726285645,33.1875],[130.375305837,33.186705279],[130.375,33.186373251999996],[130.375,33.1875],[130.37613726285645,33.1875]]]]}},{"type":"Feature","id":"40212:493063202","properties":{"id":"40212:493063202","meshCode":"493063202","cityCode":"40212","city":"大川市","lat":33.1854167,"lon":130.384375,"areaKm2":0.2253703,"populated2020":true,"population2020":20.0911,"populationNote":"2020年基準の国交省調整値"},"geometry":{"type":"Polygon","coordinates":[[[130.38601888500003,33.183349721],[130.385088612,33.183579441000006],[130.38418917,33.184046387],[130.382087782,33.184823054],[130.38125,33.18521964759088],[130.38125,33.1875],[130.3875,33.1875],[130.3875,33.18333333333332],[130.38601888500003,33.183349721]]]}},{"type":"Feature","id":"40212:493063211","properties":{"id":"40212:493063211","meshCode":"493063211","cityCode":"40212","city":"大川市","lat":33.1854167,"lon":130.390625,"areaKm2":0.2693153,"populated2020":true,"population2020":191.9301,"populationNote":"2020年基準の国交省調整値"},"geometry":{"type":"Polygon","coordinates":[[[130.3875,33.18333333333332],[130.3875,33.1875],[130.39375,33.1875],[130.39375,33.18333333333333],[130.3875,33.18333333333332]]]}},{"type":"Feature","id":"40212:493063212","properties":{"id":"40212:493063212","meshCode":"493063212","cityCode":"40212","city":"大川市","lat":33.1854529,"lon":130.395218,"areaKm2":0.1333487,"populated2020":true,"population2020":null,"populationNote":"境界またぎ・原典収録外のため自治体内人口は未集計"},"geometry":{"type":"Polygon","coordinates":[[[130.39830177358584,33.1875],[130.39657406,33.18566266700001],[130.396554501,33.185538865000005],[130.396817471,33.185366865000006],[130.396567302,33.185020802],[130.396878003,33.184787495],[130.39544111531913,33.18333333333332],[130.39375,33.18333333333333],[130.39375,33.1875],[130.39830177358584,33.1875]]]}},{"type":"Feature","id":"40212:493062273","properties":{"id":"40212:493062273","meshCode":"493062273","cityCode":"40212","city":"大川市","lat":33.1895833,"lon":130.340625,"areaKm2":0.1162606,"populated2020":true,"population2020":65.2746,"populationNote":"2020年基準の国交省調整値"},"geometry":{"type":"Polygon","coordinates":[[[130.34313413390743,33.1875],[130.34292083,33.187729441],[130.342746939,33.18821055899999],[130.342579442,33.18835666700001],[130.342164449,33.188435279],[130.340554994,33.188445829],[130.340529442,33.191047775],[130.34038116707984,33.19166666666667],[130.34375,33.19166666666666],[130.34375,33.1875],[130.34313413390743,33.1875]]]}},{"type":"Feature","id":"40212:493062274","properties":{"id":"40212:493062274","meshCode":"493062274","cityCode":"40212","city":"大川市","lat":33.1895833,"lon":130.346875,"areaKm2":0.2693059,"populated2020":true,"population2020":224.1592,"populationNote":"2020年基準の国交省調整値"},"geometry":{"type":"Polygon","coordinates":[[[130.34375,33.1875],[130.34375,33.19166666666666],[130.35000000000002,33.19166666666667],[130.35000000000002,33.1875],[130.34375,33.1875]]]}},{"type":"Feature","id":"40212:493062283","properties":{"id":"40212:493062283","meshCode":"493062283","cityCode":"40212","city":"大川市","lat":33.1895833,"lon":130.353125,"areaKm2":0.2693055,"populated2020":true,"population2020":3.0149,"populationNote":"2020年基準の国交省調整値"},"geometry":{"type":"Polygon","coordinates":[[[130.35000000000002,33.1875],[130.35000000000002,33.19166666666667],[130.35625,33.19166666666667],[130.35625,33.1875],[130.35000000000002,33.1875]]]}},{"type":"Feature","id":"40212:493062284","properties":{"id":"40212:493062284","meshCode":"493062284","cityCode":"40212","city":"大川市","lat":33.1895833,"lon":130.359375,"areaKm2":0.269305,"populated2020":true,"population2020":321.6249,"populationNote":"2020年基準の国交省調整値"},"geometry":{"type":"Polygon","coordinates":[[[130.35625,33.1875],[130.35625,33.19166666666667],[130.3625,33.19166666666667],[130.3625,33.1875],[130.35625,33.1875]]]}},{"type":"Feature","id":"40212:493062293","properties":{"id":"40212:493062293","meshCode":"493062293","cityCode":"40212","city":"大川市","lat":33.1895833,"lon":130.365625,"areaKm2":0.2693045,"populated2020":true,"population2020":356.2384,"populationNote":"2020年基準の国交省調整値"},"geometry":{"type":"Polygon","coordinates":[[[130.3625,33.1875],[130.3625,33.19166666666667],[130.36875,33.19166666666668],[130.36875,33.1875],[130.3625,33.1875]]]}},{"type":"Feature","id":"40212:493062294","properties":{"id":"40212:493062294","meshCode":"493062294","cityCode":"40212","city":"大川市","lat":33.1895833,"lon":130.371875,"areaKm2":0.2693041,"populated2020":true,"population2020":163.9267,"populationNote":"2020年基準の国交省調整値"},"geometry":{"type":"Polygon","coordinates":[[[130.36875,33.1875],[130.36875,33.19166666666668],[130.375,33.19166666666668],[130.375,33.1875],[130.36875,33.1875]]]}},{"type":"Feature","id":"40212:493063203","properties":{"id":"40212:493063203","meshCode":"493063203","cityCode":"40212","city":"大川市","lat":33.1895833,"lon":130.378125,"areaKm2":0.2633978,"populated2020":true,"population2020":94.9678,"populationNote":"2020年基準の国交省調整値"},"geometry":{"type":"Polygon","coordinates":[[[130.37783725946412,33.1875],[130.376750558,33.188131387],[130.37613726285645,33.1875],[130.375,33.1875],[130.375,33.19166666666668],[130.38125,33.19166666666667],[130.38125,33.1875],[130.37783725946412,33.1875]]]}},{"type":"Feature","id":"40212:493063204","properties":{"id":"40212:493063204","meshCode":"493063204","cityCode":"40212","city":"大川市","lat":33.1895833,"lon":130.384375,"areaKm2":0.2693032,"populated2020":true,"population2020":356.3797,"populationNote":"2020年基準の国交省調整値"},"geometry":{"type":"Polygon","coordinates":[[[130.38125,33.1875],[130.38125,33.19166666666667],[130.3875,33.19166666666667],[130.3875,33.1875],[130.38125,33.1875]]]}},{"type":"Feature","id":"40212:493063213","properties":{"id":"40212:493063213","meshCode":"493063213","cityCode":"40212","city":"大川市","lat":33.1895833,"lon":130.390625,"areaKm2":0.2693027,"populated2020":true,"population2020":503.6275,"populationNote":"2020年基準の国交省調整値"},"geometry":{"type":"Polygon","coordinates":[[[130.3875,33.1875],[130.3875,33.19166666666667],[130.39375,33.19166666666667],[130.39375,33.1875],[130.3875,33.1875]]]}},{"type":"Feature","id":"40212:493063214","properties":{"id":"40212:493063214","meshCode":"493063214","cityCode":"40212","city":"大川市","lat":33.1895833,"lon":130.396875,"areaKm2":0.2154165,"populated2020":true,"population2020":null,"populationNote":"境界またぎ・原典収録外のため自治体内人口は未集計"},"geometry":{"type":"Polygon","coordinates":[[[130.4,33.19138397300001],[130.397679248,33.189006802],[130.39880275,33.188149946],[130.398612503,33.187817225],[130.39830177358584,33.1875],[130.39375,33.1875],[130.39375,33.19166666666667],[130.4,33.19166666666668],[130.4,33.19138397300001]]]}},{"type":"Feature","id":"40212:493063223","properties":{"id":"40212:493063223","meshCode":"493063223","cityCode":"40212","city":"大川市","lat":33.1915371,"lon":130.4000843,"areaKm2":0.0004548,"populated2020":true,"population2020":null,"populationNote":"境界またぎ・原典収録外のため自治体内人口は未集計"},"geometry":{"type":"Polygon","coordinates":[[[130.400025253,33.191407468],[130.4,33.19166666666668],[130.40031180263148,33.19166666666667],[130.400025253,33.191407468]]]}},{"type":"Feature","id":"40212:493062371","properties":{"id":"40212:493062371","meshCode":"493062371","cityCode":"40212","city":"大川市","lat":33.19375,"lon":130.340625,"areaKm2":0.1595127,"populated2020":false,"population2020":null,"populationNote":"境界またぎ・原典収録外のため自治体内人口は未集計"},"geometry":{"type":"Polygon","coordinates":[[[130.340381167,33.191666667],[130.340014163,33.193660559],[130.3398183918502,33.19583333333333],[130.34375,33.19583333333333],[130.34375,33.19166666666666],[130.340381167,33.191666667]]]}},{"type":"Feature","id":"40212:493062372","properties":{"id":"40212:493062372","meshCode":"493062372","cityCode":"40212","city":"大川市","lat":33.19375,"lon":130.346875,"areaKm2":0.2692934,"populated2020":true,"population2020":149.8547,"populationNote":"2020年基準の国交省調整値"},"geometry":{"type":"Polygon","coordinates":[[[130.34375,33.19166666666666],[130.34375,33.19583333333333],[130.35000000000002,33.19583333333333],[130.35000000000002,33.19166666666667],[130.34375,33.19166666666666]]]}},{"type":"Feature","id":"40212:493062381","properties":{"id":"40212:493062381","meshCode":"493062381","cityCode":"40212","city":"大川市","lat":33.19375,"lon":130.353125,"areaKm2":0.2692929,"populated2020":true,"population2020":150.804,"populationNote":"2020年基準の国交省調整値"},"geometry":{"type":"Polygon","coordinates":[[[130.35000000000002,33.19166666666667],[130.35000000000002,33.19583333333333],[130.35625,33.19583333333333],[130.35625,33.19166666666667],[130.35000000000002,33.19166666666667]]]}},{"type":"Feature","id":"40212:493062382","properties":{"id":"40212:493062382","meshCode":"493062382","cityCode":"40212","city":"大川市","lat":33.19375,"lon":130.359375,"areaKm2":0.2692924,"populated2020":true,"population2020":84.3337,"populationNote":"2020年基準の国交省調整値"},"geometry":{"type":"Polygon","coordinates":[[[130.35625,33.19166666666667],[130.35625,33.19583333333333],[130.3625,33.19583333333333],[130.3625,33.19166666666667],[130.35625,33.19166666666667]]]}},{"type":"Feature","id":"40212:493062391","properties":{"id":"40212:493062391","meshCode":"493062391","cityCode":"40212","city":"大川市","lat":33.19375,"lon":130.365625,"areaKm2":0.269292,"populated2020":true,"population2020":600.1776,"populationNote":"2020年基準の国交省調整値"},"geometry":{"type":"Polygon","coordinates":[[[130.3625,33.19166666666667],[130.3625,33.19583333333333],[130.36875,33.19583333333333],[130.36875,33.19166666666668],[130.3625,33.19166666666667]]]}},{"type":"Feature","id":"40212:493062392","properties":{"id":"40212:493062392","meshCode":"493062392","cityCode":"40212","city":"大川市","lat":33.19375,"lon":130.371875,"areaKm2":0.2692915,"populated2020":true,"population2020":355.0998,"populationNote":"2020年基準の国交省調整値"},"geometry":{"type":"Polygon","coordinates":[[[130.36875,33.19166666666668],[130.36875,33.19583333333333],[130.375,33.19583333333335],[130.375,33.19166666666668],[130.36875,33.19166666666668]]]}},{"type":"Feature","id":"40212:493063301","properties":{"id":"40212:493063301","meshCode":"493063301","cityCode":"40212","city":"大川市","lat":33.19375,"lon":130.378125,"areaKm2":0.2692911,"populated2020":true,"population2020":267.454,"populationNote":"2020年基準の国交省調整値"},"geometry":{"type":"Polygon","coordinates":[[[130.375,33.19166666666668],[130.375,33.19583333333335],[130.38125,33.19583333333334],[130.38125,33.19166666666667],[130.375,33.19166666666668]]]}},{"type":"Feature","id":"40212:493063302","properties":{"id":"40212:493063302","meshCode":"493063302","cityCode":"40212","city":"大川市","lat":33.19375,"lon":130.384375,"areaKm2":0.2692906,"populated2020":true,"population2020":626.3625,"populationNote":"2020年基準の国交省調整値"},"geometry":{"type":"Polygon","coordinates":[[[130.38125,33.19166666666667],[130.38125,33.19583333333334],[130.3875,33.195833333333326],[130.3875,33.19166666666667],[130.38125,33.19166666666667]]]}},{"type":"Feature","id":"40212:493063311","properties":{"id":"40212:493063311","meshCode":"493063311","cityCode":"40212","city":"大川市","lat":33.19375,"lon":130.390625,"areaKm2":0.2692902,"populated2020":true,"population2020":303.7371,"populationNote":"2020年基準の国交省調整値"},"geometry":{"type":"Polygon","coordinates":[[[130.3875,33.19166666666667],[130.3875,33.195833333333326],[130.39375,33.19583333333335],[130.39375,33.19166666666667],[130.3875,33.19166666666667]]]}},{"type":"Feature","id":"40212:493063312","properties":{"id":"40212:493063312","meshCode":"493063312","cityCode":"40212","city":"大川市","lat":33.19375,"lon":130.396875,"areaKm2":0.2628449,"populated2020":true,"population2020":185.7583,"populationNote":"2020年基準の国交省調整値"},"geometry":{"type":"Polygon","coordinates":[[[130.39999374800004,33.194042613],[130.399571115,33.19401353200001],[130.399178249,33.193723495],[130.398955668,33.193390946],[130.4,33.193138279],[130.4,33.19166666666668],[130.39375,33.19166666666667],[130.39375,33.19583333333335],[130.4,33.19583333333333],[130.39999374800004,33.194042613]]]}},{"type":"Feature","id":"40212:493063321","properties":{"id":"40212:493063321","meshCode":"493063321","cityCode":"40212","city":"大川市","lat":33.1949659,"lon":130.403125,"areaKm2":0.1334078,"populated2020":true,"population2020":null,"populationNote":"境界またぎ・原典収録外のため自治体内人口は未集計"},"geometry":{"type":"MultiPolygon","coordinates":[[[[130.406207782,33.193880829],[130.403355279,33.193956667],[130.402294617,33.194068586],[130.401874643,33.19400925200001],[130.40082847,33.194098468],[130.4,33.194044440999996],[130.4,33.19583333333333],[130.40625,33.195833333333326],[130.406207782,33.193880829]]],[[[130.4,33.193138279],[130.400570078,33.193088135],[130.400819248,33.19295127899999],[130.401592866,33.19285366700001],[130.40031180263148,33.19166666666667],[130.4,33.19166666666668],[130.4,33.193138279]]]]}},{"type":"Feature","id":"40212:493063322","properties":{"id":"40212:493063322","meshCode":"493063322","cityCode":"40212","city":"大川市","lat":33.1949492,"lon":130.409375,"areaKm2":0.121239,"populated2020":true,"population2020":null,"populationNote":"境界またぎ・原典収録外のため自治体内人口は未集計"},"geometry":{"type":"Polygon","coordinates":[[[130.412478612,33.193960559],[130.411534721,33.19388472100001],[130.410911115,33.193913054],[130.41077,33.193687495],[130.410597497,33.193673613],[130.409252218,33.19405582900001],[130.406668327,33.19405472100001],[130.40625,33.19388990550569],[130.40625,33.195833333333326],[130.4125,33.19583333333333],[130.412478612,33.193960559]]]}},{"type":"Feature","id":"40212:493063331","properties":{"id":"40212:493063331","meshCode":"493063331","cityCode":"40212","city":"大川市","lat":33.19375,"lon":130.415625,"areaKm2":0.1307145,"populated2020":true,"population2020":null,"populationNote":"境界またぎ・原典収録外のため自治体内人口は未集計"},"geometry":{"type":"Polygon","coordinates":[[[130.41875,33.19406795330667],[130.417917224,33.193814162],[130.415817782,33.193590279],[130.414342218,33.193889162000005],[130.4125,33.193960695537776],[130.4125,33.19583333333333],[130.41875,33.19583333333334],[130.41875,33.19406795330667]]]}},{"type":"Feature","id":"40212:493063332","properties":{"id":"40212:493063332","meshCode":"493063332","cityCode":"40212","city":"大川市","lat":33.1953867,"lon":130.4196762,"areaKm2":0.0279512,"populated2020":true,"population2020":null,"populationNote":"境界またぎ・原典収録外のため自治体内人口は未集計"},"geometry":{"type":"Polygon","coordinates":[[[130.420374449,33.194939999999995],[130.420343061,33.19451082900001],[130.41875,33.19406795330667],[130.41875,33.19583333333334],[130.42083048555386,33.19583333333335],[130.420374449,33.194939999999995]]]}},{"type":"Feature","id":"40212:493062373","properties":{"id":"40212:493062373","meshCode":"493062373","cityCode":"40212","city":"大川市","lat":33.1979167,"lon":130.340625,"areaKm2":0.1773579,"populated2020":true,"population2020":58.2995,"populationNote":"2020年基準の国交省調整値"},"geometry":{"type":"Polygon","coordinates":[[[130.3398183918502,33.19583333333333],[130.339464501,33.2],[130.34375,33.2],[130.34375,33.19583333333333],[130.3398183918502,33.19583333333333]]]}},{"type":"Feature","id":"40212:493062374","properties":{"id":"40212:493062374","meshCode":"493062374","cityCode":"40212","city":"大川市","lat":33.1979167,"lon":130.346875,"areaKm2":0.2692808,"populated2020":true,"population2020":183.0609,"populationNote":"2020年基準の国交省調整値"},"geometry":{"type":"Polygon","coordinates":[[[130.34375,33.19583333333333],[130.34375,33.2],[130.35000000000002,33.199999999999996],[130.35000000000002,33.19583333333333],[130.34375,33.19583333333333]]]}},{"type":"Feature","id":"40212:493062383","properties":{"id":"40212:493062383","meshCode":"493062383","cityCode":"40212","city":"大川市","lat":33.1979167,"lon":130.353125,"areaKm2":0.2692803,"populated2020":true,"population2020":332.7767,"populationNote":"2020年基準の国交省調整値"},"geometry":{"type":"Polygon","coordinates":[[[130.35000000000002,33.19583333333333],[130.35000000000002,33.199999999999996],[130.35625,33.199999999999996],[130.35625,33.19583333333333],[130.35000000000002,33.19583333333333]]]}},{"type":"Feature","id":"40212:493062384","properties":{"id":"40212:493062384","meshCode":"493062384","cityCode":"40212","city":"大川市","lat":33.1979167,"lon":130.359375,"areaKm2":0.2692798,"populated2020":true,"population2020":245.3258,"populationNote":"2020年基準の国交省調整値"},"geometry":{"type":"Polygon","coordinates":[[[130.35625,33.19583333333333],[130.35625,33.199999999999996],[130.3625,33.2],[130.3625,33.19583333333333],[130.35625,33.19583333333333]]]}},{"type":"Feature","id":"40212:493062393","properties":{"id":"40212:493062393","meshCode":"493062393","cityCode":"40212","city":"大川市","lat":33.1979167,"lon":130.365625,"areaKm2":0.2692794,"populated2020":true,"population2020":327.7534,"populationNote":"2020年基準の国交省調整値"},"geometry":{"type":"Polygon","coordinates":[[[130.3625,33.19583333333333],[130.3625,33.2],[130.36875,33.199999999999996],[130.36875,33.19583333333333],[130.3625,33.19583333333333]]]}},{"type":"Feature","id":"40212:493062394","properties":{"id":"40212:493062394","meshCode":"493062394","cityCode":"40212","city":"大川市","lat":33.1979167,"lon":130.371875,"areaKm2":0.2692789,"populated2020":true,"population2020":413.4645,"populationNote":"2020年基準の国交省調整値"},"geometry":{"type":"Polygon","coordinates":[[[130.36875,33.19583333333333],[130.36875,33.199999999999996],[130.375,33.199999999999996],[130.375,33.19583333333335],[130.36875,33.19583333333333]]]}},{"type":"Feature","id":"40212:493063303","properties":{"id":"40212:493063303","meshCode":"493063303","cityCode":"40212","city":"大川市","lat":33.1979167,"lon":130.378125,"areaKm2":0.2692785,"populated2020":true,"population2020":522.1101,"populationNote":"2020年基準の国交省調整値"},"geometry":{"type":"Polygon","coordinates":[[[130.375,33.19583333333335],[130.375,33.199999999999996],[130.38125,33.199999999999996],[130.38125,33.19583333333334],[130.375,33.19583333333335]]]}},{"type":"Feature","id":"40212:493063304","properties":{"id":"40212:493063304","meshCode":"493063304","cityCode":"40212","city":"大川市","lat":33.1979167,"lon":130.384375,"areaKm2":0.269278,"populated2020":true,"population2020":538.0336,"populationNote":"2020年基準の国交省調整値"},"geometry":{"type":"Polygon","coordinates":[[[130.38125,33.19583333333334],[130.38125,33.199999999999996],[130.3875,33.2],[130.3875,33.195833333333326],[130.38125,33.19583333333334]]]}},{"type":"Feature","id":"40212:493063313","properties":{"id":"40212:493063313","meshCode":"493063313","cityCode":"40212","city":"大川市","lat":33.1979167,"lon":130.390625,"areaKm2":0.2692776,"populated2020":true,"population2020":254.6824,"populationNote":"2020年基準の国交省調整値"},"geometry":{"type":"Polygon","coordinates":[[[130.3875,33.195833333333326],[130.3875,33.2],[130.39375,33.2],[130.39375,33.19583333333335],[130.3875,33.195833333333326]]]}},{"type":"Feature","id":"40212:493063314","properties":{"id":"40212:493063314","meshCode":"493063314","cityCode":"40212","city":"大川市","lat":33.1979167,"lon":130.396875,"areaKm2":0.2692772,"populated2020":true,"population2020":199.0773,"populationNote":"2020年基準の国交省調整値"},"geometry":{"type":"Polygon","coordinates":[[[130.39375,33.19583333333335],[130.39375,33.2],[130.4,33.2],[130.4,33.19583333333333],[130.39375,33.19583333333335]]]}},{"type":"Feature","id":"40212:493063323","properties":{"id":"40212:493063323","meshCode":"493063323","cityCode":"40212","city":"大川市","lat":33.1979167,"lon":130.403125,"areaKm2":0.2692767,"populated2020":true,"population2020":169.9459,"populationNote":"2020年基準の国交省調整値"},"geometry":{"type":"Polygon","coordinates":[[[130.4,33.19583333333333],[130.4,33.2],[130.40625,33.2],[130.40625,33.195833333333326],[130.4,33.19583333333333]]]}},{"type":"Feature","id":"40212:493063324","properties":{"id":"40212:493063324","meshCode":"493063324","cityCode":"40212","city":"大川市","lat":33.1979167,"lon":130.409375,"areaKm2":0.2692763,"populated2020":true,"population2020":64.4186,"populationNote":"2020年基準の国交省調整値"},"geometry":{"type":"Polygon","coordinates":[[[130.40625,33.195833333333326],[130.40625,33.2],[130.4125,33.199999999999996],[130.4125,33.19583333333333],[130.40625,33.195833333333326]]]}},{"type":"Feature","id":"40212:493063333","properties":{"id":"40212:493063333","meshCode":"493063333","cityCode":"40212","city":"大川市","lat":33.1979167,"lon":130.415625,"areaKm2":0.2692759,"populated2020":true,"population2020":81.5834,"populationNote":"2020年基準の国交省調整値"},"geometry":{"type":"Polygon","coordinates":[[[130.4125,33.19583333333333],[130.4125,33.199999999999996],[130.41875,33.2],[130.41875,33.19583333333334],[130.4125,33.19583333333333]]]}},{"type":"Feature","id":"40212:493063334","properties":{"id":"40212:493063334","meshCode":"493063334","cityCode":"40212","city":"大川市","lat":33.1979167,"lon":130.421875,"areaKm2":0.1280824,"populated2020":true,"population2020":null,"populationNote":"境界またぎ・原典収録外のため自治体内人口は未集計"},"geometry":{"type":"Polygon","coordinates":[[[130.4209962,33.19980163999999],[130.422193891,33.199748054000004],[130.42184153,33.19850874800001],[130.422453476,33.198332613],[130.421925227,33.197438775],[130.421878145,33.197174586],[130.421512049,33.197227414000004],[130.42083048555386,33.19583333333335],[130.41875,33.19583333333334],[130.41875,33.2],[130.42105869,33.2],[130.4209962,33.19980163999999]]]}},{"type":"Feature","id":"40212:493062471","properties":{"id":"40212:493062471","meshCode":"493062471","cityCode":"40212","city":"大川市","lat":33.2020833,"lon":130.340625,"areaKm2":0.1866729,"populated2020":true,"population2020":62.4068,"populationNote":"2020年基準の国交省調整値"},"geometry":{"type":"Polygon","coordinates":[[[130.339464501,33.2],[130.339386939,33.202739721],[130.33953736408645,33.204166666666666],[130.34375,33.20416666666666],[130.34375,33.2],[130.339464501,33.2]]]}},{"type":"Feature","id":"40212:493062472","properties":{"id":"40212:493062472","meshCode":"493062472","cityCode":"40212","city":"大川市","lat":33.2020833,"lon":130.346875,"areaKm2":0.2692682,"populated2020":true,"population2020":367.8146,"populationNote":"2020年基準の国交省調整値"},"geometry":{"type":"Polygon","coordinates":[[[130.34375,33.2],[130.34375,33.20416666666666],[130.35000000000002,33.204166666666666],[130.35000000000002,33.199999999999996],[130.34375,33.2]]]}},{"type":"Feature","id":"40212:493062481","properties":{"id":"40212:493062481","meshCode":"493062481","cityCode":"40212","city":"大川市","lat":33.2020833,"lon":130.353125,"areaKm2":0.2692677,"populated2020":true,"population2020":205.2795,"populationNote":"2020年基準の国交省調整値"},"geometry":{"type":"Polygon","coordinates":[[[130.35000000000002,33.199999999999996],[130.35000000000002,33.204166666666666],[130.35625,33.20416666666666],[130.35625,33.199999999999996],[130.35000000000002,33.199999999999996]]]}},{"type":"Feature","id":"40212:493062482","properties":{"id":"40212:493062482","meshCode":"493062482","cityCode":"40212","city":"大川市","lat":33.2020833,"lon":130.359375,"areaKm2":0.2692673,"populated2020":true,"population2020":68.3163,"populationNote":"2020年基準の国交省調整値"},"geometry":{"type":"Polygon","coordinates":[[[130.35625,33.199999999999996],[130.35625,33.20416666666666],[130.3625,33.20416666666666],[130.3625,33.2],[130.35625,33.199999999999996]]]}},{"type":"Feature","id":"40212:493062491","properties":{"id":"40212:493062491","meshCode":"493062491","cityCode":"40212","city":"大川市","lat":33.2020833,"lon":130.365625,"areaKm2":0.2692668,"populated2020":true,"population2020":671.4752,"populationNote":"2020年基準の国交省調整値"},"geometry":{"type":"Polygon","coordinates":[[[130.3625,33.2],[130.3625,33.20416666666666],[130.36875,33.204166666666666],[130.36875,33.199999999999996],[130.3625,33.2]]]}},{"type":"Feature","id":"40212:493062492","properties":{"id":"40212:493062492","meshCode":"493062492","cityCode":"40212","city":"大川市","lat":33.2020833,"lon":130.371875,"areaKm2":0.2692664,"populated2020":true,"population2020":583.7316,"populationNote":"2020年基準の国交省調整値"},"geometry":{"type":"Polygon","coordinates":[[[130.36875,33.199999999999996],[130.36875,33.204166666666666],[130.375,33.20416666666665],[130.375,33.199999999999996],[130.36875,33.199999999999996]]]}},{"type":"Feature","id":"40212:493063401","properties":{"id":"40212:493063401","meshCode":"493063401","cityCode":"40212","city":"大川市","lat":33.2020833,"lon":130.378125,"areaKm2":0.2692659,"populated2020":true,"population2020":1083.478,"populationNote":"2020年基準の国交省調整値"},"geometry":{"type":"Polygon","coordinates":[[[130.375,33.199999999999996],[130.375,33.20416666666665],[130.38125,33.20416666666666],[130.38125,33.199999999999996],[130.375,33.199999999999996]]]}},{"type":"Feature","id":"40212:493063402","properties":{"id":"40212:493063402","meshCode":"493063402","cityCode":"40212","city":"大川市","lat":33.2020833,"lon":130.384375,"areaKm2":0.2692655,"populated2020":true,"population2020":519.9144,"populationNote":"2020年基準の国交省調整値"},"geometry":{"type":"Polygon","coordinates":[[[130.38125,33.199999999999996],[130.38125,33.20416666666666],[130.3875,33.204166666666666],[130.3875,33.2],[130.38125,33.199999999999996]]]}},{"type":"Feature","id":"40212:493063411","properties":{"id":"40212:493063411","meshCode":"493063411","cityCode":"40212","city":"大川市","lat":33.2020833,"lon":130.390625,"areaKm2":0.269265,"populated2020":true,"population2020":194.3217,"populationNote":"2020年基準の国交省調整値"},"geometry":{"type":"Polygon","coordinates":[[[130.3875,33.2],[130.3875,33.204166666666666],[130.39375,33.20416666666666],[130.39375,33.2],[130.3875,33.2]]]}},{"type":"Feature","id":"40212:493063412","properties":{"id":"40212:493063412","meshCode":"493063412","cityCode":"40212","city":"大川市","lat":33.2020833,"lon":130.396875,"areaKm2":0.2692646,"populated2020":true,"population2020":309.3859,"populationNote":"2020年基準の国交省調整値"},"geometry":{"type":"Polygon","coordinates":[[[130.39375,33.2],[130.39375,33.20416666666666],[130.4,33.20416666666666],[130.4,33.2],[130.39375,33.2]]]}},{"type":"Feature","id":"40212:493063421","properties":{"id":"40212:493063421","meshCode":"493063421","cityCode":"40212","city":"大川市","lat":33.2020833,"lon":130.403125,"areaKm2":0.2692641,"populated2020":true,"population2020":258.2402,"populationNote":"2020年基準の国交省調整値"},"geometry":{"type":"Polygon","coordinates":[[[130.4,33.2],[130.4,33.20416666666666],[130.40625,33.204166666666666],[130.40625,33.2],[130.4,33.2]]]}},{"type":"Feature","id":"40212:493063422","properties":{"id":"40212:493063422","meshCode":"493063422","cityCode":"40212","city":"大川市","lat":33.2020833,"lon":130.409375,"areaKm2":0.2692637,"populated2020":true,"population2020":90.5136,"populationNote":"2020年基準の国交省調整値"},"geometry":{"type":"Polygon","coordinates":[[[130.40625,33.2],[130.40625,33.204166666666666],[130.4125,33.20416666666667],[130.4125,33.199999999999996],[130.40625,33.2]]]}},{"type":"Feature","id":"40212:493063431","properties":{"id":"40212:493063431","meshCode":"493063431","cityCode":"40212","city":"大川市","lat":33.2020833,"lon":130.415625,"areaKm2":0.2687299,"populated2020":true,"population2020":119.624,"populationNote":"2020年基準の国交省調整値"},"geometry":{"type":"Polygon","coordinates":[[[130.418638885,33.202493054],[130.418532776,33.202209161999996],[130.41875,33.20214600492916],[130.41875,33.2],[130.4125,33.199999999999996],[130.4125,33.20416666666667],[130.41875,33.204166666666666],[130.41875,33.202459227271575],[130.418638885,33.202493054]]]}},{"type":"Feature","id":"40212:493063432","properties":{"id":"40212:493063432","meshCode":"493063432","cityCode":"40212","city":"大川市","lat":33.2010835,"lon":130.4196981,"areaKm2":0.045964,"populated2020":true,"population2020":null,"populationNote":"境界またぎ・原典収録外のため自治体内人口は未集計"},"geometry":{"type":"MultiPolygon","coordinates":[[[[130.419293333,33.203940829],[130.419064163,33.203880559],[130.418754916,33.203198225],[130.419087224,33.20304082900001],[130.418895279,33.202415],[130.41875,33.202459227271575],[130.41875,33.204166666666666],[130.4194055133023,33.20416666666666],[130.419293333,33.203940829]]],[[[130.41875,33.20214600492916],[130.419523891,33.201937494999996],[130.419648612,33.202176945999994],[130.419894838,33.202118162],[130.419953061,33.20196264000001],[130.419804449,33.201463333],[130.419884838,33.201443586],[130.419851946,33.201327225],[130.420128327,33.201246667],[130.42022277600003,33.201595829000006],[130.420400272,33.201559720999995],[130.420341997,33.201114387],[130.42095022,33.201052694],[130.421018444,33.201226414000004],[130.421382892,33.201211027],[130.421421141,33.200999468000006],[130.421283022,33.201014865],[130.421236446,33.20084816200001],[130.421364553,33.200828586],[130.42105869,33.2],[130.41875,33.2],[130.41875,33.20214600492916]]]]}},{"type":"Feature","id":"40212:493062473","properties":{"id":"40212:493062473","meshCode":"493062473","cityCode":"40212","city":"大川市","lat":33.20625,"lon":130.340625,"areaKm2":0.1355009,"populated2020":true,"population2020":69.8548,"populationNote":"2020年基準の国交省調整値"},"geometry":{"type":"Polygon","coordinates":[[[130.33953736408645,33.204166666666666],[130.339872776,33.205468613],[130.340265279,33.20613389199999],[130.341002503,33.20704555900001],[130.342035837,33.207892225],[130.342686109,33.208281387],[130.3428016087412,33.20833333333334],[130.34375,33.20833333333334],[130.34375,33.20416666666666],[130.33953736408645,33.204166666666666]]]}},{"type":"Feature","id":"40212:493062474","properties":{"id":"40212:493062474","meshCode":"493062474","cityCode":"40212","city":"大川市","lat":33.20625,"lon":130.346875,"areaKm2":0.2692556,"populated2020":true,"population2020":91.4081,"populationNote":"2020年基準の国交省調整値"},"geometry":{"type":"Polygon","coordinates":[[[130.34375,33.20416666666666],[130.34375,33.20833333333334],[130.35000000000002,33.20833333333334],[130.35000000000002,33.204166666666666],[130.34375,33.20416666666666]]]}},{"type":"Feature","id":"40212:493062483","properties":{"id":"40212:493062483","meshCode":"493062483","cityCode":"40212","city":"大川市","lat":33.20625,"lon":130.353125,"areaKm2":0.2692552,"populated2020":true,"population2020":149.7919,"populationNote":"2020年基準の国交省調整値"},"geometry":{"type":"Polygon","coordinates":[[[130.35000000000002,33.204166666666666],[130.35000000000002,33.20833333333334],[130.35625,33.20833333333334],[130.35625,33.20416666666666],[130.35000000000002,33.204166666666666]]]}},{"type":"Feature","id":"40212:493062484","properties":{"id":"40212:493062484","meshCode":"493062484","cityCode":"40212","city":"大川市","lat":33.20625,"lon":130.359375,"areaKm2":0.2692547,"populated2020":true,"population2020":110.443,"populationNote":"2020年基準の国交省調整値"},"geometry":{"type":"Polygon","coordinates":[[[130.35625,33.20416666666666],[130.35625,33.20833333333334],[130.3625,33.20833333333334],[130.3625,33.20416666666666],[130.35625,33.20416666666666]]]}},{"type":"Feature","id":"40212:493062493","properties":{"id":"40212:493062493","meshCode":"493062493","cityCode":"40212","city":"大川市","lat":33.20625,"lon":130.365625,"areaKm2":0.2692542,"populated2020":true,"population2020":602.5938,"populationNote":"2020年基準の国交省調整値"},"geometry":{"type":"Polygon","coordinates":[[[130.3625,33.20416666666666],[130.3625,33.20833333333334],[130.36875,33.20833333333334],[130.36875,33.204166666666666],[130.3625,33.20416666666666]]]}},{"type":"Feature","id":"40212:493062494","properties":{"id":"40212:493062494","meshCode":"493062494","cityCode":"40212","city":"大川市","lat":33.20625,"lon":130.371875,"areaKm2":0.2692538,"populated2020":true,"population2020":918.7452,"populationNote":"2020年基準の国交省調整値"},"geometry":{"type":"Polygon","coordinates":[[[130.36875,33.204166666666666],[130.36875,33.20833333333334],[130.375,33.20833333333334],[130.375,33.20416666666665],[130.36875,33.204166666666666]]]}},{"type":"Feature","id":"40212:493063403","properties":{"id":"40212:493063403","meshCode":"493063403","cityCode":"40212","city":"大川市","lat":33.20625,"lon":130.378125,"areaKm2":0.2692533,"populated2020":true,"population2020":745.5125,"populationNote":"2020年基準の国交省調整値"},"geometry":{"type":"Polygon","coordinates":[[[130.375,33.20416666666665],[130.375,33.20833333333334],[130.38125,33.20833333333334],[130.38125,33.20416666666666],[130.375,33.20416666666665]]]}},{"type":"Feature","id":"40212:493063404","properties":{"id":"40212:493063404","meshCode":"493063404","cityCode":"40212","city":"大川市","lat":33.20625,"lon":130.384375,"areaKm2":0.2692529,"populated2020":true,"population2020":701.2962,"populationNote":"2020年基準の国交省調整値"},"geometry":{"type":"Polygon","coordinates":[[[130.38125,33.20416666666666],[130.38125,33.20833333333334],[130.3875,33.208333333333336],[130.3875,33.204166666666666],[130.38125,33.20416666666666]]]}},{"type":"Feature","id":"40212:493063413","properties":{"id":"40212:493063413","meshCode":"493063413","cityCode":"40212","city":"大川市","lat":33.20625,"lon":130.390625,"areaKm2":0.2692524,"populated2020":true,"population2020":369.234,"populationNote":"2020年基準の国交省調整値"},"geometry":{"type":"Polygon","coordinates":[[[130.3875,33.204166666666666],[130.3875,33.208333333333336],[130.39375,33.20833333333334],[130.39375,33.20416666666666],[130.3875,33.204166666666666]]]}},{"type":"Feature","id":"40212:493063414","properties":{"id":"40212:493063414","meshCode":"493063414","cityCode":"40212","city":"大川市","lat":33.20625,"lon":130.396875,"areaKm2":0.269252,"populated2020":true,"population2020":93.5703,"populationNote":"2020年基準の国交省調整値"},"geometry":{"type":"Polygon","coordinates":[[[130.39375,33.20416666666666],[130.39375,33.20833333333334],[130.4,33.208333333333336],[130.4,33.20416666666666],[130.39375,33.20416666666666]]]}},{"type":"Feature","id":"40212:493063423","properties":{"id":"40212:493063423","meshCode":"493063423","cityCode":"40212","city":"大川市","lat":33.20625,"lon":130.403125,"areaKm2":0.2692516,"populated2020":true,"population2020":129.6394,"populationNote":"2020年基準の国交省調整値"},"geometry":{"type":"Polygon","coordinates":[[[130.4,33.20416666666666],[130.4,33.208333333333336],[130.40625,33.20833333333334],[130.40625,33.204166666666666],[130.4,33.20416666666666]]]}},{"type":"Feature","id":"40212:493063424","properties":{"id":"40212:493063424","meshCode":"493063424","cityCode":"40212","city":"大川市","lat":33.20625,"lon":130.409375,"areaKm2":0.2692511,"populated2020":true,"population2020":277.6425,"populationNote":"2020年基準の国交省調整値"},"geometry":{"type":"Polygon","coordinates":[[[130.40625,33.204166666666666],[130.40625,33.20833333333334],[130.4125,33.20833333333334],[130.4125,33.20416666666667],[130.40625,33.204166666666666]]]}},{"type":"Feature","id":"40212:493063433","properties":{"id":"40212:493063433","meshCode":"493063433","cityCode":"40212","city":"大川市","lat":33.2062839,"lon":130.4137512,"areaKm2":0.1943745,"populated2020":true,"population2020":10.0774,"populationNote":"2020年基準の国交省調整値"},"geometry":{"type":"Polygon","coordinates":[[[130.41875,33.20714286192273],[130.41632166,33.20773472100001],[130.416078327,33.207229162],[130.413709728,33.207934162],[130.413558054,33.207568613],[130.41437011700003,33.207300613],[130.41429022,33.20694619799999],[130.414483256,33.206880332999994],[130.414408366,33.206747252],[130.414679637,33.20660853200001],[130.414591414,33.206392775],[130.41525083,33.206220829],[130.415448327,33.20623749500001],[130.41674978000003,33.20576513500001],[130.41875,33.20527186474029],[130.41875,33.204166666666666],[130.4125,33.20416666666667],[130.4125,33.20833333333334],[130.41875,33.20833333333334],[130.41875,33.20714286192273]]]}},{"type":"Feature","id":"40212:493063434","properties":{"id":"40212:493063434","meshCode":"493063434","cityCode":"40212","city":"大川市","lat":33.2046818,"lon":130.4194917,"areaKm2":0.0294771,"populated2020":false,"population2020":null,"populationNote":"境界またぎ・原典収録外のため自治体内人口は未集計"},"geometry":{"type":"MultiPolygon","coordinates":[[[[130.420754086,33.208333333],[130.420620558,33.207693613],[130.419548327,33.20776],[130.419284721,33.207008892],[130.41875,33.20714286192273],[130.41875,33.20833333333334],[130.420754086,33.208333333]]],[[[130.41875,33.20527186474029],[130.420304449,33.204910559],[130.420089442,33.20427777500001],[130.419525279,33.204407775],[130.4194055133023,33.20416666666666],[130.41875,33.204166666666666],[130.41875,33.20527186474029]]]]}},{"type":"Feature","id":"40212:493062571","properties":{"id":"40212:493062571","meshCode":"493062571","cityCode":"40212","city":"大川市","lat":33.2085789,"lon":130.3435672,"areaKm2":0.0019647,"populated2020":false,"population2020":null,"populationNote":"境界またぎ・原典収録外のため自治体内人口は未集計"},"geometry":{"type":"Polygon","coordinates":[[[130.3428016087412,33.20833333333334],[130.343709442,33.208708613],[130.34375,33.20871919568543],[130.34375,33.20833333333334],[130.3428016087412,33.20833333333334]]]}},{"type":"Feature","id":"40212:493062572","properties":{"id":"40212:493062572","meshCode":"493062572","cityCode":"40212","city":"大川市","lat":33.2085263,"lon":130.346875,"areaKm2":0.0415701,"populated2020":false,"population2020":null,"populationNote":"境界またぎ・原典収録外のため自治体内人口は未集計"},"geometry":{"type":"Polygon","coordinates":[[[130.34375,33.20871919568543],[130.34498083,33.208976387],[130.34659333300002,33.209065829],[130.35000000000002,33.20891822499999],[130.35000000000002,33.20833333333334],[130.34375,33.20833333333334],[130.34375,33.20871919568543]]]}},{"type":"Feature","id":"40212:493062581","properties":{"id":"40212:493062581","meshCode":"493062581","cityCode":"40212","city":"大川市","lat":33.2090785,"lon":130.3550987,"areaKm2":0.0465883,"populated2020":false,"population2020":null,"populationNote":"境界またぎ・原典収録外のため自治体内人口は未集計"},"geometry":{"type":"Polygon","coordinates":[[[130.351446939,33.208855],[130.352831115,33.208903613],[130.35502917,33.209231108000004],[130.35625,33.20968538542742],[130.35625,33.20833333333334],[130.35000000000002,33.20833333333334],[130.35000000000002,33.20891822499999],[130.351446939,33.208855]]]}},{"type":"Feature","id":"40212:493062582","properties":{"id":"40212:493062582","meshCode":"493062582","cityCode":"40212","city":"大川市","lat":33.2104167,"lon":130.359375,"areaKm2":0.2089625,"populated2020":true,"population2020":66.5319,"populationNote":"2020年基準の国交省調整値"},"geometry":{"type":"Polygon","coordinates":[[[130.35625,33.20968538542742],[130.357691115,33.21048861300001],[130.35860166,33.211183613],[130.35973771746455,33.212500000000006],[130.3625,33.212500000000006],[130.3625,33.20833333333334],[130.35625,33.20833333333334],[130.35625,33.20968538542742]]]}},{"type":"Feature","id":"40212:493062591","properties":{"id":"40212:493062591","meshCode":"493062591","cityCode":"40212","city":"大川市","lat":33.2104167,"lon":130.365625,"areaKm2":0.2692417,"populated2020":true,"population2020":382.115,"populationNote":"2020年基準の国交省調整値"},"geometry":{"type":"Polygon","coordinates":[[[130.3625,33.20833333333334],[130.3625,33.212500000000006],[130.36875,33.212500000000006],[130.36875,33.20833333333334],[130.3625,33.20833333333334]]]}},{"type":"Feature","id":"40212:493062592","properties":{"id":"40212:493062592","meshCode":"493062592","cityCode":"40212","city":"大川市","lat":33.2104167,"lon":130.371875,"areaKm2":0.2692412,"populated2020":true,"population2020":759.989,"populationNote":"2020年基準の国交省調整値"},"geometry":{"type":"Polygon","coordinates":[[[130.36875,33.20833333333334],[130.36875,33.212500000000006],[130.375,33.212500000000006],[130.375,33.20833333333334],[130.36875,33.20833333333334]]]}},{"type":"Feature","id":"40212:493063501","properties":{"id":"40212:493063501","meshCode":"493063501","cityCode":"40212","city":"大川市","lat":33.2104167,"lon":130.378125,"areaKm2":0.2692407,"populated2020":true,"population2020":395.9807,"populationNote":"2020年基準の国交省調整値"},"geometry":{"type":"Polygon","coordinates":[[[130.375,33.20833333333334],[130.375,33.212500000000006],[130.38125,33.2125],[130.38125,33.20833333333334],[130.375,33.20833333333334]]]}},{"type":"Feature","id":"40212:493063502","properties":{"id":"40212:493063502","meshCode":"493063502","cityCode":"40212","city":"大川市","lat":33.2104167,"lon":130.384375,"areaKm2":0.2692403,"populated2020":true,"population2020":604.6647,"populationNote":"2020年基準の国交省調整値"},"geometry":{"type":"Polygon","coordinates":[[[130.38125,33.20833333333334],[130.38125,33.2125],[130.3875,33.212500000000006],[130.3875,33.208333333333336],[130.38125,33.20833333333334]]]}},{"type":"Feature","id":"40212:493063511","properties":{"id":"40212:493063511","meshCode":"493063511","cityCode":"40212","city":"大川市","lat":33.2104167,"lon":130.390625,"areaKm2":0.2692399,"populated2020":true,"population2020":163.8249,"populationNote":"2020年基準の国交省調整値"},"geometry":{"type":"Polygon","coordinates":[[[130.3875,33.208333333333336],[130.3875,33.212500000000006],[130.39375,33.2125],[130.39375,33.20833333333334],[130.3875,33.208333333333336]]]}},{"type":"Feature","id":"40212:493063512","properties":{"id":"40212:493063512","meshCode":"493063512","cityCode":"40212","city":"大川市","lat":33.2104167,"lon":130.396875,"areaKm2":0.2692394,"populated2020":true,"population2020":338.0093,"populationNote":"2020年基準の国交省調整値"},"geometry":{"type":"Polygon","coordinates":[[[130.39375,33.20833333333334],[130.39375,33.2125],[130.4,33.212500000000006],[130.4,33.208333333333336],[130.39375,33.20833333333334]]]}},{"type":"Feature","id":"40212:493063521","properties":{"id":"40212:493063521","meshCode":"493063521","cityCode":"40212","city":"大川市","lat":33.2104167,"lon":130.403125,"areaKm2":0.269239,"populated2020":true,"population2020":609.2763,"populationNote":"2020年基準の国交省調整値"},"geometry":{"type":"Polygon","coordinates":[[[130.4,33.208333333333336],[130.4,33.212500000000006],[130.40625,33.2125],[130.40625,33.20833333333334],[130.4,33.208333333333336]]]}},{"type":"Feature","id":"40212:493063522","properties":{"id":"40212:493063522","meshCode":"493063522","cityCode":"40212","city":"大川市","lat":33.2104167,"lon":130.409375,"areaKm2":0.2692386,"populated2020":true,"population2020":289.2874,"populationNote":"2020年基準の国交省調整値"},"geometry":{"type":"Polygon","coordinates":[[[130.40625,33.20833333333334],[130.40625,33.2125],[130.4125,33.2125],[130.4125,33.20833333333334],[130.40625,33.20833333333334]]]}},{"type":"Feature","id":"40212:493063531","properties":{"id":"40212:493063531","meshCode":"493063531","cityCode":"40212","city":"大川市","lat":33.2104167,"lon":130.415625,"areaKm2":0.2692381,"populated2020":true,"population2020":143.8339,"populationNote":"2020年基準の国交省調整値"},"geometry":{"type":"Polygon","coordinates":[[[130.4125,33.20833333333334],[130.4125,33.2125],[130.41875,33.2125],[130.41875,33.20833333333334],[130.4125,33.20833333333334]]]}},{"type":"Feature","id":"40212:493063532","properties":{"id":"40212:493063532","meshCode":"493063532","cityCode":"40212","city":"大川市","lat":33.2103755,"lon":130.4197598,"areaKm2":0.0695481,"populated2020":true,"population2020":null,"populationNote":"境界またぎ・原典収録外のため自治体内人口は未集計"},"geometry":{"type":"Polygon","coordinates":[[[130.419489935,33.212494892],[130.419194397,33.211801811],[130.419174397,33.21149401800001],[130.420766628,33.21114483800001],[130.420843878,33.209484495],[130.42075408604313,33.20833333333334],[130.41875,33.20833333333334],[130.41875,33.2125],[130.419489935,33.212494892]]]}},{"type":"Feature","id":"40212:493062584","properties":{"id":"40212:493062584","meshCode":"493062584","cityCode":"40212","city":"大川市","lat":33.2134811,"lon":130.361506,"areaKm2":0.0471608,"populated2020":false,"population2020":null,"populationNote":"境界またぎ・原典収録外のため自治体内人口は未集計"},"geometry":{"type":"Polygon","coordinates":[[[130.35973771746455,33.212500000000006],[130.36143083,33.214605],[130.362058612,33.215202774999995],[130.3625,33.2154220046439],[130.3625,33.212500000000006],[130.35973771746455,33.212500000000006]]]}},{"type":"Feature","id":"40212:493062593","properties":{"id":"40212:493062593","meshCode":"493062593","cityCode":"40212","city":"大川市","lat":33.2145833,"lon":130.365625,"areaKm2":0.2492098,"populated2020":true,"population2020":750.3435,"populationNote":"2020年基準の国交省調整値"},"geometry":{"type":"Polygon","coordinates":[[[130.3625,33.2154220046439],[130.365022776,33.216395279],[130.36555442248226,33.21666666666667],[130.36875,33.216666666666676],[130.36875,33.212500000000006],[130.3625,33.212500000000006],[130.3625,33.2154220046439]]]}},{"type":"Feature","id":"40212:493062594","properties":{"id":"40212:493062594","meshCode":"493062594","cityCode":"40212","city":"大川市","lat":33.2145833,"lon":130.371875,"areaKm2":0.2692286,"populated2020":true,"population2020":392.4028,"populationNote":"2020年基準の国交省調整値"},"geometry":{"type":"Polygon","coordinates":[[[130.36875,33.212500000000006],[130.36875,33.216666666666676],[130.375,33.21666666666667],[130.375,33.212500000000006],[130.36875,33.212500000000006]]]}},{"type":"Feature","id":"40212:493063503","properties":{"id":"40212:493063503","meshCode":"493063503","cityCode":"40212","city":"大川市","lat":33.2145833,"lon":130.378125,"areaKm2":0.2692282,"populated2020":true,"population2020":500.8838,"populationNote":"2020年基準の国交省調整値"},"geometry":{"type":"Polygon","coordinates":[[[130.375,33.212500000000006],[130.375,33.21666666666667],[130.38125,33.21666666666667],[130.38125,33.2125],[130.375,33.212500000000006]]]}},{"type":"Feature","id":"40212:493063504","properties":{"id":"40212:493063504","meshCode":"493063504","cityCode":"40212","city":"大川市","lat":33.2145833,"lon":130.384375,"areaKm2":0.2692277,"populated2020":true,"population2020":559.447,"populationNote":"2020年基準の国交省調整値"},"geometry":{"type":"Polygon","coordinates":[[[130.38125,33.2125],[130.38125,33.21666666666667],[130.3875,33.216666666666676],[130.3875,33.212500000000006],[130.38125,33.2125]]]}},{"type":"Feature","id":"40212:493063513","properties":{"id":"40212:493063513","meshCode":"493063513","cityCode":"40212","city":"大川市","lat":33.2145833,"lon":130.390625,"areaKm2":0.2692273,"populated2020":true,"population2020":307.6862,"populationNote":"2020年基準の国交省調整値"},"geometry":{"type":"Polygon","coordinates":[[[130.3875,33.212500000000006],[130.3875,33.216666666666676],[130.39375,33.21666666666667],[130.39375,33.2125],[130.3875,33.212500000000006]]]}},{"type":"Feature","id":"40212:493063514","properties":{"id":"40212:493063514","meshCode":"493063514","cityCode":"40212","city":"大川市","lat":33.2145833,"lon":130.396875,"areaKm2":0.2692268,"populated2020":true,"population2020":174.9938,"populationNote":"2020年基準の国交省調整値"},"geometry":{"type":"Polygon","coordinates":[[[130.39375,33.2125],[130.39375,33.21666666666667],[130.4,33.216666666666676],[130.4,33.212500000000006],[130.39375,33.2125]]]}},{"type":"Feature","id":"40212:493063523","properties":{"id":"40212:493063523","meshCode":"493063523","cityCode":"40212","city":"大川市","lat":33.2145833,"lon":130.403125,"areaKm2":0.2692264,"populated2020":true,"population2020":140.7879,"populationNote":"2020年基準の国交省調整値"},"geometry":{"type":"Polygon","coordinates":[[[130.4,33.212500000000006],[130.4,33.216666666666676],[130.40625,33.21666666666667],[130.40625,33.2125],[130.4,33.212500000000006]]]}},{"type":"Feature","id":"40212:493063524","properties":{"id":"40212:493063524","meshCode":"493063524","cityCode":"40212","city":"大川市","lat":33.2145833,"lon":130.409375,"areaKm2":0.269226,"populated2020":true,"population2020":82.4354,"populationNote":"2020年基準の国交省調整値"},"geometry":{"type":"Polygon","coordinates":[[[130.40625,33.2125],[130.40625,33.21666666666667],[130.4125,33.21666666666667],[130.4125,33.2125],[130.40625,33.2125]]]}},{"type":"Feature","id":"40212:493063533","properties":{"id":"40212:493063533","meshCode":"493063533","cityCode":"40212","city":"大川市","lat":33.2145833,"lon":130.415625,"areaKm2":0.2692256,"populated2020":true,"population2020":38.1464,"populationNote":"2020年基準の国交省調整値"},"geometry":{"type":"Polygon","coordinates":[[[130.4125,33.2125],[130.4125,33.21666666666667],[130.41875,33.21666666666667],[130.41875,33.2125],[130.4125,33.2125]]]}},{"type":"Feature","id":"40212:493063534","properties":{"id":"40212:493063534","meshCode":"493063534","cityCode":"40212","city":"大川市","lat":33.2145741,"lon":130.4194669,"areaKm2":0.0658444,"populated2020":false,"population2020":null,"populationNote":"境界またぎ・原典収録外のため自治体内人口は未集計"},"geometry":{"type":"Polygon","coordinates":[[[130.42199935087243,33.216666666666676],[130.421904825,33.216409495],[130.42102489,33.216392387],[130.420929883,33.215989486],[130.420720726,33.215986982],[130.420435733,33.215367234],[130.420561842,33.215314449999994],[130.420129351,33.214493586],[130.419860195,33.21373077500001],[130.419526316,33.21328436900001],[130.419705486,33.213011306],[130.41949211793553,33.212500000000006],[130.41875,33.2125],[130.41875,33.21666666666667],[130.42199935087243,33.216666666666676]]]}},{"type":"Feature","id":"40212:493062691","properties":{"id":"40212:493062691","meshCode":"493062691","cityCode":"40212","city":"大川市","lat":33.2174039,"lon":130.3678872,"areaKm2":0.0247117,"populated2020":true,"population2020":7.0324,"populationNote":"2020年基準の国交省調整値"},"geometry":{"type":"Polygon","coordinates":[[[130.365554423,33.216666667000005],[130.366628612,33.217241946],[130.36875,33.21800610679621],[130.36875,33.216666666666676],[130.365554423,33.216666667000005]]]}},{"type":"Feature","id":"40212:493062692","properties":{"id":"40212:493062692","meshCode":"493062692","cityCode":"40212","city":"大川市","lat":33.21875,"lon":130.371875,"areaKm2":0.146028,"populated2020":true,"population2020":148.6615,"populationNote":"2020年基準の国交省調整値"},"geometry":{"type":"Polygon","coordinates":[[[130.36875,33.21800610679621],[130.372681388,33.21925972100001],[130.375,33.219625414],[130.375,33.21666666666667],[130.36875,33.216666666666676],[130.36875,33.21800610679621]]]}},{"type":"Feature","id":"40212:493063601","properties":{"id":"40212:493063601","meshCode":"493063601","cityCode":"40212","city":"大川市","lat":33.21875,"lon":130.378125,"areaKm2":0.2469905,"populated2020":true,"population2020":203.4329,"populationNote":"2020年基準の国交省調整値"},"geometry":{"type":"Polygon","coordinates":[[[130.375868612,33.219837514],[130.377068599,33.22029474799999],[130.37791948727747,33.22083333333334],[130.38125,33.22083333333334],[130.38125,33.21666666666667],[130.375,33.21666666666667],[130.375,33.219625414],[130.375868612,33.219837514]]]}},{"type":"Feature","id":"40212:493063602","properties":{"id":"40212:493063602","meshCode":"493063602","cityCode":"40212","city":"大川市","lat":33.21875,"lon":130.384375,"areaKm2":0.2692151,"populated2020":true,"population2020":363.1588,"populationNote":"2020年基準の国交省調整値"},"geometry":{"type":"Polygon","coordinates":[[[130.38125,33.21666666666667],[130.38125,33.22083333333334],[130.3875,33.22083333333333],[130.3875,33.216666666666676],[130.38125,33.21666666666667]]]}},{"type":"Feature","id":"40212:493063611","properties":{"id":"40212:493063611","meshCode":"493063611","cityCode":"40212","city":"大川市","lat":33.21875,"lon":130.390625,"areaKm2":0.2692147,"populated2020":true,"population2020":72.36,"populationNote":"2020年基準の国交省調整値"},"geometry":{"type":"Polygon","coordinates":[[[130.3875,33.216666666666676],[130.3875,33.22083333333333],[130.39375,33.22083333333333],[130.39375,33.21666666666667],[130.3875,33.216666666666676]]]}},{"type":"Feature","id":"40212:493063612","properties":{"id":"40212:493063612","meshCode":"493063612","cityCode":"40212","city":"大川市","lat":33.21875,"lon":130.396875,"areaKm2":0.2692143,"populated2020":true,"population2020":199.2144,"populationNote":"2020年基準の国交省調整値"},"geometry":{"type":"Polygon","coordinates":[[[130.39375,33.21666666666667],[130.39375,33.22083333333333],[130.4,33.22083333333333],[130.4,33.216666666666676],[130.39375,33.21666666666667]]]}},{"type":"Feature","id":"40212:493063621","properties":{"id":"40212:493063621","meshCode":"493063621","cityCode":"40212","city":"大川市","lat":33.21875,"lon":130.403125,"areaKm2":0.2692138,"populated2020":true,"population2020":228.2202,"populationNote":"2020年基準の国交省調整値"},"geometry":{"type":"Polygon","coordinates":[[[130.4,33.216666666666676],[130.4,33.22083333333333],[130.40625,33.22083333333334],[130.40625,33.21666666666667],[130.4,33.216666666666676]]]}},{"type":"Feature","id":"40212:493063622","properties":{"id":"40212:493063622","meshCode":"493063622","cityCode":"40212","city":"大川市","lat":33.21875,"lon":130.409375,"areaKm2":0.2692134,"populated2020":true,"population2020":155.7541,"populationNote":"2020年基準の国交省調整値"},"geometry":{"type":"Polygon","coordinates":[[[130.40625,33.21666666666667],[130.40625,33.22083333333334],[130.4125,33.22083333333334],[130.4125,33.21666666666667],[130.40625,33.21666666666667]]]}},{"type":"Feature","id":"40212:493063631","properties":{"id":"40212:493063631","meshCode":"493063631","cityCode":"40212","city":"大川市","lat":33.21875,"lon":130.415625,"areaKm2":0.269213,"populated2020":true,"population2020":235.3327,"populationNote":"2020年基準の国交省調整値"},"geometry":{"type":"Polygon","coordinates":[[[130.4125,33.21666666666667],[130.4125,33.22083333333334],[130.41875,33.22083333333334],[130.41875,33.21666666666667],[130.4125,33.21666666666667]]]}},{"type":"Feature","id":"40212:493063632","properties":{"id":"40212:493063632","meshCode":"493063632","cityCode":"40212","city":"大川市","lat":33.21875,"lon":130.421875,"areaKm2":0.1777114,"populated2020":true,"population2020":null,"populationNote":"境界またぎ・原典収録外のため自治体内人口は未集計"},"geometry":{"type":"Polygon","coordinates":[[[130.422497639,33.220801459],[130.423438482,33.22051867599999],[130.422892931,33.218457287999996],[130.42303904,33.21826728799999],[130.422971816,33.217998955],[130.422807095,33.21765590099999],[130.422412101,33.21774256799999],[130.42199935087243,33.216666666666676],[130.41875,33.21666666666667],[130.41875,33.22083333333334],[130.422497639,33.220801459]]]}},{"type":"Feature","id":"40212:493063603","properties":{"id":"40212:493063603","meshCode":"493063603","cityCode":"40212","city":"大川市","lat":33.2228524,"lon":130.3800744,"areaKm2":0.1068407,"populated2020":true,"population2020":18.1116,"populationNote":"2020年基準の国交省調整値"},"geometry":{"type":"Polygon","coordinates":[[[130.37791948727747,33.22083333333334],[130.378385824,33.221305613],[130.378835253,33.22215035100001],[130.378936926,33.223453422999995],[130.378917315,33.22500000000001],[130.38125,33.225],[130.38125,33.22083333333334],[130.37791948727747,33.22083333333334]]]}},{"type":"Feature","id":"40212:493063604","properties":{"id":"40212:493063604","meshCode":"493063604","cityCode":"40212","city":"大川市","lat":33.2229167,"lon":130.384375,"areaKm2":0.2692026,"populated2020":true,"population2020":25.1095,"populationNote":"2020年基準の国交省調整値"},"geometry":{"type":"Polygon","coordinates":[[[130.38125,33.22083333333334],[130.38125,33.225],[130.3875,33.225],[130.3875,33.22083333333333],[130.38125,33.22083333333334]]]}},{"type":"Feature","id":"40212:493063613","properties":{"id":"40212:493063613","meshCode":"493063613","cityCode":"40212","city":"大川市","lat":33.2229167,"lon":130.390625,"areaKm2":0.2692021,"populated2020":true,"population2020":159.9083,"populationNote":"2020年基準の国交省調整値"},"geometry":{"type":"Polygon","coordinates":[[[130.3875,33.22083333333333],[130.3875,33.225],[130.39375,33.225],[130.39375,33.22083333333333],[130.3875,33.22083333333333]]]}},{"type":"Feature","id":"40212:493063614","properties":{"id":"40212:493063614","meshCode":"493063614","cityCode":"40212","city":"大川市","lat":33.2229167,"lon":130.396875,"areaKm2":0.2692017,"populated2020":true,"population2020":75.2929,"populationNote":"2020年基準の国交省調整値"},"geometry":{"type":"Polygon","coordinates":[[[130.39375,33.22083333333333],[130.39375,33.225],[130.4,33.225],[130.4,33.22083333333333],[130.39375,33.22083333333333]]]}},{"type":"Feature","id":"40212:493063623","properties":{"id":"40212:493063623","meshCode":"493063623","cityCode":"40212","city":"大川市","lat":33.2229167,"lon":130.403125,"areaKm2":0.2692012,"populated2020":true,"population2020":143.8108,"populationNote":"2020年基準の国交省調整値"},"geometry":{"type":"Polygon","coordinates":[[[130.4,33.22083333333333],[130.4,33.225],[130.40625,33.225],[130.40625,33.22083333333334],[130.4,33.22083333333333]]]}},{"type":"Feature","id":"40212:493063624","properties":{"id":"40212:493063624","meshCode":"493063624","cityCode":"40212","city":"大川市","lat":33.2229167,"lon":130.409375,"areaKm2":0.2687436,"populated2020":true,"population2020":141.7537,"populationNote":"2020年基準の国交省調整値"},"geometry":{"type":"Polygon","coordinates":[[[130.412368677,33.225],[130.412394604,33.22463118900001],[130.4125,33.22461981743108],[130.4125,33.22083333333334],[130.40625,33.22083333333334],[130.40625,33.225],[130.412368677,33.225]]]}},{"type":"Feature","id":"40212:493063633","properties":{"id":"40212:493063633","meshCode":"493063633","cityCode":"40212","city":"大川市","lat":33.2227042,"lon":130.4139012,"areaKm2":0.1272392,"populated2020":true,"population2020":null,"populationNote":"境界またぎ・原典収録外のため自治体内人口は未集計"},"geometry":{"type":"Polygon","coordinates":[[[130.4125,33.22461981743108],[130.413639598,33.224397297],[130.413805149,33.223968126],[130.413656265,33.223818964],[130.412967652,33.223504793000004],[130.412966265,33.223323126],[130.41875,33.22178606434459],[130.41875,33.22083333333334],[130.4125,33.22083333333334],[130.4125,33.22461981743108]]]}},{"type":"Feature","id":"40212:493063634","properties":{"id":"40212:493063634","meshCode":"493063634","cityCode":"40212","city":"大川市","lat":33.2213155,"lon":130.4196664,"areaKm2":0.0181432,"populated2020":true,"population2020":null,"populationNote":"境界またぎ・原典収録外のため自治体内人口は未集計"},"geometry":{"type":"Polygon","coordinates":[[[130.41875,33.22178606434459],[130.421594034,33.221064793],[130.42238444920258,33.22083333333333],[130.41875,33.22083333333334],[130.41875,33.22178606434459]]]}},{"type":"Feature","id":"40212:493063701","properties":{"id":"40212:493063701","meshCode":"493063701","cityCode":"40212","city":"大川市","lat":33.2271777,"lon":130.3800589,"areaKm2":0.1002548,"populated2020":true,"population2020":16.06,"populationNote":"2020年基準の国交省調整値"},"geometry":{"type":"Polygon","coordinates":[[[130.378917302,33.22500010800001],[130.378854955,33.226989892],[130.37904940248336,33.22916666666667],[130.38125,33.22916666666668],[130.38125,33.225],[130.378917302,33.22500010800001]]]}},{"type":"Feature","id":"40212:493063702","properties":{"id":"40212:493063702","meshCode":"493063702","cityCode":"40212","city":"大川市","lat":33.2270833,"lon":130.384375,"areaKm2":0.26919,"populated2020":true,"population2020":290.7936,"populationNote":"2020年基準の国交省調整値"},"geometry":{"type":"Polygon","coordinates":[[[130.38125,33.225],[130.38125,33.22916666666668],[130.3875,33.22916666666668],[130.3875,33.225],[130.38125,33.225]]]}},{"type":"Feature","id":"40212:493063711","properties":{"id":"40212:493063711","meshCode":"493063711","cityCode":"40212","city":"大川市","lat":33.2270833,"lon":130.390625,"areaKm2":0.2691895,"populated2020":true,"population2020":559.7302,"populationNote":"2020年基準の国交省調整値"},"geometry":{"type":"Polygon","coordinates":[[[130.3875,33.225],[130.3875,33.22916666666668],[130.39375,33.22916666666667],[130.39375,33.225],[130.3875,33.225]]]}},{"type":"Feature","id":"40212:493063712","properties":{"id":"40212:493063712","meshCode":"493063712","cityCode":"40212","city":"大川市","lat":33.2270833,"lon":130.396875,"areaKm2":0.2691891,"populated2020":true,"population2020":282.4157,"populationNote":"2020年基準の国交省調整値"},"geometry":{"type":"Polygon","coordinates":[[[130.39375,33.225],[130.39375,33.22916666666667],[130.4,33.22916666666667],[130.4,33.225],[130.39375,33.225]]]}},{"type":"Feature","id":"40212:493063721","properties":{"id":"40212:493063721","meshCode":"493063721","cityCode":"40212","city":"大川市","lat":33.2270833,"lon":130.403125,"areaKm2":0.2691887,"populated2020":true,"population2020":417.1774,"populationNote":"2020年基準の国交省調整値"},"geometry":{"type":"Polygon","coordinates":[[[130.4,33.225],[130.4,33.22916666666667],[130.40625,33.22916666666667],[130.40625,33.225],[130.4,33.225]]]}},{"type":"Feature","id":"40212:493063722","properties":{"id":"40212:493063722","meshCode":"493063722","cityCode":"40212","city":"大川市","lat":33.2270833,"lon":130.409375,"areaKm2":0.2648199,"populated2020":true,"population2020":34.1683,"populationNote":"2020年基準の国交省調整値"},"geometry":{"type":"Polygon","coordinates":[[[130.412494034,33.22636813500001],[130.41217904,33.226305630999995],[130.412135979,33.22604785600001],[130.412094047,33.225412018],[130.41211487700002,33.225337856],[130.41237404700001,33.225245351],[130.412368677,33.225],[130.40625,33.225],[130.40625,33.22916666666667],[130.4125,33.22916666666667],[130.412494034,33.22636813500001]]]}},{"type":"Feature","id":"40212:493063731","properties":{"id":"40212:493063731","meshCode":"493063731","cityCode":"40212","city":"大川市","lat":33.2277669,"lon":130.4138276,"areaKm2":0.0465841,"populated2020":true,"population2020":null,"populationNote":"境界またぎ・原典収録外のため自治体内人口は未集計"},"geometry":{"type":"Polygon","coordinates":[[[130.41430979938366,33.22916666666667],[130.41429987,33.228410071999996],[130.4152007,33.227908404999994],[130.414980143,33.22738618900001],[130.414573476,33.227446459],[130.414461816,33.227253685],[130.414372918,33.227253685],[130.413178482,33.227443964],[130.41315987,33.227069802],[130.413536537,33.226974523],[130.413473476,33.226697856],[130.413124034,33.226762856],[130.413023761,33.226630351000004],[130.41256987,33.22652091],[130.4125,33.226393701974814],[130.4125,33.22916666666667],[130.41430979938366,33.22916666666667]]]}},{"type":"Feature","id":"40212:493062794","properties":{"id":"40212:493062794","meshCode":"493062794","cityCode":"40212","city":"大川市","lat":33.2329979,"lon":130.3741332,"areaKm2":0.0087111,"populated2020":false,"population2020":null,"populationNote":"境界またぎ・原典収録外のため自治体内人口は未集計"},"geometry":{"type":"Polygon","coordinates":[[[130.374999909,33.232683550000004],[130.374632412,33.232860883],[130.373163256,33.233015018],[130.3729119967539,33.233333333333334],[130.375,33.233333333333334],[130.374999909,33.232683550000004]]]}},{"type":"Feature","id":"40212:493063703","properties":{"id":"40212:493063703","meshCode":"493063703","cityCode":"40212","city":"大川市","lat":33.23125,"lon":130.378125,"areaKm2":0.1980892,"populated2020":true,"population2020":102.0569,"populationNote":"2020年基準の国交省調整値"},"geometry":{"type":"Polygon","coordinates":[[[130.379048262,33.22917884699999],[130.376306316,33.23129778399999],[130.375653243,33.23232059499999],[130.375,33.23268349500001],[130.375,33.233333333333334],[130.38125,33.23333333333334],[130.38125,33.22916666666668],[130.379048262,33.22917884699999]]]}},{"type":"Feature","id":"40212:493063704","properties":{"id":"40212:493063704","meshCode":"493063704","cityCode":"40212","city":"大川市","lat":33.23125,"lon":130.384375,"areaKm2":0.2691774,"populated2020":true,"population2020":362.0923,"populationNote":"2020年基準の国交省調整値"},"geometry":{"type":"Polygon","coordinates":[[[130.38125,33.22916666666668],[130.38125,33.23333333333334],[130.3875,33.233333333333334],[130.3875,33.22916666666668],[130.38125,33.22916666666668]]]}},{"type":"Feature","id":"40212:493063713","properties":{"id":"40212:493063713","meshCode":"493063713","cityCode":"40212","city":"大川市","lat":33.23125,"lon":130.390625,"areaKm2":0.2691769,"populated2020":true,"population2020":270.8786,"populationNote":"2020年基準の国交省調整値"},"geometry":{"type":"Polygon","coordinates":[[[130.3875,33.22916666666668],[130.3875,33.233333333333334],[130.39375,33.233333333333334],[130.39375,33.22916666666667],[130.3875,33.22916666666668]]]}},{"type":"Feature","id":"40212:493063714","properties":{"id":"40212:493063714","meshCode":"493063714","cityCode":"40212","city":"大川市","lat":33.23125,"lon":130.396875,"areaKm2":0.1923163,"populated2020":true,"population2020":32.1847,"populationNote":"2020年基準の国交省調整値"},"geometry":{"type":"Polygon","coordinates":[[[130.394732918,33.233333333],[130.395457964,33.23324688300001],[130.395389715,33.232269856],[130.395730156,33.232230081],[130.395724994,33.23211341399999],[130.396949079,33.23202608100001],[130.396932348,33.23188836],[130.399217652,33.231737856],[130.399141829,33.230762027],[130.4,33.23071588300001],[130.4,33.22916666666667],[130.39375,33.22916666666667],[130.39375,33.233333333333334],[130.394732918,33.233333333]]]}},{"type":"Feature","id":"40212:493063723","properties":{"id":"40212:493063723","meshCode":"493063723","cityCode":"40212","city":"大川市","lat":33.2302374,"lon":130.4006187,"areaKm2":0.0601671,"populated2020":true,"population2020":null,"populationNote":"境界またぎ・原典収録外のため自治体内人口は未集計"},"geometry":{"type":"Polygon","coordinates":[[[130.401243761,33.230648964000004],[130.401229598,33.229734242999996],[130.402100441,33.229700631],[130.40284655,33.229793414],[130.403972101,33.229608414],[130.404015149,33.22996674800001],[130.405557095,33.229920080999996],[130.405620156,33.23098591000001],[130.40625,33.231002856],[130.40625,33.22916666666667],[130.4,33.22916666666667],[130.4,33.23071588300001],[130.401243761,33.230648964000004]]]}},{"type":"Feature","id":"40212:493063724","properties":{"id":"40212:493063724","meshCode":"493063724","cityCode":"40212","city":"大川市","lat":33.23125,"lon":130.409375,"areaKm2":0.1917432,"populated2020":true,"population2020":4.0431,"populationNote":"2020年基準の国交省調整値"},"geometry":{"type":"Polygon","coordinates":[[[130.40625,33.231002856],[130.406954877,33.23096924299999],[130.407022088,33.23191618900001],[130.409916252,33.231857577],[130.409993476,33.232042856],[130.410013476,33.232661189],[130.410776809,33.23265257700001],[130.410785422,33.23248646799999],[130.411805136,33.232479523],[130.4118869260123,33.233333333333334],[130.4125,33.233333333333334],[130.4125,33.22916666666667],[130.40625,33.22916666666667],[130.40625,33.231002856]]]}},{"type":"Feature","id":"40212:493063733","properties":{"id":"40212:493063733","meshCode":"493063733","cityCode":"40212","city":"大川市","lat":33.2311631,"lon":130.4136061,"areaKm2":0.0913654,"populated2020":true,"population2020":null,"populationNote":"境界またぎ・原典収録外のため自治体内人口は未集計"},"geometry":{"type":"Polygon","coordinates":[[[130.41491856,33.233333333],[130.414899857,33.232435072],[130.414745136,33.232420631],[130.414696524,33.23075757699999],[130.414372918,33.23072868500001],[130.41430979938366,33.22916666666667],[130.4125,33.22916666666667],[130.4125,33.233333333333334],[130.41491856,33.233333333]]]}},{"type":"Feature","id":"40212:493062892","properties":{"id":"40212:493062892","meshCode":"493062892","cityCode":"40212","city":"大川市","lat":33.2354167,"lon":130.371875,"areaKm2":0.1593351,"populated2020":true,"population2020":342.1329,"populationNote":"2020年基準の国交省調整値"},"geometry":{"type":"Polygon","coordinates":[[[130.372911777,33.23333363100001],[130.37248048,33.23399973],[130.370647717,33.23608634200001],[130.370263268,33.23670272100001],[130.37000545447447,33.2375],[130.375,33.2375],[130.375,33.233333333333334],[130.372911777,33.23333363100001]]]}},{"type":"Feature","id":"40212:493063801","properties":{"id":"40212:493063801","meshCode":"493063801","cityCode":"40212","city":"大川市","lat":33.2354167,"lon":130.378125,"areaKm2":0.2691652,"populated2020":true,"population2020":400.1677,"populationNote":"2020年基準の国交省調整値"},"geometry":{"type":"Polygon","coordinates":[[[130.375,33.233333333333334],[130.375,33.2375],[130.38125,33.237500000000004],[130.38125,33.23333333333334],[130.375,33.233333333333334]]]}},{"type":"Feature","id":"40212:493063802","properties":{"id":"40212:493063802","meshCode":"493063802","cityCode":"40212","city":"大川市","lat":33.2354167,"lon":130.384375,"areaKm2":0.2691648,"populated2020":true,"population2020":190.0541,"populationNote":"2020年基準の国交省調整値"},"geometry":{"type":"Polygon","coordinates":[[[130.38125,33.23333333333334],[130.38125,33.237500000000004],[130.3875,33.2375],[130.3875,33.233333333333334],[130.38125,33.23333333333334]]]}},{"type":"Feature","id":"40212:493063811","properties":{"id":"40212:493063811","meshCode":"493063811","cityCode":"40212","city":"大川市","lat":33.2354167,"lon":130.390625,"areaKm2":0.2520064,"populated2020":true,"population2020":230.2131,"populationNote":"2020年基準の国交省調整値"},"geometry":{"type":"Polygon","coordinates":[[[130.39167833156912,33.2375],[130.39158524,33.237414081000004],[130.391576939,33.237076973],[130.393633982,33.236944189],[130.3934431,33.23412855],[130.39375,33.23411288333341],[130.39375,33.233333333333334],[130.3875,33.233333333333334],[130.3875,33.2375],[130.39167833156912,33.2375]]]}},{"type":"Feature","id":"40212:493063812","properties":{"id":"40212:493063812","meshCode":"493063812","cityCode":"40212","city":"大川市","lat":33.2336974,"lon":130.3942489,"areaKm2":0.0077771,"populated2020":true,"population2020":null,"populationNote":"境界またぎ・原典収録外のため自治体内人口は未集計"},"geometry":{"type":"Polygon","coordinates":[[[130.394762659,33.234061189],[130.39473291801198,33.233333333333334],[130.39375,33.233333333333334],[130.39375,33.23411288333341],[130.394762659,33.234061189]]]}},{"type":"Feature","id":"40212:493063822","properties":{"id":"40212:493063822","meshCode":"493063822","cityCode":"40212","city":"大川市","lat":33.2343226,"lon":130.4122251,"areaKm2":0.0108053,"populated2020":false,"population2020":null,"populationNote":"境界またぎ・原典収録外のため自治体内人口は未集計"},"geometry":{"type":"Polygon","coordinates":[[[130.411886939,33.233333685],[130.412004021,33.235209802],[130.4125,33.23519475971524],[130.4125,33.233333333333334],[130.411886939,33.233333685]]]}},{"type":"Feature","id":"40212:493063831","properties":{"id":"40212:493063831","meshCode":"493063831","cityCode":"40212","city":"大川市","lat":33.2341719,"lon":130.413726,"areaKm2":0.0457647,"populated2020":false,"population2020":null,"populationNote":"境界またぎ・原典収録外のため自治体内人口は未集計"},"geometry":{"type":"Polygon","coordinates":[[[130.4125,33.23519475971524],[130.414981245,33.23504980199999],[130.4149185600123,33.233333333333334],[130.4125,33.233333333333334],[130.4125,33.23519475971524]]]}},{"type":"Feature","id":"40212:493062894","properties":{"id":"40212:493062894","meshCode":"493062894","cityCode":"40212","city":"大川市","lat":33.2395833,"lon":130.371875,"areaKm2":0.1910057,"populated2020":true,"population2020":352.9604,"populationNote":"2020年基準の国交省調整値"},"geometry":{"type":"Polygon","coordinates":[[[130.37000545447447,33.2375],[130.369836329,33.238080485999994],[130.369824656,33.23903299100001],[130.370129105,33.23976466700001],[130.370427432,33.240049395999996],[130.371640195,33.240878036],[130.37244906573002,33.24166666666667],[130.375,33.24166666666667],[130.375,33.2375],[130.37000545447447,33.2375]]]}},{"type":"Feature","id":"40212:493063803","properties":{"id":"40212:493063803","meshCode":"493063803","cityCode":"40212","city":"大川市","lat":33.2395833,"lon":130.378125,"areaKm2":0.2611742,"populated2020":true,"population2020":397.4421,"populationNote":"2020年基準の国交省調整値"},"geometry":{"type":"Polygon","coordinates":[[[130.378483489,33.24164757700001],[130.37868543500002,33.241465909999995],[130.38125,33.24130942828689],[130.38125,33.237500000000004],[130.375,33.2375],[130.375,33.24166666666667],[130.378483489,33.24164757700001]]]}},{"type":"Feature","id":"40212:493063804","properties":{"id":"40212:493063804","meshCode":"493063804","cityCode":"40212","city":"大川市","lat":33.2395833,"lon":130.384375,"areaKm2":0.1948205,"populated2020":true,"population2020":98.2642,"populationNote":"2020年基準の国交省調整値"},"geometry":{"type":"Polygon","coordinates":[[[130.38125,33.24130942828689],[130.382725992,33.24116508099999],[130.383056822,33.241002577],[130.385204604,33.240461189],[130.386610713,33.23956118900001],[130.3875,33.239233943871554],[130.3875,33.2375],[130.38125,33.237500000000004],[130.38125,33.24130942828689]]]}},{"type":"Feature","id":"40212:493063813","properties":{"id":"40212:493063813","meshCode":"493063813","cityCode":"40212","city":"大川市","lat":33.2382829,"lon":130.3895422,"areaKm2":0.0582031,"populated2020":true,"population2020":null,"populationNote":"境界またぎ・原典収録外のため自治体内人口は未集計"},"geometry":{"type":"Polygon","coordinates":[[[130.3875,33.239233943871554],[130.390970713,33.238602306],[130.391629598,33.238547027],[130.391539326,33.23801869399999],[130.391728482,33.238001748],[130.39167833156912,33.2375],[130.3875,33.2375],[130.3875,33.239233943871554]]]}},{"type":"Feature","id":"40212:493062992","properties":{"id":"40212:493062992","meshCode":"493062992","cityCode":"40212","city":"大川市","lat":33.2432745,"lon":130.3740265,"areaKm2":0.057632,"populated2020":false,"population2020":null,"populationNote":"境界またぎ・原典収録外のため自治体内人口は未集計"},"geometry":{"type":"Polygon","coordinates":[[[130.372796291,33.242013072],[130.373296291,33.244264756999996],[130.37430406,33.244428396],[130.375,33.244736468],[130.375,33.24166666666667],[130.37244906573002,33.24166666666667],[130.372796291,33.242013072]]]}},{"type":"Feature","id":"40212:493063901","properties":{"id":"40212:493063901","meshCode":"493063901","cityCode":"40212","city":"大川市","lat":33.2431238,"lon":130.3763538,"areaKm2":0.0761305,"populated2020":false,"population2020":null,"populationNote":"境界またぎ・原典収録外のため自治体内人口は未集計"},"geometry":{"type":"Polygon","coordinates":[[[130.375045992,33.244736468],[130.37611821,33.244412856],[130.377418495,33.243616189],[130.3784689362541,33.24166666666666],[130.375,33.24166666666667],[130.375045992,33.244736468]]]}}]}