{"type":"FeatureCollection","metadata":{"cityCode":"40219","city":"大野城市","resolution":1000,"boundaryDate":"2026-01-01","populationLabel":"2020年基準人口（国交省調整値）","method":"標準地域メッシュを行政界で切抜き。中心が区域外のとき区域内代表点を判定点にする。人口不明をゼロにしない。"},"features":[{"type":"Feature","id":"40219:50301357","properties":{"id":"40219:50301357","meshCode":"50301357","cityCode":"40219","city":"大野城市","lat":33.4656193,"lon":130.4714851,"areaKm2":0.1650456,"populated2020":false,"population2020":null,"populationNote":"境界またぎ・収録外等のため人口未集計"},"geometry":{"type":"Polygon","coordinates":[[[130.474343061,33.46460722500001],[130.474124721,33.464467495],[130.473823333,33.46400305400001],[130.473461388,33.46382],[130.472596939,33.464101666999994],[130.47146499400003,33.464173892],[130.470778612,33.464513333],[130.469948327,33.465068892000005],[130.469037782,33.46521082900001],[130.468012503,33.465535829],[130.466803333,33.466149162],[130.4654807003104,33.466666666666676],[130.475,33.46666666666667],[130.475,33.464570081],[130.474343061,33.46460722500001]]]}},{"type":"Feature","id":"40219:50301358","properties":{"id":"40219:50301358","meshCode":"50301358","cityCode":"40219","city":"大野城市","lat":33.4658305,"lon":130.4796899,"areaKm2":0.1243665,"populated2020":false,"population2020":null,"populationNote":"境界またぎ・収録外等のため人口未集計"},"geometry":{"type":"Polygon","coordinates":[[[130.480567497,33.464344999999994],[130.480268612,33.464691667],[130.47958832700002,33.464872225],[130.47930111500003,33.464790279000006],[130.479111388,33.464828892],[130.478918885,33.465384721],[130.478729442,33.465591387],[130.477962503,33.465834441],[130.477134994,33.46595972099999],[130.476672503,33.465918892],[130.475423061,33.465608333],[130.47529083000003,33.465425279],[130.475345551,33.464715279],[130.475288054,33.464609441],[130.475,33.464570081],[130.475,33.46666666666667],[130.48386647176113,33.466666666666676],[130.483161388,33.466075278999995],[130.48257527900003,33.465026107999996],[130.482184721,33.464626667000005],[130.481776667,33.464501387],[130.480567497,33.464344999999994]]]}},{"type":"Feature","id":"40219:50301366","properties":{"id":"40219:50301366","meshCode":"50301366","cityCode":"40219","city":"大野城市","lat":33.4728709,"lon":130.458768,"areaKm2":0.3376266,"populated2020":false,"population2020":null,"populationNote":"境界またぎ・収録外等のため人口未集計"},"geometry":{"type":"Polygon","coordinates":[[[130.4625,33.46941148359098],[130.46229083,33.470112775],[130.46218166,33.47018500000001],[130.461704721,33.470271387],[130.460989728,33.470697225],[130.459093891,33.47114472100001],[130.458657224,33.470995559],[130.45810333300003,33.47041555900001],[130.457468327,33.47056694599999],[130.456443061,33.470444441],[130.455690272,33.47062694600001],[130.45532,33.471274441],[130.45554083,33.471748613],[130.45561,33.472249162],[130.45521083,33.472905829],[130.454596109,33.473180279],[130.454581946,33.474126108],[130.454145279,33.474448613],[130.45409917,33.47458833300001],[130.454699442,33.474922775],[130.454973502,33.47500000000001],[130.4625,33.475],[130.4625,33.46941148359098]]]}},{"type":"Feature","id":"40219:50301367","properties":{"id":"40219:50301367","meshCode":"50301367","cityCode":"40219","city":"大野城市","lat":33.4710587,"lon":130.4691256,"areaKm2":0.9938812,"populated2020":false,"population2020":null,"populationNote":"境界またぎ・収録外等のため人口未集計"},"geometry":{"type":"Polygon","coordinates":[[[130.465319663,33.466921694],[130.465188885,33.467410279],[130.46517749700004,33.467881946],[130.465763333,33.468286387],[130.465774994,33.468430559],[130.465803606,33.469032495],[130.465619728,33.469494441],[130.465490558,33.46961722499999],[130.465364163,33.469650828999995],[130.464838612,33.469518613],[130.463416939,33.468933333],[130.463008885,33.46898638700001],[130.4625,33.46941148359098],[130.4625,33.475],[130.475,33.475],[130.475,33.46666666666667],[130.4654807003104,33.466666666666676],[130.465319663,33.466921694]]]}},{"type":"Feature","id":"40219:50301368","properties":{"id":"40219:50301368","meshCode":"50301368","cityCode":"40219","city":"大野城市","lat":33.4709493,"lon":130.4810961,"areaKm2":1.0406681,"populated2020":false,"population2020":null,"populationNote":"境界またぎ・収録外等のため人口未集計"},"geometry":{"type":"Polygon","coordinates":[[[130.4875,33.46848427527268],[130.487016109,33.46804889199999],[130.486203061,33.467502495],[130.486007782,33.46744],[130.484769728,33.467398892],[130.48427,33.46723527900001],[130.48386647176113,33.466666666666676],[130.475,33.46666666666667],[130.475,33.475],[130.4875,33.475],[130.4875,33.46848427527268]]]}},{"type":"Feature","id":"40219:50301369","properties":{"id":"40219:50301369","meshCode":"50301369","cityCode":"40219","city":"大野城市","lat":33.4714317,"lon":130.4881836,"areaKm2":0.0720665,"populated2020":false,"population2020":null,"populationNote":"境界またぎ・収録外等のため人口未集計"},"geometry":{"type":"Polygon","coordinates":[[[130.490000272,33.470467775],[130.489276394,33.470246108000005],[130.488406109,33.469141387],[130.4875,33.46848427527268],[130.4875,33.475],[130.488024643,33.47500000000001],[130.488181946,33.47451305399999],[130.488293891,33.473716387],[130.488566939,33.473170279],[130.48841166,33.472688891999994],[130.488023891,33.472238892],[130.488023891,33.471983613],[130.48834,33.47164666700001],[130.489066667,33.471331387],[130.489348054,33.471134162],[130.490000272,33.470467775]]]}},{"type":"Feature","id":"40219:50301376","properties":{"id":"40219:50301376","meshCode":"50301376","cityCode":"40219","city":"大野城市","lat":33.4795012,"lon":130.4584181,"areaKm2":0.6859651,"populated2020":false,"population2020":null,"populationNote":"境界またぎ・収録外等のため人口未集計"},"geometry":{"type":"Polygon","coordinates":[[[130.455417782,33.475149162],[130.456127224,33.475825279],[130.456144449,33.477],[130.455724994,33.477355829000004],[130.455458054,33.478061108000006],[130.45529138800003,33.478287225],[130.45407917,33.479341108],[130.453628327,33.480007775],[130.453493333,33.480915],[130.45297917,33.481740559],[130.453004994,33.48232527900001],[130.453438885,33.48311249499999],[130.45338732787943,33.483333333333334],[130.4625,33.483333333333334],[130.4625,33.475],[130.454973502,33.47500000000001],[130.455417782,33.475149162]]]}},{"type":"Feature","id":"40219:50301377","properties":{"id":"40219:50301377","meshCode":"50301377","cityCode":"40219","city":"大野城市","lat":33.4791667,"lon":130.46875,"areaKm2":1.0736818,"populated2020":false,"population2020":null,"populationNote":"境界またぎ・収録外等のため人口未集計"},"geometry":{"type":"Polygon","coordinates":[[[130.475,33.475],[130.4625,33.475],[130.4625,33.483333333333334],[130.475,33.48333333333334],[130.475,33.475]]]}},{"type":"Feature","id":"40219:50301378","properties":{"id":"40219:50301378","meshCode":"50301378","cityCode":"40219","city":"大野城市","lat":33.4790887,"lon":130.4808771,"areaKm2":1.0078802,"populated2020":true,"population2020":8.1182,"populationNote":"収録500mメッシュ人口の合算（原典収録外は補完しない）"},"geometry":{"type":"Polygon","coordinates":[[[130.487116109,33.479020559000006],[130.487001388,33.478688613],[130.486481388,33.478204721],[130.486418327,33.47799777499999],[130.486800272,33.477311667],[130.487090272,33.47640944100001],[130.4875,33.47572511214158],[130.4875,33.475],[130.475,33.475],[130.475,33.48333333333334],[130.4867512841188,33.48333333333334],[130.486179728,33.482750559],[130.485783333,33.481561946],[130.485869442,33.481369441000005],[130.486228612,33.48115027899999],[130.486573333,33.480616108],[130.486989728,33.480214162],[130.487116109,33.479020559000006]]]}},{"type":"Feature","id":"40219:50301379","properties":{"id":"40219:50301379","meshCode":"50301379","cityCode":"40219","city":"大野城市","lat":33.475247,"lon":130.4876847,"areaKm2":0.0021127,"populated2020":false,"population2020":null,"populationNote":"境界またぎ・収録外等のため人口未集計"},"geometry":{"type":"Polygon","coordinates":[[[130.4875,33.47572511214158],[130.487808612,33.475355279000006],[130.488024643,33.47500000000001],[130.4875,33.475],[130.4875,33.47572511214158]]]}},{"type":"Feature","id":"40219:50301386","properties":{"id":"40219:50301386","meshCode":"50301386","cityCode":"40219","city":"大野城市","lat":33.4875343,"lon":130.4576359,"areaKm2":0.8328997,"populated2020":false,"population2020":null,"populationNote":"境界またぎ・収録外等のため人口未集計"},"geometry":{"type":"Polygon","coordinates":[[[130.45312,33.484072495],[130.45292166,33.485292775000005],[130.452246939,33.485535559],[130.452195279,33.486016946],[130.452416394,33.486832775],[130.453073891,33.487754441],[130.45341,33.48846444099999],[130.453398612,33.489205559000006],[130.45322917,33.4898],[130.452904721,33.490250278999994],[130.452634721,33.490861387],[130.451721388,33.490928613],[130.451577782,33.491159721],[130.45153791200548,33.49166666666667],[130.4625,33.49166666666667],[130.4625,33.483333333333334],[130.45338732787943,33.483333333333334],[130.45312,33.484072495]]]}},{"type":"Feature","id":"40219:50301387","properties":{"id":"40219:50301387","meshCode":"50301387","cityCode":"40219","city":"大野城市","lat":33.4875,"lon":130.46875,"areaKm2":1.0735805,"populated2020":true,"population2020":30.5074,"populationNote":"収録500mメッシュ人口の合算（原典収録外は補完しない）"},"geometry":{"type":"Polygon","coordinates":[[[130.475,33.48333333333334],[130.4625,33.483333333333334],[130.4625,33.49166666666667],[130.475,33.491666666666674],[130.475,33.48333333333334]]]}},{"type":"Feature","id":"40219:50301388","properties":{"id":"40219:50301388","meshCode":"50301388","cityCode":"40219","city":"大野城市","lat":33.4872068,"lon":130.4800315,"areaKm2":0.8512153,"populated2020":true,"population2020":1358.2987,"populationNote":"収録500mメッシュ人口の合算（原典収録外は補完しない）"},"geometry":{"type":"Polygon","coordinates":[[[130.48485832700004,33.48729416199999],[130.485068054,33.486844162000004],[130.48600166,33.485975559],[130.486768612,33.483489440999996],[130.4867512841188,33.48333333333334],[130.475,33.48333333333334],[130.475,33.491666666666674],[130.48349044090037,33.49166666666667],[130.483120558,33.490814721],[130.483123333,33.490336108],[130.483318885,33.490129162],[130.48390194600003,33.48977527900001],[130.484120272,33.489274721],[130.484373061,33.487970559000004],[130.48485832700004,33.48729416199999]]]}},{"type":"Feature","id":"40219:50301396","properties":{"id":"40219:50301396","meshCode":"50301396","cityCode":"40219","city":"大野城市","lat":33.4958604,"lon":130.4567995,"areaKm2":0.9783091,"populated2020":true,"population2020":2208.2443,"populationNote":"収録500mメッシュ人口の合算（原典収録外は補完しない）"},"geometry":{"type":"Polygon","coordinates":[[[130.45151166,33.492004441],[130.451186939,33.49239666700001],[130.451072218,33.492743333],[130.451109442,33.49322694599999],[130.45126166,33.493729720999994],[130.451267497,33.494235279],[130.45075083,33.49510666700001],[130.450894449,33.495424162],[130.451500272,33.495999441],[130.451629442,33.49650222500001],[130.451439728,33.496916108],[130.450882776,33.49772],[130.450822503,33.498208613],[130.450336939,33.498802775],[130.450736394,33.499358892],[130.45147,33.499815000000005],[130.451634423,33.5],[130.4625,33.5],[130.4625,33.49166666666667],[130.45153791200548,33.49166666666667],[130.45151166,33.492004441]]]}},{"type":"Feature","id":"40219:50301397","properties":{"id":"40219:50301397","meshCode":"50301397","cityCode":"40219","city":"大野城市","lat":33.4958333,"lon":130.46875,"areaKm2":1.073479,"populated2020":true,"population2020":3997.1796,"populationNote":"収録500mメッシュ人口の合算（原典収録外は補完しない）"},"geometry":{"type":"Polygon","coordinates":[[[130.475,33.491666666666674],[130.4625,33.49166666666667],[130.4625,33.5],[130.475,33.49999999999999],[130.475,33.491666666666674]]]}},{"type":"Feature","id":"40219:50301398","properties":{"id":"40219:50301398","meshCode":"50301398","cityCode":"40219","city":"大野城市","lat":33.495909,"lon":130.4795067,"areaKm2":0.7731952,"populated2020":true,"population2020":null,"populationNote":"境界またぎ・収録外等のため人口未集計"},"geometry":{"type":"Polygon","coordinates":[[[130.484036939,33.496434162],[130.483766939,33.495230829],[130.484036939,33.494893892],[130.483907782,33.494188892],[130.483775551,33.493895279],[130.48349044090037,33.49166666666667],[130.475,33.491666666666674],[130.475,33.49999999999999],[130.484768418,33.50000000000001],[130.484390272,33.49957472100001],[130.484467782,33.49873],[130.484114449,33.49815972100001],[130.484042776,33.497647225],[130.484048327,33.49743527900001],[130.484332776,33.496836108],[130.484321388,33.496754162],[130.484125837,33.496662775],[130.484036939,33.496434162]]]}},{"type":"Feature","id":"40219:50302306","properties":{"id":"40219:50302306","meshCode":"50302306","cityCode":"40219","city":"大野城市","lat":33.5016912,"lon":130.4587091,"areaKm2":0.2837334,"populated2020":true,"population2020":null,"populationNote":"境界またぎ・収録外等のため人口未集計"},"geometry":{"type":"Polygon","coordinates":[[[130.451634423,33.5],[130.451933891,33.50085582900001],[130.452620558,33.501700559],[130.452741115,33.501758333],[130.453039728,33.501801667],[130.45334416300003,33.501686108],[130.453539442,33.50121],[130.453740558,33.501036666999994],[130.455403606,33.500745279],[130.455558612,33.501149721],[130.455808327,33.501306107999994],[130.455897497,33.50177082900001],[130.457072218,33.502610559000004],[130.458108885,33.502848892],[130.459051115,33.502685279000005],[130.45928083,33.502718892000004],[130.459604527,33.502925865],[130.460356083,33.50292513499999],[130.46035345,33.503022946],[130.460272218,33.503021972999996],[130.460269027,33.504025865],[130.460031946,33.50402808100001],[130.460604306,33.504589333],[130.460842918,33.505020386999995],[130.461507082,33.504792135],[130.461862776,33.504781946],[130.462105551,33.504933892],[130.462199728,33.505110559],[130.462078885,33.505932495],[130.462219728,33.50602555900001],[130.4625,33.506016671965334],[130.4625,33.5],[130.451634423,33.5]]]}},{"type":"Feature","id":"40219:50302307","properties":{"id":"40219:50302307","meshCode":"50302307","cityCode":"40219","city":"大野城市","lat":33.5039541,"lon":130.4690215,"areaKm2":1.0108997,"populated2020":true,"population2020":null,"populationNote":"境界またぎ・収録外等のため人口未集計"},"geometry":{"type":"Polygon","coordinates":[[[130.475,33.49999999999999],[130.4625,33.5],[130.4625,33.506016671965334],[130.463253891,33.506388054],[130.464096939,33.50693944099999],[130.465084449,33.50713694600001],[130.46624,33.507688892],[130.467272776,33.507931946],[130.46789263315824,33.50833333333334],[130.475,33.50833333333334],[130.475,33.49999999999999]]]}},{"type":"Feature","id":"40219:50302308","properties":{"id":"40219:50302308","meshCode":"50302308","cityCode":"40219","city":"大野城市","lat":33.5042479,"lon":130.4811191,"areaKm2":1.0478193,"populated2020":true,"population2020":6410.4523,"populationNote":"収録500mメッシュ人口の合算（原典収録外は補完しない）"},"geometry":{"type":"Polygon","coordinates":[[[130.4875,33.50296877745356],[130.487251115,33.502582775],[130.487113061,33.50201972100001],[130.48720778200004,33.501189440999994],[130.48648693900003,33.50053249500001],[130.48582917,33.500896108],[130.484768418,33.50000000000001],[130.475,33.49999999999999],[130.475,33.50833333333334],[130.4872383656365,33.50833333333333],[130.4875,33.50809364878144],[130.4875,33.50296877745356]]]}},{"type":"Feature","id":"40219:50302309","properties":{"id":"40219:50302309","meshCode":"50302309","cityCode":"40219","city":"大野城市","lat":33.5051678,"lon":130.4881083,"areaKm2":0.0438879,"populated2020":true,"population2020":null,"populationNote":"境界またぎ・収録外等のため人口未集計"},"geometry":{"type":"Polygon","coordinates":[[[130.489222776,33.504288892],[130.488628327,33.50366972100001],[130.488382218,33.503766667],[130.488101946,33.50370194600001],[130.4875,33.50296877745356],[130.4875,33.50809364878144],[130.487821946,33.507798613],[130.488167782,33.507273613],[130.488005837,33.506959441],[130.488047782,33.506687774999996],[130.487955551,33.506427495],[130.488107497,33.505508053999996],[130.488261388,33.50543972100001],[130.488824994,33.505488892],[130.488854163,33.505243892],[130.489274721,33.504876108],[130.489310272,33.504533892000005],[130.489222776,33.504288892]]]}},{"type":"Feature","id":"40219:50302317","properties":{"id":"40219:50302317","meshCode":"50302317","cityCode":"40219","city":"大野城市","lat":33.5091307,"lon":130.4715509,"areaKm2":0.0895255,"populated2020":true,"population2020":null,"populationNote":"境界またぎ・収録外等のため人口未集計"},"geometry":{"type":"MultiPolygon","coordinates":[[[[130.467944994,33.508443613],[130.468536109,33.50864666700001],[130.468652503,33.509416667],[130.468924163,33.5096],[130.469078054,33.509598054],[130.469225551,33.510006387000004],[130.470136394,33.510243613],[130.470487497,33.509921667],[130.472039442,33.509414721],[130.472317782,33.50937861300001],[130.47283917,33.509473333],[130.473276394,33.509333054],[130.47349917,33.509336667],[130.474551388,33.509545],[130.475,33.508763559],[130.475,33.50833333333334],[130.46789263315824,33.50833333333334],[130.467944994,33.508443613]]],[[[130.474748003,33.512188162],[130.474664553,33.512470495],[130.474692503,33.512755468],[130.475,33.51319555900001],[130.475,33.51187138700001],[130.474748003,33.512188162]]],[[[130.474887108,33.51547780200001],[130.475,33.515594162],[130.475,33.515378721],[130.474887108,33.51547780200001]]]]}},{"type":"Feature","id":"40219:50302318","properties":{"id":"40219:50302318","meshCode":"50302318","cityCode":"40219","city":"大野城市","lat":33.5126662,"lon":130.4812384,"areaKm2":0.9476689,"populated2020":true,"population2020":null,"populationNote":"境界またぎ・収録外等のため人口未集計"},"geometry":{"type":"Polygon","coordinates":[[[130.475112503,33.508647775],[130.475484163,33.508697225000006],[130.475794994,33.508889162],[130.475851946,33.509176667000006],[130.475942503,33.50925472099999],[130.476671388,33.509106387],[130.4767662,33.50922002699999],[130.476962438,33.509095306],[130.477113022,33.51023077499999],[130.477029754,33.510744892],[130.476260947,33.511814666999996],[130.475466472,33.511376829],[130.475,33.51187138700001],[130.475,33.51319555900001],[130.475577419,33.51387963999999],[130.475345772,33.513970027],[130.475551388,33.514329027],[130.47523642,33.51466510800002],[130.475189001,33.515206279],[130.475,33.515378721],[130.475112802,33.515849387],[130.47547166,33.516285532],[130.475450921,33.516533972999994],[130.47576136122012,33.516666666666666],[130.4875,33.516666666666666],[130.4875,33.5141191489118],[130.486683061,33.513758613],[130.486193061,33.51333472100001],[130.486166939,33.512856387],[130.486387497,33.512241667000005],[130.485881946,33.512106946],[130.486051946,33.51154027900001],[130.486311803,33.511073892],[130.485973256,33.510479775],[130.486034163,33.510284999999996],[130.486500558,33.509751387],[130.486827497,33.509536387],[130.487112776,33.50897249500001],[130.487171115,33.508395],[130.4872383656365,33.50833333333333],[130.475,33.50833333333334],[130.475,33.508763559],[130.475112503,33.508647775]]]}},{"type":"Feature","id":"40219:50302319","properties":{"id":"40219:50302319","meshCode":"50302319","cityCode":"40219","city":"大野城市","lat":33.5159487,"lon":130.4885694,"areaKm2":0.0344941,"populated2020":true,"population2020":null,"populationNote":"境界またぎ・収録外等のため人口未集計"},"geometry":{"type":"Polygon","coordinates":[[[130.49081302151154,33.51666666666666],[130.489490272,33.515832225],[130.488954163,33.515745],[130.488392218,33.515528613],[130.488023061,33.514758333],[130.4875,33.5141191489118],[130.4875,33.516666666666666],[130.49081302151154,33.51666666666666]]]}},{"type":"Feature","id":"40219:50302328","properties":{"id":"40219:50302328","meshCode":"50302328","cityCode":"40219","city":"大野城市","lat":33.5207076,"lon":130.482508,"areaKm2":0.853526,"populated2020":true,"population2020":null,"populationNote":"境界またぎ・収録外等のため人口未集計"},"geometry":{"type":"Polygon","coordinates":[[[130.47576136122012,33.516666666666666],[130.476948612,33.517563892],[130.47720610900004,33.518073613000006],[130.477248327,33.51872916199999],[130.477609442,33.518968333000004],[130.477923333,33.519401387],[130.477944449,33.519855829],[130.476929442,33.520531108],[130.476950558,33.520648613],[130.477581946,33.521424162],[130.47720917,33.522060829],[130.477863606,33.522640829],[130.477993061,33.522868892],[130.477972218,33.52316694600001],[130.477658054,33.523636108],[130.478240272,33.52390249500001],[130.478884721,33.524367775],[130.478936394,33.524605],[130.478737782,33.524855829],[130.478721284,33.525000000000006],[130.4875,33.525000000000006],[130.4875,33.516666666666666],[130.47576136122012,33.516666666666666]]]}},{"type":"Feature","id":"40219:50302329","properties":{"id":"40219:50302329","meshCode":"50302329","cityCode":"40219","city":"大野城市","lat":33.5208445,"lon":130.4904685,"areaKm2":0.4948378,"populated2020":true,"population2020":null,"populationNote":"境界またぎ・収録外等のため人口未集計"},"geometry":{"type":"Polygon","coordinates":[[[130.493620272,33.51857305399999],[130.49081302151154,33.51666666666666],[130.4875,33.516666666666666],[130.4875,33.525000000000006],[130.492058223,33.525],[130.492306667,33.524641946],[130.492674163,33.524030558999996],[130.493259728,33.522147225],[130.493895551,33.521660279],[130.494813606,33.519678892],[130.494603061,33.519411108],[130.493620272,33.51857305399999]]]}},{"type":"Feature","id":"40219:50302338","properties":{"id":"40219:50302338","meshCode":"50302338","cityCode":"40219","city":"大野城市","lat":33.5294655,"lon":130.4823929,"areaKm2":0.8608125,"populated2020":true,"population2020":null,"populationNote":"境界またぎ・収録外等のため人口未集計"},"geometry":{"type":"Polygon","coordinates":[[[130.478580558,33.525325],[130.479144163,33.525641108],[130.47878166,33.526064441],[130.478666667,33.526341667000004],[130.479367497,33.526838054],[130.479116667,33.527107775],[130.479092503,33.527342225],[130.478814163,33.527973333],[130.476413891,33.530421387000004],[130.476122503,33.530210559],[130.476012218,33.530231387],[130.475498885,33.530624441],[130.475918327,33.530951946],[130.475382218,33.531426667],[130.475853333,33.53181582900001],[130.475942503,33.532015279],[130.476177224,33.532010559],[130.476216109,33.53214722500001],[130.476222503,33.532598892],[130.47584433193725,33.53333333333333],[130.4875,33.533333333333324],[130.4875,33.525000000000006],[130.478721284,33.525000000000006],[130.478700558,33.52518055899999],[130.478580558,33.525325]]]}},{"type":"Feature","id":"40219:50302339","properties":{"id":"40219:50302339","meshCode":"50302339","cityCode":"40219","city":"大野城市","lat":33.5292572,"lon":130.4888026,"areaKm2":0.436746,"populated2020":true,"population2020":null,"populationNote":"境界またぎ・収録外等のため人口未集計"},"geometry":{"type":"Polygon","coordinates":[[[130.489325279,33.530541108],[130.490505551,33.528462775],[130.491032218,33.528811108000006],[130.491992503,33.528260559],[130.491743333,33.526720829],[130.491358054,33.526616387],[130.492058223,33.525],[130.4875,33.525000000000006],[130.4875,33.533333333333324],[130.5,33.53333333333334],[130.5,33.531171865],[130.499539442,33.530978613],[130.499271115,33.53094527900001],[130.49754,33.531235],[130.495743606,33.531893333],[130.49510083,33.532230279],[130.495066667,33.532627225000006],[130.49474917,33.53296916199999],[130.494001946,33.532984162000005],[130.493006109,33.532780829],[130.492766394,33.532302225],[130.492592218,33.532153054],[130.490291115,33.531082225000006],[130.489325279,33.530541108]]]}},{"type":"Feature","id":"40219:50302430","properties":{"id":"40219:50302430","meshCode":"50302430","cityCode":"40219","city":"大野城市","lat":33.5326351,"lon":130.5020326,"areaKm2":0.0626081,"populated2020":true,"population2020":null,"populationNote":"境界またぎ・収録外等のため人口未集計"},"geometry":{"type":"Polygon","coordinates":[[[130.505817912,33.533333333],[130.505166109,33.53248555900001],[130.50499917,33.53243333299999],[130.504857497,33.532485559],[130.504402218,33.532993333],[130.503997497,33.533088054000004],[130.50344083,33.532869721000004],[130.503036109,33.532613613],[130.50240083,33.53186277499999],[130.501914994,33.531892225],[130.501492503,33.53181861299999],[130.500657782,33.531538612999995],[130.50036917,33.531320279],[130.5,33.531171865],[130.5,33.53333333333334],[130.505817912,33.533333333]]]}},{"type":"Feature","id":"40219:50302347","properties":{"id":"40219:50302347","meshCode":"50302347","cityCode":"40219","city":"大野城市","lat":33.5399276,"lon":130.4717795,"areaKm2":0.2179916,"populated2020":true,"population2020":null,"populationNote":"境界またぎ・収録外等のため人口未集計"},"geometry":{"type":"Polygon","coordinates":[[[130.475,33.53730719799999],[130.47465166,33.537596107999995],[130.474802218,33.537768892],[130.474007782,33.538269162000006],[130.473136939,33.539231108],[130.471883061,33.53816361300001],[130.471351946,33.538630559],[130.470935837,33.53831916199999],[130.469894449,33.53817305399999],[130.469411388,33.537973333],[130.468931388,33.537893612999994],[130.46792,33.538726946],[130.468977782,33.539794162],[130.468523333,33.540724441],[130.469350272,33.54145277500002],[130.46911697836373,33.541666666666664],[130.475,33.54166666666667],[130.475,33.53730719799999]]]}},{"type":"Feature","id":"40219:50302348","properties":{"id":"40219:50302348","meshCode":"50302348","cityCode":"40219","city":"大野城市","lat":33.5376115,"lon":130.4815217,"areaKm2":1.0226905,"populated2020":true,"population2020":7830.3456,"populationNote":"収録500mメッシュ人口の合算（原典収録外は補完しない）"},"geometry":{"type":"Polygon","coordinates":[[[130.475768612,33.533753613],[130.476302218,33.534274441],[130.476518885,33.53491889200001],[130.47699,33.53542777500001],[130.477044994,33.535655559],[130.475,33.53730719799999],[130.475,33.54166666666667],[130.4875,33.541666666666664],[130.4875,33.533333333333324],[130.47584433193725,33.53333333333333],[130.475768612,33.533753613]]]}},{"type":"Feature","id":"40219:50302349","properties":{"id":"40219:50302349","meshCode":"50302349","cityCode":"40219","city":"大野城市","lat":33.5375,"lon":130.49375,"areaKm2":1.0729658,"populated2020":true,"population2020":5747.582,"populationNote":"収録500mメッシュ人口の合算（原典収録外は補完しない）"},"geometry":{"type":"Polygon","coordinates":[[[130.5,33.53333333333334],[130.4875,33.533333333333324],[130.4875,33.541666666666664],[130.5,33.541666666666664],[130.5,33.53333333333334]]]}},{"type":"Feature","id":"40219:50302440","properties":{"id":"40219:50302440","meshCode":"50302440","cityCode":"40219","city":"大野城市","lat":33.5377081,"lon":130.5055918,"areaKm2":0.9262844,"populated2020":true,"population2020":191.0731,"populationNote":"収録500mメッシュ人口の合算（原典収録外は補完しない）"},"geometry":{"type":"Polygon","coordinates":[[[130.5,33.53333333333334],[130.5,33.541666666666664],[130.508691479242,33.54166666666667],[130.509120272,33.541115829],[130.509747782,33.54100222499999],[130.511048054,33.540475279000006],[130.512381946,33.539707495],[130.5125,33.53949034339761],[130.5125,33.53619317607386],[130.506075279,33.53366972100001],[130.50581791225503,33.53333333333333],[130.5,33.53333333333334]]]}},{"type":"Feature","id":"40219:50302441","properties":{"id":"40219:50302441","meshCode":"50302441","cityCode":"40219","city":"大野城市","lat":33.5375588,"lon":130.5132807,"areaKm2":0.0367102,"populated2020":false,"population2020":null,"populationNote":"境界またぎ・収録外等のため人口未集計"},"geometry":{"type":"Polygon","coordinates":[[[130.51432083,33.536975559000005],[130.5125,33.53619317607386],[130.5125,33.53949034339761],[130.512578885,33.539291387000006],[130.513433606,33.538228613],[130.514575551,33.53788333300001],[130.51432083,33.536975559000005]]]}},{"type":"Feature","id":"40219:50302357","properties":{"id":"40219:50302357","meshCode":"50302357","cityCode":"40219","city":"大野城市","lat":33.5457903,"lon":130.4723237,"areaKm2":0.4497486,"populated2020":true,"population2020":null,"populationNote":"境界またぎ・収録外等のため人口未集計"},"geometry":{"type":"Polygon","coordinates":[[[130.468699728,33.542064162],[130.469034449,33.542406666999995],[130.469659442,33.54282055899999],[130.469745279,33.543578613],[130.47063666700004,33.543749440999996],[130.470644721,33.544148054],[130.47110778200002,33.544096667000005],[130.468420558,33.547804162000006],[130.469683891,33.548734441],[130.470871388,33.549344721],[130.470978054,33.549595279],[130.47089428,33.55],[130.475,33.54999999999999],[130.475,33.54166666666667],[130.46911697836373,33.541666666666664],[130.468699728,33.542064162]]]}},{"type":"Feature","id":"40219:50302358","properties":{"id":"40219:50302358","meshCode":"50302358","cityCode":"40219","city":"大野城市","lat":33.5458333,"lon":130.48125,"areaKm2":1.0728672,"populated2020":true,"population2020":4330.9465,"populationNote":"収録500mメッシュ人口の合算（原典収録外は補完しない）"},"geometry":{"type":"Polygon","coordinates":[[[130.4875,33.541666666666664],[130.475,33.54166666666667],[130.475,33.54999999999999],[130.4875,33.55],[130.4875,33.541666666666664]]]}},{"type":"Feature","id":"40219:50302359","properties":{"id":"40219:50302359","meshCode":"50302359","cityCode":"40219","city":"大野城市","lat":33.5458333,"lon":130.49375,"areaKm2":1.0728642,"populated2020":true,"population2020":5039.4366,"populationNote":"収録500mメッシュ人口の合算（原典収録外は補完しない）"},"geometry":{"type":"Polygon","coordinates":[[[130.5,33.541666666666664],[130.4875,33.541666666666664],[130.4875,33.55],[130.5,33.54999999999999],[130.5,33.541666666666664]]]}},{"type":"Feature","id":"40219:50302450","properties":{"id":"40219:50302450","meshCode":"50302450","cityCode":"40219","city":"大野城市","lat":33.5455533,"lon":130.5041896,"areaKm2":0.6932575,"populated2020":false,"population2020":null,"populationNote":"境界またぎ・収録外等のため人口未集計"},"geometry":{"type":"Polygon","coordinates":[[[130.509069728,33.54568527899999],[130.509074994,33.545016667],[130.50829166,33.542666108000006],[130.508306667,33.54229110799999],[130.508691479242,33.54166666666667],[130.5,33.541666666666664],[130.5,33.54999999999999],[130.503599857,33.55],[130.50394,33.549925279],[130.504564994,33.549633333],[130.505192503,33.549016386999995],[130.505627497,33.549006946],[130.50640166,33.54852777499999],[130.50674083000004,33.548181387],[130.507115279,33.547953613],[130.508943606,33.54805805400001],[130.509383333,33.547219721000005],[130.509236667,33.545984441],[130.509069728,33.54568527899999]]]}},{"type":"Feature","id":"40219:50302367","properties":{"id":"40219:50302367","meshCode":"50302367","cityCode":"40219","city":"大野城市","lat":33.5542964,"lon":130.4704598,"areaKm2":0.4324992,"populated2020":true,"population2020":null,"populationNote":"境界またぎ・収録外等のため人口未集計"},"geometry":{"type":"Polygon","coordinates":[[[130.47089428,33.55],[130.469801946,33.551713054],[130.469218327,33.55315777500001],[130.468755279,33.553529721],[130.468637782,33.55387972100001],[130.467442218,33.555000279000005],[130.4644513616948,33.55833333333334],[130.470622218,33.558305000000004],[130.471074721,33.557935829],[130.471217224,33.55751833299999],[130.470946939,33.556466108],[130.471773333,33.55535222500001],[130.471912503,33.555215559000004],[130.472087224,33.555204161999995],[130.472462776,33.554861108],[130.47279583700004,33.554461108],[130.472823061,33.55414472100001],[130.473701388,33.553171946],[130.474437497,33.553109162000005],[130.475,33.553178413999994],[130.475,33.54999999999999],[130.47089428,33.55]]]}},{"type":"Feature","id":"40219:50302368","properties":{"id":"40219:50302368","meshCode":"50302368","cityCode":"40219","city":"大野城市","lat":33.5532964,"lon":130.4826394,"areaKm2":0.729388,"populated2020":true,"population2020":null,"populationNote":"境界またぎ・収録外等のため人口未集計"},"geometry":{"type":"Polygon","coordinates":[[[130.475495279,33.553240279],[130.475890272,33.553105559],[130.476197782,33.55233249500001],[130.47730055800002,33.55297305399999],[130.477838054,33.55252527900001],[130.479126394,33.553335000000004],[130.479526109,33.55369],[130.479592503,33.553849441000004],[130.479531115,33.554145279000004],[130.480016394,33.554498892],[130.481039442,33.556123333],[130.481777224,33.556905829],[130.48257527900003,33.557363333],[130.483263333,33.557618333],[130.484562776,33.557828892],[130.48511632946125,33.55833333333334],[130.4875,33.558333333333344],[130.4875,33.55],[130.475,33.54999999999999],[130.475,33.553178413999994],[130.475495279,33.553240279]]]}},{"type":"Feature","id":"40219:50302369","properties":{"id":"40219:50302369","meshCode":"50302369","cityCode":"40219","city":"大野城市","lat":33.5541667,"lon":130.49375,"areaKm2":1.0727626,"populated2020":true,"population2020":2632.3101,"populationNote":"収録500mメッシュ人口の合算（原典収録外は補完しない）"},"geometry":{"type":"Polygon","coordinates":[[[130.5,33.54999999999999],[130.4875,33.55],[130.4875,33.558333333333344],[130.5,33.55833333333334],[130.5,33.54999999999999]]]}},{"type":"Feature","id":"40219:50302460","properties":{"id":"40219:50302460","meshCode":"50302460","cityCode":"40219","city":"大野城市","lat":33.5541724,"lon":130.501816,"areaKm2":0.3059049,"populated2020":true,"population2020":null,"populationNote":"境界またぎ・収録外等のため人口未集計"},"geometry":{"type":"Polygon","coordinates":[[[130.504131115,33.55396889200001],[130.504277782,33.55310999999999],[130.504146109,33.55278277499999],[130.503893891,33.552414721],[130.503124994,33.551683892],[130.502907497,33.551086108],[130.502933061,33.55045222500001],[130.503024163,33.550266946],[130.503599857,33.55],[130.5,33.54999999999999],[130.5,33.55833333333334],[130.5026982226348,33.55833333333334],[130.502826939,33.558215829000005],[130.503008885,33.557978613],[130.50344389100002,33.556868613],[130.503373333,33.55655999999999],[130.503478885,33.555964161999995],[130.50364083,33.55578861299999],[130.503893891,33.55507694600001],[130.504303606,33.55439389200001],[130.504338612,33.55422027899999],[130.504131115,33.55396889200001]]]}},{"type":"Feature","id":"40219:50302376","properties":{"id":"40219:50302376","meshCode":"50302376","cityCode":"40219","city":"大野城市","lat":33.5613037,"lon":130.4617755,"areaKm2":0.0211576,"populated2020":true,"population2020":null,"populationNote":"境界またぎ・収録外等のため人口未集計"},"geometry":{"type":"Polygon","coordinates":[[[130.4625,33.560361033464105],[130.462171946,33.560696946],[130.461872503,33.560469162],[130.461290272,33.560886108],[130.460785279,33.561007495000005],[130.460563333,33.56120110799999],[130.460927224,33.561544162000004],[130.461512776,33.56189638699999],[130.4625,33.56218546363557],[130.4625,33.560361033464105]]]}},{"type":"Feature","id":"40219:50302377","properties":{"id":"40219:50302377","meshCode":"50302377","cityCode":"40219","city":"大野城市","lat":33.5605175,"lon":130.4656737,"areaKm2":0.2432523,"populated2020":true,"population2020":null,"populationNote":"境界またぎ・収録外等のため人口未集計"},"geometry":{"type":"Polygon","coordinates":[[[130.467993891,33.560630559],[130.469278054,33.55880305400001],[130.47054605610384,33.558333333333344],[130.4644513616948,33.55833333333334],[130.4625,33.560361033464105],[130.4625,33.56218546363557],[130.463902503,33.562424721000006],[130.46420083,33.562541108],[130.464267224,33.562828613],[130.464622218,33.562857225],[130.464790272,33.563453333000005],[130.46492138800002,33.563571108000005],[130.466227224,33.563112495000006],[130.46671444900002,33.562785829000006],[130.467024449,33.56222],[130.467668327,33.561477225000004],[130.467893333,33.561080559000004],[130.467993891,33.560630559]]]}},{"type":"Feature","id":"40219:50302378","properties":{"id":"40219:50302378","meshCode":"50302378","cityCode":"40219","city":"大野城市","lat":33.5592698,"lon":130.4864294,"areaKm2":0.0436955,"populated2020":true,"population2020":null,"populationNote":"境界またぎ・収録外等のため人口未集計"},"geometry":{"type":"Polygon","coordinates":[[[130.48521166,33.558402225],[130.485261946,33.558668612999995],[130.485038612,33.559252775],[130.485145279,33.559452224999994],[130.485498054,33.55973],[130.485669442,33.560186387],[130.486601388,33.560117774999995],[130.4875,33.56075188835729],[130.4875,33.558333333333344],[130.48511632946125,33.55833333333334],[130.48521166,33.558402225]]]}},{"type":"Feature","id":"40219:50302379","properties":{"id":"40219:50302379","meshCode":"50302379","cityCode":"40219","city":"大野城市","lat":33.5591829,"lon":130.494467,"areaKm2":0.1846701,"populated2020":true,"population2020":null,"populationNote":"境界またぎ・収録外等のため人口未集計"},"geometry":{"type":"Polygon","coordinates":[[[130.493468885,33.55908082900001],[130.494479442,33.559211946000005],[130.49485917,33.559189162],[130.495356667,33.559398054],[130.496338612,33.560044441],[130.496419728,33.560200279],[130.498022776,33.560443333],[130.498766394,33.560666108],[130.5,33.56045566699999],[130.5,33.55833333333334],[130.4875,33.558333333333344],[130.4875,33.56075188835729],[130.488536109,33.560396387],[130.488550558,33.560265279],[130.488334721,33.559945559],[130.488286109,33.559666387],[130.488548327,33.55933249500001],[130.488708327,33.558903892],[130.489019442,33.55859999999999],[130.48917166,33.558624721],[130.489581946,33.559143053999996],[130.489886394,33.559393613],[130.491557224,33.560001107999994],[130.49311917,33.55893277500001],[130.493294163,33.558934441],[130.493468885,33.55908082900001]]]}},{"type":"Feature","id":"40219:50302470","properties":{"id":"40219:50302470","meshCode":"50302470","cityCode":"40219","city":"大野城市","lat":33.5591806,"lon":130.501023,"areaKm2":0.0390502,"populated2020":true,"population2020":null,"populationNote":"境界またぎ・収録外等のため人口未集計"},"geometry":{"type":"Polygon","coordinates":[[[130.5,33.56045566699999],[130.50185778200003,33.559821667],[130.50197917,33.559100559],[130.502543606,33.558623892],[130.5026982226348,33.55833333333334],[130.5,33.55833333333334],[130.5,33.56045566699999]]]}}]}