{"type":"FeatureCollection","metadata":{"cityCode":"40217","city":"筑紫野市","resolution":1000,"boundaryDate":"2026-01-01","populationLabel":"2020年基準人口（国交省調整値）","method":"標準地域メッシュを行政界で切抜き。中心が区域外のとき区域内代表点を判定点にする。人口不明をゼロにしない。"},"features":[{"type":"Feature","id":"40217:50301316","properties":{"id":"40217:50301316","meshCode":"50301316","cityCode":"40217","city":"筑紫野市","lat":33.4309975,"lon":130.4599383,"areaKm2":0.2478423,"populated2020":false,"population2020":null,"populationNote":"境界またぎ・収録外等のため人口未集計"},"geometry":{"type":"Polygon","coordinates":[[[130.462154163,33.427948613],[130.46166,33.428271108],[130.461413333,33.42823722499999],[130.460706394,33.429300829],[130.45904917,33.428783333],[130.458388327,33.42883166699999],[130.457653061,33.429053054],[130.456978054,33.428939721],[130.456811388,33.428978332999996],[130.456584449,33.429851946],[130.457811115,33.430658054],[130.457894449,33.430800000000005],[130.457626939,33.431938333],[130.457216109,33.43250416200001],[130.45679661494057,33.43333333333334],[130.4625,33.43333333333333],[130.4625,33.42793245862859],[130.462154163,33.427948613]]]}},{"type":"Feature","id":"40217:50301317","properties":{"id":"40217:50301317","meshCode":"50301317","cityCode":"40217","city":"筑紫野市","lat":33.431313,"lon":130.4649408,"areaKm2":0.227823,"populated2020":false,"population2020":null,"populationNote":"境界またぎ・収録外等のため人口未集計"},"geometry":{"type":"Polygon","coordinates":[[[130.465061115,33.429108892],[130.463073333,33.428020829],[130.4625,33.42793245862859],[130.4625,33.43333333333333],[130.47015775926667,33.43333333333333],[130.469067782,33.432990829],[130.468861115,33.432841667],[130.468088327,33.431963054],[130.467235279,33.43130110800001],[130.466675279,33.430355559000006],[130.465916939,33.42988389199999],[130.465061115,33.429108892]]]}},{"type":"Feature","id":"40217:50301326","properties":{"id":"40217:50301326","meshCode":"50301326","cityCode":"40217","city":"筑紫野市","lat":33.4375167,"lon":130.4588835,"areaKm2":0.6050695,"populated2020":true,"population2020":10.086,"populationNote":"収録500mメッシュ人口の合算（原典収録外は補完しない）"},"geometry":{"type":"Polygon","coordinates":[[[130.45675083000003,33.433673613],[130.456345837,33.434239162],[130.456394721,33.434746946],[130.456044163,33.43606555899999],[130.455504163,33.436209999999996],[130.454834994,33.436034162],[130.45393888500004,33.436019721],[130.453691946,33.436111387],[130.453685837,33.43768500000001],[130.453771946,33.437925829],[130.454205837,33.43834222500001],[130.45502166,33.438722495],[130.45524,33.438929441000006],[130.456334163,33.440674441],[130.45667,33.44127361300001],[130.4567846689518,33.44166666666666],[130.4625,33.44166666666667],[130.4625,33.43333333333333],[130.45679661494057,33.43333333333334],[130.45675083000003,33.433673613]]]}},{"type":"Feature","id":"40217:50301327","properties":{"id":"40217:50301327","meshCode":"50301327","cityCode":"40217","city":"筑紫野市","lat":33.4376982,"lon":130.4684636,"areaKm2":1.0129604,"populated2020":true,"population2020":168.9094,"populationNote":"収録500mメッシュ人口の合算（原典収録外は補完しない）"},"geometry":{"type":"Polygon","coordinates":[[[130.475,33.43664205399999],[130.474376109,33.435465],[130.474137497,33.435274721],[130.472784721,33.434531387],[130.471661388,33.434278333],[130.470762776,33.43339527900001],[130.47015775926667,33.43333333333333],[130.4625,33.43333333333333],[130.4625,33.44166666666667],[130.475,33.44166666666667],[130.475,33.43664205399999]]]}},{"type":"Feature","id":"40217:50301328","properties":{"id":"40217:50301328","meshCode":"50301328","cityCode":"40217","city":"筑紫野市","lat":33.4395844,"lon":130.4809171,"areaKm2":0.5142807,"populated2020":false,"population2020":null,"populationNote":"境界またぎ・収録外等のため人口未集計"},"geometry":{"type":"Polygon","coordinates":[[[130.48066083,33.436567495],[130.480376394,33.43619444099999],[130.48025,33.436117495],[130.480071946,33.436127225],[130.479454449,33.436635],[130.479106667,33.437296667],[130.478957497,33.43740722500001],[130.478693061,33.437484162000004],[130.478049728,33.437412225],[130.47787166,33.437479440999994],[130.47746083,33.43822805400001],[130.477001115,33.438521667],[130.4768,33.43852638700001],[130.476593333,33.438463892],[130.476331946,33.438259162],[130.475797497,33.437450559],[130.475,33.43664205399999],[130.475,33.44166666666667],[130.4875,33.44166666666667],[130.4875,33.44035725233491],[130.487149442,33.440180000000005],[130.487008885,33.43914277499999],[130.486801946,33.438854162000005],[130.485753606,33.438076667],[130.485535551,33.438009162],[130.484820272,33.438011667],[130.484101946,33.437727775000006],[130.482306667,33.43762889199999],[130.481424994,33.436895],[130.48066083,33.436567495]]]}},{"type":"Feature","id":"40217:50301426","properties":{"id":"40217:50301426","meshCode":"50301426","cityCode":"40217","city":"筑紫野市","lat":33.4398466,"lon":130.5795384,"areaKm2":0.3145767,"populated2020":true,"population2020":null,"populationNote":"境界またぎ・収録外等のため人口未集計"},"geometry":{"type":"Polygon","coordinates":[[[130.580672438,33.437055027],[130.580441946,33.436982252],[130.580195227,33.437032892],[130.579765551,33.436971108],[130.578496667,33.43751527900001],[130.577894994,33.438033333],[130.577423061,33.438256386999996],[130.575761115,33.438795559000006],[130.576079728,33.439644162000015],[130.575,33.439942252],[130.575,33.44166666666666],[130.58350444982852,33.44166666666667],[130.584409442,33.441246667],[130.584619442,33.441026667],[130.584115551,33.440429441000006],[130.582788664,33.439361440999996],[130.582798833,33.439081],[130.58263808,33.439061946],[130.581439001,33.437710946],[130.580672438,33.437055027]]]}},{"type":"Feature","id":"40217:50301329","properties":{"id":"40217:50301329","meshCode":"50301329","cityCode":"40217","city":"筑紫野市","lat":33.4408713,"lon":130.4898557,"areaKm2":0.0755206,"populated2020":false,"population2020":null,"populationNote":"境界またぎ・収録外等のため人口未集計"},"geometry":{"type":"Polygon","coordinates":[[[130.492713333,33.441636108],[130.491503891,33.44054610799999],[130.491219728,33.43980722500001],[130.490909728,33.439653054],[130.489794994,33.439941946],[130.488815551,33.440011667],[130.488097497,33.44037249499999],[130.4875,33.44035725233491],[130.4875,33.44166666666667],[130.492713333,33.441636108]]]}},{"type":"Feature","id":"40217:50301422","properties":{"id":"40217:50301422","meshCode":"50301422","cityCode":"40217","city":"筑紫野市","lat":33.4406807,"lon":130.5357587,"areaKm2":0.0743048,"populated2020":true,"population2020":null,"populationNote":"境界またぎ・収録外等のため人口未集計"},"geometry":{"type":"Polygon","coordinates":[[[130.536770272,33.43912277500001],[130.536470752,33.438981946],[130.535735837,33.439777775],[130.534865084,33.43999646799999],[130.53483800300003,33.44017641399999],[130.534976472,33.440505892],[130.534407497,33.440759333],[130.53445869,33.440936748],[130.533684994,33.44146],[130.533244449,33.441584721000005],[130.532297224,33.441558054],[130.530871115,33.44138110800001],[130.53028258144278,33.44166666666666],[130.5375,33.44166666666667],[130.5375,33.439121227901595],[130.536770272,33.43912277500001]]]}},{"type":"Feature","id":"40217:50301423","properties":{"id":"40217:50301423","meshCode":"50301423","cityCode":"40217","city":"筑紫野市","lat":33.4408766,"lon":130.5427229,"areaKm2":0.1433494,"populated2020":true,"population2020":null,"populationNote":"境界またぎ・収録外等のため人口未集計"},"geometry":{"type":"MultiPolygon","coordinates":[[[[130.543646252,33.439099694],[130.542134968,33.439707973000004],[130.5403510254618,33.44166666666667],[130.55,33.44166666666667],[130.55,33.441229667],[130.549622503,33.441258892],[130.549629728,33.440760559],[130.548657471,33.440873162],[130.547402503,33.441342775],[130.546597639,33.440590414000006],[130.545395837,33.44153916199999],[130.54381166,33.440112225],[130.54416406,33.439849919],[130.543646252,33.439099694]]],[[[130.539979027,33.441009613],[130.539486939,33.440873333000006],[130.539088327,33.440447225],[130.538368054,33.43986361299999],[130.537791362,33.43921130599999],[130.5375,33.439121227901595],[130.5375,33.44166666666667],[130.54023593990658,33.44166666666667],[130.539979027,33.441009613]]]]}},{"type":"Feature","id":"40217:50301424","properties":{"id":"40217:50301424","meshCode":"50301424","cityCode":"40217","city":"筑紫野市","lat":33.4414632,"lon":130.550323,"areaKm2":0.0029056,"populated2020":true,"population2020":null,"populationNote":"境界またぎ・収録外等のため人口未集計"},"geometry":{"type":"Polygon","coordinates":[[[130.550426667,33.4412],[130.55,33.441229667],[130.55,33.44166666666667],[130.55080938972665,33.44166666666667],[130.550426667,33.4412]]]}},{"type":"Feature","id":"40217:50301425","properties":{"id":"40217:50301425","meshCode":"50301425","cityCode":"40217","city":"筑紫野市","lat":33.4409676,"lon":130.5739052,"areaKm2":0.0335787,"populated2020":false,"population2020":null,"populationNote":"境界またぎ・収録外等のため人口未集計"},"geometry":{"type":"Polygon","coordinates":[[[130.573275837,33.440470559000005],[130.572398054,33.440818054],[130.57274243898118,33.44166666666667],[130.575,33.44166666666666],[130.575,33.439942252],[130.573275837,33.440470559000005]]]}},{"type":"Feature","id":"40217:50301336","properties":{"id":"40217:50301336","meshCode":"50301336","cityCode":"40217","city":"筑紫野市","lat":33.4459481,"lon":130.4619154,"areaKm2":0.213567,"populated2020":false,"population2020":null,"populationNote":"境界またぎ・収録外等のため人口未集計"},"geometry":{"type":"Polygon","coordinates":[[[130.4567846689518,33.44166666666666],[130.45685111500003,33.441968892000006],[130.457287782,33.442219162],[130.457500272,33.4422],[130.457810558,33.442026946],[130.458016939,33.44206555900001],[130.458266939,33.442558613],[130.458485279,33.44278],[130.459487782,33.44325416200001],[130.459591115,33.44337444100001],[130.459812503,33.444243333],[130.461176667,33.444977495],[130.461337497,33.44552138700001],[130.4613,33.446289162],[130.461058885,33.446601946000015],[130.460449728,33.446986945999996],[130.460070558,33.447468332999996],[130.46005917,33.447603054],[130.46036083,33.448183054000005],[130.46042083,33.448642775],[130.460182503,33.44932833299999],[130.460159442,33.449660559],[130.460449468,33.45],[130.4625,33.45],[130.4625,33.44166666666667],[130.4567846689518,33.44166666666666]]]}},{"type":"Feature","id":"40217:50301337","properties":{"id":"40217:50301337","meshCode":"50301337","cityCode":"40217","city":"筑紫野市","lat":33.4458333,"lon":130.46875,"areaKm2":1.074087,"populated2020":true,"population2020":51.7079,"populationNote":"収録500mメッシュ人口の合算（原典収録外は補完しない）"},"geometry":{"type":"Polygon","coordinates":[[[130.475,33.44166666666667],[130.4625,33.44166666666667],[130.4625,33.45],[130.475,33.45],[130.475,33.44166666666667]]]}},{"type":"Feature","id":"40217:50301338","properties":{"id":"40217:50301338","meshCode":"50301338","cityCode":"40217","city":"筑紫野市","lat":33.4458333,"lon":130.48125,"areaKm2":1.0740841,"populated2020":true,"population2020":43.7708,"populationNote":"収録500mメッシュ人口の合算（原典収録外は補完しない）"},"geometry":{"type":"Polygon","coordinates":[[[130.4875,33.44166666666667],[130.475,33.44166666666667],[130.475,33.45],[130.4875,33.45000000000001],[130.4875,33.44166666666667]]]}},{"type":"Feature","id":"40217:50301339","properties":{"id":"40217:50301339","meshCode":"50301339","cityCode":"40217","city":"筑紫野市","lat":33.4464128,"lon":130.493015,"areaKm2":0.8822367,"populated2020":false,"population2020":null,"populationNote":"境界またぎ・収録外等のため人口未集計"},"geometry":{"type":"Polygon","coordinates":[[[130.492833891,33.442237775],[130.49254083000002,33.442011387],[130.49270894904782,33.44166666666666],[130.4875,33.44166666666667],[130.4875,33.45000000000001],[130.5,33.45],[130.5,33.44522941400001],[130.499326939,33.445044162],[130.498229442,33.445070559],[130.497401946,33.444813892],[130.49682083,33.444908892],[130.49591,33.44476694600001],[130.495726394,33.44456972100001],[130.495634449,33.444290559],[130.495005279,33.444273613],[130.494718054,33.44412444100001],[130.494557224,33.443931946],[130.494183891,33.442873053999996],[130.49425,33.44227389200001],[130.493655551,33.442208892],[130.492833891,33.442237775]]]}},{"type":"Feature","id":"40217:50301430","properties":{"id":"40217:50301430","meshCode":"50301430","cityCode":"40217","city":"筑紫野市","lat":33.4476552,"lon":130.5060645,"areaKm2":0.5326508,"populated2020":false,"population2020":null,"populationNote":"境界またぎ・収録外等のため人口未集計"},"geometry":{"type":"Polygon","coordinates":[[[130.50989,33.44449333299999],[130.50963166,33.443798613000006],[130.509383891,33.443667495],[130.508216109,33.443746108],[130.507943333,33.443831387],[130.507712776,33.444218333],[130.50750306100002,33.444401667],[130.506083606,33.445378612999995],[130.506125551,33.445798333],[130.50588083,33.446250829],[130.505300558,33.446460559],[130.50476917,33.446473892],[130.504412503,33.44657222499999],[130.503920558,33.44682749500001],[130.503535837,33.446925829],[130.502207497,33.446204721],[130.502179728,33.445883333],[130.5019,33.445673333],[130.501515551,33.445542225000004],[130.500704449,33.445529441],[130.5,33.44522941400001],[130.5,33.45],[130.5125,33.45],[130.5125,33.449419041904115],[130.512292503,33.449420829],[130.511132218,33.44911277500001],[130.511243891,33.44871916200001],[130.511104163,33.448391387],[130.51139778200002,33.447565279],[130.511439728,33.446896387],[130.51130917,33.44659194599999],[130.511113606,33.446408333],[130.510477497,33.44609333300001],[130.510155837,33.445837774999994],[130.510197782,33.445358892],[130.509904163,33.444768892],[130.50989,33.44449333299999]]]}},{"type":"Feature","id":"40217:50301431","properties":{"id":"40217:50301431","meshCode":"50301431","cityCode":"40217","city":"筑紫野市","lat":33.4480416,"lon":130.5200446,"areaKm2":0.4392741,"populated2020":false,"population2020":null,"populationNote":"境界またぎ・収録外等のため人口未集計"},"geometry":{"type":"Polygon","coordinates":[[[130.523827497,33.444972225],[130.52328917000003,33.445562224999996],[130.521818054,33.446046667],[130.521027782,33.446092495],[130.519930272,33.44604],[130.518000558,33.445764721],[130.517588054,33.44576472100001],[130.517305551,33.446090278999996],[130.516445551,33.447493333000004],[130.516116939,33.447775279000005],[130.515564721,33.447886667000006],[130.513187497,33.448771945999994],[130.5125,33.449419041904115],[130.5125,33.45],[130.525,33.45],[130.525,33.444242919],[130.524736667,33.444316387],[130.523827497,33.444972225]]]}},{"type":"Feature","id":"40217:50301432","properties":{"id":"40217:50301432","meshCode":"50301432","cityCode":"40217","city":"筑紫野市","lat":33.4461278,"lon":130.5316498,"areaKm2":0.9822696,"populated2020":true,"population2020":383.1061,"populationNote":"収録500mメッシュ人口の合算（原典収録外は補完しない）"},"geometry":{"type":"Polygon","coordinates":[[[130.529773333,33.44205],[130.529535551,33.442594162],[130.529221388,33.44275805400001],[130.527914617,33.443135892],[130.527302503,33.443752495],[130.527064721,33.443876946],[130.526211946,33.444185278999996],[130.525386939,33.444159162000005],[130.525,33.444242919],[130.525,33.45],[130.5375,33.45000000000001],[130.5375,33.44166666666667],[130.53028258144278,33.44166666666666],[130.529773333,33.44205]]]}},{"type":"Feature","id":"40217:50301433","properties":{"id":"40217:50301433","meshCode":"50301433","cityCode":"40217","city":"筑紫野市","lat":33.4458334,"lon":130.5437501,"areaKm2":1.0740536,"populated2020":true,"population2020":5728.1385,"populationNote":"収録500mメッシュ人口の合算（原典収録外は補完しない）"},"geometry":{"type":"Polygon","coordinates":[[[130.55,33.44166666666667],[130.5375,33.44166666666667],[130.5375,33.45000000000001],[130.55,33.45],[130.55,33.44166666666667]]]}},{"type":"Feature","id":"40217:50301434","properties":{"id":"40217:50301434","meshCode":"50301434","cityCode":"40217","city":"筑紫野市","lat":33.44593,"lon":130.5513702,"areaKm2":0.336251,"populated2020":true,"population2020":null,"populationNote":"境界またぎ・収録外等のため人口未集計"},"geometry":{"type":"Polygon","coordinates":[[[130.552563606,33.445464441],[130.552731388,33.445136667],[130.552661388,33.444573054],[130.552151115,33.443418892],[130.55080938972665,33.44166666666667],[130.55,33.44166666666667],[130.55,33.45],[130.5625,33.45],[130.5625,33.448072663741605],[130.561906667,33.448022775000005],[130.561885837,33.447924441],[130.561703891,33.447891667000015],[130.561494163,33.447662495],[130.56066221800003,33.447806387],[130.560165551,33.44806222500001],[130.559718054,33.448036108000004],[130.559487497,33.44823916199999],[130.55791,33.449083054],[130.557050272,33.449391387000006],[130.556693606,33.449430559],[130.555896394,33.449332225],[130.555448885,33.449483054],[130.554707782,33.449463333],[130.553595837,33.449929162],[130.553156667,33.448987775],[130.553072776,33.448640278999996],[130.55319166000004,33.44786666700001],[130.553143061,33.447145279000004],[130.552563606,33.445464441]]]}},{"type":"Feature","id":"40217:50301435","properties":{"id":"40217:50301435","meshCode":"50301435","cityCode":"40217","city":"筑紫野市","lat":33.4464746,"lon":130.570106,"areaKm2":0.6123048,"populated2020":true,"population2020":null,"populationNote":"境界またぎ・収録外等のため人口未集計"},"geometry":{"type":"Polygon","coordinates":[[[130.575,33.44166666666666],[130.57274243898118,33.44166666666667],[130.571782776,33.44201805400001],[130.571450272,33.442549162],[130.571407782,33.442853891999995],[130.568834994,33.443785],[130.569114163,33.444401108],[130.567488885,33.444976946000004],[130.567363061,33.44472777499999],[130.5659,33.445847495],[130.566033061,33.446126387],[130.566705837,33.446045829],[130.566830558,33.44626527900001],[130.565893606,33.446645559],[130.566424994,33.44769444100001],[130.565571946,33.448297775],[130.565355279,33.448697775],[130.565040558,33.448724162000005],[130.563516394,33.448304441],[130.563173606,33.448304441],[130.562796394,33.44811416200001],[130.5625,33.448072663741605],[130.5625,33.45],[130.571883528,33.45],[130.57197083,33.449565],[130.572708612,33.448170829000006],[130.572750558,33.44768527899999],[130.572904449,33.447324441000006],[130.573124449,33.447957225],[130.573879728,33.44746582900001],[130.574036394,33.447663613],[130.575,33.447083721],[130.574589728,33.446598054],[130.575,33.446351027],[130.575,33.44166666666666]]]}},{"type":"Feature","id":"40217:50301436","properties":{"id":"40217:50301436","meshCode":"50301436","cityCode":"40217","city":"筑紫野市","lat":33.4429897,"lon":130.5777331,"areaKm2":0.1666043,"populated2020":true,"population2020":null,"populationNote":"境界またぎ・収録外等のため人口未集計"},"geometry":{"type":"MultiPolygon","coordinates":[[[[130.581764994,33.442368054],[130.58350444982852,33.44166666666667],[130.575,33.44166666666666],[130.575,33.445498775000004],[130.57557138800001,33.445113333],[130.575900272,33.445188892],[130.576054163,33.445044441],[130.57695138800003,33.445037774999996],[130.576973333,33.444409162],[130.578537224,33.443839441],[130.581764994,33.442368054]]],[[[130.575,33.446351027],[130.575522218,33.446046667],[130.575,33.445542945999996],[130.575,33.44583333333333],[130.575,33.446351027]]],[[[130.575016394,33.447073892],[130.575,33.44705561300001],[130.575,33.447083721],[130.575016394,33.447073892]]]]}},{"type":"Feature","id":"40217:50301346","properties":{"id":"40217:50301346","meshCode":"50301346","cityCode":"40217","city":"筑紫野市","lat":33.4543618,"lon":130.4604483,"areaKm2":0.3406877,"populated2020":false,"population2020":null,"populationNote":"境界またぎ・収録外等のため人口未集計"},"geometry":{"type":"Polygon","coordinates":[[[130.460518327,33.450240559],[130.460334721,33.450423613],[130.459389442,33.450714721000004],[130.459096667,33.451008333],[130.458444721,33.451299440999996],[130.458134449,33.451612225],[130.45813166,33.452259721],[130.457907497,33.452668892],[130.458274994,33.453626667],[130.458220558,33.454259721],[130.458530558,33.454534162],[130.459263061,33.454738613],[130.459464163,33.454868612999995],[130.459538885,33.455003333],[130.459527497,33.45539805399999],[130.45936083,33.455624441000005],[130.458456109,33.455857495000004],[130.458318054,33.455987495],[130.457936394,33.456923613],[130.457479728,33.457455559],[130.457924721,33.45783361299999],[130.4589342286734,33.458333333333336],[130.4625,33.458333333333336],[130.4625,33.45],[130.460449468,33.45],[130.460518327,33.450240559]]]}},{"type":"Feature","id":"40217:50301347","properties":{"id":"40217:50301347","meshCode":"50301347","cityCode":"40217","city":"筑紫野市","lat":33.4541667,"lon":130.46875,"areaKm2":1.0739858,"populated2020":false,"population2020":null,"populationNote":"境界またぎ・収録外等のため人口未集計"},"geometry":{"type":"Polygon","coordinates":[[[130.475,33.45],[130.4625,33.45],[130.4625,33.458333333333336],[130.475,33.458333333333336],[130.475,33.45]]]}},{"type":"Feature","id":"40217:50301348","properties":{"id":"40217:50301348","meshCode":"50301348","cityCode":"40217","city":"筑紫野市","lat":33.4541667,"lon":130.48125,"areaKm2":1.0739828,"populated2020":true,"population2020":1.9908,"populationNote":"収録500mメッシュ人口の合算（原典収録外は補完しない）"},"geometry":{"type":"Polygon","coordinates":[[[130.4875,33.45000000000001],[130.475,33.45],[130.475,33.458333333333336],[130.4875,33.458333333333336],[130.4875,33.45000000000001]]]}},{"type":"Feature","id":"40217:50301349","properties":{"id":"40217:50301349","meshCode":"50301349","cityCode":"40217","city":"筑紫野市","lat":33.4541667,"lon":130.49375,"areaKm2":1.0739799,"populated2020":true,"population2020":64.7824,"populationNote":"収録500mメッシュ人口の合算（原典収録外は補完しない）"},"geometry":{"type":"Polygon","coordinates":[[[130.5,33.45],[130.4875,33.45000000000001],[130.4875,33.458333333333336],[130.5,33.458333333333336],[130.5,33.45]]]}},{"type":"Feature","id":"40217:50301440","properties":{"id":"40217:50301440","meshCode":"50301440","cityCode":"40217","city":"筑紫野市","lat":33.4541667,"lon":130.50625,"areaKm2":1.073977,"populated2020":true,"population2020":93.3007,"populationNote":"収録500mメッシュ人口の合算（原典収録外は補完しない）"},"geometry":{"type":"Polygon","coordinates":[[[130.5125,33.45],[130.5,33.45],[130.5,33.458333333333336],[130.5125,33.458333333333336],[130.5125,33.45]]]}},{"type":"Feature","id":"40217:50301441","properties":{"id":"40217:50301441","meshCode":"50301441","cityCode":"40217","city":"筑紫野市","lat":33.4541667,"lon":130.51875,"areaKm2":1.0739742,"populated2020":false,"population2020":null,"populationNote":"境界またぎ・収録外等のため人口未集計"},"geometry":{"type":"Polygon","coordinates":[[[130.525,33.45],[130.5125,33.45],[130.5125,33.458333333333336],[130.525,33.458333333333336],[130.525,33.45]]]}},{"type":"Feature","id":"40217:50301442","properties":{"id":"40217:50301442","meshCode":"50301442","cityCode":"40217","city":"筑紫野市","lat":33.4541667,"lon":130.53125,"areaKm2":1.0739715,"populated2020":false,"population2020":null,"populationNote":"境界またぎ・収録外等のため人口未集計"},"geometry":{"type":"Polygon","coordinates":[[[130.5375,33.45000000000001],[130.525,33.45],[130.525,33.458333333333336],[130.5375,33.458333333333336],[130.5375,33.45000000000001]]]}},{"type":"Feature","id":"40217:50301443","properties":{"id":"40217:50301443","meshCode":"50301443","cityCode":"40217","city":"筑紫野市","lat":33.4541667,"lon":130.54375,"areaKm2":1.0739688,"populated2020":true,"population2020":5844.9305,"populationNote":"収録500mメッシュ人口の合算（原典収録外は補完しない）"},"geometry":{"type":"Polygon","coordinates":[[[130.55,33.45],[130.5375,33.45000000000001],[130.5375,33.458333333333336],[130.55,33.458333333333336],[130.55,33.45]]]}},{"type":"Feature","id":"40217:50301444","properties":{"id":"40217:50301444","meshCode":"50301444","cityCode":"40217","city":"筑紫野市","lat":33.4541667,"lon":130.55625,"areaKm2":1.0739663,"populated2020":true,"population2020":3107.0998,"populationNote":"収録500mメッシュ人口の合算（原典収録外は補完しない）"},"geometry":{"type":"Polygon","coordinates":[[[130.5625,33.45],[130.55,33.45],[130.55,33.458333333333336],[130.5625,33.458333333333336],[130.5625,33.45]]]}},{"type":"Feature","id":"40217:50301445","properties":{"id":"40217:50301445","meshCode":"50301445","cityCode":"40217","city":"筑紫野市","lat":33.4532019,"lon":130.5662285,"areaKm2":0.5446993,"populated2020":true,"population2020":null,"populationNote":"境界またぎ・収録外等のため人口未集計"},"geometry":{"type":"Polygon","coordinates":[[[130.5625,33.45],[130.5625,33.458333333333336],[130.56432191968062,33.458333333333336],[130.565873891,33.456544162],[130.56855,33.454254721],[130.568926109,33.454023054],[130.569377224,33.454251108],[130.569551946,33.454459441],[130.570252218,33.454068613],[130.570666667,33.454529441],[130.571037497,33.45430889200001],[130.57101306100003,33.453502775000004],[130.570852218,33.45335833299999],[130.570960558,33.452970279000006],[130.57063917,33.452660828999996],[130.571607782,33.45146389200001],[130.571806667,33.450772775000004],[130.571883528,33.45],[130.5625,33.45]]]}},{"type":"Feature","id":"40217:50301356","properties":{"id":"40217:50301356","meshCode":"50301356","cityCode":"40217","city":"筑紫野市","lat":33.4596402,"lon":130.4612987,"areaKm2":0.0717484,"populated2020":false,"population2020":null,"populationNote":"境界またぎ・収録外等のため人口未集計"},"geometry":{"type":"Polygon","coordinates":[[[130.4589342286734,33.458333333333336],[130.45977444900004,33.458882775000006],[130.459972776,33.459804721000005],[130.460532776,33.460192225],[130.460713891,33.460613333000005],[130.461041388,33.461008054],[130.4625,33.461659419073925],[130.4625,33.458333333333336],[130.4589342286734,33.458333333333336]]]}},{"type":"Feature","id":"40217:50301357","properties":{"id":"40217:50301357","meshCode":"50301357","cityCode":"40217","city":"筑紫野市","lat":33.461547,"lon":130.468899,"areaKm2":0.7945792,"populated2020":false,"population2020":null,"populationNote":"境界またぎ・収録外等のため人口未集計"},"geometry":{"type":"Polygon","coordinates":[[[130.46362083,33.46200972100001],[130.464324163,33.462093892000006],[130.46443917,33.462267225],[130.464275551,33.462823054000005],[130.464531115,33.463590829],[130.464281115,33.46441166700001],[130.464358612,33.464948054000004],[130.464754994,33.46520833299999],[130.465619728,33.465383892],[130.46609083,33.465985559],[130.466257497,33.466351386999996],[130.46848083,33.465369721],[130.469948327,33.465068892000005],[130.470778612,33.464513333],[130.47146499400003,33.464173892],[130.472596939,33.464101666999994],[130.473461388,33.46382],[130.473823333,33.46400305400001],[130.474216667,33.46456389200001],[130.474566939,33.464611946],[130.475,33.464570081],[130.475,33.458333333333336],[130.4625,33.458333333333336],[130.4625,33.461659419073925],[130.46362083,33.46200972100001]]]}},{"type":"Feature","id":"40217:50301358","properties":{"id":"40217:50301358","meshCode":"50301358","cityCode":"40217","city":"筑紫野市","lat":33.4620638,"lon":130.4814543,"areaKm2":0.9495138,"populated2020":false,"population2020":null,"populationNote":"境界またぎ・収録外等のため人口未集計"},"geometry":{"type":"Polygon","coordinates":[[[130.4875,33.458333333333336],[130.475,33.458333333333336],[130.475,33.464570081],[130.475288054,33.464609441],[130.475345551,33.464715279],[130.475285279,33.46518],[130.47534277600002,33.465540829000005],[130.476017782,33.46578389199999],[130.476672503,33.465918892],[130.477134994,33.46595972099999],[130.477962503,33.465834441],[130.478821388,33.46551916200001],[130.479111388,33.464828892],[130.47930111500003,33.464790279000006],[130.47958832700002,33.464872225],[130.479858054,33.464823892000005],[130.480268612,33.464691667],[130.480498612,33.464383613],[130.480705279,33.464340279],[130.481776667,33.464501387],[130.482184721,33.464626667000005],[130.48257527900003,33.465026107999996],[130.483161388,33.466075278999995],[130.48386647176113,33.466666666666676],[130.4875,33.46666666666667],[130.4875,33.458333333333336]]]}},{"type":"Feature","id":"40217:50301359","properties":{"id":"40217:50301359","meshCode":"50301359","cityCode":"40217","city":"筑紫野市","lat":33.4625,"lon":130.49375,"areaKm2":1.0738786,"populated2020":true,"population2020":5.0533,"populationNote":"収録500mメッシュ人口の合算（原典収録外は補完しない）"},"geometry":{"type":"Polygon","coordinates":[[[130.5,33.458333333333336],[130.4875,33.458333333333336],[130.4875,33.46666666666667],[130.5,33.466666666666676],[130.5,33.458333333333336]]]}},{"type":"Feature","id":"40217:50301450","properties":{"id":"40217:50301450","meshCode":"50301450","cityCode":"40217","city":"筑紫野市","lat":33.4625,"lon":130.50625,"areaKm2":1.0738757,"populated2020":true,"population2020":516.0474,"populationNote":"収録500mメッシュ人口の合算（原典収録外は補完しない）"},"geometry":{"type":"Polygon","coordinates":[[[130.5125,33.458333333333336],[130.5,33.458333333333336],[130.5,33.466666666666676],[130.5125,33.466666666666676],[130.5125,33.458333333333336]]]}},{"type":"Feature","id":"40217:50301451","properties":{"id":"40217:50301451","meshCode":"50301451","cityCode":"40217","city":"筑紫野市","lat":33.4625,"lon":130.51875,"areaKm2":1.0738729,"populated2020":true,"population2020":257.3877,"populationNote":"収録500mメッシュ人口の合算（原典収録外は補完しない）"},"geometry":{"type":"Polygon","coordinates":[[[130.525,33.458333333333336],[130.5125,33.458333333333336],[130.5125,33.466666666666676],[130.525,33.466666666666676],[130.525,33.458333333333336]]]}},{"type":"Feature","id":"40217:50301452","properties":{"id":"40217:50301452","meshCode":"50301452","cityCode":"40217","city":"筑紫野市","lat":33.4625,"lon":130.53125,"areaKm2":1.0738701,"populated2020":true,"population2020":100.2629,"populationNote":"収録500mメッシュ人口の合算（原典収録外は補完しない）"},"geometry":{"type":"Polygon","coordinates":[[[130.5375,33.458333333333336],[130.525,33.458333333333336],[130.525,33.466666666666676],[130.5375,33.46666666666667],[130.5375,33.458333333333336]]]}},{"type":"Feature","id":"40217:50301453","properties":{"id":"40217:50301453","meshCode":"50301453","cityCode":"40217","city":"筑紫野市","lat":33.4625,"lon":130.54375,"areaKm2":1.0738676,"populated2020":true,"population2020":2486.3288,"populationNote":"収録500mメッシュ人口の合算（原典収録外は補完しない）"},"geometry":{"type":"Polygon","coordinates":[[[130.55,33.458333333333336],[130.5375,33.458333333333336],[130.5375,33.46666666666667],[130.55,33.466666666666676],[130.55,33.458333333333336]]]}},{"type":"Feature","id":"40217:50301454","properties":{"id":"40217:50301454","meshCode":"50301454","cityCode":"40217","city":"筑紫野市","lat":33.4624667,"lon":130.5561404,"areaKm2":1.0546218,"populated2020":true,"population2020":6142.0922,"populationNote":"収録500mメッシュ人口の合算（原典収録外は補完しない）"},"geometry":{"type":"Polygon","coordinates":[[[130.56189166,33.46294000000001],[130.5625,33.46227208874493],[130.5625,33.458333333333336],[130.55,33.458333333333336],[130.55,33.466666666666676],[130.56209422811182,33.466666666666676],[130.562334721,33.46622389200001],[130.562355837,33.46590889200001],[130.561869442,33.46500277500001],[130.56190083,33.464681108],[130.562075837,33.464290559],[130.561991946,33.464028054],[130.562119442,33.463636107999996],[130.561835837,33.46316972099999],[130.56189166,33.46294000000001]]]}},{"type":"Feature","id":"40217:50301455","properties":{"id":"40217:50301455","meshCode":"50301455","cityCode":"40217","city":"筑紫野市","lat":33.4597482,"lon":130.5630148,"areaKm2":0.033179,"populated2020":true,"population2020":null,"populationNote":"境界またぎ・収録外等のため人口未集計"},"geometry":{"type":"Polygon","coordinates":[[[130.562526394,33.462246946],[130.563066667,33.461601667000004],[130.563104994,33.46107444100001],[130.56299917,33.460894161999995],[130.563007782,33.460642224999994],[130.5636,33.45929666699999],[130.563952776,33.45871861300001],[130.56432191968062,33.458333333333336],[130.5625,33.458333333333336],[130.562526394,33.462246946]]]}},{"type":"Feature","id":"40217:50301368","properties":{"id":"40217:50301368","meshCode":"50301368","cityCode":"40217","city":"筑紫野市","lat":33.4671875,"lon":130.4860882,"areaKm2":0.0331133,"populated2020":false,"population2020":null,"populationNote":"境界またぎ・収録外等のため人口未集計"},"geometry":{"type":"Polygon","coordinates":[[[130.483866472,33.466666667000005],[130.48427,33.46723527900001],[130.484769728,33.467398892],[130.486007782,33.46744],[130.486203061,33.467502495],[130.487016109,33.46804889199999],[130.4875,33.46848427527268],[130.4875,33.46666666666667],[130.483866472,33.466666667000005]]]}},{"type":"Feature","id":"40217:50301369","properties":{"id":"40217:50301369","meshCode":"50301369","cityCode":"40217","city":"筑紫野市","lat":33.4702704,"lon":130.494907,"areaKm2":0.8283842,"populated2020":false,"population2020":null,"populationNote":"境界またぎ・収録外等のため人口未集計"},"geometry":{"type":"Polygon","coordinates":[[[130.488406109,33.469141387],[130.489276394,33.470246108000005],[130.49034778200001,33.470556667000004],[130.491097497,33.470862225],[130.491106109,33.471543333],[130.491384721,33.471964441],[130.492289442,33.472891108],[130.492817782,33.473613054000005],[130.493030558,33.473800829000005],[130.493783061,33.474190559],[130.494127782,33.474666946],[130.494244578,33.475],[130.5,33.475],[130.5,33.466666666666676],[130.4875,33.46666666666667],[130.4875,33.46848427527268],[130.488406109,33.469141387]]]}},{"type":"Feature","id":"40217:50301460","properties":{"id":"40217:50301460","meshCode":"50301460","cityCode":"40217","city":"筑紫野市","lat":33.4708333,"lon":130.50625,"areaKm2":1.0737743,"populated2020":true,"population2020":159.4991,"populationNote":"収録500mメッシュ人口の合算（原典収録外は補完しない）"},"geometry":{"type":"Polygon","coordinates":[[[130.5125,33.466666666666676],[130.5,33.466666666666676],[130.5,33.475],[130.5125,33.475],[130.5125,33.466666666666676]]]}},{"type":"Feature","id":"40217:50301461","properties":{"id":"40217:50301461","meshCode":"50301461","cityCode":"40217","city":"筑紫野市","lat":33.4708333,"lon":130.51875,"areaKm2":1.0737716,"populated2020":true,"population2020":710.4743,"populationNote":"収録500mメッシュ人口の合算（原典収録外は補完しない）"},"geometry":{"type":"Polygon","coordinates":[[[130.525,33.466666666666676],[130.5125,33.466666666666676],[130.5125,33.475],[130.525,33.475000000000016],[130.525,33.466666666666676]]]}},{"type":"Feature","id":"40217:50301462","properties":{"id":"40217:50301462","meshCode":"50301462","cityCode":"40217","city":"筑紫野市","lat":33.4708333,"lon":130.53125,"areaKm2":1.0737688,"populated2020":true,"population2020":2147.3129,"populationNote":"収録500mメッシュ人口の合算（原典収録外は補完しない）"},"geometry":{"type":"Polygon","coordinates":[[[130.5375,33.46666666666667],[130.525,33.466666666666676],[130.525,33.475000000000016],[130.5375,33.47500000000001],[130.5375,33.46666666666667]]]}},{"type":"Feature","id":"40217:50301463","properties":{"id":"40217:50301463","meshCode":"50301463","cityCode":"40217","city":"筑紫野市","lat":33.4708333,"lon":130.54375,"areaKm2":1.0737663,"populated2020":true,"population2020":3150.7563,"populationNote":"収録500mメッシュ人口の合算（原典収録外は補完しない）"},"geometry":{"type":"Polygon","coordinates":[[[130.55,33.466666666666676],[130.5375,33.46666666666667],[130.5375,33.47500000000001],[130.55,33.47500000000001],[130.55,33.466666666666676]]]}},{"type":"Feature","id":"40217:50301464","properties":{"id":"40217:50301464","meshCode":"50301464","cityCode":"40217","city":"筑紫野市","lat":33.4707965,"lon":130.5560315,"areaKm2":1.0346255,"populated2020":true,"population2020":2727.3874,"populationNote":"収録500mメッシュ人口の合算（原典収録外は補完しない）"},"geometry":{"type":"Polygon","coordinates":[[[130.562296109,33.470972775],[130.561635279,33.47037555899999],[130.561586394,33.470234441],[130.561757782,33.46959],[130.561694994,33.469245829],[130.561740272,33.46905555899999],[130.5625,33.468106221980484],[130.5625,33.46725720802324],[130.562093333,33.466837495],[130.56209422811182,33.466666666666676],[130.55,33.466666666666676],[130.55,33.47500000000001],[130.560939663,33.475],[130.56106166,33.47476944100001],[130.560851388,33.474321667000005],[130.56189,33.473902225],[130.562225837,33.473560829],[130.562411388,33.473019721],[130.5625,33.47251894146846],[130.562446667,33.471409162],[130.562296109,33.470972775]]]}},{"type":"Feature","id":"40217:50301465","properties":{"id":"40217:50301465","meshCode":"50301465","cityCode":"40217","city":"筑紫野市","lat":33.4746736,"lon":130.5718916,"areaKm2":0.022444,"populated2020":true,"population2020":null,"populationNote":"境界またぎ・収録外等のため人口未集計"},"geometry":{"type":"MultiPolygon","coordinates":[[[[130.562691115,33.467691946],[130.562680558,33.467524721000004],[130.5625,33.46725720802324],[130.5625,33.468106221980484],[130.562691115,33.467691946]]],[[[130.5625,33.47207699021962],[130.5625,33.47251894146846],[130.562516394,33.472427775],[130.5625,33.47207699021962]]],[[[130.574210558,33.473953892000004],[130.574276939,33.474424721000005],[130.574490272,33.474521387],[130.574425331,33.475],[130.575,33.475],[130.575,33.473803667],[130.574210558,33.473953892000004]]],[[[130.573968327,33.47500000000001],[130.571562503,33.474314721000006],[130.570876939,33.474629441],[130.570375837,33.475],[130.573968327,33.47500000000001]]]]}},{"type":"Feature","id":"40217:50301466","properties":{"id":"40217:50301466","meshCode":"50301466","cityCode":"40217","city":"筑紫野市","lat":33.4740893,"lon":130.5780975,"areaKm2":0.1107384,"populated2020":true,"population2020":null,"populationNote":"境界またぎ・収録外等のため人口未集計"},"geometry":{"type":"Polygon","coordinates":[[[130.581286109,33.474740559],[130.580670272,33.474189161999995],[130.580513061,33.47393861300001],[130.580516667,33.473817225000005],[130.580663606,33.473695559],[130.580876939,33.473656387],[130.580086394,33.47273277499999],[130.578767782,33.473513892],[130.577931946,33.472568892],[130.576387782,33.47345555900001],[130.576327224,33.473301108],[130.575323061,33.473615829],[130.575364994,33.473734162],[130.575,33.473803667],[130.575,33.475],[130.581849663,33.475],[130.581286109,33.474740559]]]}},{"type":"Feature","id":"40217:50301379","properties":{"id":"40217:50301379","meshCode":"50301379","cityCode":"40217","city":"筑紫野市","lat":33.4792592,"lon":130.4988704,"areaKm2":0.4198068,"populated2020":false,"population2020":null,"populationNote":"境界またぎ・収録外等のため人口未集計"},"geometry":{"type":"Polygon","coordinates":[[[130.494244578,33.475],[130.494704994,33.476296387000005],[130.49502083,33.476691108],[130.49516166,33.47723249500001],[130.49552360600003,33.477526108],[130.496411115,33.477879721],[130.496618054,33.478587495000006],[130.497175279,33.478808892],[130.497664163,33.479160559],[130.497955837,33.479738613],[130.4979,33.480004162],[130.497663891,33.480222225000006],[130.496074994,33.480009441],[130.49500360600004,33.480031108],[130.494693333,33.480180559],[130.494486667,33.48051749500001],[130.494478054,33.481087775],[130.494029728,33.481338054],[130.49365917,33.481773613],[130.493475551,33.482076946],[130.49304313886162,33.483333333333334],[130.5,33.483333333333334],[130.5,33.475],[130.494244578,33.475]]]}},{"type":"Feature","id":"40217:50301470","properties":{"id":"40217:50301470","meshCode":"50301470","cityCode":"40217","city":"筑紫野市","lat":33.4791667,"lon":130.50625,"areaKm2":1.073673,"populated2020":true,"population2020":9.1223,"populationNote":"収録500mメッシュ人口の合算（原典収録外は補完しない）"},"geometry":{"type":"Polygon","coordinates":[[[130.5125,33.475],[130.5,33.475],[130.5,33.483333333333334],[130.5125,33.483333333333334],[130.5125,33.475]]]}},{"type":"Feature","id":"40217:50301471","properties":{"id":"40217:50301471","meshCode":"50301471","cityCode":"40217","city":"筑紫野市","lat":33.4791667,"lon":130.51875,"areaKm2":1.0736702,"populated2020":true,"population2020":2380.5847,"populationNote":"収録500mメッシュ人口の合算（原典収録外は補完しない）"},"geometry":{"type":"Polygon","coordinates":[[[130.525,33.475000000000016],[130.5125,33.475],[130.5125,33.483333333333334],[130.525,33.483333333333334],[130.525,33.475000000000016]]]}},{"type":"Feature","id":"40217:50301472","properties":{"id":"40217:50301472","meshCode":"50301472","cityCode":"40217","city":"筑紫野市","lat":33.4791667,"lon":130.53125,"areaKm2":1.0736675,"populated2020":true,"population2020":5822.5357,"populationNote":"収録500mメッシュ人口の合算（原典収録外は補完しない）"},"geometry":{"type":"Polygon","coordinates":[[[130.5375,33.47500000000001],[130.525,33.475000000000016],[130.525,33.483333333333334],[130.5375,33.483333333333334],[130.5375,33.47500000000001]]]}},{"type":"Feature","id":"40217:50301473","properties":{"id":"40217:50301473","meshCode":"50301473","cityCode":"40217","city":"筑紫野市","lat":33.4791667,"lon":130.54375,"areaKm2":1.0736648,"populated2020":true,"population2020":2254.0409,"populationNote":"収録500mメッシュ人口の合算（原典収録外は補完しない）"},"geometry":{"type":"Polygon","coordinates":[[[130.55,33.47500000000001],[130.5375,33.47500000000001],[130.5375,33.483333333333334],[130.55,33.48333333333334],[130.55,33.47500000000001]]]}},{"type":"Feature","id":"40217:50301474","properties":{"id":"40217:50301474","meshCode":"50301474","cityCode":"40217","city":"筑紫野市","lat":33.4792374,"lon":130.5561339,"areaKm2":1.051918,"populated2020":true,"population2020":596.1773,"populationNote":"収録500mメッシュ人口の合算（原典収録外は補完しない）"},"geometry":{"type":"Polygon","coordinates":[[[130.5625,33.47718545205964],[130.562246394,33.47677916200001],[130.561652776,33.476380559000006],[130.560911115,33.475383054],[130.560848054,33.475173054],[130.560939663,33.475],[130.55,33.47500000000001],[130.55,33.48333333333334],[130.5625,33.48333333333334],[130.5625,33.47718545205964]]]}},{"type":"Feature","id":"40217:50301475","properties":{"id":"40217:50301475","meshCode":"50301475","cityCode":"40217","city":"筑紫野市","lat":33.479756,"lon":130.5698565,"areaKm2":0.7734345,"populated2020":true,"population2020":null,"populationNote":"境界またぎ・収録外等のため人口未集計"},"geometry":{"type":"Polygon","coordinates":[[[130.573968327,33.47500000000001],[130.570375837,33.475],[130.570093333,33.475252775],[130.569557782,33.475961387],[130.569078612,33.476312495],[130.56819166,33.476525279],[130.567953606,33.476784721],[130.567026939,33.476840279],[130.566484721,33.476722225],[130.566313061,33.47680749500001],[130.567462218,33.478433054],[130.56823166,33.48006555900001],[130.568399442,33.480677775],[130.568399442,33.48092389200001],[130.568210558,33.481419162],[130.567808327,33.481727494999994],[130.567251946,33.481898054],[130.566783061,33.481861946],[130.565616939,33.480793613],[130.564609728,33.479446108],[130.563750558,33.478778892],[130.56278166,33.477760279],[130.5625,33.47718545205964],[130.5625,33.48333333333334],[130.575,33.483333333333334],[130.575,33.475],[130.574425331,33.475],[130.574369442,33.475126387],[130.573968327,33.47500000000001]]]}},{"type":"Feature","id":"40217:50301476","properties":{"id":"40217:50301476","meshCode":"50301476","cityCode":"40217","city":"筑紫野市","lat":33.4795962,"lon":130.5801616,"areaKm2":0.8582399,"populated2020":true,"population2020":null,"populationNote":"境界またぎ・収録外等のため人口未集計"},"geometry":{"type":"Polygon","coordinates":[[[130.585557782,33.479240559000004],[130.585260272,33.478909162],[130.583819728,33.478122225],[130.58330250300003,33.47749082899999],[130.583131115,33.47692638699999],[130.58318,33.476742775],[130.582784721,33.47575666699999],[130.582487497,33.475592495],[130.581849663,33.475],[130.575,33.475],[130.575,33.483333333333334],[130.5875,33.48333333333334],[130.5875,33.481354884572596],[130.586284994,33.481141108],[130.586068054,33.481],[130.585655279,33.48097055899999],[130.585574721,33.480799721],[130.58548083,33.479801108000004],[130.585557782,33.479240559000004]]]}},{"type":"Feature","id":"40217:50301477","properties":{"id":"40217:50301477","meshCode":"50301477","cityCode":"40217","city":"筑紫野市","lat":33.4824753,"lon":130.5881979,"areaKm2":0.0268856,"populated2020":false,"population2020":null,"populationNote":"境界またぎ・収録外等のため人口未集計"},"geometry":{"type":"Polygon","coordinates":[[[130.589214916,33.48333333299999],[130.588907224,33.482368892],[130.588616667,33.48201110800001],[130.588515279,33.48162389200001],[130.588398054,33.481484162],[130.588082776,33.481392225],[130.5875,33.481354884572596],[130.5875,33.48333333333334],[130.589214916,33.48333333299999]]]}},{"type":"Feature","id":"40217:50301389","properties":{"id":"40217:50301389","meshCode":"50301389","cityCode":"40217","city":"筑紫野市","lat":33.4870876,"lon":130.4970733,"areaKm2":0.4818712,"populated2020":true,"population2020":null,"populationNote":"境界またぎ・収録外等のため人口未集計"},"geometry":{"type":"Polygon","coordinates":[[[130.492622218,33.48383610799999],[130.492587782,33.484096108],[130.492883606,33.484368054],[130.493630558,33.484594162],[130.493868885,33.484745829],[130.494006939,33.485025],[130.494113061,33.48595138700001],[130.49495166,33.48663],[130.494808054,33.486846667],[130.494124721,33.48702],[130.493802776,33.487198054],[130.493564449,33.487758613],[130.493587497,33.488273613],[130.493998327,33.488767225],[130.494325551,33.489450559],[130.494583891,33.489561387],[130.495078054,33.489628613],[130.495603606,33.490073613],[130.495919728,33.490083333],[130.496091946,33.49023749500001],[130.496361946,33.49033361299999],[130.496476939,33.490473333],[130.496548612,33.490971387],[130.496474163,33.491303613],[130.49622272423085,33.49166666666667],[130.5,33.49166666666667],[130.5,33.483333333333334],[130.49304313886162,33.483333333333334],[130.492622218,33.48383610799999]]]}},{"type":"Feature","id":"40217:50301480","properties":{"id":"40217:50301480","meshCode":"50301480","cityCode":"40217","city":"筑紫野市","lat":33.4875,"lon":130.50625,"areaKm2":1.0735717,"populated2020":true,"population2020":1047.1014,"populationNote":"収録500mメッシュ人口の合算（原典収録外は補完しない）"},"geometry":{"type":"Polygon","coordinates":[[[130.5125,33.483333333333334],[130.5,33.483333333333334],[130.5,33.49166666666667],[130.5125,33.491666666666674],[130.5125,33.483333333333334]]]}},{"type":"Feature","id":"40217:50301481","properties":{"id":"40217:50301481","meshCode":"50301481","cityCode":"40217","city":"筑紫野市","lat":33.4875,"lon":130.51875,"areaKm2":1.0735688,"populated2020":true,"population2020":5232.7363,"populationNote":"収録500mメッシュ人口の合算（原典収録外は補完しない）"},"geometry":{"type":"Polygon","coordinates":[[[130.525,33.483333333333334],[130.5125,33.483333333333334],[130.5125,33.491666666666674],[130.525,33.491666666666674],[130.525,33.483333333333334]]]}},{"type":"Feature","id":"40217:50301482","properties":{"id":"40217:50301482","meshCode":"50301482","cityCode":"40217","city":"筑紫野市","lat":33.4875,"lon":130.53125,"areaKm2":1.0735661,"populated2020":true,"population2020":7302.61,"populationNote":"収録500mメッシュ人口の合算（原典収録外は補完しない）"},"geometry":{"type":"Polygon","coordinates":[[[130.5375,33.483333333333334],[130.525,33.483333333333334],[130.525,33.491666666666674],[130.5375,33.49166666666666],[130.5375,33.483333333333334]]]}},{"type":"Feature","id":"40217:50301483","properties":{"id":"40217:50301483","meshCode":"50301483","cityCode":"40217","city":"筑紫野市","lat":33.487461,"lon":130.5437823,"areaKm2":1.0629395,"populated2020":true,"population2020":2915.1796,"populationNote":"収録500mメッシュ人口の合算（原典収録外は補完しない）"},"geometry":{"type":"Polygon","coordinates":[[[130.55,33.48333333333334],[130.5375,33.483333333333334],[130.5375,33.49166666666666],[130.53916347653504,33.49166666666667],[130.540218612,33.491081387],[130.540842607,33.490886225000004],[130.54116358,33.491343468],[130.541816835,33.491601946],[130.54178447516543,33.49166666666667],[130.55,33.491666666666674],[130.55,33.48333333333334]]]}},{"type":"Feature","id":"40217:50301484","properties":{"id":"40217:50301484","meshCode":"50301484","cityCode":"40217","city":"筑紫野市","lat":33.4875,"lon":130.55625,"areaKm2":1.0735609,"populated2020":true,"population2020":114.6752,"populationNote":"収録500mメッシュ人口の合算（原典収録外は補完しない）"},"geometry":{"type":"Polygon","coordinates":[[[130.5625,33.48333333333334],[130.55,33.48333333333334],[130.55,33.491666666666674],[130.5625,33.491666666666674],[130.5625,33.48333333333334]]]}},{"type":"Feature","id":"40217:50301485","properties":{"id":"40217:50301485","meshCode":"50301485","cityCode":"40217","city":"筑紫野市","lat":33.4875,"lon":130.56875,"areaKm2":1.0735584,"populated2020":false,"population2020":null,"populationNote":"境界またぎ・収録外等のため人口未集計"},"geometry":{"type":"Polygon","coordinates":[[[130.575,33.483333333333334],[130.5625,33.48333333333334],[130.5625,33.491666666666674],[130.575,33.49166666666667],[130.575,33.483333333333334]]]}},{"type":"Feature","id":"40217:50301486","properties":{"id":"40217:50301486","meshCode":"50301486","cityCode":"40217","city":"筑紫野市","lat":33.4875,"lon":130.58125,"areaKm2":1.073556,"populated2020":true,"population2020":967.519,"populationNote":"収録500mメッシュ人口の合算（原典収録外は補完しない）"},"geometry":{"type":"Polygon","coordinates":[[[130.5875,33.48333333333334],[130.575,33.483333333333334],[130.575,33.49166666666667],[130.5875,33.49166666666667],[130.5875,33.48333333333334]]]}},{"type":"Feature","id":"40217:50301487","properties":{"id":"40217:50301487","meshCode":"50301487","cityCode":"40217","city":"筑紫野市","lat":33.4890232,"lon":130.5926973,"areaKm2":0.6148346,"populated2020":true,"population2020":null,"populationNote":"境界またぎ・収録外等のため人口未集計"},"geometry":{"type":"Polygon","coordinates":[[[130.592714449,33.48711333300001],[130.592567224,33.486998332999995],[130.592211946,33.486418891999996],[130.591780272,33.486134162],[130.591528054,33.486068613],[130.591054721,33.486757225],[130.589997224,33.486025],[130.589019442,33.485734162],[130.589015837,33.485422225],[130.588788327,33.484998613],[130.588760272,33.484680279],[130.589201115,33.483904161999995],[130.5892149160436,33.483333333333334],[130.5875,33.48333333333334],[130.5875,33.49166666666667],[130.6,33.49166666666667],[130.6,33.488909135],[130.599422218,33.488488054],[130.598644994,33.488100559],[130.598000558,33.48793638699999],[130.596312503,33.488330559],[130.596018327,33.488317495000004],[130.595402218,33.488087495],[130.594260558,33.48733861299999],[130.593327224,33.487273892],[130.592714449,33.48711333300001]]]}},{"type":"Feature","id":"40217:50301488","properties":{"id":"40217:50301488","meshCode":"50301488","cityCode":"40217","city":"筑紫野市","lat":33.4905432,"lon":130.6017337,"areaKm2":0.0859069,"populated2020":false,"population2020":null,"populationNote":"境界またぎ・収録外等のため人口未集計"},"geometry":{"type":"Polygon","coordinates":[[[130.606033606,33.491595559000004],[130.605473333,33.491438054],[130.604891946,33.491588892],[130.604156394,33.491477225],[130.602710558,33.490311387000006],[130.60198917,33.489135559],[130.601583061,33.488905829],[130.601325837,33.488861108],[130.600303061,33.488972775],[130.6,33.488909135],[130.6,33.49166666666667],[130.60711027169376,33.491666666666674],[130.606698885,33.49146416199999],[130.606033606,33.491595559000004]]]}},{"type":"Feature","id":"40217:50301399","properties":{"id":"40217:50301399","meshCode":"50301399","cityCode":"40217","city":"筑紫野市","lat":33.495392,"lon":130.4982405,"areaKm2":0.2876912,"populated2020":true,"population2020":null,"populationNote":"境界またぎ・収録外等のため人口未集計"},"geometry":{"type":"Polygon","coordinates":[[[130.49622272423085,33.49166666666667],[130.496074721,33.491946108],[130.495977224,33.493558613000005],[130.496769728,33.494718613],[130.496151946,33.495110559],[130.496218054,33.49554610799999],[130.495982503,33.496523333],[130.496393139,33.496835559],[130.496433606,33.497271667],[130.496893061,33.497878054],[130.497663606,33.498413891999995],[130.498023333,33.498807494999994],[130.49812832700002,33.49928277499999],[130.498060195,33.5],[130.5,33.5],[130.5,33.49166666666667],[130.49622272423085,33.49166666666667]]]}},{"type":"Feature","id":"40217:50301490","properties":{"id":"40217:50301490","meshCode":"50301490","cityCode":"40217","city":"筑紫野市","lat":33.4958308,"lon":130.5062469,"areaKm2":1.0728222,"populated2020":true,"population2020":4201.7842,"populationNote":"収録500mメッシュ人口の合算（原典収録外は補完しない）"},"geometry":{"type":"Polygon","coordinates":[[[130.5125,33.491666666666674],[130.5,33.49166666666667],[130.5,33.5],[130.512083256,33.5],[130.51236,33.49983027900001],[130.5125,33.499922176199874],[130.5125,33.491666666666674]]]}},{"type":"Feature","id":"40217:50301491","properties":{"id":"40217:50301491","meshCode":"50301491","cityCode":"40217","city":"筑紫野市","lat":33.4958331,"lon":130.5187503,"areaKm2":1.0734199,"populated2020":true,"population2020":10181.1546,"populationNote":"収録500mメッシュ人口の合算（原典収録外は補完しない）"},"geometry":{"type":"Polygon","coordinates":[[[130.525,33.491666666666674],[130.5125,33.491666666666674],[130.5125,33.499922176199874],[130.51261856,33.5],[130.525,33.5],[130.525,33.491666666666674]]]}},{"type":"Feature","id":"40217:50301492","properties":{"id":"40217:50301492","meshCode":"50301492","cityCode":"40217","city":"筑紫野市","lat":33.4952707,"lon":130.5296292,"areaKm2":0.7518309,"populated2020":true,"population2020":null,"populationNote":"境界またぎ・収録外等のため人口未集計"},"geometry":{"type":"Polygon","coordinates":[[[130.534497497,33.495688333],[130.534462503,33.495281667],[130.534098885,33.494789721],[130.534357497,33.494227224999996],[130.535910272,33.493223892],[130.536420272,33.492711108],[130.536823061,33.49253082900001],[130.5375,33.49237556475788],[130.5375,33.49166666666666],[130.525,33.491666666666674],[130.525,33.5],[130.531152918,33.49999999999999],[130.531226667,33.499612775],[130.53092610900003,33.49907472100001],[130.530863061,33.498727224999996],[130.530961115,33.498326946000006],[130.531288612,33.497993054],[130.532227224,33.497531865],[130.532247497,33.497285829],[130.533233891,33.496807225],[130.534497497,33.495688333]]]}},{"type":"Feature","id":"40217:50301493","properties":{"id":"40217:50301493","meshCode":"50301493","cityCode":"40217","city":"筑紫野市","lat":33.494972,"lon":130.5469195,"areaKm2":0.4568425,"populated2020":true,"population2020":null,"populationNote":"境界またぎ・収録外等のため人口未集計"},"geometry":{"type":"MultiPolygon","coordinates":[[[[130.537883061,33.492306946],[130.538323333,33.49202249499999],[130.53916347653504,33.49166666666667],[130.5375,33.49166666666666],[130.5375,33.49237556475788],[130.537883061,33.492306946]]],[[[130.54178447516543,33.49166666666667],[130.541412776,33.492288054],[130.541454721,33.492386387],[130.542168054,33.492609441000006],[130.542783606,33.492898054],[130.542867497,33.493042495],[130.542860272,33.494531386999995],[130.543724994,33.494805279],[130.543934721,33.494785559],[130.544186667,33.494608613000004],[130.544760272,33.494733333],[130.545423891,33.49625861300001],[130.545920272,33.496560559],[130.5462,33.496914720999996],[130.546542776,33.497577225],[130.546605551,33.49881333300001],[130.546922607,33.5],[130.55,33.5],[130.55,33.491666666666674],[130.54178447516543,33.49166666666667]]]]}},{"type":"Feature","id":"40217:50301494","properties":{"id":"40217:50301494","meshCode":"50301494","cityCode":"40217","city":"筑紫野市","lat":33.4958333,"lon":130.55625,"areaKm2":1.0734596,"populated2020":true,"population2020":209.2017,"populationNote":"収録500mメッシュ人口の合算（原典収録外は補完しない）"},"geometry":{"type":"Polygon","coordinates":[[[130.5625,33.491666666666674],[130.55,33.491666666666674],[130.55,33.5],[130.5625,33.5],[130.5625,33.491666666666674]]]}},{"type":"Feature","id":"40217:50301495","properties":{"id":"40217:50301495","meshCode":"50301495","cityCode":"40217","city":"筑紫野市","lat":33.4958333,"lon":130.56875,"areaKm2":1.0734571,"populated2020":false,"population2020":null,"populationNote":"境界またぎ・収録外等のため人口未集計"},"geometry":{"type":"Polygon","coordinates":[[[130.575,33.49166666666667],[130.5625,33.491666666666674],[130.5625,33.5],[130.575,33.5],[130.575,33.49166666666667]]]}},{"type":"Feature","id":"40217:50301496","properties":{"id":"40217:50301496","meshCode":"50301496","cityCode":"40217","city":"筑紫野市","lat":33.4958333,"lon":130.58125,"areaKm2":1.0734546,"populated2020":true,"population2020":154.8088,"populationNote":"収録500mメッシュ人口の合算（原典収録外は補完しない）"},"geometry":{"type":"Polygon","coordinates":[[[130.5875,33.49166666666667],[130.575,33.49166666666667],[130.575,33.5],[130.5875,33.5],[130.5875,33.49166666666667]]]}},{"type":"Feature","id":"40217:50301497","properties":{"id":"40217:50301497","meshCode":"50301497","cityCode":"40217","city":"筑紫野市","lat":33.4958333,"lon":130.59375,"areaKm2":1.0734523,"populated2020":true,"population2020":57.859,"populationNote":"収録500mメッシュ人口の合算（原典収録外は補完しない）"},"geometry":{"type":"Polygon","coordinates":[[[130.6,33.49166666666667],[130.5875,33.49166666666667],[130.5875,33.5],[130.6,33.5],[130.6,33.49166666666667]]]}},{"type":"Feature","id":"40217:50301498","properties":{"id":"40217:50301498","meshCode":"50301498","cityCode":"40217","city":"筑紫野市","lat":33.496117,"lon":130.6053603,"areaKm2":0.9045556,"populated2020":false,"population2020":null,"populationNote":"境界またぎ・収録外等のため人口未集計"},"geometry":{"type":"Polygon","coordinates":[[[130.610009728,33.495921387],[130.60996749700004,33.495251667],[130.610072776,33.494949721],[130.61048583700003,33.49410889200001],[130.61045083,33.493320559],[130.610317782,33.492886946000006],[130.610163606,33.492808333],[130.609414163,33.49280194600001],[130.608274721,33.49266638700001],[130.60789639400002,33.49244305399999],[130.60711027169376,33.491666666666674],[130.6,33.49166666666667],[130.6,33.5],[130.6125,33.49999999999999],[130.6125,33.49871576141949],[130.612191946,33.498584441],[130.611736667,33.498013054],[130.611078054,33.497631946],[130.610728054,33.49693555900001],[130.610009728,33.495921387]]]}},{"type":"Feature","id":"40217:50301499","properties":{"id":"40217:50301499","meshCode":"50301499","cityCode":"40217","city":"筑紫野市","lat":33.4995427,"lon":130.6131248,"areaKm2":0.0132051,"populated2020":false,"population2020":null,"populationNote":"境界またぎ・収録外等のため人口未集計"},"geometry":{"type":"Polygon","coordinates":[[[130.614118885,33.49983082899999],[130.613795551,33.499530279000005],[130.6125,33.49871576141949],[130.6125,33.49999999999999],[130.614156394,33.5],[130.614118885,33.49983082899999]]]}},{"type":"Feature","id":"40217:50302309","properties":{"id":"40217:50302309","meshCode":"50302309","cityCode":"40217","city":"筑紫野市","lat":33.5004121,"lon":130.4994574,"areaKm2":0.0146338,"populated2020":true,"population2020":null,"populationNote":"境界またぎ・収録外等のため人口未集計"},"geometry":{"type":"MultiPolygon","coordinates":[[[[130.498051388,33.500144999999996],[130.499117497,33.500498892],[130.5,33.500739586],[130.5,33.5],[130.498060195,33.5],[130.498051388,33.500144999999996]]],[[[130.5,33.500810279],[130.499463606,33.50175805400001],[130.499512776,33.501961107999996],[130.499792218,33.502511946],[130.5,33.502726559],[130.5,33.500810279]]]]}},{"type":"Feature","id":"40217:50302400","properties":{"id":"40217:50302400","meshCode":"50302400","cityCode":"40217","city":"筑紫野市","lat":33.5027804,"lon":130.5039303,"areaKm2":0.3977777,"populated2020":true,"population2020":null,"populationNote":"境界またぎ・収録外等のため人口未集計"},"geometry":{"type":"MultiPolygon","coordinates":[[[[130.508441971,33.5],[130.508705551,33.500026108],[130.509372023,33.5],[130.508441971,33.5]]],[[[130.511068612,33.50017944099999],[130.51161166,33.50028944100001],[130.512083256,33.5],[130.510519442,33.5],[130.510935837,33.500026108],[130.511068612,33.50017944099999]]],[[[130.5125,33.50047486315896],[130.51243,33.500571387],[130.512366939,33.500663054],[130.5125,33.50068273956495],[130.5125,33.50047486315896]]],[[[130.506276667,33.502904721],[130.506444449,33.502596387000004],[130.506734721,33.502478333],[130.50805808,33.50288086500001],[130.50848808,33.502638919],[130.50820917,33.502173613],[130.508188054,33.501252225],[130.50795027200002,33.500616387],[130.507887224,33.500157495],[130.508044942,33.5],[130.5,33.5],[130.5,33.502726559],[130.50019083,33.502923333],[130.501472503,33.503634162],[130.501514721,33.50413472100001],[130.501991115,33.505100559000006],[130.50226055800002,33.505113054],[130.502538054,33.50525416200001],[130.502814721,33.505758613],[130.503205551,33.50597638699999],[130.50309472100002,33.50786055900001],[130.502640558,33.50802916199999],[130.50258992200997,33.50833333333333],[130.50457172499299,33.50833333333333],[130.504600272,33.505701108000004],[130.504911946,33.505537775],[130.505107224,33.505235829],[130.50513166,33.504623892000005],[130.505248054,33.504485279],[130.505813333,33.504252224999995],[130.50615083,33.503862225000006],[130.50628778200002,33.503301946],[130.506276667,33.502904721]]]]}},{"type":"Feature","id":"40217:50302401","properties":{"id":"40217:50302401","meshCode":"50302401","cityCode":"40217","city":"筑紫野市","lat":33.502655,"lon":130.5204738,"areaKm2":0.5310582,"populated2020":true,"population2020":null,"populationNote":"境界またぎ・収録外等のため人口未集計"},"geometry":{"type":"Polygon","coordinates":[[[130.512653606,33.50026305400001],[130.5125,33.50047486315896],[130.5125,33.50068273956495],[130.51281444900002,33.500728892],[130.513171115,33.50011222500001],[130.513772503,33.500013892],[130.513821388,33.50036166700001],[130.513954163,33.500545279],[130.514052218,33.501685829],[130.513814449,33.502676107999996],[130.513757782,33.503302225],[130.513793606,33.50372861299999],[130.513903333,33.503912775],[130.514662218,33.50353749500002],[130.515773606,33.502727225],[130.515962503,33.50266500000001],[130.516116394,33.50265833299999],[130.516360558,33.502778054000004],[130.516535837,33.502955829000015],[130.516872218,33.502926667],[130.51732166,33.503059441000005],[130.517761388,33.50287749500001],[130.51838221800003,33.502854441],[130.519636939,33.50330222499999],[130.519885837,33.504058892],[130.520015279,33.504192495000005],[130.520566472,33.504287829000006],[130.521025616,33.504733892],[130.521157588,33.505019135],[130.52118917,33.50536305399999],[130.521424163,33.505610829],[130.52119166,33.506022225],[130.521086109,33.506522495000006],[130.52075333300002,33.507235559],[130.520784994,33.50734944100001],[130.521534994,33.507002775000004],[130.522068612,33.506908613],[130.522274721,33.506913613],[130.522845279,33.507166387],[130.523748327,33.50718110799999],[130.524144721,33.50686889199999],[130.525,33.50671691899999],[130.525,33.5],[130.51261856,33.5],[130.512653606,33.50026305400001]]]}},{"type":"Feature","id":"40217:50302402","properties":{"id":"40217:50302402","meshCode":"50302402","cityCode":"40217","city":"筑紫野市","lat":33.5030172,"lon":130.5278857,"areaKm2":0.3800587,"populated2020":true,"population2020":null,"populationNote":"境界またぎ・収録外等のため人口未集計"},"geometry":{"type":"Polygon","coordinates":[[[130.530240558,33.504427495],[130.530796109,33.503379162],[130.531362218,33.50330194600001],[130.531446939,33.50275],[130.531555279,33.501357225],[130.531062218,33.50126889199999],[130.531152918,33.49999999999999],[130.525,33.5],[130.525,33.50671691899999],[130.526746667,33.506567225],[130.529236939,33.505943333],[130.530087497,33.505279441],[130.530604721,33.504655279],[130.530240558,33.504427495]]]}},{"type":"Feature","id":"40217:50302403","properties":{"id":"40217:50302403","meshCode":"50302403","cityCode":"40217","city":"筑紫野市","lat":33.5035228,"lon":130.5487773,"areaKm2":0.1845766,"populated2020":true,"population2020":null,"populationNote":"境界またぎ・収録外等のため人口未集計"},"geometry":{"type":"Polygon","coordinates":[[[130.546922607,33.5],[130.546934449,33.50045944099999],[130.546785525,33.500500198],[130.546843333,33.501050000000006],[130.54696922200003,33.501268306],[130.54741,33.501653333],[130.547604994,33.502030829],[130.547381115,33.502319441],[130.547097523,33.502409252],[130.547026446,33.502889829],[130.547304163,33.502981946],[130.547316278,33.503542667],[130.547588612,33.503729721000006],[130.54777083,33.50427555900001],[130.548231115,33.504816387000005],[130.548503606,33.505274721],[130.549105551,33.505810829],[130.54939917,33.505829721],[130.549484994,33.505929441],[130.54939917,33.506332775000004],[130.54837277600004,33.50738916200001],[130.547973333,33.507645279],[130.54723591372525,33.50833333333333],[130.55,33.50833333333333],[130.55,33.5],[130.546922607,33.5]]]}},{"type":"Feature","id":"40217:50302404","properties":{"id":"40217:50302404","meshCode":"50302404","cityCode":"40217","city":"筑紫野市","lat":33.5041667,"lon":130.55625,"areaKm2":1.073358,"populated2020":true,"population2020":242.769,"populationNote":"収録500mメッシュ人口の合算（原典収録外は補完しない）"},"geometry":{"type":"Polygon","coordinates":[[[130.5625,33.5],[130.55,33.5],[130.55,33.50833333333333],[130.5625,33.50833333333333],[130.5625,33.5]]]}},{"type":"Feature","id":"40217:50302405","properties":{"id":"40217:50302405","meshCode":"50302405","cityCode":"40217","city":"筑紫野市","lat":33.5041667,"lon":130.56875,"areaKm2":1.0733556,"populated2020":true,"population2020":103.3121,"populationNote":"収録500mメッシュ人口の合算（原典収録外は補完しない）"},"geometry":{"type":"Polygon","coordinates":[[[130.575,33.5],[130.5625,33.5],[130.5625,33.50833333333333],[130.575,33.50833333333333],[130.575,33.5]]]}},{"type":"Feature","id":"40217:50302406","properties":{"id":"40217:50302406","meshCode":"50302406","cityCode":"40217","city":"筑紫野市","lat":33.5041667,"lon":130.58125,"areaKm2":1.0733532,"populated2020":false,"population2020":null,"populationNote":"境界またぎ・収録外等のため人口未集計"},"geometry":{"type":"Polygon","coordinates":[[[130.5875,33.5],[130.575,33.5],[130.575,33.50833333333333],[130.5875,33.50833333333333],[130.5875,33.5]]]}},{"type":"Feature","id":"40217:50302407","properties":{"id":"40217:50302407","meshCode":"50302407","cityCode":"40217","city":"筑紫野市","lat":33.5041667,"lon":130.59375,"areaKm2":1.0733508,"populated2020":true,"population2020":39.5823,"populationNote":"収録500mメッシュ人口の合算（原典収録外は補完しない）"},"geometry":{"type":"Polygon","coordinates":[[[130.6,33.5],[130.5875,33.5],[130.5875,33.50833333333333],[130.6,33.50833333333334],[130.6,33.5]]]}},{"type":"Feature","id":"40217:50302408","properties":{"id":"40217:50302408","meshCode":"50302408","cityCode":"40217","city":"筑紫野市","lat":33.5041667,"lon":130.60625,"areaKm2":1.0733485,"populated2020":true,"population2020":37.4943,"populationNote":"収録500mメッシュ人口の合算（原典収録外は補完しない）"},"geometry":{"type":"Polygon","coordinates":[[[130.6125,33.49999999999999],[130.6,33.5],[130.6,33.50833333333334],[130.6125,33.50833333333333],[130.6125,33.49999999999999]]]}},{"type":"Feature","id":"40217:50302409","properties":{"id":"40217:50302409","meshCode":"50302409","cityCode":"40217","city":"筑紫野市","lat":33.5051588,"lon":130.6159842,"areaKm2":0.5079674,"populated2020":false,"population2020":null,"populationNote":"境界またぎ・収録外等のため人口未集計"},"geometry":{"type":"Polygon","coordinates":[[[130.618576109,33.504599162],[130.617252218,33.503303054],[130.616341388,33.502178892],[130.616313333,33.500990279],[130.614828612,33.50101],[130.614373606,33.500865559],[130.614149442,33.500635559],[130.614156394,33.5],[130.6125,33.49999999999999],[130.6125,33.50833333333333],[130.62018072548094,33.50833333333333],[130.620444994,33.508256667],[130.62065105189566,33.50833333333334],[130.62100372124218,33.50833333333333],[130.62137555100003,33.50811972100001],[130.621656667,33.50779],[130.6217,33.507442775],[130.621446394,33.506098892],[130.620423891,33.505753892],[130.61942,33.505040559],[130.618576109,33.504599162]]]}},{"type":"Feature","id":"40217:50302410","properties":{"id":"40217:50302410","meshCode":"50302410","cityCode":"40217","city":"筑紫野市","lat":33.509913,"lon":130.5034042,"areaKm2":0.0691488,"populated2020":true,"population2020":null,"populationNote":"境界またぎ・収録外等のため人口未集計"},"geometry":{"type":"Polygon","coordinates":[[[130.502603606,33.50879166699999],[130.502212503,33.509148333],[130.502297782,33.511114162],[130.50254083,33.511302495],[130.502973891,33.511406387],[130.50331722400003,33.511698892],[130.503882503,33.511698892],[130.504162218,33.511332495],[130.504399728,33.510812495],[130.50457172499299,33.50833333333333],[130.50258992200997,33.50833333333333],[130.502603606,33.50879166699999]]]}},{"type":"Feature","id":"40217:50302413","properties":{"id":"40217:50302413","meshCode":"50302413","cityCode":"40217","city":"筑紫野市","lat":33.5133639,"lon":130.5456712,"areaKm2":0.6464564,"populated2020":true,"population2020":null,"populationNote":"境界またぎ・収録外等のため人口未集計"},"geometry":{"type":"Polygon","coordinates":[[[130.547028612,33.508639721],[130.546447224,33.510213054000005],[130.545795837,33.510311946],[130.54498138800002,33.510919441],[130.54413778200004,33.510985559],[130.543581115,33.511331946],[130.543211946,33.511417494999996],[130.542535279,33.51181],[130.541498054,33.51222749499999],[130.54063917,33.512407225000004],[130.540411388,33.512549441],[130.540168612,33.51310472099999],[130.539774163,33.514791667000004],[130.539555837,33.515216946],[130.539555837,33.515392495],[130.54024486381877,33.51666666666667],[130.55,33.516666666666666],[130.55,33.50833333333333],[130.54723591372525,33.50833333333333],[130.547028612,33.508639721]]]}},{"type":"Feature","id":"40217:50302414","properties":{"id":"40217:50302414","meshCode":"50302414","cityCode":"40217","city":"筑紫野市","lat":33.5125,"lon":130.55625,"areaKm2":1.0732568,"populated2020":true,"population2020":1563.5242,"populationNote":"収録500mメッシュ人口の合算（原典収録外は補完しない）"},"geometry":{"type":"Polygon","coordinates":[[[130.5625,33.50833333333333],[130.55,33.50833333333333],[130.55,33.516666666666666],[130.5625,33.51666666666667],[130.5625,33.50833333333333]]]}},{"type":"Feature","id":"40217:50302415","properties":{"id":"40217:50302415","meshCode":"50302415","cityCode":"40217","city":"筑紫野市","lat":33.5125,"lon":130.56875,"areaKm2":1.0732542,"populated2020":true,"population2020":1336.1629,"populationNote":"収録500mメッシュ人口の合算（原典収録外は補完しない）"},"geometry":{"type":"Polygon","coordinates":[[[130.575,33.50833333333333],[130.5625,33.50833333333333],[130.5625,33.51666666666667],[130.575,33.516666666666666],[130.575,33.50833333333333]]]}},{"type":"Feature","id":"40217:50302416","properties":{"id":"40217:50302416","meshCode":"50302416","cityCode":"40217","city":"筑紫野市","lat":33.5125,"lon":130.58125,"areaKm2":1.0732517,"populated2020":false,"population2020":null,"populationNote":"境界またぎ・収録外等のため人口未集計"},"geometry":{"type":"Polygon","coordinates":[[[130.5875,33.50833333333333],[130.575,33.50833333333333],[130.575,33.516666666666666],[130.5875,33.516666666666666],[130.5875,33.50833333333333]]]}},{"type":"Feature","id":"40217:50302417","properties":{"id":"40217:50302417","meshCode":"50302417","cityCode":"40217","city":"筑紫野市","lat":33.5125,"lon":130.59375,"areaKm2":1.0732494,"populated2020":false,"population2020":null,"populationNote":"境界またぎ・収録外等のため人口未集計"},"geometry":{"type":"Polygon","coordinates":[[[130.6,33.50833333333334],[130.5875,33.50833333333333],[130.5875,33.516666666666666],[130.6,33.51666666666667],[130.6,33.50833333333334]]]}},{"type":"Feature","id":"40217:50302418","properties":{"id":"40217:50302418","meshCode":"50302418","cityCode":"40217","city":"筑紫野市","lat":33.5125,"lon":130.60625,"areaKm2":1.0732472,"populated2020":true,"population2020":11.1089,"populationNote":"収録500mメッシュ人口の合算（原典収録外は補完しない）"},"geometry":{"type":"Polygon","coordinates":[[[130.6125,33.50833333333333],[130.6,33.50833333333334],[130.6,33.51666666666667],[130.6125,33.51666666666666],[130.6125,33.50833333333333]]]}},{"type":"Feature","id":"40217:50302419","properties":{"id":"40217:50302419","meshCode":"50302419","cityCode":"40217","city":"筑紫野市","lat":33.5122655,"lon":130.616091,"areaKm2":0.6033139,"populated2020":false,"population2020":null,"populationNote":"境界またぎ・収録外等のため人口未集計"},"geometry":{"type":"MultiPolygon","coordinates":[[[[130.62100372124218,33.50833333333333],[130.62065105189566,33.50833333333334],[130.62073166,33.50836333299999],[130.62100372124218,33.50833333333333]]],[[[130.6125,33.50833333333333],[130.6125,33.51666666666666],[130.616504747426,33.51666666666667],[130.616848612,33.516461387],[130.617357224,33.516517224999994],[130.617551946,33.51644110800001],[130.618184721,33.515964162],[130.618271388,33.515725559],[130.618201115,33.515386108],[130.618287782,33.515167775],[130.618768885,33.514888892],[130.619114994,33.514513333000004],[130.619119442,33.514069441],[130.618892503,33.51366861300001],[130.619044163,33.513283054],[130.619244163,33.513130829000005],[130.619698327,33.513054721],[130.620114994,33.513328892],[130.620358327,33.51335916200001],[130.621115837,33.51317666700001],[130.621304994,33.51306],[130.620835837,33.512266946000004],[130.620824994,33.51198777500001],[130.619667497,33.51081582900001],[130.619640558,33.510577225],[130.619775837,33.510211946],[130.620104163,33.50987500000001],[130.620125837,33.509666946],[130.619779442,33.509129161999994],[130.619736109,33.508931387],[130.619887782,33.50860166699999],[130.62018072548094,33.50833333333333],[130.6125,33.50833333333333]]]]}},{"type":"Feature","id":"40217:50302423","properties":{"id":"40217:50302423","meshCode":"50302423","cityCode":"40217","city":"筑紫野市","lat":33.5195687,"lon":130.5457884,"areaKm2":0.5242069,"populated2020":true,"population2020":null,"populationNote":"境界またぎ・収録外等のため人口未集計"},"geometry":{"type":"Polygon","coordinates":[[[130.54024486381877,33.51666666666667],[130.541006939,33.518516387000005],[130.541005837,33.519012775],[130.541233606,33.519838332999996],[130.54216166,33.521693333],[130.54237917,33.521811946],[130.543168885,33.521719441],[130.543755837,33.52158889199999],[130.544293061,33.521262775000004],[130.5444807,33.521314108],[130.545566667,33.522208333],[130.54592055800003,33.52285333299999],[130.546606394,33.523559441],[130.546763333,33.524043054],[130.547006109,33.52430389199999],[130.548053061,33.524645559],[130.54864,33.524318333],[130.54866,33.524232775],[130.548027782,33.52354527899999],[130.547987497,33.523170559],[130.548407224,33.522610829],[130.55,33.521502946],[130.55,33.516666666666666],[130.54024486381877,33.51666666666667]]]}},{"type":"Feature","id":"40217:50302424","properties":{"id":"40217:50302424","meshCode":"50302424","cityCode":"40217","city":"筑紫野市","lat":33.5200628,"lon":130.5569833,"areaKm2":0.8370807,"populated2020":true,"population2020":139.3746,"populationNote":"収録500mメッシュ人口の合算（原典収録外は補完しない）"},"geometry":{"type":"Polygon","coordinates":[[[130.5625,33.51666666666667],[130.55,33.516666666666666],[130.55,33.521502946],[130.550276394,33.521425829],[130.550630558,33.521501667],[130.551252776,33.521496946000006],[130.551976109,33.521786387000006],[130.552112503,33.521900279],[130.552208612,33.522151667],[130.552350272,33.52223722499999],[130.553040272,33.521856387],[130.553581115,33.5217],[130.553753333,33.521695279],[130.553996109,33.521889720999994],[130.554790272,33.521885000000005],[130.555235279,33.522079440999995],[130.555523606,33.522368891999996],[130.555724449,33.522989162],[130.555956939,33.523183613],[130.556128885,33.523231108000004],[130.55665,33.52318361299999],[130.55719610900002,33.523463333],[130.557919442,33.523430279],[130.558222776,33.523534721],[130.558358612,33.524140278999994],[130.559219105,33.525000000000006],[130.5625,33.52499999999999],[130.5625,33.51666666666667]]]}},{"type":"Feature","id":"40217:50302425","properties":{"id":"40217:50302425","meshCode":"50302425","cityCode":"40217","city":"筑紫野市","lat":33.5208333,"lon":130.56875,"areaKm2":1.0731528,"populated2020":true,"population2020":200.172,"populationNote":"収録500mメッシュ人口の合算（原典収録外は補完しない）"},"geometry":{"type":"Polygon","coordinates":[[[130.575,33.516666666666666],[130.5625,33.51666666666667],[130.5625,33.52499999999999],[130.575,33.525],[130.575,33.516666666666666]]]}},{"type":"Feature","id":"40217:50302426","properties":{"id":"40217:50302426","meshCode":"50302426","cityCode":"40217","city":"筑紫野市","lat":33.5208333,"lon":130.58125,"areaKm2":1.0731504,"populated2020":true,"population2020":38.612,"populationNote":"収録500mメッシュ人口の合算（原典収録外は補完しない）"},"geometry":{"type":"Polygon","coordinates":[[[130.5875,33.516666666666666],[130.575,33.516666666666666],[130.575,33.525],[130.5875,33.525],[130.5875,33.516666666666666]]]}},{"type":"Feature","id":"40217:50302427","properties":{"id":"40217:50302427","meshCode":"50302427","cityCode":"40217","city":"筑紫野市","lat":33.5208333,"lon":130.59375,"areaKm2":1.073148,"populated2020":true,"population2020":23.3625,"populationNote":"収録500mメッシュ人口の合算（原典収録外は補完しない）"},"geometry":{"type":"Polygon","coordinates":[[[130.6,33.51666666666667],[130.5875,33.516666666666666],[130.5875,33.525],[130.6,33.525000000000006],[130.6,33.51666666666667]]]}},{"type":"Feature","id":"40217:50302428","properties":{"id":"40217:50302428","meshCode":"50302428","cityCode":"40217","city":"筑紫野市","lat":33.5208369,"lon":130.605588,"areaKm2":0.9558358,"populated2020":false,"population2020":null,"populationNote":"境界またぎ・収録外等のため人口未集計"},"geometry":{"type":"Polygon","coordinates":[[[130.61053166,33.521274162000005],[130.609921388,33.519877225],[130.609910558,33.519527225],[130.610903891,33.518970559],[130.61110917,33.518742225],[130.611325551,33.5179],[130.611525837,33.517661946],[130.612248612,33.51712500000001],[130.6125,33.51703715632726],[130.6125,33.51666666666666],[130.6,33.51666666666667],[130.6,33.525000000000006],[130.611920441,33.525],[130.611153606,33.523543613],[130.611667782,33.522791108],[130.611635279,33.52237],[130.6115,33.522101108],[130.610964449,33.521725829],[130.61053166,33.521274162000005]]]}},{"type":"Feature","id":"40217:50302429","properties":{"id":"40217:50302429","meshCode":"50302429","cityCode":"40217","city":"筑紫野市","lat":33.5168415,"lon":130.6141563,"areaKm2":0.0127955,"populated2020":false,"population2020":null,"populationNote":"境界またぎ・収録外等のため人口未集計"},"geometry":{"type":"Polygon","coordinates":[[[130.612524449,33.517028613],[130.61284360600004,33.516988054],[130.613698327,33.51713000000001],[130.614893606,33.516977775],[130.615310272,33.516851108],[130.616208327,33.516830559000006],[130.616504747426,33.51666666666667],[130.6125,33.51666666666666],[130.612524449,33.517028613]]]}},{"type":"Feature","id":"40217:50302434","properties":{"id":"40217:50302434","meshCode":"50302434","cityCode":"40217","city":"筑紫野市","lat":33.5266422,"lon":130.5612323,"areaKm2":0.0924845,"populated2020":false,"population2020":null,"populationNote":"境界またぎ・収録外等のため人口未集計"},"geometry":{"type":"Polygon","coordinates":[[[130.559219105,33.525000000000006],[130.560143061,33.526873892],[130.560560558,33.528456667],[130.560712218,33.52858],[130.562092776,33.528603892],[130.5625,33.52883903668677],[130.5625,33.52499999999999],[130.559219105,33.525000000000006]]]}},{"type":"Feature","id":"40217:50302435","properties":{"id":"40217:50302435","meshCode":"50302435","cityCode":"40217","city":"筑紫野市","lat":33.5288441,"lon":130.5693415,"areaKm2":0.9515284,"populated2020":false,"population2020":null,"populationNote":"境界またぎ・収録外等のため人口未集計"},"geometry":{"type":"Polygon","coordinates":[[[130.575,33.525],[130.5625,33.52499999999999],[130.5625,33.52883903668677],[130.563124449,33.529485829],[130.564019728,33.529751387000005],[130.565368612,33.53084472100001],[130.566161946,33.53234638699999],[130.566652218,33.532873054],[130.566743333,33.533043613000004],[130.56674347600978,33.53333333333333],[130.575,33.53333333333333],[130.575,33.525]]]}},{"type":"Feature","id":"40217:50302436","properties":{"id":"40217:50302436","meshCode":"50302436","cityCode":"40217","city":"筑紫野市","lat":33.5291667,"lon":130.58125,"areaKm2":1.0730488,"populated2020":true,"population2020":83.3038,"populationNote":"収録500mメッシュ人口の合算（原典収録外は補完しない）"},"geometry":{"type":"Polygon","coordinates":[[[130.5875,33.525],[130.575,33.525],[130.575,33.53333333333333],[130.5875,33.53333333333334],[130.5875,33.525]]]}},{"type":"Feature","id":"40217:50302437","properties":{"id":"40217:50302437","meshCode":"50302437","cityCode":"40217","city":"筑紫野市","lat":33.5291667,"lon":130.59375,"areaKm2":1.0730464,"populated2020":true,"population2020":26.3869,"populationNote":"収録500mメッシュ人口の合算（原典収録外は補完しない）"},"geometry":{"type":"Polygon","coordinates":[[[130.6,33.525000000000006],[130.5875,33.525],[130.5875,33.53333333333334],[130.6,33.53333333333333],[130.6,33.525000000000006]]]}},{"type":"Feature","id":"40217:50302438","properties":{"id":"40217:50302438","meshCode":"50302438","cityCode":"40217","city":"筑紫野市","lat":33.528281,"lon":130.6043258,"areaKm2":0.6499356,"populated2020":false,"population2020":null,"populationNote":"境界またぎ・収録外等のため人口未集計"},"geometry":{"type":"Polygon","coordinates":[[[130.607871115,33.529244721],[130.608217224,33.528600559000004],[130.608946667,33.527877775],[130.609438885,33.527233613],[130.609801388,33.52706110800001],[130.610693606,33.52701527899998],[130.611104994,33.526858054],[130.611256394,33.526695829000005],[130.611272503,33.526374441000016],[130.611813606,33.526085279],[130.611878327,33.525973613],[130.611802776,33.525516946],[130.61209472100003,33.525202495],[130.611920441,33.525],[130.6,33.525000000000006],[130.6,33.53333333333333],[130.60391549852227,33.53333333333333],[130.604174449,33.533067775],[130.604277224,33.532580829],[130.604785837,33.532210559],[130.604439442,33.531687775],[130.604488612,33.531023613],[130.605305279,33.53004944100001],[130.605813606,33.530018892],[130.606686394,33.529488054],[130.60767083,33.52937666700001],[130.607871115,33.529244721]]]}},{"type":"Feature","id":"40217:50302445","properties":{"id":"40217:50302445","meshCode":"50302445","cityCode":"40217","city":"筑紫野市","lat":33.5371083,"lon":130.5714601,"areaKm2":0.5900581,"populated2020":false,"population2020":null,"populationNote":"境界またぎ・収録外等のため人口未集計"},"geometry":{"type":"Polygon","coordinates":[[[130.566773606,33.53384055899999],[130.567112503,33.534976946],[130.567374994,33.53557805399999],[130.567319442,33.53635444100001],[130.567177782,33.53677194600001],[130.567294163,33.537217225],[130.567359728,33.537373892000005],[130.568082776,33.537857775],[130.568280272,33.538412775000005],[130.568755551,33.538853613],[130.568809728,33.53963833299999],[130.569103061,33.540179162],[130.569305551,33.540264441],[130.569902218,33.54075777500001],[130.570468612,33.541061387],[130.571012917819,33.541666666666664],[130.575,33.541666666666664],[130.575,33.53333333333333],[130.56674347600978,33.53333333333333],[130.566773606,33.53384055899999]]]}},{"type":"Feature","id":"40217:50302446","properties":{"id":"40217:50302446","meshCode":"50302446","cityCode":"40217","city":"筑紫野市","lat":33.5375,"lon":130.58125,"areaKm2":1.0729472,"populated2020":false,"population2020":null,"populationNote":"境界またぎ・収録外等のため人口未集計"},"geometry":{"type":"Polygon","coordinates":[[[130.5875,33.53333333333334],[130.575,33.53333333333333],[130.575,33.541666666666664],[130.5875,33.54166666666667],[130.5875,33.53333333333334]]]}},{"type":"Feature","id":"40217:50302447","properties":{"id":"40217:50302447","meshCode":"50302447","cityCode":"40217","city":"筑紫野市","lat":33.537031,"lon":130.5929324,"areaKm2":0.8933894,"populated2020":true,"population2020":null,"populationNote":"境界またぎ・収録外等のため人口未集計"},"geometry":{"type":"Polygon","coordinates":[[[130.598356939,33.537439441000004],[130.598503061,33.537338054],[130.599422218,33.537327775],[130.6,33.536242054],[130.6,33.53333333333333],[130.5875,33.53333333333334],[130.5875,33.54166666666667],[130.59489403410254,33.54166666666667],[130.594995837,33.541172495],[130.594925279,33.540425279000004],[130.594979442,33.540054721],[130.595536667,33.538938892],[130.596007224,33.538715829],[130.59784111500002,33.538497494999994],[130.59811166,33.538203333],[130.598356939,33.537439441000004]]]}},{"type":"Feature","id":"40217:50302448","properties":{"id":"40217:50302448","meshCode":"50302448","cityCode":"40217","city":"筑紫野市","lat":33.534429,"lon":130.6013029,"areaKm2":0.0648554,"populated2020":false,"population2020":null,"populationNote":"境界またぎ・収録外等のため人口未集計"},"geometry":{"type":"Polygon","coordinates":[[[130.60005,33.536145829],[130.600461115,33.535937775],[130.600883061,33.535947775000004],[130.601294163,33.535846667],[130.601883891,33.535547495],[130.60187083,33.535362495],[130.602081946,33.534966667],[130.602076394,33.53452527899999],[130.602163061,33.534393333],[130.602920558,33.534104162],[130.60310972800002,33.53387582900001],[130.603401946,33.533769441],[130.60391549852227,33.53333333333333],[130.6,33.53333333333333],[130.6,33.536242054],[130.60005,33.536145829]]]}},{"type":"Feature","id":"40217:50302455","properties":{"id":"40217:50302455","meshCode":"50302455","cityCode":"40217","city":"筑紫野市","lat":33.542417,"lon":130.5736279,"areaKm2":0.0470632,"populated2020":false,"population2020":null,"populationNote":"境界またぎ・収録外等のため人口未集計"},"geometry":{"type":"Polygon","coordinates":[[[130.571012918,33.541666667],[130.571146394,33.541882225],[130.571720558,33.54214027900001],[130.57215555100004,33.54247694600001],[130.572472776,33.54246249500001],[130.573074721,33.54287055900001],[130.574045837,33.54311249500001],[130.574364163,33.54351555900001],[130.574733333,33.543790829],[130.574778885,33.54416555900001],[130.575,33.54446444100001],[130.575,33.541666666666664],[130.571012918,33.541666667]]]}},{"type":"Feature","id":"40217:50302456","properties":{"id":"40217:50302456","meshCode":"50302456","cityCode":"40217","city":"筑紫野市","lat":33.545674,"lon":130.5816114,"areaKm2":1.0059002,"populated2020":false,"population2020":null,"populationNote":"境界またぎ・収録外等のため人口未集計"},"geometry":{"type":"Polygon","coordinates":[[[130.57521917,33.544768054],[130.575935837,33.547176946],[130.576446939,33.54773194599999],[130.577139442,33.54943],[130.577712244,33.550000000000004],[130.5875,33.55],[130.5875,33.54166666666667],[130.575,33.541666666666664],[130.575,33.54446444100001],[130.57521917,33.544768054]]]}},{"type":"Feature","id":"40217:50302457","properties":{"id":"40217:50302457","meshCode":"50302457","cityCode":"40217","city":"筑紫野市","lat":33.5453888,"lon":130.5910058,"areaKm2":0.5621229,"populated2020":false,"population2020":null,"populationNote":"境界またぎ・収録外等のため人口未集計"},"geometry":{"type":"Polygon","coordinates":[[[130.595596667,33.545667495],[130.595017782,33.54521082899999],[130.594942218,33.544429441],[130.595158054,33.543886387],[130.595163606,33.543526108],[130.594508885,33.54284138700001],[130.594476394,33.542673892],[130.594573891,33.542166387],[130.59489403410254,33.54166666666667],[130.5875,33.54166666666667],[130.5875,33.55],[130.589322529,33.55],[130.590276667,33.549361946],[130.591163891,33.549093054],[130.591537224,33.548905279],[130.591878054,33.548849440999994],[130.592370272,33.548301667000004],[130.592797782,33.548144441],[130.59342,33.547698054],[130.593630558,33.547662495],[130.59421194600003,33.547798054000005],[130.594676939,33.547726946],[130.595185551,33.547397225000005],[130.595261388,33.547178892],[130.595239728,33.546433613],[130.595548054,33.54592110800001],[130.595596667,33.545667495]]]}},{"type":"Feature","id":"40217:50302466","properties":{"id":"40217:50302466","meshCode":"50302466","cityCode":"40217","city":"筑紫野市","lat":33.5518653,"lon":130.5827605,"areaKm2":0.3250681,"populated2020":true,"population2020":null,"populationNote":"境界またぎ・収録外等のため人口未集計"},"geometry":{"type":"Polygon","coordinates":[[[130.577712244,33.550000000000004],[130.578170272,33.550749999999994],[130.57863083,33.55106777500001],[130.578847224,33.552246667000006],[130.579287497,33.553086108],[130.580061115,33.553356387],[130.580594721,33.55386194599999],[130.580796939,33.553942494999994],[130.581186394,33.554070559],[130.582036394,33.554179721],[130.582516939,33.554388613],[130.583219728,33.554497495],[130.583704449,33.55468166699999],[130.584088885,33.554676667],[130.584683891,33.554316946],[130.58532,33.553432224999995],[130.585931388,33.552930279],[130.586104449,33.552661108],[130.58633166,33.551905279],[130.586721115,33.551621108],[130.587294449,33.551428613],[130.5875,33.55128287101048],[130.5875,33.55],[130.577712244,33.550000000000004]]]}},{"type":"Feature","id":"40217:50302467","properties":{"id":"40217:50302467","meshCode":"50302467","cityCode":"40217","city":"筑紫野市","lat":33.5504284,"lon":130.5881393,"areaKm2":0.0126808,"populated2020":false,"population2020":null,"populationNote":"境界またぎ・収録外等のため人口未集計"},"geometry":{"type":"Polygon","coordinates":[[[130.5875,33.55128287101048],[130.588955279,33.550337774999996],[130.589322529,33.55],[130.5875,33.55],[130.5875,33.55128287101048]]]}}]}