{"type":"FeatureCollection","metadata":{"cityCode":"40215","city":"中間市","resolution":500,"boundaryDate":"2026-01-01","populationLabel":"2020年基準人口（国交省調整値）","method":"標準地域メッシュを行政界で切抜き。中心が区域外のとき区域内代表点を判定点にする。人口不明をゼロにしない。"},"features":[{"type":"Feature","id":"40215:503055661","properties":{"id":"40215:503055661","meshCode":"503055661","cityCode":"40215","city":"中間市","lat":33.8020833,"lon":130.703125,"areaKm2":0.1032006,"populated2020":true,"population2020":null,"populationNote":"境界またぎ・原典収録外のため自治体内人口は未集計"},"geometry":{"type":"Polygon","coordinates":[[[130.70625,33.80400110176682],[130.704712776,33.80258082900001],[130.703562218,33.801263613],[130.701268885,33.80246249500001],[130.700636939,33.803344162],[130.7005893775868,33.80416666666667],[130.70625,33.80416666666667],[130.70625,33.80400110176682]]]}},{"type":"Feature","id":"40215:503055662","properties":{"id":"40215:503055662","meshCode":"503055662","cityCode":"40215","city":"中間市","lat":33.8040707,"lon":130.7062878,"areaKm2":0.0001528,"populated2020":true,"population2020":null,"populationNote":"境界またぎ・原典収録外のため自治体内人口は未集計"},"geometry":{"type":"Polygon","coordinates":[[[130.706401115,33.804140279],[130.70625,33.80400110176682],[130.70625,33.80416666666667],[130.706401115,33.804140279]]]}},{"type":"Feature","id":"40215:503055672","properties":{"id":"40215:503055672","meshCode":"503055672","cityCode":"40215","city":"中間市","lat":33.8028287,"lon":130.721771,"areaKm2":0.0921383,"populated2020":true,"population2020":null,"populationNote":"境界またぎ・原典収録外のため自治体内人口は未集計"},"geometry":{"type":"Polygon","coordinates":[[[130.725,33.803116225],[130.723676939,33.802898333],[130.723122776,33.802694721],[130.72249499400002,33.802249161999995],[130.721516667,33.802063613],[130.720887224,33.801523054],[130.720594994,33.801535279],[130.71958221800003,33.801876108],[130.72054733417298,33.80416666666667],[130.725,33.80416666666667],[130.725,33.803116225]]]}},{"type":"Feature","id":"40215:503055681","properties":{"id":"40215:503055681","meshCode":"503055681","cityCode":"40215","city":"中間市","lat":33.8036285,"lon":130.7252981,"areaKm2":0.0061587,"populated2020":true,"population2020":null,"populationNote":"境界またぎ・原典収録外のため自治体内人口は未集計"},"geometry":{"type":"Polygon","coordinates":[[[130.7259215961274,33.80416666666667],[130.725473333,33.80348527900001],[130.725,33.803116225],[130.725,33.80416666666667],[130.7259215961274,33.80416666666667]]]}},{"type":"Feature","id":"40215:503055653","properties":{"id":"40215:503055653","meshCode":"503055653","cityCode":"40215","city":"中間市","lat":33.8073736,"lon":130.6929301,"areaKm2":0.0334728,"populated2020":true,"population2020":null,"populationNote":"境界またぎ・原典収録外のため自治体内人口は未集計"},"geometry":{"type":"Polygon","coordinates":[[[130.693735279,33.806185],[130.692951115,33.80651],[130.692332503,33.80687999999999],[130.692324916,33.807182694000005],[130.691753281,33.807704386999994],[130.6913780028042,33.80833333333334],[130.69375,33.80833333333334],[130.693735279,33.806185]]]}},{"type":"Feature","id":"40215:503055654","properties":{"id":"40215:503055654","meshCode":"503055654","cityCode":"40215","city":"中間市","lat":33.80625,"lon":130.696875,"areaKm2":0.1427019,"populated2020":true,"population2020":null,"populationNote":"境界またぎ・原典収録外のため自治体内人口は未集計"},"geometry":{"type":"Polygon","coordinates":[[[130.7,33.806581],[130.69632555100003,33.805897225],[130.695066939,33.805885],[130.69375,33.80618212762422],[130.69375,33.80833333333334],[130.7,33.80833333333333],[130.7,33.806581]]]}},{"type":"Feature","id":"40215:503055663","properties":{"id":"40215:503055663","meshCode":"503055663","cityCode":"40215","city":"中間市","lat":33.80625,"lon":130.703125,"areaKm2":0.2528562,"populated2020":false,"population2020":null,"populationNote":"境界またぎ・原典収録外のため自治体内人口は未集計"},"geometry":{"type":"Polygon","coordinates":[[[130.7005893775868,33.80416666666667],[130.700571946,33.80646805399999],[130.70031,33.80666444100001],[130.7,33.806581],[130.7,33.80833333333333],[130.70625,33.80833333333333],[130.70625,33.80416666666667],[130.7005893775868,33.80416666666667]]]}},{"type":"Feature","id":"40215:503055664","properties":{"id":"40215:503055664","meshCode":"503055664","cityCode":"40215","city":"中間市","lat":33.80625,"lon":130.709375,"areaKm2":0.1968303,"populated2020":true,"population2020":null,"populationNote":"境界またぎ・原典収録外のため自治体内人口は未集計"},"geometry":{"type":"Polygon","coordinates":[[[130.7125,33.80644375282843],[130.712234163,33.806262225],[130.711666939,33.806346946],[130.71097,33.80623610800001],[130.710198885,33.80575416199999],[130.709899728,33.805207495],[130.70912083,33.804957495000004],[130.708503606,33.804590559000005],[130.707664721,33.804556667],[130.706698327,33.804403333],[130.70642980648358,33.80416666666666],[130.70625,33.80416666666667],[130.70625,33.80833333333333],[130.7125,33.80833333333333],[130.7125,33.80644375282843]]]}},{"type":"Feature","id":"40215:503055673","properties":{"id":"40215:503055673","meshCode":"503055673","cityCode":"40215","city":"中間市","lat":33.8073621,"lon":130.7145143,"areaKm2":0.0690282,"populated2020":true,"population2020":null,"populationNote":"境界またぎ・原典収録外のため自治体内人口は未集計"},"geometry":{"type":"Polygon","coordinates":[[[130.715924747,33.808333333],[130.716333061,33.807875559],[130.716548885,33.807296946],[130.716130272,33.806752495],[130.715886667,33.806671667],[130.715333333,33.806679721],[130.714888054,33.80646],[130.71462,33.806425559000004],[130.712930272,33.806637225],[130.7125,33.80644375282843],[130.7125,33.80833333333333],[130.715924747,33.808333333]]]}},{"type":"Feature","id":"40215:503055674","properties":{"id":"40215:503055674","meshCode":"503055674","cityCode":"40215","city":"中間市","lat":33.80625,"lon":130.721875,"areaKm2":0.1803267,"populated2020":true,"population2020":null,"populationNote":"境界またぎ・原典収録外のため自治体内人口は未集計"},"geometry":{"type":"Polygon","coordinates":[[[130.72054733417298,33.80416666666667],[130.720935837,33.80501833300001],[130.721624163,33.805822775],[130.721801388,33.806175558999996],[130.721800272,33.806474162],[130.721735837,33.806578892],[130.720327224,33.807290829],[130.71886963653247,33.80833333333334],[130.725,33.80833333333333],[130.725,33.80416666666667],[130.72054733417298,33.80416666666667]]]}},{"type":"Feature","id":"40215:503055683","properties":{"id":"40215:503055683","meshCode":"503055683","cityCode":"40215","city":"中間市","lat":33.8062306,"lon":130.7260717,"areaKm2":0.0932781,"populated2020":true,"population2020":null,"populationNote":"境界またぎ・原典収録外のため自治体内人口は未集計"},"geometry":{"type":"Polygon","coordinates":[[[130.728555305,33.808333333],[130.727622503,33.80669555899999],[130.72673083,33.80577805400001],[130.725909728,33.804421108],[130.7259215961274,33.80416666666667],[130.725,33.80416666666667],[130.725,33.80833333333333],[130.728555305,33.808333333]]]}},{"type":"Feature","id":"40215:503055741","properties":{"id":"40215:503055741","meshCode":"503055741","cityCode":"40215","city":"中間市","lat":33.8116153,"lon":130.680772,"areaKm2":0.0149802,"populated2020":true,"population2020":null,"populationNote":"境界またぎ・原典収録外のため自治体内人口は未集計"},"geometry":{"type":"Polygon","coordinates":[[[130.68125000000003,33.810890448030335],[130.68065166,33.811086945999996],[130.680506667,33.811257495],[130.680237497,33.811728333000005],[130.68001544395855,33.8125],[130.68125000000003,33.81249999999999],[130.68125000000003,33.810890448030335]]]}},{"type":"Feature","id":"40215:503055742","properties":{"id":"40215:503055742","meshCode":"503055742","cityCode":"40215","city":"中間市","lat":33.8116457,"lon":130.6827881,"areaKm2":0.0534408,"populated2020":true,"population2020":null,"populationNote":"境界またぎ・原典収録外のため自治体内人口は未集計"},"geometry":{"type":"Polygon","coordinates":[[[130.6865913824877,33.81249999999999],[130.684898885,33.81199805400001],[130.683363606,33.811066667],[130.682598885,33.810902225],[130.68125000000003,33.810890448030335],[130.68125000000003,33.81249999999999],[130.6865913824877,33.81249999999999]]]}},{"type":"Feature","id":"40215:503055751","properties":{"id":"40215:503055751","meshCode":"503055751","cityCode":"40215","city":"中間市","lat":33.8105652,"lon":130.6923785,"areaKm2":0.133606,"populated2020":true,"population2020":null,"populationNote":"境界またぎ・原典収録外のため自治体内人口は未集計"},"geometry":{"type":"Polygon","coordinates":[[[130.6913780028042,33.80833333333334],[130.691161362,33.809085198],[130.691171634,33.81021],[130.690829585,33.810896613],[130.690300856,33.81145933300001],[130.689679339,33.811890333],[130.688978392,33.812231108],[130.68808182557962,33.8125],[130.69375,33.81249999999999],[130.69375,33.80833333333334],[130.6913780028042,33.80833333333334]]]}},{"type":"Feature","id":"40215:503055752","properties":{"id":"40215:503055752","meshCode":"503055752","cityCode":"40215","city":"中間市","lat":33.8104167,"lon":130.696875,"areaKm2":0.2673979,"populated2020":true,"population2020":177.5912,"populationNote":"2020年基準の国交省調整値"},"geometry":{"type":"Polygon","coordinates":[[[130.69375,33.80833333333334],[130.69375,33.81249999999999],[130.7,33.8125],[130.7,33.80833333333333],[130.69375,33.80833333333334]]]}},{"type":"Feature","id":"40215:503055761","properties":{"id":"40215:503055761","meshCode":"503055761","cityCode":"40215","city":"中間市","lat":33.8104167,"lon":130.703125,"areaKm2":0.2673977,"populated2020":true,"population2020":83.8535,"populationNote":"2020年基準の国交省調整値"},"geometry":{"type":"Polygon","coordinates":[[[130.7,33.80833333333333],[130.7,33.8125],[130.70625,33.81249999999999],[130.70625,33.80833333333333],[130.7,33.80833333333333]]]}},{"type":"Feature","id":"40215:503055762","properties":{"id":"40215:503055762","meshCode":"503055762","cityCode":"40215","city":"中間市","lat":33.8104167,"lon":130.709375,"areaKm2":0.2673975,"populated2020":true,"population2020":839.1033,"populationNote":"2020年基準の国交省調整値"},"geometry":{"type":"Polygon","coordinates":[[[130.70625,33.80833333333333],[130.70625,33.81249999999999],[130.7125,33.81249999999999],[130.7125,33.80833333333333],[130.70625,33.80833333333333]]]}},{"type":"Feature","id":"40215:503055771","properties":{"id":"40215:503055771","meshCode":"503055771","cityCode":"40215","city":"中間市","lat":33.8104167,"lon":130.715625,"areaKm2":0.2244973,"populated2020":true,"population2020":null,"populationNote":"境界またぎ・原典収録外のため自治体内人口は未集計"},"geometry":{"type":"Polygon","coordinates":[[[130.71875,33.808418627200474],[130.717430558,33.809371387],[130.716750272,33.809758333],[130.712973606,33.811060559],[130.713046109,33.810893054000005],[130.714218054,33.81044138699999],[130.715105551,33.809986108000004],[130.715487782,33.809530559],[130.715441388,33.80914555900001],[130.71592474669936,33.80833333333333],[130.7125,33.80833333333333],[130.7125,33.81249999999999],[130.71875,33.81249999999999],[130.71875,33.808418627200474]]]}},{"type":"Feature","id":"40215:503055772","properties":{"id":"40215:503055772","meshCode":"503055772","cityCode":"40215","city":"中間市","lat":33.8104167,"lon":130.721875,"areaKm2":0.2673448,"populated2020":true,"population2020":1319.6337,"populationNote":"2020年基準の国交省調整値"},"geometry":{"type":"Polygon","coordinates":[[[130.71875,33.808418627200474],[130.71875,33.81249999999999],[130.725,33.81249999999999],[130.725,33.80833333333333],[130.71886963653247,33.80833333333334],[130.71875,33.808418627200474]]]}},{"type":"Feature","id":"40215:503055781","properties":{"id":"40215:503055781","meshCode":"503055781","cityCode":"40215","city":"中間市","lat":33.8104167,"lon":130.728125,"areaKm2":0.2069281,"populated2020":true,"population2020":null,"populationNote":"境界またぎ・原典収録外のため自治体内人口は未集計"},"geometry":{"type":"Polygon","coordinates":[[[130.73105987719487,33.8125],[130.729784163,33.810267225],[130.72855530519115,33.80833333333333],[130.725,33.80833333333333],[130.725,33.81249999999999],[130.73105987719487,33.8125]]]}},{"type":"Feature","id":"40215:503055743","properties":{"id":"40215:503055743","meshCode":"503055743","cityCode":"40215","city":"中間市","lat":33.8146372,"lon":130.6804938,"areaKm2":0.0712694,"populated2020":true,"population2020":null,"populationNote":"境界またぎ・原典収録外のため自治体内人口は未集計"},"geometry":{"type":"Polygon","coordinates":[[[130.68001544395855,33.8125],[130.67981083,33.813396108000006],[130.679729442,33.814718333],[130.679321388,33.81574222500001],[130.67866046742105,33.81666666666667],[130.68125000000003,33.81666666666667],[130.68125000000003,33.81249999999999],[130.68001544395855,33.8125]]]}},{"type":"Feature","id":"40215:503055744","properties":{"id":"40215:503055744","meshCode":"503055744","cityCode":"40215","city":"中間市","lat":33.8145833,"lon":130.684375,"areaKm2":0.266898,"populated2020":true,"population2020":186.9938,"populationNote":"2020年基準の国交省調整値"},"geometry":{"type":"Polygon","coordinates":[[[130.687484449,33.812586108],[130.6865913824877,33.81249999999999],[130.68125000000003,33.81249999999999],[130.68125000000003,33.81666666666667],[130.6875,33.81666666666667],[130.687484449,33.812586108]]]}},{"type":"Feature","id":"40215:503055753","properties":{"id":"40215:503055753","meshCode":"503055753","cityCode":"40215","city":"中間市","lat":33.8145833,"lon":130.690625,"areaKm2":0.2668535,"populated2020":true,"population2020":341.2937,"populationNote":"2020年基準の国交省調整値"},"geometry":{"type":"Polygon","coordinates":[[[130.687928327,33.812595559],[130.6875,33.812587471992344],[130.6875,33.81666666666667],[130.69375,33.81666666666668],[130.69375,33.81249999999999],[130.68808182557962,33.8125],[130.687928327,33.812595559]]]}},{"type":"Feature","id":"40215:503055754","properties":{"id":"40215:503055754","meshCode":"503055754","cityCode":"40215","city":"中間市","lat":33.8145833,"lon":130.696875,"areaKm2":0.2673851,"populated2020":true,"population2020":627.603,"populationNote":"2020年基準の国交省調整値"},"geometry":{"type":"Polygon","coordinates":[[[130.69375,33.81249999999999],[130.69375,33.81666666666668],[130.7,33.81666666666668],[130.7,33.8125],[130.69375,33.81249999999999]]]}},{"type":"Feature","id":"40215:503055763","properties":{"id":"40215:503055763","meshCode":"503055763","cityCode":"40215","city":"中間市","lat":33.8145833,"lon":130.703125,"areaKm2":0.2673849,"populated2020":true,"population2020":258.4063,"populationNote":"2020年基準の国交省調整値"},"geometry":{"type":"Polygon","coordinates":[[[130.7,33.8125],[130.7,33.81666666666668],[130.70625,33.81666666666667],[130.70625,33.81249999999999],[130.7,33.8125]]]}},{"type":"Feature","id":"40215:503055764","properties":{"id":"40215:503055764","meshCode":"503055764","cityCode":"40215","city":"中間市","lat":33.8145833,"lon":130.709375,"areaKm2":0.2673847,"populated2020":true,"population2020":539.046,"populationNote":"2020年基準の国交省調整値"},"geometry":{"type":"Polygon","coordinates":[[[130.70625,33.81249999999999],[130.70625,33.81666666666667],[130.7125,33.81666666666666],[130.7125,33.81249999999999],[130.70625,33.81249999999999]]]}},{"type":"Feature","id":"40215:503055773","properties":{"id":"40215:503055773","meshCode":"503055773","cityCode":"40215","city":"中間市","lat":33.8145833,"lon":130.715625,"areaKm2":0.2673845,"populated2020":true,"population2020":1531.757,"populationNote":"2020年基準の国交省調整値"},"geometry":{"type":"Polygon","coordinates":[[[130.7125,33.81249999999999],[130.7125,33.81666666666666],[130.71875,33.81666666666666],[130.71875,33.81249999999999],[130.7125,33.81249999999999]]]}},{"type":"Feature","id":"40215:503055774","properties":{"id":"40215:503055774","meshCode":"503055774","cityCode":"40215","city":"中間市","lat":33.8145833,"lon":130.721875,"areaKm2":0.2673843,"populated2020":true,"population2020":1824.2553,"populationNote":"2020年基準の国交省調整値"},"geometry":{"type":"Polygon","coordinates":[[[130.71875,33.81249999999999],[130.71875,33.81666666666666],[130.725,33.81666666666666],[130.725,33.81249999999999],[130.71875,33.81249999999999]]]}},{"type":"Feature","id":"40215:503055783","properties":{"id":"40215:503055783","meshCode":"503055783","cityCode":"40215","city":"中間市","lat":33.8145833,"lon":130.728125,"areaKm2":0.2671884,"populated2020":true,"population2020":1393.6876,"populationNote":"2020年基準の国交省調整値"},"geometry":{"type":"Polygon","coordinates":[[[130.73125,33.81266752998104],[130.73105987719487,33.8125],[130.725,33.81249999999999],[130.725,33.81666666666666],[130.73125,33.81666666666667],[130.73125,33.81266752998104]]]}},{"type":"Feature","id":"40215:503055784","properties":{"id":"40215:503055784","meshCode":"503055784","cityCode":"40215","city":"中間市","lat":33.8145833,"lon":130.734375,"areaKm2":0.2049901,"populated2020":true,"population2020":null,"populationNote":"境界またぎ・原典収録外のため自治体内人口は未集計"},"geometry":{"type":"Polygon","coordinates":[[[130.737286394,33.814053892],[130.734464163,33.813719162],[130.733606667,33.813406667],[130.733374994,33.813029721],[130.732427224,33.81282972100001],[130.731547497,33.812765],[130.73125,33.81266752998104],[130.73125,33.81666666666667],[130.7375,33.81666666666667],[130.7375,33.81400299024106],[130.737286394,33.814053892]]]}},{"type":"Feature","id":"40215:503055793","properties":{"id":"40215:503055793","meshCode":"503055793","cityCode":"40215","city":"中間市","lat":33.8152389,"lon":130.7387765,"areaKm2":0.0979416,"populated2020":true,"population2020":null,"populationNote":"境界またぎ・原典収録外のため自治体内人口は未集計"},"geometry":{"type":"Polygon","coordinates":[[[130.742889442,33.816617225],[130.743251946,33.816334999999995],[130.743069728,33.816076946],[130.741526109,33.815669721],[130.740136939,33.81540944100001],[130.740021946,33.815175829000005],[130.740294994,33.814548892],[130.738883606,33.814155559],[130.738431946,33.813775559],[130.7375,33.81400299024106],[130.7375,33.81666666666667],[130.74292311277298,33.81666666666667],[130.742889442,33.816617225]]]}},{"type":"Feature","id":"40215:503055832","properties":{"id":"40215:503055832","meshCode":"503055832","cityCode":"40215","city":"中間市","lat":33.8202565,"lon":130.6703177,"areaKm2":0.0241743,"populated2020":true,"population2020":null,"populationNote":"境界またぎ・原典収録外のため自治体内人口は未集計"},"geometry":{"type":"MultiPolygon","coordinates":[[[[130.67493150916482,33.82083333333333],[130.675,33.82083333333334],[130.675,33.820712306],[130.67493150916482,33.82083333333333]]],[[[130.672724994,33.82081889199999],[130.669753891,33.819628333],[130.669004721,33.820636667],[130.66895663402522,33.82083333333333],[130.672724994,33.82081889199999]]]]}},{"type":"Feature","id":"40215:503055841","properties":{"id":"40215:503055841","meshCode":"503055841","cityCode":"40215","city":"中間市","lat":33.81875,"lon":130.678125,"areaKm2":0.2134151,"populated2020":true,"population2020":48.7553,"populationNote":"2020年基準の国交省調整値"},"geometry":{"type":"Polygon","coordinates":[[[130.678660467,33.816666667],[130.678043891,33.817079162000006],[130.677127782,33.817395559],[130.676710558,33.817634162000004],[130.675384163,33.81998833299999],[130.675,33.82083333333334],[130.68125000000003,33.82083333333333],[130.68125000000003,33.81666666666667],[130.678660467,33.816666667]]]}},{"type":"Feature","id":"40215:503055842","properties":{"id":"40215:503055842","meshCode":"503055842","cityCode":"40215","city":"中間市","lat":33.81875,"lon":130.684375,"areaKm2":0.2673728,"populated2020":true,"population2020":4.0421,"populationNote":"2020年基準の国交省調整値"},"geometry":{"type":"Polygon","coordinates":[[[130.68125000000003,33.81666666666667],[130.68125000000003,33.82083333333333],[130.6875,33.82083333333333],[130.6875,33.81666666666667],[130.68125000000003,33.81666666666667]]]}},{"type":"Feature","id":"40215:503055851","properties":{"id":"40215:503055851","meshCode":"503055851","cityCode":"40215","city":"中間市","lat":33.81875,"lon":130.690625,"areaKm2":0.2673725,"populated2020":false,"population2020":null,"populationNote":"境界またぎ・原典収録外のため自治体内人口は未集計"},"geometry":{"type":"Polygon","coordinates":[[[130.6875,33.81666666666667],[130.6875,33.82083333333333],[130.69375,33.82083333333334],[130.69375,33.81666666666668],[130.6875,33.81666666666667]]]}},{"type":"Feature","id":"40215:503055852","properties":{"id":"40215:503055852","meshCode":"503055852","cityCode":"40215","city":"中間市","lat":33.81875,"lon":130.696875,"areaKm2":0.2673723,"populated2020":true,"population2020":674.7157,"populationNote":"2020年基準の国交省調整値"},"geometry":{"type":"Polygon","coordinates":[[[130.69375,33.81666666666668],[130.69375,33.82083333333334],[130.7,33.82083333333334],[130.7,33.81666666666668],[130.69375,33.81666666666668]]]}},{"type":"Feature","id":"40215:503055861","properties":{"id":"40215:503055861","meshCode":"503055861","cityCode":"40215","city":"中間市","lat":33.81875,"lon":130.703125,"areaKm2":0.2673721,"populated2020":true,"population2020":589.8371,"populationNote":"2020年基準の国交省調整値"},"geometry":{"type":"Polygon","coordinates":[[[130.7,33.81666666666668],[130.7,33.82083333333334],[130.70625,33.82083333333333],[130.70625,33.81666666666667],[130.7,33.81666666666668]]]}},{"type":"Feature","id":"40215:503055862","properties":{"id":"40215:503055862","meshCode":"503055862","cityCode":"40215","city":"中間市","lat":33.81875,"lon":130.709375,"areaKm2":0.2673719,"populated2020":true,"population2020":480.1445,"populationNote":"2020年基準の国交省調整値"},"geometry":{"type":"Polygon","coordinates":[[[130.70625,33.81666666666667],[130.70625,33.82083333333333],[130.7125,33.82083333333333],[130.7125,33.81666666666666],[130.70625,33.81666666666667]]]}},{"type":"Feature","id":"40215:503055871","properties":{"id":"40215:503055871","meshCode":"503055871","cityCode":"40215","city":"中間市","lat":33.81875,"lon":130.715625,"areaKm2":0.2673717,"populated2020":true,"population2020":1032.1589,"populationNote":"2020年基準の国交省調整値"},"geometry":{"type":"Polygon","coordinates":[[[130.7125,33.81666666666666],[130.7125,33.82083333333333],[130.71875,33.82083333333333],[130.71875,33.81666666666666],[130.7125,33.81666666666666]]]}},{"type":"Feature","id":"40215:503055872","properties":{"id":"40215:503055872","meshCode":"503055872","cityCode":"40215","city":"中間市","lat":33.81875,"lon":130.721875,"areaKm2":0.2673715,"populated2020":true,"population2020":1707.7495,"populationNote":"2020年基準の国交省調整値"},"geometry":{"type":"Polygon","coordinates":[[[130.71875,33.81666666666666],[130.71875,33.82083333333333],[130.725,33.82083333333333],[130.725,33.81666666666666],[130.71875,33.81666666666666]]]}},{"type":"Feature","id":"40215:503055881","properties":{"id":"40215:503055881","meshCode":"503055881","cityCode":"40215","city":"中間市","lat":33.81875,"lon":130.728125,"areaKm2":0.2673713,"populated2020":true,"population2020":1613.1736,"populationNote":"2020年基準の国交省調整値"},"geometry":{"type":"Polygon","coordinates":[[[130.725,33.81666666666666],[130.725,33.82083333333333],[130.73125,33.82083333333334],[130.73125,33.81666666666667],[130.725,33.81666666666666]]]}},{"type":"Feature","id":"40215:503055882","properties":{"id":"40215:503055882","meshCode":"503055882","cityCode":"40215","city":"中間市","lat":33.81875,"lon":130.734375,"areaKm2":0.2673711,"populated2020":true,"population2020":1606.0235,"populationNote":"2020年基準の国交省調整値"},"geometry":{"type":"Polygon","coordinates":[[[130.73125,33.81666666666667],[130.73125,33.82083333333334],[130.7375,33.82083333333334],[130.7375,33.81666666666667],[130.73125,33.81666666666667]]]}},{"type":"Feature","id":"40215:503055891","properties":{"id":"40215:503055891","meshCode":"503055891","cityCode":"40215","city":"中間市","lat":33.81875,"lon":130.740625,"areaKm2":0.2236907,"populated2020":true,"population2020":1789.6272,"populationNote":"2020年基準の国交省調整値"},"geometry":{"type":"Polygon","coordinates":[[[130.740000272,33.820827225],[130.740036667,33.820518613],[130.74032083,33.820484441],[130.741188327,33.820137495],[130.74127917,33.81998222499999],[130.741612503,33.820000559],[130.741729442,33.820081108000004],[130.742082218,33.820577225],[130.742847497,33.82001472099999],[130.742773333,33.81958305399999],[130.74280666700002,33.819432775],[130.743011115,33.819230279],[130.743086667,33.818544721],[130.743526109,33.81830694600001],[130.743453333,33.818175829],[130.743483606,33.817951946],[130.743672218,33.817768613],[130.74292311277298,33.81666666666667],[130.7375,33.81666666666667],[130.7375,33.82083333333334],[130.740000272,33.820827225]]]}},{"type":"Feature","id":"40215:503055833","properties":{"id":"40215:503055833","meshCode":"503055833","cityCode":"40215","city":"中間市","lat":33.82286,"lon":130.6686587,"areaKm2":0.0016267,"populated2020":true,"population2020":null,"populationNote":"境界またぎ・原典収録外のため自治体内人口は未集計"},"geometry":{"type":"Polygon","coordinates":[[[130.668439728,33.82316555900001],[130.66875,33.823381904911585],[130.66875,33.822279433991824],[130.668439728,33.82316555900001]]]}},{"type":"Feature","id":"40215:503055834","properties":{"id":"40215:503055834","meshCode":"503055834","cityCode":"40215","city":"中間市","lat":33.8229167,"lon":130.671875,"areaKm2":0.2294721,"populated2020":true,"population2020":34.3868,"populationNote":"2020年基準の国交省調整値"},"geometry":{"type":"Polygon","coordinates":[[[130.66875,33.823381904911585],[130.672312503,33.825],[130.675,33.825],[130.675,33.82083333333334],[130.67493150916482,33.82083333333333],[130.674573333,33.82152416200001],[130.67276704002873,33.82083333333334],[130.66895663402522,33.82083333333333],[130.668766394,33.821736667],[130.66875,33.823381904911585]]]}},{"type":"Feature","id":"40215:503055843","properties":{"id":"40215:503055843","meshCode":"503055843","cityCode":"40215","city":"中間市","lat":33.8229167,"lon":130.678125,"areaKm2":0.2673602,"populated2020":true,"population2020":121.6558,"populationNote":"2020年基準の国交省調整値"},"geometry":{"type":"Polygon","coordinates":[[[130.675,33.82083333333334],[130.675,33.825],[130.68125000000003,33.82500000000001],[130.68125000000003,33.82083333333333],[130.675,33.82083333333334]]]}},{"type":"Feature","id":"40215:503055844","properties":{"id":"40215:503055844","meshCode":"503055844","cityCode":"40215","city":"中間市","lat":33.8229167,"lon":130.684375,"areaKm2":0.26736,"populated2020":true,"population2020":13.1016,"populationNote":"2020年基準の国交省調整値"},"geometry":{"type":"Polygon","coordinates":[[[130.68125000000003,33.82083333333333],[130.68125000000003,33.82500000000001],[130.6875,33.825],[130.6875,33.82083333333333],[130.68125000000003,33.82083333333333]]]}},{"type":"Feature","id":"40215:503055853","properties":{"id":"40215:503055853","meshCode":"503055853","cityCode":"40215","city":"中間市","lat":33.8229167,"lon":130.690625,"areaKm2":0.2673598,"populated2020":true,"population2020":19.3285,"populationNote":"2020年基準の国交省調整値"},"geometry":{"type":"Polygon","coordinates":[[[130.6875,33.82083333333333],[130.6875,33.825],[130.69375,33.825],[130.69375,33.82083333333334],[130.6875,33.82083333333333]]]}},{"type":"Feature","id":"40215:503055854","properties":{"id":"40215:503055854","meshCode":"503055854","cityCode":"40215","city":"中間市","lat":33.8229167,"lon":130.696875,"areaKm2":0.2673595,"populated2020":true,"population2020":300.6869,"populationNote":"2020年基準の国交省調整値"},"geometry":{"type":"Polygon","coordinates":[[[130.69375,33.82083333333334],[130.69375,33.825],[130.7,33.825],[130.7,33.82083333333334],[130.69375,33.82083333333334]]]}},{"type":"Feature","id":"40215:503055863","properties":{"id":"40215:503055863","meshCode":"503055863","cityCode":"40215","city":"中間市","lat":33.8229167,"lon":130.703125,"areaKm2":0.2673593,"populated2020":true,"population2020":41.6349,"populationNote":"2020年基準の国交省調整値"},"geometry":{"type":"Polygon","coordinates":[[[130.7,33.82083333333334],[130.7,33.825],[130.70625,33.82500000000001],[130.70625,33.82083333333333],[130.7,33.82083333333334]]]}},{"type":"Feature","id":"40215:503055864","properties":{"id":"40215:503055864","meshCode":"503055864","cityCode":"40215","city":"中間市","lat":33.8229167,"lon":130.709375,"areaKm2":0.2673591,"populated2020":true,"population2020":772.3672,"populationNote":"2020年基準の国交省調整値"},"geometry":{"type":"Polygon","coordinates":[[[130.70625,33.82083333333333],[130.70625,33.82500000000001],[130.7125,33.825],[130.7125,33.82083333333333],[130.70625,33.82083333333333]]]}},{"type":"Feature","id":"40215:503055873","properties":{"id":"40215:503055873","meshCode":"503055873","cityCode":"40215","city":"中間市","lat":33.8229167,"lon":130.715625,"areaKm2":0.2673589,"populated2020":true,"population2020":2034.3669,"populationNote":"2020年基準の国交省調整値"},"geometry":{"type":"Polygon","coordinates":[[[130.7125,33.82083333333333],[130.7125,33.825],[130.71875,33.82500000000001],[130.71875,33.82083333333333],[130.7125,33.82083333333333]]]}},{"type":"Feature","id":"40215:503055874","properties":{"id":"40215:503055874","meshCode":"503055874","cityCode":"40215","city":"中間市","lat":33.8229167,"lon":130.721875,"areaKm2":0.2673587,"populated2020":true,"population2020":881.2747,"populationNote":"2020年基準の国交省調整値"},"geometry":{"type":"Polygon","coordinates":[[[130.71875,33.82083333333333],[130.71875,33.82500000000001],[130.725,33.825],[130.725,33.82083333333333],[130.71875,33.82083333333333]]]}},{"type":"Feature","id":"40215:503055883","properties":{"id":"40215:503055883","meshCode":"503055883","cityCode":"40215","city":"中間市","lat":33.8229167,"lon":130.728125,"areaKm2":0.2640821,"populated2020":true,"population2020":1360.6263,"populationNote":"2020年基準の国交省調整値"},"geometry":{"type":"Polygon","coordinates":[[[130.730652776,33.824985279],[130.730858885,33.824508333],[130.73104,33.824308892],[130.73125,33.82429113169157],[130.73125,33.82083333333334],[130.725,33.82083333333333],[130.725,33.825],[130.730652776,33.824985279]]]}},{"type":"Feature","id":"40215:503055884","properties":{"id":"40215:503055884","meshCode":"503055884","cityCode":"40215","city":"中間市","lat":33.8227591,"lon":130.7323101,"areaKm2":0.1433418,"populated2020":true,"population2020":null,"populationNote":"境界またぎ・原典収録外のため自治体内人口は未集計"},"geometry":{"type":"Polygon","coordinates":[[[130.73125,33.82429113169157],[130.733293061,33.824629161999994],[130.733652503,33.824230559],[130.733761115,33.823781946],[130.73361749700004,33.823336946],[130.733253333,33.822880829000006],[130.733318885,33.822797225],[130.733801388,33.822474162],[130.734564721,33.822300829],[130.735021388,33.82227444099999],[130.735813333,33.822364721],[130.73625083,33.82229027900001],[130.737233061,33.821756946],[130.73748083,33.821480829],[130.7375,33.82083333333334],[130.73125,33.82083333333334],[130.73125,33.82429113169157]]]}},{"type":"Feature","id":"40215:503055893","properties":{"id":"40215:503055893","meshCode":"503055893","cityCode":"40215","city":"中間市","lat":33.8214921,"lon":130.7397601,"areaKm2":0.0126194,"populated2020":true,"population2020":null,"populationNote":"境界またぎ・原典収録外のため自治体内人口は未集計"},"geometry":{"type":"Polygon","coordinates":[[[130.737613061,33.821291386999995],[130.738207497,33.821067495],[130.738905551,33.82105],[130.739450558,33.821123333],[130.739340272,33.82179472100001],[130.739545837,33.822075],[130.740166667,33.82153082899999],[130.7399998602762,33.82083333333333],[130.7375,33.82083333333334],[130.7375,33.82145336491714],[130.737613061,33.821291386999995]]]}},{"type":"Feature","id":"40215:503055932","properties":{"id":"40215:503055932","meshCode":"503055932","cityCode":"40215","city":"中間市","lat":33.8255735,"lon":130.6739419,"areaKm2":0.0197625,"populated2020":true,"population2020":null,"populationNote":"境界またぎ・原典収録外のため自治体内人口は未集計"},"geometry":{"type":"Polygon","coordinates":[[[130.672312503,33.825],[130.67270111500002,33.825509441],[130.67378166,33.825856387],[130.674250272,33.825647225],[130.674588885,33.825850279],[130.674544163,33.826097775],[130.675,33.826236532],[130.675,33.825],[130.672312503,33.825]]]}},{"type":"Feature","id":"40215:503055941","properties":{"id":"40215:503055941","meshCode":"503055941","cityCode":"40215","city":"中間市","lat":33.8270833,"lon":130.678125,"areaKm2":0.2434055,"populated2020":false,"population2020":null,"populationNote":"境界またぎ・原典収録外のため自治体内人口は未集計"},"geometry":{"type":"Polygon","coordinates":[[[130.675,33.826236532],[130.67530166,33.826349441],[130.675206394,33.826751387],[130.675780272,33.82779110800001],[130.6766868791143,33.829166666666666],[130.68125000000003,33.829166666666666],[130.68125000000003,33.82500000000001],[130.675,33.825],[130.675,33.826236532]]]}},{"type":"Feature","id":"40215:503055942","properties":{"id":"40215:503055942","meshCode":"503055942","cityCode":"40215","city":"中間市","lat":33.8270833,"lon":130.684375,"areaKm2":0.2673472,"populated2020":false,"population2020":null,"populationNote":"境界またぎ・原典収録外のため自治体内人口は未集計"},"geometry":{"type":"Polygon","coordinates":[[[130.68125000000003,33.82500000000001],[130.68125000000003,33.829166666666666],[130.6875,33.829166666666666],[130.6875,33.825],[130.68125000000003,33.82500000000001]]]}},{"type":"Feature","id":"40215:503055951","properties":{"id":"40215:503055951","meshCode":"503055951","cityCode":"40215","city":"中間市","lat":33.8270833,"lon":130.690625,"areaKm2":0.267347,"populated2020":true,"population2020":8.056,"populationNote":"2020年基準の国交省調整値"},"geometry":{"type":"Polygon","coordinates":[[[130.6875,33.825],[130.6875,33.829166666666666],[130.69375,33.829166666666666],[130.69375,33.825],[130.6875,33.825]]]}},{"type":"Feature","id":"40215:503055952","properties":{"id":"40215:503055952","meshCode":"503055952","cityCode":"40215","city":"中間市","lat":33.8270833,"lon":130.696875,"areaKm2":0.2673468,"populated2020":true,"population2020":46.5566,"populationNote":"2020年基準の国交省調整値"},"geometry":{"type":"Polygon","coordinates":[[[130.69375,33.825],[130.69375,33.829166666666666],[130.7,33.829166666666666],[130.7,33.825],[130.69375,33.825]]]}},{"type":"Feature","id":"40215:503055961","properties":{"id":"40215:503055961","meshCode":"503055961","cityCode":"40215","city":"中間市","lat":33.8270833,"lon":130.703125,"areaKm2":0.2673465,"populated2020":true,"population2020":943.7106,"populationNote":"2020年基準の国交省調整値"},"geometry":{"type":"Polygon","coordinates":[[[130.7,33.825],[130.7,33.829166666666666],[130.70625,33.82916666666667],[130.70625,33.82500000000001],[130.7,33.825]]]}},{"type":"Feature","id":"40215:503055962","properties":{"id":"40215:503055962","meshCode":"503055962","cityCode":"40215","city":"中間市","lat":33.8270833,"lon":130.709375,"areaKm2":0.2673463,"populated2020":true,"population2020":1050.1956,"populationNote":"2020年基準の国交省調整値"},"geometry":{"type":"Polygon","coordinates":[[[130.70625,33.82500000000001],[130.70625,33.82916666666667],[130.7125,33.829166666666666],[130.7125,33.825],[130.70625,33.82500000000001]]]}},{"type":"Feature","id":"40215:503055971","properties":{"id":"40215:503055971","meshCode":"503055971","cityCode":"40215","city":"中間市","lat":33.8270833,"lon":130.715625,"areaKm2":0.2673461,"populated2020":true,"population2020":978.2093,"populationNote":"2020年基準の国交省調整値"},"geometry":{"type":"Polygon","coordinates":[[[130.7125,33.825],[130.7125,33.829166666666666],[130.71875,33.829166666666666],[130.71875,33.82500000000001],[130.7125,33.825]]]}},{"type":"Feature","id":"40215:503055972","properties":{"id":"40215:503055972","meshCode":"503055972","cityCode":"40215","city":"中間市","lat":33.8270833,"lon":130.721875,"areaKm2":0.2673459,"populated2020":true,"population2020":319.3447,"populationNote":"2020年基準の国交省調整値"},"geometry":{"type":"Polygon","coordinates":[[[130.71875,33.82500000000001],[130.71875,33.829166666666666],[130.725,33.829166666666666],[130.725,33.825],[130.71875,33.82500000000001]]]}},{"type":"Feature","id":"40215:503055981","properties":{"id":"40215:503055981","meshCode":"503055981","cityCode":"40215","city":"中間市","lat":33.8270833,"lon":130.728125,"areaKm2":0.1910487,"populated2020":true,"population2020":null,"populationNote":"境界またぎ・原典収録外のため自治体内人口は未集計"},"geometry":{"type":"Polygon","coordinates":[[[130.7281241176574,33.829166666666666],[130.728,33.82891638699999],[130.728238612,33.828759441],[130.729052503,33.828346946],[130.728998054,33.827833891999994],[130.729747497,33.827423333],[130.729427782,33.826974441],[130.729836109,33.826765],[130.729733606,33.82528749499999],[130.730296939,33.825233054],[130.730932776,33.826006108],[130.731067782,33.826046387],[130.731226667,33.825963613000006],[130.730657445,33.825],[130.725,33.825],[130.725,33.829166666666666],[130.7281241176574,33.829166666666666]]]}},{"type":"Feature","id":"40215:503055943","properties":{"id":"40215:503055943","meshCode":"503055943","cityCode":"40215","city":"中間市","lat":33.8298928,"lon":130.6792365,"areaKm2":0.0646063,"populated2020":false,"population2020":null,"populationNote":"境界またぎ・原典収録外のため自治体内人口は未集計"},"geometry":{"type":"Polygon","coordinates":[[[130.6766868791143,33.829166666666666],[130.676938885,33.829575279],[130.67720083,33.829642225],[130.677205551,33.830494721],[130.677270558,33.830571946],[130.67777166,33.830697775],[130.679241115,33.830803333],[130.679524994,33.830776946],[130.680195837,33.830516946],[130.68125000000003,33.830683559913844],[130.68125000000003,33.829166666666666],[130.6766868791143,33.829166666666666]]]}},{"type":"Feature","id":"40215:503055944","properties":{"id":"40215:503055944","meshCode":"503055944","cityCode":"40215","city":"中間市","lat":33.8307757,"lon":130.6864707,"areaKm2":0.1212304,"populated2020":true,"population2020":null,"populationNote":"境界またぎ・原典収録外のため自治体内人口は未集計"},"geometry":{"type":"Polygon","coordinates":[[[130.68125000000003,33.830683559913844],[130.682726939,33.830926946],[130.682986667,33.830689441000004],[130.684819442,33.830683613],[130.685143891,33.830517225],[130.685385279,33.830622774999995],[130.685534449,33.831263613000004],[130.685631946,33.831377495],[130.686377497,33.831495279],[130.68673055800002,33.83173694600001],[130.687112776,33.832394441],[130.6875,33.83231146879709],[130.6875,33.829166666666666],[130.68125000000003,33.829166666666666],[130.68125000000003,33.830683559913844]]]}},{"type":"Feature","id":"40215:503055953","properties":{"id":"40215:503055953","meshCode":"503055953","cityCode":"40215","city":"中間市","lat":33.83125,"lon":130.690625,"areaKm2":0.2392087,"populated2020":true,"population2020":87.0494,"populationNote":"2020年基準の国交省調整値"},"geometry":{"type":"Polygon","coordinates":[[[130.6875,33.83231146879709],[130.688105551,33.832794441],[130.689145279,33.83262389200001],[130.69023277653068,33.83333333333334],[130.69211455262345,33.833333333333336],[130.69375,33.83186126439379],[130.69375,33.829166666666666],[130.6875,33.829166666666666],[130.6875,33.83231146879709]]]}},{"type":"Feature","id":"40215:503055954","properties":{"id":"40215:503055954","meshCode":"503055954","cityCode":"40215","city":"中間市","lat":33.831016,"lon":130.698509,"areaKm2":0.1504535,"populated2020":true,"population2020":null,"populationNote":"境界またぎ・原典収録外のため自治体内人口は未集計"},"geometry":{"type":"Polygon","coordinates":[[[130.69375,33.83186126439379],[130.695674721,33.830110279],[130.697669144,33.83147655900001],[130.697624527,33.831854387],[130.699045668,33.832033829],[130.6988064719067,33.833333333333336],[130.7,33.833333333333336],[130.7,33.829166666666666],[130.69375,33.829166666666666],[130.69375,33.83186126439379]]]}},{"type":"Feature","id":"40215:503055963","properties":{"id":"40215:503055963","meshCode":"503055963","cityCode":"40215","city":"中間市","lat":33.83125,"lon":130.703125,"areaKm2":0.2673338,"populated2020":true,"population2020":1581.3169,"populationNote":"2020年基準の国交省調整値"},"geometry":{"type":"Polygon","coordinates":[[[130.7,33.829166666666666],[130.7,33.833333333333336],[130.70625,33.833333333333336],[130.70625,33.82916666666667],[130.7,33.829166666666666]]]}},{"type":"Feature","id":"40215:503055964","properties":{"id":"40215:503055964","meshCode":"503055964","cityCode":"40215","city":"中間市","lat":33.83125,"lon":130.709375,"areaKm2":0.2673335,"populated2020":true,"population2020":503.4169,"populationNote":"2020年基準の国交省調整値"},"geometry":{"type":"Polygon","coordinates":[[[130.70625,33.82916666666667],[130.70625,33.833333333333336],[130.7125,33.833333333333336],[130.7125,33.829166666666666],[130.70625,33.82916666666667]]]}},{"type":"Feature","id":"40215:503055973","properties":{"id":"40215:503055973","meshCode":"503055973","cityCode":"40215","city":"中間市","lat":33.83125,"lon":130.715625,"areaKm2":0.2673333,"populated2020":true,"population2020":658.2753,"populationNote":"2020年基準の国交省調整値"},"geometry":{"type":"Polygon","coordinates":[[[130.7125,33.829166666666666],[130.7125,33.833333333333336],[130.71875,33.833333333333336],[130.71875,33.829166666666666],[130.7125,33.829166666666666]]]}},{"type":"Feature","id":"40215:503055974","properties":{"id":"40215:503055974","meshCode":"503055974","cityCode":"40215","city":"中間市","lat":33.83125,"lon":130.721875,"areaKm2":0.2545292,"populated2020":true,"population2020":4.0651,"populationNote":"2020年基準の国交省調整値"},"geometry":{"type":"Polygon","coordinates":[[[130.721773995,33.83333333299999],[130.722387497,33.833118892],[130.722476109,33.83312694599999],[130.722636641232,33.833333333333336],[130.7228713881499,33.833333333333336],[130.722745551,33.832929441],[130.722832776,33.83257749500001],[130.723456394,33.832400279],[130.724628327,33.833261667],[130.725,33.833333333333336],[130.725,33.829166666666666],[130.71875,33.829166666666666],[130.71875,33.833333333333336],[130.721773995,33.83333333299999]]]}},{"type":"Feature","id":"40215:503055983","properties":{"id":"40215:503055983","meshCode":"503055983","cityCode":"40215","city":"中間市","lat":33.8312356,"lon":130.7260882,"areaKm2":0.1119694,"populated2020":true,"population2020":null,"populationNote":"境界またぎ・原典収録外のため自治体内人口は未集計"},"geometry":{"type":"Polygon","coordinates":[[[130.726698054,33.833333333],[130.726328885,33.832466946000004],[130.726498885,33.831931387],[130.726742218,33.83181277500001],[130.726959442,33.83191138699999],[130.727616109,33.832517225000004],[130.727891946,33.832573613],[130.728004449,33.83248110800001],[130.72776917,33.832048333],[130.726990558,33.831492495000006],[130.727193891,33.83121472100001],[130.727546109,33.831126387000005],[130.72800888500004,33.83130361300001],[130.728358885,33.831134441],[130.72880166,33.830691667],[130.728065551,33.82978582900001],[130.728392218,33.82956666700001],[130.7281241176574,33.829166666666666],[130.725,33.829166666666666],[130.725,33.833333333333336],[130.726698054,33.833333333]]]}},{"type":"Feature","id":"40215:503065051","properties":{"id":"40215:503065051","meshCode":"503065051","cityCode":"40215","city":"中間市","lat":33.833725,"lon":130.6911876,"areaKm2":0.0072479,"populated2020":true,"population2020":null,"populationNote":"境界またぎ・原典収録外のため自治体内人口は未集計"},"geometry":{"type":"Polygon","coordinates":[[[130.69023277653068,33.83333333333334],[130.691267782,33.83410416200001],[130.69211455262345,33.833333333333336],[130.69023277653068,33.83333333333334]]]}},{"type":"Feature","id":"40215:503065052","properties":{"id":"40215:503065052","meshCode":"503065052","cityCode":"40215","city":"中間市","lat":33.8337538,"lon":130.6994207,"areaKm2":0.0094069,"populated2020":true,"population2020":null,"populationNote":"境界またぎ・原典収録外のため自治体内人口は未集計"},"geometry":{"type":"Polygon","coordinates":[[[130.698804994,33.833338613],[130.698808327,33.833693892],[130.699275551,33.83420889200001],[130.699602218,33.834221108],[130.7,33.834071495],[130.7,33.833333333333336],[130.698804994,33.833338613]]]}},{"type":"Feature","id":"40215:503065061","properties":{"id":"40215:503065061","meshCode":"503065061","cityCode":"40215","city":"中間市","lat":33.8354167,"lon":130.703125,"areaKm2":0.1628398,"populated2020":true,"population2020":null,"populationNote":"境界またぎ・原典収録外のため自治体内人口は未集計"},"geometry":{"type":"Polygon","coordinates":[[[130.7,33.834071495],[130.701169442,33.833651108],[130.702619442,33.833744441],[130.703045279,33.833894441000005],[130.703120558,33.834046666999996],[130.702793061,33.834943613],[130.70240170666085,33.83749999999999],[130.70625,33.837500000000006],[130.70625,33.833333333333336],[130.7,33.833333333333336],[130.7,33.834071495]]]}},{"type":"Feature","id":"40215:503065062","properties":{"id":"40215:503065062","meshCode":"503065062","cityCode":"40215","city":"中間市","lat":33.8354167,"lon":130.709375,"areaKm2":0.2308362,"populated2020":true,"population2020":null,"populationNote":"境界またぎ・原典収録外のため自治体内人口は未集計"},"geometry":{"type":"Polygon","coordinates":[[[130.70904828434277,33.8375],[130.708607613,33.837326162],[130.70889725000004,33.83712419799999],[130.70903406,33.836781720999994],[130.708976109,33.836625829],[130.70845214,33.836423865],[130.70851269800002,33.836309721],[130.709131556,33.836448225],[130.709742218,33.836241667],[130.710019196,33.836274748],[130.709925888,33.836120748],[130.710182944,33.836036586000006],[130.710386693,33.836147720999996],[130.710540078,33.836102135000004],[130.711506278,33.836599639999996],[130.71142891100004,33.836757027000004],[130.712068054,33.83703055899999],[130.712014449,33.837321945999996],[130.7125,33.8375],[130.7125,33.833333333333336],[130.70625,33.833333333333336],[130.70625,33.837500000000006],[130.70904828434277,33.8375]]]}},{"type":"Feature","id":"40215:503065071","properties":{"id":"40215:503065071","meshCode":"503065071","cityCode":"40215","city":"中間市","lat":33.8354167,"lon":130.715625,"areaKm2":0.1826967,"populated2020":true,"population2020":null,"populationNote":"境界またぎ・原典収録外のため自治体内人口は未集計"},"geometry":{"type":"Polygon","coordinates":[[[130.714699948,33.837248495],[130.714552892,33.83710322499999],[130.714604916,33.836967414],[130.715222555,33.837037198],[130.715435305,33.83735036],[130.715973774,33.837261694],[130.716591414,33.83735413499999],[130.717251505,33.83687391899999],[130.717353333,33.83653233300001],[130.716617134,33.836287441],[130.716398171,33.836380721],[130.716566615,33.835907441],[130.71655418900002,33.835520829],[130.716392335,33.835103252],[130.71598166,33.834598333],[130.715987497,33.834505829],[130.716458885,33.833775829000004],[130.716826109,33.833713333000006],[130.717821946,33.83403944100001],[130.718458054,33.834449441],[130.71875,33.83428064928421],[130.71875,33.833333333333336],[130.7125,33.833333333333336],[130.7125,33.8375],[130.71446101042835,33.837500000000006],[130.714699948,33.837248495]]]}},{"type":"Feature","id":"40215:503065072","properties":{"id":"40215:503065072","meshCode":"503065072","cityCode":"40215","city":"中間市","lat":33.8337774,"lon":130.7193177,"areaKm2":0.0148556,"populated2020":true,"population2020":null,"populationNote":"境界またぎ・原典収録外のため自治体内人口は未集計"},"geometry":{"type":"MultiPolygon","coordinates":[[[[130.71875,33.83428064928421],[130.719698327,33.83381666700001],[130.721046939,33.83348277500001],[130.721509728,33.833989721],[130.721733061,33.834010279],[130.721578054,33.83343666700001],[130.72177399401346,33.833333333333336],[130.71875,33.833333333333336],[130.71875,33.83428064928421]]],[[[130.722636641232,33.833333333333336],[130.722767782,33.833503054],[130.722912503,33.833541387],[130.7228713881499,33.833333333333336],[130.722636641232,33.833333333333336]]],[[[130.725,33.83344858600001],[130.725,33.833333333333336],[130.72477083066283,33.833333333333336],[130.725,33.83344858600001]]]]}},{"type":"Feature","id":"40215:503065081","properties":{"id":"40215:503065081","meshCode":"503065081","cityCode":"40215","city":"中間市","lat":33.8337681,"lon":130.7260383,"areaKm2":0.0096082,"populated2020":true,"population2020":null,"populationNote":"境界またぎ・原典収録外のため自治体内人口は未集計"},"geometry":{"type":"Polygon","coordinates":[[[130.72500499400002,33.833451108],[130.72540166,33.833658333],[130.72562083,33.83394222500001],[130.72613166,33.83413944099999],[130.72653,33.834046946],[130.726698054,33.83333333333334],[130.725,33.833333333333336],[130.72500499400002,33.833451108]]]}},{"type":"Feature","id":"40215:503065063","properties":{"id":"40215:503065063","meshCode":"503065063","cityCode":"40215","city":"中間市","lat":33.8395833,"lon":130.703125,"areaKm2":0.1571441,"populated2020":true,"population2020":null,"populationNote":"境界またぎ・原典収録外のため自治体内人口は未集計"},"geometry":{"type":"Polygon","coordinates":[[[130.70240170666085,33.83749999999999],[130.70170433206377,33.84166666666667],[130.703954721,33.84162],[130.705108612,33.841061108],[130.705384721,33.840740559000004],[130.70525083000004,33.840533333],[130.705568327,33.84037166699999],[130.70578166,33.84011000000001],[130.706012776,33.839446387],[130.70625,33.839259794298364],[130.70625,33.837500000000006],[130.70240170666085,33.83749999999999]]]}},{"type":"Feature","id":"40215:503065064","properties":{"id":"40215:503065064","meshCode":"503065064","cityCode":"40215","city":"中間市","lat":33.8386176,"lon":130.7078,"areaKm2":0.0572773,"populated2020":true,"population2020":null,"populationNote":"境界またぎ・原典収録外のため自治体内人口は未集計"},"geometry":{"type":"MultiPolygon","coordinates":[[[[130.70625,33.839259794298364],[130.706696667,33.83906110800001],[130.707310272,33.83895],[130.707483891,33.839000279000004],[130.707575837,33.839035829],[130.707672218,33.839266108],[130.707729442,33.839741667000006],[130.707846667,33.839838054],[130.708085279,33.839842225000005],[130.708503061,33.839517775],[130.709227224,33.83922249500001],[130.709375279,33.839023892],[130.709412776,33.838707775],[130.709133606,33.838213892],[130.709465279,33.837912225],[130.709492309,33.837780613],[130.70904828434277,33.8375],[130.70625,33.837500000000006],[130.70625,33.839259794298364]]],[[[130.7125,33.837522494939975],[130.7125,33.8375],[130.71244543059527,33.8375],[130.7125,33.837522494939975]]]]}},{"type":"Feature","id":"40215:503065073","properties":{"id":"40215:503065073","meshCode":"503065073","cityCode":"40215","city":"中間市","lat":33.8376937,"lon":130.7131872,"areaKm2":0.0036502,"populated2020":false,"population2020":null,"populationNote":"境界またぎ・原典収録外のため自治体内人口は未集計"},"geometry":{"type":"Polygon","coordinates":[[[130.7125,33.8375],[130.71333347600003,33.83787666700001],[130.713602698,33.837512613],[130.714132335,33.83779305400001],[130.71446101042835,33.837500000000006],[130.7125,33.8375]]]}},{"type":"Feature","id":"40215:503065161","properties":{"id":"40215:503065161","meshCode":"503065161","cityCode":"40215","city":"中間市","lat":33.8418658,"lon":130.7023523,"areaKm2":0.0043743,"populated2020":true,"population2020":null,"populationNote":"境界またぎ・原典収録外のため自治体内人口は未集計"},"geometry":{"type":"Polygon","coordinates":[[[130.701704332,33.841666667],[130.701654449,33.84192749499999],[130.702566109,33.841987225],[130.702974449,33.841929721],[130.70334325666752,33.84166666666667],[130.701704332,33.841666667]]]}}]}