{"type":"FeatureCollection","metadata":{"cityCode":"40215","city":"中間市","resolution":1000,"boundaryDate":"2026-01-01","populationLabel":"2020年基準人口（国交省調整値）","method":"標準地域メッシュを行政界で切抜き。中心が区域外のとき区域内代表点を判定点にする。人口不明をゼロにしない。"},"features":[{"type":"Feature","id":"40215:50305566","properties":{"id":"40215:50305566","meshCode":"50305566","cityCode":"40215","city":"中間市","lat":33.8058496,"lon":130.7052716,"areaKm2":0.5530399,"populated2020":true,"population2020":null,"populationNote":"境界またぎ・収録外等のため人口未集計"},"geometry":{"type":"Polygon","coordinates":[[[130.705358612,33.80321],[130.703562218,33.801263613],[130.701268885,33.80246249500001],[130.701020272,33.802727775],[130.700579442,33.80354972100001],[130.700571946,33.80646805399999],[130.70031,33.80666444100001],[130.7,33.806581],[130.7,33.80833333333333],[130.7125,33.80833333333333],[130.7125,33.80644375282843],[130.712234163,33.806262225],[130.711666939,33.806346946],[130.71097,33.80623610800001],[130.710198885,33.80575416199999],[130.709899728,33.805207495],[130.70912083,33.804957495000004],[130.708503606,33.804590559000005],[130.707664721,33.804556667],[130.706698327,33.804403333],[130.705358612,33.80321]]]}},{"type":"Feature","id":"40215:50305567","properties":{"id":"40215:50305567","meshCode":"50305567","cityCode":"40215","city":"中間市","lat":33.8048822,"lon":130.7229242,"areaKm2":0.3414932,"populated2020":true,"population2020":null,"populationNote":"境界またぎ・収録外等のため人口未集計"},"geometry":{"type":"MultiPolygon","coordinates":[[[[130.725,33.803116225],[130.723676939,33.802898333],[130.723122776,33.802694721],[130.72249499400002,33.802249161999995],[130.721516667,33.802063613],[130.720887224,33.801523054],[130.720594994,33.801535279],[130.71958221800003,33.801876108],[130.72076083,33.804746107999996],[130.72108083,33.80523194599999],[130.721624163,33.805822775],[130.721820558,33.806333054],[130.721735837,33.806578892],[130.720327224,33.807290829],[130.71886963653247,33.80833333333334],[130.725,33.80833333333333],[130.725,33.803116225]]],[[[130.71592474669936,33.80833333333333],[130.716407782,33.807748613],[130.716548885,33.807296946],[130.716361388,33.806972224999996],[130.716003333,33.806685829],[130.715333333,33.806679721],[130.714888054,33.80646],[130.71462,33.806425559000004],[130.712930272,33.806637225],[130.7125,33.80644375282843],[130.7125,33.80833333333333],[130.71592474669936,33.80833333333333]]]]}},{"type":"Feature","id":"40215:50305568","properties":{"id":"40215:50305568","meshCode":"50305568","cityCode":"40215","city":"中間市","lat":33.8065355,"lon":130.7261996,"areaKm2":0.0994368,"populated2020":true,"population2020":null,"populationNote":"境界またぎ・収録外等のため人口未集計"},"geometry":{"type":"Polygon","coordinates":[[[130.725912503,33.804102495],[130.725266667,33.80326972100001],[130.725,33.803116225],[130.725,33.80833333333333],[130.72855530519115,33.80833333333333],[130.727622503,33.80669555899999],[130.726957497,33.806082495],[130.726145551,33.804840559],[130.725909728,33.804421108],[130.725912503,33.804102495]]]}},{"type":"Feature","id":"40215:50305565","properties":{"id":"40215:50305565","meshCode":"50305565","cityCode":"40215","city":"中間市","lat":33.8072665,"lon":130.6960054,"areaKm2":0.1761747,"populated2020":true,"population2020":null,"populationNote":"境界またぎ・収録外等のため人口未集計"},"geometry":{"type":"Polygon","coordinates":[[[130.7,33.806581],[130.69632555100003,33.805897225],[130.695431388,33.805864441],[130.694658054,33.805958892],[130.693506109,33.806263333],[130.692437224,33.80679389200001],[130.692332503,33.80687999999999],[130.692324916,33.807182694000005],[130.691753281,33.807704386999994],[130.6913780028042,33.80833333333334],[130.7,33.80833333333333],[130.7,33.806581]]]}},{"type":"Feature","id":"40215:50305574","properties":{"id":"40215:50305574","meshCode":"50305574","cityCode":"40215","city":"中間市","lat":33.8141631,"lon":130.6833586,"areaKm2":0.4065884,"populated2020":true,"population2020":null,"populationNote":"境界またぎ・収録外等のため人口未集計"},"geometry":{"type":"Polygon","coordinates":[[[130.686786394,33.81254500000001],[130.684898885,33.81199805400001],[130.683581388,33.811175559],[130.683036667,33.810968054],[130.681384994,33.810875279],[130.68065166,33.811086945999996],[130.680237497,33.811728333000005],[130.680021388,33.812476946],[130.67981083,33.813396108000006],[130.679729442,33.814718333],[130.679550558,33.815245],[130.679220558,33.815906946000005],[130.67866046742105,33.81666666666667],[130.6875,33.81666666666667],[130.6875,33.812587471992344],[130.686786394,33.81254500000001]]]}},{"type":"Feature","id":"40215:50305575","properties":{"id":"40215:50305575","meshCode":"50305575","cityCode":"40215","city":"中間市","lat":33.8128363,"lon":130.6944086,"areaKm2":0.9352425,"populated2020":true,"population2020":null,"populationNote":"境界またぎ・収録外等のため人口未集計"},"geometry":{"type":"Polygon","coordinates":[[[130.691203061,33.808772225],[130.691171634,33.81021],[130.690829585,33.810896613],[130.690437367,33.811339775],[130.689679339,33.811890333],[130.688978392,33.812231108],[130.688327445,33.812383387],[130.687897224,33.81261500000001],[130.6875,33.812587471992344],[130.6875,33.81666666666667],[130.7,33.81666666666668],[130.7,33.80833333333333],[130.6913780028042,33.80833333333334],[130.691203061,33.808772225]]]}},{"type":"Feature","id":"40215:50305576","properties":{"id":"40215:50305576","meshCode":"50305576","cityCode":"40215","city":"中間市","lat":33.8125,"lon":130.70625,"areaKm2":1.0695648,"populated2020":true,"population2020":1720.4091,"populationNote":"収録500mメッシュ人口の合算（原典収録外は補完しない）"},"geometry":{"type":"Polygon","coordinates":[[[130.7125,33.80833333333333],[130.7,33.80833333333333],[130.7,33.81666666666668],[130.7125,33.81666666666666],[130.7125,33.80833333333333]]]}},{"type":"Feature","id":"40215:50305577","properties":{"id":"40215:50305577","meshCode":"50305577","cityCode":"40215","city":"中間市","lat":33.8126363,"lon":130.7188491,"areaKm2":1.0266109,"populated2020":true,"population2020":null,"populationNote":"境界またぎ・収録外等のため人口未集計"},"geometry":{"type":"Polygon","coordinates":[[[130.717430558,33.809371387],[130.716750272,33.809758333],[130.712973606,33.811060559],[130.713046109,33.810893054000005],[130.714218054,33.81044138699999],[130.715105551,33.809986108000004],[130.715487782,33.809530559],[130.715441388,33.80914555900001],[130.71592474669936,33.80833333333333],[130.7125,33.80833333333333],[130.7125,33.81666666666666],[130.725,33.81666666666666],[130.725,33.80833333333333],[130.71886963653247,33.80833333333334],[130.717430558,33.809371387]]]}},{"type":"Feature","id":"40215:50305578","properties":{"id":"40215:50305578","meshCode":"50305578","cityCode":"40215","city":"中間市","lat":33.8135046,"lon":130.7297312,"areaKm2":0.6791066,"populated2020":true,"population2020":null,"populationNote":"境界またぎ・収録外等のため人口未集計"},"geometry":{"type":"Polygon","coordinates":[[[130.731108054,33.81257555900001],[130.72855530519115,33.80833333333333],[130.725,33.80833333333333],[130.725,33.81666666666666],[130.7375,33.81666666666667],[130.7375,33.81400299024106],[130.73710083,33.814069999999994],[130.734464163,33.813719162],[130.733606667,33.813406667],[130.733374994,33.813029721],[130.732830272,33.81289027900001],[130.731325837,33.81271666699999],[130.731108054,33.81257555900001]]]}},{"type":"Feature","id":"40215:50305579","properties":{"id":"40215:50305579","meshCode":"50305579","cityCode":"40215","city":"中間市","lat":33.8156089,"lon":130.7395441,"areaKm2":0.0979416,"populated2020":true,"population2020":null,"populationNote":"境界またぎ・収録外等のため人口未集計"},"geometry":{"type":"Polygon","coordinates":[[[130.742889442,33.816617225],[130.743251946,33.816334999999995],[130.743069728,33.816076946],[130.741526109,33.815669721],[130.740136939,33.81540944100001],[130.740021946,33.815175829000005],[130.740294994,33.814548892],[130.738883606,33.814155559],[130.738431946,33.813775559],[130.7375,33.81400299024106],[130.7375,33.81666666666667],[130.74292311277298,33.81666666666667],[130.742889442,33.816617225]]]}},{"type":"Feature","id":"40215:50305583","properties":{"id":"40215:50305583","meshCode":"50305583","cityCode":"40215","city":"中間市","lat":33.8225678,"lon":130.6718845,"areaKm2":0.2552731,"populated2020":true,"population2020":null,"populationNote":"境界またぎ・収録外等のため人口未集計"},"geometry":{"type":"Polygon","coordinates":[[[130.674491115,33.821522224999995],[130.669753891,33.819628333],[130.669004721,33.820636667],[130.66881083,33.821440279],[130.66871083,33.822536387],[130.668464163,33.823218333],[130.669968885,33.823986387],[130.672312503,33.825],[130.675,33.825],[130.675,33.820712306],[130.674573333,33.82152416200001],[130.674491115,33.821522224999995]]]}},{"type":"Feature","id":"40215:50305584","properties":{"id":"40215:50305584","meshCode":"50305584","cityCode":"40215","city":"中間市","lat":33.8209914,"lon":130.6815282,"areaKm2":1.0155081,"populated2020":true,"population2020":187.5548,"populationNote":"収録500mメッシュ人口の合算（原典収録外は補完しない）"},"geometry":{"type":"Polygon","coordinates":[[[130.67825166,33.816955829],[130.677127782,33.817395559],[130.676710558,33.817634162000004],[130.675,33.820712306],[130.675,33.825],[130.6875,33.825],[130.6875,33.81666666666667],[130.67866046742105,33.81666666666667],[130.67825166,33.816955829]]]}},{"type":"Feature","id":"40215:50305585","properties":{"id":"40215:50305585","meshCode":"50305585","cityCode":"40215","city":"中間市","lat":33.8208333,"lon":130.69375,"areaKm2":1.0694641,"populated2020":true,"population2020":994.7311,"populationNote":"収録500mメッシュ人口の合算（原典収録外は補完しない）"},"geometry":{"type":"Polygon","coordinates":[[[130.7,33.81666666666668],[130.6875,33.81666666666667],[130.6875,33.825],[130.7,33.825],[130.7,33.81666666666668]]]}},{"type":"Feature","id":"40215:50305586","properties":{"id":"40215:50305586","meshCode":"50305586","cityCode":"40215","city":"中間市","lat":33.8208333,"lon":130.70625,"areaKm2":1.0694624,"populated2020":true,"population2020":1883.9837,"populationNote":"収録500mメッシュ人口の合算（原典収録外は補完しない）"},"geometry":{"type":"Polygon","coordinates":[[[130.7125,33.81666666666666],[130.7,33.81666666666668],[130.7,33.825],[130.7125,33.825],[130.7125,33.81666666666666]]]}},{"type":"Feature","id":"40215:50305587","properties":{"id":"40215:50305587","meshCode":"50305587","cityCode":"40215","city":"中間市","lat":33.8208333,"lon":130.71875,"areaKm2":1.0694608,"populated2020":true,"population2020":5655.55,"populationNote":"収録500mメッシュ人口の合算（原典収録外は補完しない）"},"geometry":{"type":"Polygon","coordinates":[[[130.725,33.81666666666666],[130.7125,33.81666666666666],[130.7125,33.825],[130.725,33.825],[130.725,33.81666666666666]]]}},{"type":"Feature","id":"40215:50305588","properties":{"id":"40215:50305588","meshCode":"50305588","cityCode":"40215","city":"中間市","lat":33.8204426,"lon":130.7307179,"areaKm2":0.9421663,"populated2020":true,"population2020":null,"populationNote":"境界またぎ・収録外等のため人口未集計"},"geometry":{"type":"Polygon","coordinates":[[[130.7375,33.81666666666667],[130.725,33.81666666666666],[130.725,33.825],[130.730657445,33.825],[130.730858885,33.824508333],[130.731150558,33.824262775],[130.733194449,33.824657225],[130.73341166,33.824560559],[130.733652503,33.824230559],[130.733761115,33.823781946],[130.73361749700004,33.823336946],[130.733253333,33.822880829000006],[130.733318885,33.822797225],[130.733801388,33.822474162],[130.734564721,33.822300829],[130.735021388,33.82227444099999],[130.735813333,33.822364721],[130.73625083,33.82229027900001],[130.737233061,33.821756946],[130.7375,33.82145336491714],[130.7375,33.81666666666667]]]}},{"type":"Feature","id":"40215:50305589","properties":{"id":"40215:50305589","meshCode":"50305589","cityCode":"40215","city":"中間市","lat":33.8187159,"lon":130.7401655,"areaKm2":0.2363101,"populated2020":true,"population2020":null,"populationNote":"境界またぎ・収録外等のため人口未集計"},"geometry":{"type":"Polygon","coordinates":[[[130.740006394,33.820609441],[130.740107224,33.820484441],[130.74032083,33.820484441],[130.741188327,33.820137495],[130.74127917,33.81998222499999],[130.741612503,33.820000559],[130.741729442,33.820081108000004],[130.742082218,33.820577225],[130.742847497,33.82001472099999],[130.742773333,33.81958305399999],[130.74280666700002,33.819432775],[130.743011115,33.819230279],[130.743086667,33.818544721],[130.743526109,33.81830694600001],[130.743453333,33.818175829],[130.743483606,33.817951946],[130.743672218,33.817768613],[130.74292311277298,33.81666666666667],[130.7375,33.81666666666667],[130.7375,33.82145336491714],[130.737613061,33.821291386999995],[130.738207497,33.821067495],[130.738905551,33.82105],[130.739450558,33.821123333],[130.739340272,33.82179472100001],[130.739545837,33.822075],[130.740166667,33.82153082899999],[130.739988327,33.82100444100001],[130.740006394,33.820609441]]]}},{"type":"Feature","id":"40215:50305593","properties":{"id":"40215:50305593","meshCode":"50305593","cityCode":"40215","city":"中間市","lat":33.8254127,"lon":130.6739168,"areaKm2":0.0197625,"populated2020":true,"population2020":null,"populationNote":"境界またぎ・収録外等のため人口未集計"},"geometry":{"type":"Polygon","coordinates":[[[130.672312503,33.825],[130.67270111500002,33.825509441],[130.67378166,33.825856387],[130.674250272,33.825647225],[130.674588885,33.825850279],[130.674544163,33.826097775],[130.675,33.826236532],[130.675,33.825],[130.672312503,33.825]]]}},{"type":"Feature","id":"40215:50305594","properties":{"id":"40215:50305594","meshCode":"50305594","cityCode":"40215","city":"中間市","lat":33.827848,"lon":130.6818623,"areaKm2":0.6965894,"populated2020":true,"population2020":null,"populationNote":"境界またぎ・収録外等のため人口未集計"},"geometry":{"type":"Polygon","coordinates":[[[130.67530166,33.826349441],[130.675206394,33.826751387],[130.675780272,33.82779110800001],[130.676906667,33.82954277499999],[130.67720083,33.829642225],[130.677205551,33.830494721],[130.677270558,33.830571946],[130.67777166,33.830697775],[130.679241115,33.830803333],[130.679524994,33.830776946],[130.680195837,33.830516946],[130.682726939,33.830926946],[130.682986667,33.830689441000004],[130.684819442,33.830683613],[130.685143891,33.830517225],[130.685385279,33.830622774999995],[130.685534449,33.831263613000004],[130.685631946,33.831377495],[130.686377497,33.831495279],[130.68673055800002,33.83173694600001],[130.687112776,33.832394441],[130.6875,33.83231146879709],[130.6875,33.825],[130.675,33.825],[130.675,33.826236532],[130.67530166,33.826349441]]]}},{"type":"Feature","id":"40215:50305595","properties":{"id":"40215:50305595","meshCode":"50305595","cityCode":"40215","city":"中間市","lat":33.8286754,"lon":130.6935415,"areaKm2":0.924356,"populated2020":true,"population2020":null,"populationNote":"境界またぎ・収録外等のため人口未集計"},"geometry":{"type":"Polygon","coordinates":[[[130.7,33.825],[130.6875,33.825],[130.6875,33.83231146879709],[130.687619728,33.83232138699999],[130.688105551,33.832794441],[130.689145279,33.83262389200001],[130.69023277653068,33.83333333333334],[130.69211455262345,33.833333333333336],[130.695674721,33.830110279],[130.697669144,33.83147655900001],[130.697624527,33.831854387],[130.699045668,33.832033829],[130.6988064719067,33.833333333333336],[130.7,33.833333333333336],[130.7,33.825]]]}},{"type":"Feature","id":"40215:50305596","properties":{"id":"40215:50305596","meshCode":"50305596","cityCode":"40215","city":"中間市","lat":33.8291667,"lon":130.70625,"areaKm2":1.0693601,"populated2020":true,"population2020":4078.64,"populationNote":"収録500mメッシュ人口の合算（原典収録外は補完しない）"},"geometry":{"type":"Polygon","coordinates":[[[130.7125,33.825],[130.7,33.825],[130.7,33.833333333333336],[130.7125,33.833333333333336],[130.7125,33.825]]]}},{"type":"Feature","id":"40215:50305597","properties":{"id":"40215:50305597","meshCode":"50305597","cityCode":"40215","city":"中間市","lat":33.8291204,"lon":130.7186936,"areaKm2":1.0565545,"populated2020":true,"population2020":1959.8944,"populationNote":"収録500mメッシュ人口の合算（原典収録外は補完しない）"},"geometry":{"type":"Polygon","coordinates":[[[130.725,33.825],[130.7125,33.825],[130.7125,33.833333333333336],[130.72177399401346,33.833333333333336],[130.722387497,33.833118892],[130.722476109,33.83312694599999],[130.722636641232,33.833333333333336],[130.7228713881499,33.833333333333336],[130.722745551,33.832929441],[130.722832776,33.83257749500001],[130.723456394,33.832400279],[130.724628327,33.833261667],[130.725,33.833333333333336],[130.725,33.825]]]}},{"type":"Feature","id":"40215:50305598","properties":{"id":"40215:50305598","meshCode":"50305598","cityCode":"40215","city":"中間市","lat":33.8283896,"lon":130.7269949,"areaKm2":0.3030181,"populated2020":true,"population2020":null,"populationNote":"境界またぎ・収録外等のため人口未集計"},"geometry":{"type":"Polygon","coordinates":[[[130.728,33.82891638699999],[130.729052503,33.828346946],[130.728998054,33.827833891999994],[130.729747497,33.827423333],[130.729427782,33.826974441],[130.729836109,33.826765],[130.729733606,33.82528749499999],[130.730296939,33.825233054],[130.730932776,33.826006108],[130.731067782,33.826046387],[130.731226667,33.825963613000006],[130.730657445,33.825],[130.725,33.825],[130.725,33.833333333333336],[130.726698054,33.83333333333334],[130.726328885,33.832466946000004],[130.726498885,33.831931387],[130.726742218,33.83181277500001],[130.726959442,33.83191138699999],[130.727616109,33.832517225000004],[130.727964163,33.832543333000004],[130.727998612,33.832396387],[130.72776917,33.832048333],[130.726990558,33.831492495000006],[130.727193891,33.83121472100001],[130.727546109,33.831126387000005],[130.72800888500004,33.83130361300001],[130.728358885,33.831134441],[130.72880166,33.830691667],[130.728065551,33.82978582900001],[130.728392218,33.82956666700001],[130.728,33.82891638699999]]]}},{"type":"Feature","id":"40215:50306505","properties":{"id":"40215:50306505","meshCode":"50306505","cityCode":"40215","city":"中間市","lat":33.8337538,"lon":130.6994207,"areaKm2":0.0166548,"populated2020":true,"population2020":null,"populationNote":"境界またぎ・収録外等のため人口未集計"},"geometry":{"type":"MultiPolygon","coordinates":[[[[130.69023277653068,33.83333333333334],[130.691267782,33.83410416200001],[130.69211455262345,33.833333333333336],[130.69023277653068,33.83333333333334]]],[[[130.698778327,33.833574162000005],[130.698874449,33.833813613],[130.699275551,33.83420889200001],[130.699602218,33.834221108],[130.7,33.834071495],[130.7,33.833333333333336],[130.6988064719067,33.833333333333336],[130.698778327,33.833574162000005]]]]}},{"type":"Feature","id":"40215:50306506","properties":{"id":"40215:50306506","meshCode":"50306506","cityCode":"40215","city":"中間市","lat":33.8366345,"lon":130.7063991,"areaKm2":0.6080974,"populated2020":true,"population2020":null,"populationNote":"境界またぎ・収録外等のため人口未集計"},"geometry":{"type":"Polygon","coordinates":[[[130.7,33.834071495],[130.701169442,33.833651108],[130.70177083,33.83367555900001],[130.702852776,33.833795],[130.703045279,33.833894441000005],[130.703120558,33.834046666999996],[130.702793061,33.834943613],[130.70170433206377,33.84166666666667],[130.703954721,33.84162],[130.704743333,33.84126833300001],[130.705108612,33.841061108],[130.705384721,33.840740559000004],[130.70525083000004,33.840533333],[130.705568327,33.84037166699999],[130.70578166,33.84011000000001],[130.706012776,33.839446387],[130.70631166,33.83922],[130.706696667,33.83906110800001],[130.707310272,33.83895],[130.707575837,33.839035829],[130.707729442,33.839741667000006],[130.707846667,33.839838054],[130.708085279,33.839842225000005],[130.708503061,33.839517775],[130.709227224,33.83922249500001],[130.709433891,33.838839721],[130.709133606,33.838213892],[130.709465279,33.837912225],[130.709492309,33.837780613],[130.708913061,33.837418387],[130.708607613,33.837326162],[130.70889725000004,33.83712419799999],[130.70903406,33.836781720999994],[130.708976109,33.836625829],[130.70845214,33.836423865],[130.70851269800002,33.836309721],[130.709131556,33.836448225],[130.709742218,33.836241667],[130.710019196,33.836274748],[130.709925888,33.836120748],[130.710182944,33.836036586000006],[130.710386693,33.836147720999996],[130.710540078,33.836102135000004],[130.711506278,33.836599639999996],[130.71142891100004,33.836757027000004],[130.712068054,33.83703055899999],[130.712014449,33.837321945999996],[130.7125,33.837522494939975],[130.7125,33.833333333333336],[130.7,33.833333333333336],[130.7,33.834071495]]]}},{"type":"Feature","id":"40215:50306507","properties":{"id":"40215:50306507","meshCode":"50306507","cityCode":"40215","city":"中間市","lat":33.8351931,"lon":130.7151669,"areaKm2":0.2012025,"populated2020":true,"population2020":null,"populationNote":"境界またぎ・収録外等のため人口未集計"},"geometry":{"type":"MultiPolygon","coordinates":[[[[130.72477083066283,33.833333333333336],[130.725,33.83344858600001],[130.725,33.833333333333336],[130.72477083066283,33.833333333333336]]],[[[130.722856109,33.83354138699999],[130.722938612,33.833489162],[130.7228713881499,33.833333333333336],[130.722636641232,33.833333333333336],[130.722856109,33.83354138699999]]],[[[130.719698327,33.83381666700001],[130.721046939,33.83348277500001],[130.721509728,33.833989721],[130.721733061,33.834010279],[130.721578054,33.83343666700001],[130.72177399401346,33.833333333333336],[130.7125,33.833333333333336],[130.7125,33.837522494939975],[130.71333347600003,33.83787666700001],[130.713602698,33.837512613],[130.714132335,33.83779305400001],[130.714699948,33.837248495],[130.714552892,33.83710322499999],[130.714604916,33.836967414],[130.715222555,33.837037198],[130.715435305,33.83735036],[130.715973774,33.837261694],[130.716591414,33.83735413499999],[130.717251505,33.83687391899999],[130.717353333,33.83653233300001],[130.716617134,33.836287441],[130.716398171,33.836380721],[130.716566615,33.835907441],[130.71655418900002,33.835520829],[130.716392335,33.835103252],[130.71598166,33.834598333],[130.7163,33.833938892],[130.716577497,33.83371944099999],[130.716826109,33.833713333000006],[130.717821946,33.83403944100001],[130.718458054,33.834449441],[130.719698327,33.83381666700001]]]]}},{"type":"Feature","id":"40215:50306508","properties":{"id":"40215:50306508","meshCode":"50306508","cityCode":"40215","city":"中間市","lat":33.8336574,"lon":130.7259807,"areaKm2":0.0096082,"populated2020":true,"population2020":null,"populationNote":"境界またぎ・収録外等のため人口未集計"},"geometry":{"type":"Polygon","coordinates":[[[130.72500499400002,33.833451108],[130.72540166,33.833658333],[130.72562083,33.83394222500001],[130.72613166,33.83413944099999],[130.72653,33.834046946],[130.726698054,33.83333333333334],[130.725,33.833333333333336],[130.72500499400002,33.833451108]]]}},{"type":"Feature","id":"40215:50306516","properties":{"id":"40215:50306516","meshCode":"50306516","cityCode":"40215","city":"中間市","lat":33.8418099,"lon":130.7024018,"areaKm2":0.0043743,"populated2020":true,"population2020":null,"populationNote":"境界またぎ・収録外等のため人口未集計"},"geometry":{"type":"Polygon","coordinates":[[[130.701704332,33.841666667],[130.701654449,33.84192749499999],[130.702566109,33.841987225],[130.702974449,33.841929721],[130.70334325666752,33.84166666666667],[130.701704332,33.841666667]]]}}]}