{"type":"FeatureCollection","metadata":{"cityCode":"40213","city":"行橋市","resolution":1000,"boundaryDate":"2026-01-01","populationLabel":"2020年基準人口（国交省調整値）","method":"標準地域メッシュを行政界で切抜き。中心が区域外のとき区域内代表点を判定点にする。人口不明をゼロにしない。"},"features":[{"type":"Feature","id":"40213:50304704","properties":{"id":"40213:50304704","meshCode":"50304704","cityCode":"40213","city":"行橋市","lat":33.6736694,"lon":130.9316913,"areaKm2":0.2793402,"populated2020":false,"population2020":null,"populationNote":"境界またぎ・収録外等のため人口未集計"},"geometry":{"type":"Polygon","coordinates":[[[130.931112218,33.671945],[130.930432776,33.672048892],[130.929997224,33.671851667],[130.929741946,33.67188277500001],[130.929201115,33.672459162],[130.928983333,33.67257],[130.928254163,33.672467775],[130.92718083,33.672169999999994],[130.926187497,33.672216387],[130.926516109,33.672812495],[130.92714083,33.675],[130.9375,33.675000000000004],[130.9375,33.67354438329526],[130.937408327,33.673454441],[130.937216394,33.67341277500001],[130.93631917,33.67352],[130.935089728,33.672780559],[130.934530558,33.672283613],[130.934168612,33.672139721],[130.933822503,33.67220277500001],[130.933182218,33.67250055900001],[130.932819728,33.672498892],[130.93172,33.672005279],[130.931112218,33.671945]]]}},{"type":"Feature","id":"40213:50304705","properties":{"id":"40213:50304705","meshCode":"50304705","cityCode":"40213","city":"行橋市","lat":33.6745064,"lon":130.9383612,"areaKm2":0.0189497,"populated2020":false,"population2020":null,"populationNote":"境界またぎ・収録外等のため人口未集計"},"geometry":{"type":"Polygon","coordinates":[[[130.939515032,33.675],[130.93929083,33.674269721],[130.938112218,33.674036666999996],[130.9375,33.67354438329526],[130.9375,33.675000000000004],[130.939515032,33.675]]]}},{"type":"Feature","id":"40213:50304714","properties":{"id":"40213:50304714","meshCode":"50304714","cityCode":"40213","city":"行橋市","lat":33.6791603,"lon":130.9324398,"areaKm2":0.8626877,"populated2020":true,"population2020":33.7743,"populationNote":"収録500mメッシュ人口の合算（原典収録外は補完しない）"},"geometry":{"type":"Polygon","coordinates":[[[130.927192776,33.675319441],[130.928264449,33.677065829],[130.928349442,33.677306386999994],[130.928308885,33.677599162],[130.928253333,33.677730559],[130.927864163,33.678051946000004],[130.926938327,33.678566108],[130.926184994,33.679142775],[130.926007782,33.679308892],[130.92602083,33.679411108],[130.926603606,33.680481667],[130.927091115,33.681117225],[130.92761055800003,33.68152972099999],[130.928075551,33.68203972100001],[130.928232503,33.68247777500001],[130.928335551,33.68333333333334],[130.9375,33.68333333333334],[130.9375,33.675000000000004],[130.92714083,33.675],[130.927192776,33.675319441]]]}},{"type":"Feature","id":"40213:50304715","properties":{"id":"40213:50304715","meshCode":"50304715","cityCode":"40213","city":"行橋市","lat":33.6801144,"lon":130.942987,"areaKm2":0.7888618,"populated2020":true,"population2020":8.2009,"populationNote":"収録500mメッシュ人口の合算（原典収録外は補完しない）"},"geometry":{"type":"Polygon","coordinates":[[[130.943294721,33.676698054000006],[130.942776394,33.67661833299999],[130.941996667,33.676706387],[130.941033061,33.677125000000004],[130.940627497,33.676798333],[130.940466939,33.676062495],[130.939816667,33.675788613],[130.939515032,33.675],[130.9375,33.675000000000004],[130.9375,33.68333333333334],[130.95,33.68333333333333],[130.95,33.679595414000005],[130.949217782,33.678748613],[130.948834449,33.678433613],[130.94862389100004,33.678406108000004],[130.94668,33.678745279000005],[130.946042776,33.67875749499999],[130.945598054,33.678454441],[130.945264163,33.677883054],[130.944644721,33.67737027900001],[130.944107497,33.67703638700001],[130.943294721,33.676698054000006]]]}},{"type":"Feature","id":"40213:50304716","properties":{"id":"40213:50304716","meshCode":"50304716","cityCode":"40213","city":"行橋市","lat":33.6813165,"lon":130.954869,"areaKm2":0.3783179,"populated2020":true,"population2020":null,"populationNote":"境界またぎ・収録外等のため人口未集計"},"geometry":{"type":"Polygon","coordinates":[[[130.955924163,33.67827194600001],[130.955661946,33.678310278999994],[130.955279728,33.678123054],[130.95424917,33.678585829],[130.952382218,33.679812495],[130.95175917000003,33.680529441],[130.951015837,33.68088916200001],[130.95,33.679595414000005],[130.95,33.68333333333333],[130.96005041497435,33.68333333333334],[130.96002138800003,33.682913054000004],[130.959808054,33.682226946],[130.959464721,33.681728333],[130.95859083,33.680935278999996],[130.958234721,33.680412495],[130.95819083,33.68016638700001],[130.958306939,33.679628054],[130.958213333,33.679291667],[130.957993606,33.67916527900001],[130.957465837,33.67921361300001],[130.957194449,33.679142775],[130.956659442,33.67867444099999],[130.955924163,33.67827194600001]]]}},{"type":"Feature","id":"40213:50314010","properties":{"id":"40213:50314010","meshCode":"50314010","cityCode":"40213","city":"行橋市","lat":33.6802835,"lon":131.0091464,"areaKm2":0.4143499,"populated2020":true,"population2020":null,"populationNote":"境界またぎ・収録外等のため人口未集計"},"geometry":{"type":"Polygon","coordinates":[[[131.01072250300012,33.67623777500012],[131.010529442,33.67732889200005],[131.00970360600013,33.67732944100003],[131.00843666700018,33.67706082899996],[131.00741083000014,33.67753389199998],[131.00626944199996,33.67758194600004],[131.0056858370001,33.67804194600007],[131.00526221799998,33.67860555900007],[131.00606221800012,33.679150000000114],[131.00680499400005,33.679895559000045],[131.007286109,33.68020389200007],[131.00756693899996,33.68049222500003],[131.00782111500007,33.68094000000001],[131.007784721,33.680980279000096],[131.00740083000017,33.68071222499997],[131.00675360600007,33.680742775],[131.00662055800012,33.680525279000115],[131.00653583700011,33.680517495],[131.00506221800015,33.68085277500006],[131.004357497,33.68111999999999],[131.00498416300013,33.68178972099992],[131.00535555099998,33.681597495],[131.00557722400015,33.68174777500001],[131.00595082999996,33.68168444100013],[131.006578054,33.68188416200002],[131.007168612,33.681962225],[131.00756250300014,33.68171610799998],[131.00711194600012,33.68126500000011],[131.00721416300007,33.681155279],[131.00749666700005,33.68123333300007],[131.00817805400015,33.68156972100002],[131.00798111500012,33.681820829],[131.00798111500012,33.681933053999956],[131.0086374970001,33.68245722500012],[131.00861416299995,33.68258638700012],[131.00842749699996,33.68262527899998],[131.00804832699998,33.68230861300003],[131.00773888499998,33.682345],[131.007750558,33.68248389200011],[131.00807,33.68284944100003],[131.007798612,33.68307861300002],[131.00692778200016,33.682496108],[131.00551944200015,33.682259721000094],[131.00474861199996,33.68198889199999],[131.00425693900002,33.682361946000135],[131.0041986120001,33.68249361300008],[131.00447608311012,33.68333333333334],[131.0125,33.68333333333334],[131.0125,33.67731390862786],[131.01072250300012,33.67623777500012]]]}},{"type":"Feature","id":"40213:50314011","properties":{"id":"40213:50314011","meshCode":"50314011","cityCode":"40213","city":"行橋市","lat":33.681253,"lon":131.0159572,"areaKm2":0.317779,"populated2020":true,"population2020":null,"populationNote":"境界またぎ・収録外等のため人口未集計"},"geometry":{"type":"MultiPolygon","coordinates":[[[[131.01613916999997,33.678989441000056],[131.0159913880001,33.678536108000124],[131.01546583699997,33.678251107999984],[131.01473083000008,33.67806305400006],[131.01348472100005,33.67791805399997],[131.0125,33.67731390862786],[131.0125,33.68333333333334],[131.0226594945032,33.68333333333334],[131.02200778199995,33.6829388920001],[131.02046610900007,33.68258638700013],[131.020129442,33.68219055900005],[131.01964722399998,33.681855559000056],[131.01935972800004,33.681737225],[131.01849138800014,33.681595559000016],[131.01776,33.681171108],[131.01685555100005,33.68030749500002],[131.01655944200002,33.679386945999966],[131.01613916999997,33.678989441000056]]],[[[131.025,33.68208366700008],[131.02324277599996,33.68318972100014],[131.02309130964812,33.68333333333333],[131.025,33.68333333333334],[131.025,33.68208366700008]]]]}},{"type":"Feature","id":"40213:50314012","properties":{"id":"40213:50314012","meshCode":"50314012","cityCode":"40213","city":"行橋市","lat":33.6816364,"lon":131.0317403,"areaKm2":0.4176138,"populated2020":false,"population2020":null,"populationNote":"境界またぎ・収録外等のため人口未集計"},"geometry":{"type":"Polygon","coordinates":[[[131.03059472099994,33.67927500000013],[131.03028944200003,33.679271386999915],[131.02982083000018,33.67942389200004],[131.02831221800002,33.68011777499999],[131.025,33.68208366700008],[131.025,33.68333333333334],[131.0375,33.68333333333333],[131.0375,33.68004433648706],[131.03676472100017,33.67980610800004],[131.03607888500005,33.679774441],[131.03416666700014,33.679844441000114],[131.033069728,33.67999694600002],[131.03059472099994,33.67927500000013]]]}},{"type":"Feature","id":"40213:50314013","properties":{"id":"40213:50314013","meshCode":"50314013","cityCode":"40213","city":"行橋市","lat":33.6823807,"lon":131.0398058,"areaKm2":0.1004779,"populated2020":true,"population2020":null,"populationNote":"境界またぎ・収録外等のため人口未集計"},"geometry":{"type":"Polygon","coordinates":[[[131.04279027200016,33.682505279],[131.04149138799994,33.68218055900013],[131.03929000000002,33.681499441000085],[131.03891666699997,33.68129555900009],[131.03765555099994,33.68011166699999],[131.0375,33.68004433648706],[131.0375,33.68333333333333],[131.04427944255391,33.68333333333333],[131.04279027200016,33.682505279]]]}},{"type":"Feature","id":"40213:50304724","properties":{"id":"40213:50304724","meshCode":"50304724","cityCode":"40213","city":"行橋市","lat":33.6872101,"lon":130.9333178,"areaKm2":0.6956102,"populated2020":true,"population2020":null,"populationNote":"境界またぎ・収録外等のため人口未集計"},"geometry":{"type":"Polygon","coordinates":[[[130.928359442,33.683686387],[130.928234163,33.68383082900001],[130.927864721,33.683955559],[130.927933333,33.68468],[130.928206394,33.685590829],[130.927942218,33.685693054],[130.928558612,33.686120559],[130.929226109,33.68644333300001],[130.92934610900002,33.689061667],[130.932032218,33.689011387],[130.932078327,33.690865829],[130.930705551,33.690931387],[130.930683606,33.69001916199999],[130.929434994,33.690042225],[130.92953263298887,33.69166666666667],[130.9375,33.69166666666667],[130.9375,33.68333333333334],[130.928335551,33.68333333333334],[130.928359442,33.683686387]]]}},{"type":"Feature","id":"40213:50304725","properties":{"id":"40213:50304725","meshCode":"50304725","cityCode":"40213","city":"行橋市","lat":33.6875,"lon":130.94375,"areaKm2":1.0710773,"populated2020":true,"population2020":193.1554,"populationNote":"収録500mメッシュ人口の合算（原典収録外は補完しない）"},"geometry":{"type":"Polygon","coordinates":[[[130.95,33.68333333333333],[130.9375,33.68333333333334],[130.9375,33.69166666666667],[130.95,33.69166666666668],[130.95,33.68333333333333]]]}},{"type":"Feature","id":"40213:50304726","properties":{"id":"40213:50304726","meshCode":"50304726","cityCode":"40213","city":"行橋市","lat":33.6875991,"lon":130.9561141,"areaKm2":1.042264,"populated2020":true,"population2020":null,"populationNote":"境界またぎ・収録外等のため人口未集計"},"geometry":{"type":"Polygon","coordinates":[[[130.9625,33.68429106675518],[130.961977782,33.68408444100001],[130.961205551,33.684721108],[130.960912218,33.684731667],[130.959947782,33.68429944100001],[130.96005041497435,33.68333333333334],[130.95,33.68333333333333],[130.95,33.69166666666668],[130.9625,33.69166666666667],[130.9625,33.68429106675518]]]}},{"type":"Feature","id":"40213:50304727","properties":{"id":"40213:50304727","meshCode":"50304727","cityCode":"40213","city":"行橋市","lat":33.6892247,"lon":130.9668573,"areaKm2":0.4763,"populated2020":true,"population2020":null,"populationNote":"境界またぎ・収録外等のため人口未集計"},"geometry":{"type":"Polygon","coordinates":[[[130.968407497,33.68728027899999],[130.967743891,33.687394440999995],[130.967293606,33.687321667000006],[130.966925551,33.686816108],[130.966528612,33.68652861300001],[130.965676939,33.686749999999996],[130.965075279,33.686613333],[130.964035279,33.685501667],[130.963043891,33.684839720999996],[130.9625,33.68429106675518],[130.9625,33.69166666666667],[130.975,33.69166666666668],[130.975,33.690432081000004],[130.973595551,33.690655279000005],[130.973126939,33.690572225],[130.972313891,33.69079527900001],[130.97108,33.69135000000001],[130.970937224,33.691325279],[130.970799442,33.691204721],[130.970790272,33.690900000000006],[130.97138083,33.68910416199999],[130.971364163,33.68877805399999],[130.970786667,33.688490829],[130.969884449,33.687700279],[130.969349728,33.686914441],[130.96923333300003,33.686871108],[130.968407497,33.68728027899999]]]}},{"type":"Feature","id":"40213:50314020","properties":{"id":"40213:50314020","meshCode":"50314020","cityCode":"40213","city":"行橋市","lat":33.687675,"lon":131.007705,"areaKm2":0.7744284,"populated2020":true,"population2020":null,"populationNote":"境界またぎ・収録外等のため人口未集計"},"geometry":{"type":"Polygon","coordinates":[[[131.0047208300001,33.684438892],[131.00465666700006,33.68492638700013],[131.00606666700003,33.68627],[131.00782389100004,33.68715749499995],[131.0078311150002,33.68729889200006],[131.007577224,33.687723053999946],[131.007168612,33.68741],[131.00656888499998,33.687175559000025],[131.00578555100003,33.686606667000035],[131.00522444900014,33.6864502790001],[131.0050913880001,33.68633333300001],[131.00514165999994,33.686251946000084],[131.0045422180001,33.68580361300002],[131.00443416300016,33.68586082899997],[131.00378778200002,33.68543666700003],[131.00386000000015,33.68536444100011],[131.00342972800001,33.68507249499992],[131.00326389100007,33.68511777499998],[131.00304444900007,33.68495222500013],[131.00245944200003,33.68434138700002],[131.0022541630001,33.68454610799999],[131.00222194599996,33.68514777500014],[131.00270610899997,33.685635278999996],[131.00299221800003,33.68586082899998],[131.00325138800008,33.68593305400003],[131.00342416299998,33.685936108000085],[131.00366722399997,33.68580361300002],[131.00386527900014,33.68592110800005],[131.00407055799997,33.685782495000076],[131.00501916999997,33.68643222500003],[131.00480333300015,33.6867422250001],[131.00452250299998,33.68655861299999],[131.00422722400015,33.68649249500003],[131.00368527900014,33.68665500000001],[131.00337194600002,33.68667],[131.00222194599996,33.686179441000036],[131.0018041630001,33.68620055900004],[131.00169805400014,33.686456387000085],[131.00190693900004,33.686895559],[131.00190861199997,33.687226667],[131.00169610900002,33.68761472099998],[131.00128221800003,33.6879724950001],[131.000990558,33.687716945999966],[131.00054055800013,33.688056667000126],[131.00071333300014,33.68827027900005],[131.00125693899997,33.68827638700003],[131.00160972799995,33.6881561080001],[131.00177194599996,33.68827027900006],[131.00232972799995,33.687972775000105],[131.00268250299996,33.68764472099997],[131.00286444900007,33.68873082900013],[131.00313972800006,33.68903472100005],[131.00355194600002,33.68920305400002],[131.00369783400004,33.689402],[131.00422544700007,33.68939913499997],[131.00428666699997,33.68881805400014],[131.00493083000003,33.688857225000106],[131.00493610900003,33.68949805400013],[131.00518277599997,33.69012972100006],[131.00559693900004,33.69053],[131.00613165999994,33.69066555900013],[131.00617832700004,33.69085500000011],[131.00609027199994,33.69116777499994],[131.00522250300014,33.6910836130001],[131.00441055800002,33.69123972100005],[131.0035555510001,33.69094500000012],[131.00420917000008,33.69035861300001],[131.0033072240001,33.68954916200005],[131.00294527900007,33.689534162000086],[131.00235832700014,33.68996444100003],[131.00218194600018,33.69001861300012],[131.00205250300007,33.68979889200011],[131.001723061,33.68981694600001],[131.00186333300007,33.69012082900003],[131.00159138799995,33.69028333300014],[131.00163472099996,33.69120082900003],[131.00146917000018,33.69133610799998],[131.00127472099996,33.691345279000075],[131.00074555100014,33.6911286130001],[131.0,33.69154480200001],[131.0,33.69166666666667],[131.0125,33.69166666666667],[131.0125,33.68333333333334],[131.00447608311012,33.68333333333334],[131.0047208300001,33.684438892]]]}},{"type":"Feature","id":"40213:50314021","properties":{"id":"40213:50314021","meshCode":"50314021","cityCode":"40213","city":"行橋市","lat":33.6875014,"lon":131.0187486,"areaKm2":1.0707207,"populated2020":true,"population2020":868.9024,"populationNote":"収録500mメッシュ人口の合算（原典収録外は補完しない）"},"geometry":{"type":"Polygon","coordinates":[[[131.025,33.68333333333334],[131.02309130964812,33.68333333333333],[131.02286749700014,33.683471108000056],[131.0226594945032,33.68333333333334],[131.0125,33.68333333333334],[131.0125,33.69166666666667],[131.025,33.69166666666668],[131.025,33.68333333333334]]]}},{"type":"Feature","id":"40213:50314022","properties":{"id":"40213:50314022","meshCode":"50314022","cityCode":"40213","city":"行橋市","lat":33.6875,"lon":131.03125,"areaKm2":1.0710767,"populated2020":true,"population2020":265.3583,"populationNote":"収録500mメッシュ人口の合算（原典収録外は補完しない）"},"geometry":{"type":"Polygon","coordinates":[[[131.0375,33.68333333333333],[131.025,33.68333333333334],[131.025,33.69166666666668],[131.0375,33.69166666666667],[131.0375,33.68333333333333]]]}},{"type":"Feature","id":"40213:50314023","properties":{"id":"40213:50314023","meshCode":"50314023","cityCode":"40213","city":"行橋市","lat":33.6868485,"lon":131.0412248,"areaKm2":0.570812,"populated2020":false,"population2020":null,"populationNote":"境界またぎ・収録外等のため人口未集計"},"geometry":{"type":"Polygon","coordinates":[[[131.04599333300007,33.68722916199994],[131.04597055800002,33.68565],[131.04587917000015,33.68496916200001],[131.0453422180001,33.684033333000116],[131.04427944255391,33.68333333333333],[131.0375,33.68333333333333],[131.0375,33.69166666666667],[131.04008269800332,33.69166666666667],[131.03995255500013,33.691463225000064],[131.04002688700007,33.691254027000014],[131.04012914400005,33.69121402700006],[131.04043425400005,33.69136405400013],[131.04047639400005,33.69131364000003],[131.04010817100004,33.69113958600002],[131.04014739300013,33.69105127900008],[131.04060233500002,33.690506252000034],[131.04102,33.690333721000066],[131.04116033700006,33.68992225200003],[131.04179281500012,33.68941845000006],[131.04290639400017,33.68895888299999],[131.04397994800001,33.68890593700008],[131.04446061,33.688804135000005],[131.04482330700012,33.6888452880001],[131.045842451,33.68865781099993],[131.04599333300007,33.68722916199994]]]}},{"type":"Feature","id":"40213:50304728","properties":{"id":"40213:50304728","meshCode":"50304728","cityCode":"40213","city":"行橋市","lat":33.6909113,"lon":130.9801685,"areaKm2":0.1594125,"populated2020":true,"population2020":null,"populationNote":"境界またぎ・収録外等のため人口未集計"},"geometry":{"type":"MultiPolygon","coordinates":[[[[130.9839276388524,33.69166666666667],[130.98322083,33.690502495],[130.982512218,33.690712495],[130.982200272,33.690534162],[130.981928885,33.690679441],[130.981664994,33.690606946],[130.981568885,33.690482225],[130.981576394,33.69033000000001],[130.982153891,33.689663892],[130.98195083,33.689465],[130.981657224,33.68967610800001],[130.981496667,33.68997555899999],[130.979691946,33.690561946],[130.979601388,33.690400829],[130.979564449,33.689850559],[130.97944083,33.689716667],[130.979219442,33.689673332999995],[130.978046394,33.68999999999999],[130.977400272,33.689773333],[130.976825551,33.689778613],[130.97649166,33.68986],[130.976038054,33.690162495],[130.975473891,33.690181387],[130.975,33.690432081000004],[130.975,33.69166666666668],[130.9839276388524,33.69166666666667]]],[[[130.9875,33.69013796654058],[130.986144449,33.690767775],[130.98536083,33.69125527900001],[130.984467717655,33.69166666666667],[130.9875,33.69166666666667],[130.9875,33.69013796654058]]]]}},{"type":"Feature","id":"40213:50304729","properties":{"id":"40213:50304729","meshCode":"50304729","cityCode":"40213","city":"行橋市","lat":33.690644,"lon":130.9899496,"areaKm2":0.0910624,"populated2020":true,"population2020":null,"populationNote":"境界またぎ・収録外等のため人口未集計"},"geometry":{"type":"MultiPolygon","coordinates":[[[[130.9920961998967,33.69166666666667],[130.991705837,33.69157666699999],[130.99178,33.690876667000005],[130.990841115,33.690327495],[130.990778327,33.689711387],[130.990079728,33.68888194600001],[130.989691946,33.688987495000006],[130.9875,33.69013796654058],[130.9875,33.69166666666667],[130.9920961998967,33.69166666666667]]],[[[130.99824917,33.691294162],[130.997619442,33.691319721],[130.997066109,33.691433892],[130.99690527906395,33.69166666666667],[130.9985108296889,33.69166666666666],[130.99824917,33.691294162]]],[[[130.9995709481732,33.69166666666667],[131.0,33.69166666666667],[131.0,33.69154480200001],[130.999736939,33.69161944100001],[130.9995709481732,33.69166666666667]]]]}},{"type":"Feature","id":"40213:50304734","properties":{"id":"40213:50304734","meshCode":"50304734","cityCode":"40213","city":"行橋市","lat":33.6957661,"lon":130.9332793,"areaKm2":0.7167036,"populated2020":true,"population2020":null,"populationNote":"境界またぎ・収録外等のため人口未集計"},"geometry":{"type":"Polygon","coordinates":[[[130.929545837,33.692022225],[130.928034994,33.69205861299999],[130.926684163,33.691996108],[130.928201115,33.693026945999996],[130.92873917,33.69377],[130.929010558,33.69401082900001],[130.929826109,33.694344162],[130.930244163,33.694639162],[130.929670558,33.696620829],[130.929094721,33.697932775],[130.929002776,33.698809162],[130.928762776,33.699238613],[130.928777497,33.69946694600001],[130.92888083,33.699572495],[130.929441479,33.7],[130.9375,33.7],[130.9375,33.69166666666667],[130.92953263298887,33.69166666666667],[130.929545837,33.692022225]]]}},{"type":"Feature","id":"40213:50304735","properties":{"id":"40213:50304735","meshCode":"50304735","cityCode":"40213","city":"行橋市","lat":33.6958333,"lon":130.94375,"areaKm2":1.0709753,"populated2020":true,"population2020":134.0906,"populationNote":"収録500mメッシュ人口の合算（原典収録外は補完しない）"},"geometry":{"type":"Polygon","coordinates":[[[130.95,33.69166666666668],[130.9375,33.69166666666667],[130.9375,33.7],[130.95,33.7],[130.95,33.69166666666668]]]}},{"type":"Feature","id":"40213:50304736","properties":{"id":"40213:50304736","meshCode":"50304736","cityCode":"40213","city":"行橋市","lat":33.6958333,"lon":130.95625,"areaKm2":1.070975,"populated2020":true,"population2020":357.2569,"populationNote":"収録500mメッシュ人口の合算（原典収録外は補完しない）"},"geometry":{"type":"Polygon","coordinates":[[[130.9625,33.69166666666667],[130.95,33.69166666666668],[130.95,33.7],[130.9625,33.699999999999996],[130.9625,33.69166666666667]]]}},{"type":"Feature","id":"40213:50304737","properties":{"id":"40213:50304737","meshCode":"50304737","cityCode":"40213","city":"行橋市","lat":33.6958333,"lon":130.96875,"areaKm2":1.0709748,"populated2020":true,"population2020":1144.5202,"populationNote":"収録500mメッシュ人口の合算（原典収録外は補完しない）"},"geometry":{"type":"Polygon","coordinates":[[[130.975,33.69166666666668],[130.9625,33.69166666666667],[130.9625,33.699999999999996],[130.975,33.7],[130.975,33.69166666666668]]]}},{"type":"Feature","id":"40213:50304738","properties":{"id":"40213:50304738","meshCode":"50304738","cityCode":"40213","city":"行橋市","lat":33.6958359,"lon":130.9812482,"areaKm2":1.0703151,"populated2020":true,"population2020":1672.6511,"populationNote":"収録500mメッシュ人口の合算（原典収録外は補完しない）"},"geometry":{"type":"Polygon","coordinates":[[[130.9875,33.69166666666667],[130.984467717655,33.69166666666667],[130.984097224,33.691873892],[130.9839276388524,33.69166666666667],[130.975,33.69166666666668],[130.975,33.7],[130.9875,33.7],[130.9875,33.69166666666667]]]}},{"type":"Feature","id":"40213:50304739","properties":{"id":"40213:50304739","meshCode":"50304739","cityCode":"40213","city":"行橋市","lat":33.6961234,"lon":130.9936656,"areaKm2":0.9797425,"populated2020":true,"population2020":780.4152,"populationNote":"収録500mメッシュ人口の合算（原典収録外は補完しない）"},"geometry":{"type":"Polygon","coordinates":[[[130.993442776,33.693215829],[130.993038612,33.693006387],[130.992389728,33.692875],[130.992417497,33.692475279],[130.992150272,33.69232916200001],[130.9920961998967,33.69166666666667],[130.9875,33.69166666666667],[130.9875,33.7],[131.0,33.7],[131.0,33.69166666666667],[130.9995709481732,33.69166666666667],[130.998733061,33.69190472100001],[130.9985108296889,33.69166666666666],[130.99690527906395,33.69166666666667],[130.996531388,33.692719441],[130.995234721,33.694564441],[130.994217224,33.694411946],[130.994003333,33.693791387],[130.993442776,33.693215829]]]}},{"type":"Feature","id":"40213:50314030","properties":{"id":"40213:50314030","meshCode":"50314030","cityCode":"40213","city":"行橋市","lat":33.6958333,"lon":131.00625,"areaKm2":1.0709746,"populated2020":true,"population2020":2231.5886,"populationNote":"収録500mメッシュ人口の合算（原典収録外は補完しない）"},"geometry":{"type":"Polygon","coordinates":[[[131.0125,33.69166666666667],[131.0,33.69166666666667],[131.0,33.7],[131.0125,33.7],[131.0125,33.69166666666667]]]}},{"type":"Feature","id":"40213:50314031","properties":{"id":"40213:50314031","meshCode":"50314031","cityCode":"40213","city":"行橋市","lat":33.6958333,"lon":131.01875,"areaKm2":1.0709746,"populated2020":true,"population2020":1191.9736,"populationNote":"収録500mメッシュ人口の合算（原典収録外は補完しない）"},"geometry":{"type":"Polygon","coordinates":[[[131.025,33.69166666666668],[131.0125,33.69166666666667],[131.0125,33.7],[131.025,33.7],[131.025,33.69166666666668]]]}},{"type":"Feature","id":"40213:50314032","properties":{"id":"40213:50314032","meshCode":"50314032","cityCode":"40213","city":"行橋市","lat":33.6956634,"lon":131.0308821,"areaKm2":1.0020178,"populated2020":true,"population2020":457.5379,"populationNote":"収録500mメッシュ人口の合算（原典収録外は補完しない）"},"geometry":{"type":"Polygon","coordinates":[[[131.037244838,33.69576208099994],[131.0375,33.69555990280616],[131.0375,33.69166666666667],[131.025,33.69166666666668],[131.025,33.7],[131.03494703000013,33.70000000000001],[131.035818521,33.69882095500009],[131.03580204900004,33.69867320700013],[131.03547085599996,33.69855395500002],[131.03541797700007,33.69838412600012],[131.03577339799995,33.697558459000106],[131.03609872900006,33.697617117],[131.03578896199997,33.697516278999956],[131.03582516200015,33.697370162000034],[131.03634683500002,33.69676869400002],[131.03663927399998,33.69656709000003],[131.03690251600005,33.696543135000134],[131.03676660200006,33.6964606940001],[131.03676892299995,33.69632655000004],[131.037172737,33.69597706299999],[131.037244838,33.69576208099994]]]}},{"type":"Feature","id":"40213:50314033","properties":{"id":"40213:50314033","meshCode":"50314033","cityCode":"40213","city":"行橋市","lat":33.6930055,"lon":131.038204,"areaKm2":0.0429301,"populated2020":false,"population2020":null,"populationNote":"境界またぎ・収録外等のため人口未集計"},"geometry":{"type":"Polygon","coordinates":[[[131.03752184199993,33.69553454100014],[131.03779246399995,33.69541385600002],[131.03789232200006,33.69500549500009],[131.03823994800007,33.69433883800007],[131.03822061000005,33.69408963099994],[131.03843570699996,33.6939905050001],[131.03844979200005,33.693593936999996],[131.03859811899997,33.693284162],[131.0386722830001,33.693216676000134],[131.03887393000014,33.69322342300007],[131.0385995590001,33.69302430599999],[131.03926430599995,33.692155324000055],[131.03964691300007,33.69201694600014],[131.04008269800332,33.69166666666667],[131.0375,33.69166666666667],[131.03752184199993,33.69553454100014]]]}},{"type":"Feature","id":"40213:50304744","properties":{"id":"40213:50304744","meshCode":"50304744","cityCode":"40213","city":"行橋市","lat":33.703388,"lon":130.9347052,"areaKm2":0.4330185,"populated2020":true,"population2020":null,"populationNote":"境界またぎ・収録外等のため人口未集計"},"geometry":{"type":"Polygon","coordinates":[[[130.929441479,33.7],[130.930363891,33.70088972100001],[130.930823333,33.701778333],[130.931540558,33.702771108],[130.93161805400004,33.703695559],[130.932568054,33.70430110800001],[130.933498612,33.70545194600001],[130.933810558,33.705733892],[130.933973061,33.706021387],[130.934127782,33.706923612999994],[130.93468166,33.707394441000005],[130.934935837,33.707966387],[130.93544658946078,33.708333333333336],[130.9375,33.708333333333336],[130.9375,33.7],[130.929441479,33.7]]]}},{"type":"Feature","id":"40213:50304745","properties":{"id":"40213:50304745","meshCode":"50304745","cityCode":"40213","city":"行橋市","lat":33.7041667,"lon":130.94375,"areaKm2":1.0708734,"populated2020":true,"population2020":1013.647,"populationNote":"収録500mメッシュ人口の合算（原典収録外は補完しない）"},"geometry":{"type":"Polygon","coordinates":[[[130.95,33.7],[130.9375,33.7],[130.9375,33.708333333333336],[130.95,33.70833333333334],[130.95,33.7]]]}},{"type":"Feature","id":"40213:50304746","properties":{"id":"40213:50304746","meshCode":"50304746","cityCode":"40213","city":"行橋市","lat":33.7041667,"lon":130.95625,"areaKm2":1.0708731,"populated2020":true,"population2020":711.5422,"populationNote":"収録500mメッシュ人口の合算（原典収録外は補完しない）"},"geometry":{"type":"Polygon","coordinates":[[[130.9625,33.699999999999996],[130.95,33.7],[130.95,33.70833333333334],[130.9625,33.708333333333336],[130.9625,33.699999999999996]]]}},{"type":"Feature","id":"40213:50304747","properties":{"id":"40213:50304747","meshCode":"50304747","cityCode":"40213","city":"行橋市","lat":33.7041667,"lon":130.96875,"areaKm2":1.0708729,"populated2020":true,"population2020":1601.4087,"populationNote":"収録500mメッシュ人口の合算（原典収録外は補完しない）"},"geometry":{"type":"Polygon","coordinates":[[[130.975,33.7],[130.9625,33.699999999999996],[130.9625,33.708333333333336],[130.975,33.708333333333336],[130.975,33.7]]]}},{"type":"Feature","id":"40213:50304748","properties":{"id":"40213:50304748","meshCode":"50304748","cityCode":"40213","city":"行橋市","lat":33.7041667,"lon":130.98125,"areaKm2":1.0708727,"populated2020":true,"population2020":1826.1737,"populationNote":"収録500mメッシュ人口の合算（原典収録外は補完しない）"},"geometry":{"type":"Polygon","coordinates":[[[130.9875,33.7],[130.975,33.7],[130.975,33.708333333333336],[130.9875,33.70833333333334],[130.9875,33.7]]]}},{"type":"Feature","id":"40213:50304749","properties":{"id":"40213:50304749","meshCode":"50304749","cityCode":"40213","city":"行橋市","lat":33.7041667,"lon":130.99375,"areaKm2":1.0708726,"populated2020":true,"population2020":717.1197,"populationNote":"収録500mメッシュ人口の合算（原典収録外は補完しない）"},"geometry":{"type":"Polygon","coordinates":[[[131.0,33.7],[130.9875,33.7],[130.9875,33.70833333333334],[131.0,33.708333333333336],[131.0,33.7]]]}},{"type":"Feature","id":"40213:50314040","properties":{"id":"40213:50314040","meshCode":"50314040","cityCode":"40213","city":"行橋市","lat":33.7041667,"lon":131.00625,"areaKm2":1.0708726,"populated2020":true,"population2020":823.2518,"populationNote":"収録500mメッシュ人口の合算（原典収録外は補完しない）"},"geometry":{"type":"Polygon","coordinates":[[[131.0125,33.7],[131.0,33.7],[131.0,33.708333333333336],[131.0125,33.70833333333334],[131.0125,33.7]]]}},{"type":"Feature","id":"40213:50314041","properties":{"id":"40213:50314041","meshCode":"50314041","cityCode":"40213","city":"行橋市","lat":33.7041667,"lon":131.01875,"areaKm2":1.0708727,"populated2020":true,"population2020":172.031,"populationNote":"収録500mメッシュ人口の合算（原典収録外は補完しない）"},"geometry":{"type":"Polygon","coordinates":[[[131.025,33.7],[131.0125,33.7],[131.0125,33.70833333333334],[131.025,33.708333333333336],[131.025,33.7]]]}},{"type":"Feature","id":"40213:50314042","properties":{"id":"40213:50314042","meshCode":"50314042","cityCode":"40213","city":"行橋市","lat":33.7034773,"lon":131.0291414,"areaKm2":0.6449456,"populated2020":true,"population2020":424.5294,"populationNote":"収録500mメッシュ人口の合算（原典収録外は補完しない）"},"geometry":{"type":"Polygon","coordinates":[[[131.03170705600007,33.70446844100002],[131.03251538300003,33.703561802000024],[131.03279505800003,33.70341482900005],[131.03416635500014,33.704733396],[131.0359426980001,33.703522802],[131.03615147900007,33.70373210800011],[131.03620581100006,33.70369510800008],[131.0353548380001,33.70282155899997],[131.03529905300002,33.70286025200011],[131.03553994799995,33.70310716200009],[131.03526116700004,33.7032952250001],[131.03542758800006,33.703456946000074],[131.0350815820001,33.703688667],[131.03492369599996,33.703523532000084],[131.03436783400014,33.703901586000086],[131.0335486900001,33.7030634410001],[131.03465069999993,33.702320972999985],[131.03499272399995,33.70266313500002],[131.03503994799996,33.70262897300006],[131.0344969130001,33.70213644100001],[131.034960726,33.701450613000084],[131.03585465600008,33.70229983800011],[131.034934358,33.70135080200009],[131.03499518800004,33.701070892000025],[131.03516530499996,33.701024946000125],[131.03547849500012,33.70110141400004],[131.03543236100006,33.70089305400007],[131.03565418900007,33.70073566700006],[131.035211634,33.70066797299995],[131.03488827499996,33.70050305400008],[131.034801141,33.70032527900003],[131.03494703000013,33.70000000000001],[131.025,33.7],[131.025,33.708333333333336],[131.02902019487325,33.708333333333336],[131.02928169900008,33.70776958600004],[131.02993250300008,33.7069823600001],[131.03000128400015,33.70646633299992],[131.03046705600002,33.70565789200008],[131.03066311299997,33.70545469399997],[131.03108066100003,33.70531997299997],[131.03150204900012,33.705019865],[131.03170705600007,33.70446844100002]]]}},{"type":"Feature","id":"40213:50304752","properties":{"id":"40213:50304752","meshCode":"50304752","cityCode":"40213","city":"行橋市","lat":33.7145229,"lon":130.9092644,"areaKm2":0.3013126,"populated2020":true,"population2020":null,"populationNote":"境界またぎ・収録外等のため人口未集計"},"geometry":{"type":"Polygon","coordinates":[[[130.912296109,33.713438892],[130.91215083,33.711656667],[130.911953061,33.71142805400001],[130.911775837,33.711383054],[130.911314163,33.711497225],[130.91073138800002,33.711875559000006],[130.910023061,33.712145559],[130.90814917,33.712371946],[130.907505279,33.712556946],[130.907035279,33.712885279],[130.90598166,33.71390389199999],[130.905654721,33.71459805400001],[130.905514994,33.715713892],[130.90493022038365,33.71666666666666],[130.9125,33.71666666666667],[130.9125,33.71400473131506],[130.912296109,33.713438892]]]}},{"type":"Feature","id":"40213:50304754","properties":{"id":"40213:50304754","meshCode":"50304754","cityCode":"40213","city":"行橋市","lat":33.7141181,"lon":130.9363584,"areaKm2":0.1095057,"populated2020":true,"population2020":null,"populationNote":"境界またぎ・収録外等のため人口未集計"},"geometry":{"type":"MultiPolygon","coordinates":[[[[130.93544658946078,33.708333333333336],[130.93661166,33.709112225],[130.9375,33.70951624800001],[130.9375,33.708333333333336],[130.93544658946078,33.708333333333336]]],[[[130.9375,33.71189357983607],[130.936048612,33.712833613],[130.93577166,33.71316610800001],[130.935538054,33.713644720999994],[130.935626667,33.713836946],[130.936192503,33.714446108],[130.93611221800003,33.714677775],[130.935096939,33.714946108],[130.935023061,33.715068892000005],[130.935078612,33.715494721],[130.934676939,33.715987495],[130.933577497,33.716396387],[130.93333603127252,33.71666666666667],[130.9375,33.71666666666667],[130.9375,33.71189357983607]]]]}},{"type":"Feature","id":"40213:50304755","properties":{"id":"40213:50304755","meshCode":"50304755","cityCode":"40213","city":"行橋市","lat":33.7125287,"lon":130.9438452,"areaKm2":1.0535106,"populated2020":true,"population2020":1390.2136,"populationNote":"収録500mメッシュ人口の合算（原典収録外は補完しない）"},"geometry":{"type":"Polygon","coordinates":[[[130.9375,33.70951624800001],[130.938178054,33.710093333],[130.938666667,33.710979721],[130.938616667,33.711168333],[130.9375,33.71189357983607],[130.9375,33.71666666666667],[130.95,33.71666666666667],[130.95,33.70833333333334],[130.9375,33.708333333333336],[130.9375,33.70951624800001]]]}},{"type":"Feature","id":"40213:50304756","properties":{"id":"40213:50304756","meshCode":"50304756","cityCode":"40213","city":"行橋市","lat":33.7125,"lon":130.95625,"areaKm2":1.0707711,"populated2020":true,"population2020":929.4136,"populationNote":"収録500mメッシュ人口の合算（原典収録外は補完しない）"},"geometry":{"type":"Polygon","coordinates":[[[130.9625,33.708333333333336],[130.95,33.70833333333334],[130.95,33.71666666666667],[130.9625,33.716666666666676],[130.9625,33.708333333333336]]]}},{"type":"Feature","id":"40213:50304757","properties":{"id":"40213:50304757","meshCode":"50304757","cityCode":"40213","city":"行橋市","lat":33.7125,"lon":130.96875,"areaKm2":1.0707709,"populated2020":true,"population2020":2477.7757,"populationNote":"収録500mメッシュ人口の合算（原典収録外は補完しない）"},"geometry":{"type":"Polygon","coordinates":[[[130.975,33.708333333333336],[130.9625,33.708333333333336],[130.9625,33.716666666666676],[130.975,33.71666666666666],[130.975,33.708333333333336]]]}},{"type":"Feature","id":"40213:50304758","properties":{"id":"40213:50304758","meshCode":"50304758","cityCode":"40213","city":"行橋市","lat":33.7125,"lon":130.98125,"areaKm2":1.0707708,"populated2020":true,"population2020":3322.4718,"populationNote":"収録500mメッシュ人口の合算（原典収録外は補完しない）"},"geometry":{"type":"Polygon","coordinates":[[[130.9875,33.70833333333334],[130.975,33.708333333333336],[130.975,33.71666666666666],[130.9875,33.71666666666667],[130.9875,33.70833333333334]]]}},{"type":"Feature","id":"40213:50304759","properties":{"id":"40213:50304759","meshCode":"50304759","cityCode":"40213","city":"行橋市","lat":33.7125,"lon":130.99375,"areaKm2":1.0707706,"populated2020":true,"population2020":690.6541,"populationNote":"収録500mメッシュ人口の合算（原典収録外は補完しない）"},"geometry":{"type":"Polygon","coordinates":[[[131.0,33.708333333333336],[130.9875,33.70833333333334],[130.9875,33.71666666666667],[131.0,33.71666666666667],[131.0,33.708333333333336]]]}},{"type":"Feature","id":"40213:50314050","properties":{"id":"40213:50314050","meshCode":"50314050","cityCode":"40213","city":"行橋市","lat":33.7125,"lon":131.00625,"areaKm2":1.0707706,"populated2020":true,"population2020":615.7089,"populationNote":"収録500mメッシュ人口の合算（原典収録外は補完しない）"},"geometry":{"type":"Polygon","coordinates":[[[131.0125,33.70833333333334],[131.0,33.708333333333336],[131.0,33.71666666666667],[131.0125,33.71666666666667],[131.0125,33.70833333333334]]]}},{"type":"Feature","id":"40213:50314051","properties":{"id":"40213:50314051","meshCode":"50314051","cityCode":"40213","city":"行橋市","lat":33.7125,"lon":131.01875,"areaKm2":1.0707708,"populated2020":true,"population2020":27.649,"populationNote":"収録500mメッシュ人口の合算（原典収録外は補完しない）"},"geometry":{"type":"Polygon","coordinates":[[[131.025,33.708333333333336],[131.0125,33.70833333333334],[131.0125,33.71666666666667],[131.025,33.71666666666666],[131.025,33.708333333333336]]]}},{"type":"Feature","id":"40213:50314052","properties":{"id":"40213:50314052","meshCode":"50314052","cityCode":"40213","city":"行橋市","lat":33.7112993,"lon":131.0263441,"areaKm2":0.1821483,"populated2020":false,"population2020":null,"populationNote":"境界またぎ・収録外等のため人口未集計"},"geometry":{"type":"MultiPolygon","coordinates":[[[[131.030669494,33.70947853199999],[131.030804942,33.709652162],[131.0310862,33.70961386500001],[131.03084836600001,33.709453054],[131.030669494,33.70947853199999]]],[[[131.031211699,33.709645468],[131.031310311,33.709617586],[131.031305305,33.709551585999996],[131.031179611,33.70955558600001],[131.031211699,33.709645468]]],[[[131.030462335,33.70974458599999],[131.030537523,33.709757720999995],[131.030549053,33.709690558999995],[131.030477004,33.709678306],[131.030462335,33.70974458599999]]],[[[131.030633606,33.709860667],[131.030586057,33.709990441],[131.030711997,33.710086054],[131.030790921,33.70994197299999],[131.030633606,33.709860667]]],[[[131.02535335912896,33.716666666666676],[131.02803338499996,33.710219162000044],[131.02877416299998,33.70895333300001],[131.02902019487325,33.708333333333336],[131.025,33.708333333333336],[131.025,33.71666666666666],[131.02535335912896,33.716666666666676]]]]}},{"type":"Feature","id":"40213:50304753","properties":{"id":"40213:50304753","meshCode":"50304753","cityCode":"40213","city":"行橋市","lat":33.7154825,"lon":130.9127065,"areaKm2":0.0095656,"populated2020":false,"population2020":null,"populationNote":"境界またぎ・収録外等のため人口未集計"},"geometry":{"type":"Polygon","coordinates":[[[130.91280775599205,33.71666666666666],[130.912869728,33.71599110799999],[130.913048885,33.715501108],[130.913034163,33.715274162],[130.912971388,33.71497666699999],[130.9125,33.71400473131506],[130.9125,33.71666666666667],[130.91280775599205,33.71666666666666]]]}},{"type":"Feature","id":"40213:50304762","properties":{"id":"40213:50304762","meshCode":"50304762","cityCode":"40213","city":"行橋市","lat":33.7212508,"lon":130.9071132,"areaKm2":0.8902465,"populated2020":true,"population2020":23.4345,"populationNote":"収録500mメッシュ人口の合算（原典収録外は補完しない）"},"geometry":{"type":"Polygon","coordinates":[[[130.90493022038365,33.71666666666666],[130.904099442,33.717503892],[130.903762218,33.718401387],[130.903915279,33.718759721],[130.904839442,33.719838333],[130.903868612,33.720005828999994],[130.902626109,33.720840829000004],[130.9,33.721435162],[130.9,33.725],[130.9125,33.725],[130.9125,33.71666666666667],[130.90493022038365,33.71666666666666]]]}},{"type":"Feature","id":"40213:50304763","properties":{"id":"40213:50304763","meshCode":"50304763","cityCode":"40213","city":"行橋市","lat":33.7224354,"lon":130.9187717,"areaKm2":0.624196,"populated2020":true,"population2020":null,"populationNote":"境界またぎ・収録外等のため人口未集計"},"geometry":{"type":"Polygon","coordinates":[[[130.91381166,33.720961108],[130.913731115,33.719826667],[130.913620272,33.719482225],[130.913393333,33.718941667],[130.912846939,33.718195558999994],[130.912760272,33.717208333],[130.91280775599205,33.71666666666666],[130.9125,33.71666666666667],[130.9125,33.725],[130.925,33.725],[130.925,33.720693973],[130.924316109,33.720929440999996],[130.923642218,33.721422775],[130.923152218,33.719289162],[130.922233606,33.718671387],[130.921844163,33.719012495],[130.920628612,33.718445],[130.920482776,33.718505559],[130.91999055800002,33.71937861300001],[130.920007224,33.72022972100001],[130.919636939,33.72072222500001],[130.919321115,33.720921387],[130.919033061,33.720997495],[130.91702083,33.72105472100001],[130.915944163,33.72095110800001],[130.913876394,33.720992224999996],[130.91381166,33.720961108]]]}},{"type":"Feature","id":"40213:50304764","properties":{"id":"40213:50304764","meshCode":"50304764","cityCode":"40213","city":"行橋市","lat":33.721551,"lon":130.9320559,"areaKm2":0.838502,"populated2020":true,"population2020":null,"populationNote":"境界またぎ・収録外等のため人口未集計"},"geometry":{"type":"Polygon","coordinates":[[[130.933331946,33.716671667],[130.933036667,33.717054440999995],[130.93253166,33.717034162],[130.932199442,33.717401108],[130.931988885,33.717956946],[130.931708612,33.71933194599999],[130.931605279,33.719432225],[130.931254449,33.71956555900001],[130.9294,33.719543054000006],[130.927047224,33.719722495],[130.925916939,33.720713054],[130.925660558,33.72083444100001],[130.925328054,33.720649161999994],[130.925,33.720693973],[130.925,33.725],[130.9375,33.725],[130.9375,33.71666666666667],[130.933331946,33.716671667]]]}},{"type":"Feature","id":"40213:50304765","properties":{"id":"40213:50304765","meshCode":"50304765","cityCode":"40213","city":"行橋市","lat":33.7208333,"lon":130.94375,"areaKm2":1.0706694,"populated2020":true,"population2020":964.9251,"populationNote":"収録500mメッシュ人口の合算（原典収録外は補完しない）"},"geometry":{"type":"Polygon","coordinates":[[[130.95,33.71666666666667],[130.9375,33.71666666666667],[130.9375,33.725],[130.95,33.724999999999994],[130.95,33.71666666666667]]]}},{"type":"Feature","id":"40213:50304766","properties":{"id":"40213:50304766","meshCode":"50304766","cityCode":"40213","city":"行橋市","lat":33.7208333,"lon":130.95625,"areaKm2":1.0706691,"populated2020":true,"population2020":2240.8063,"populationNote":"収録500mメッシュ人口の合算（原典収録外は補完しない）"},"geometry":{"type":"Polygon","coordinates":[[[130.9625,33.716666666666676],[130.95,33.71666666666667],[130.95,33.724999999999994],[130.9625,33.725],[130.9625,33.716666666666676]]]}},{"type":"Feature","id":"40213:50304767","properties":{"id":"40213:50304767","meshCode":"50304767","cityCode":"40213","city":"行橋市","lat":33.7208333,"lon":130.96875,"areaKm2":1.0706689,"populated2020":true,"population2020":2756.1139,"populationNote":"収録500mメッシュ人口の合算（原典収録外は補完しない）"},"geometry":{"type":"Polygon","coordinates":[[[130.975,33.71666666666666],[130.9625,33.716666666666676],[130.9625,33.725],[130.975,33.725],[130.975,33.71666666666666]]]}},{"type":"Feature","id":"40213:50304768","properties":{"id":"40213:50304768","meshCode":"50304768","cityCode":"40213","city":"行橋市","lat":33.7208333,"lon":130.98125,"areaKm2":1.0706688,"populated2020":true,"population2020":3924.0478,"populationNote":"収録500mメッシュ人口の合算（原典収録外は補完しない）"},"geometry":{"type":"Polygon","coordinates":[[[130.9875,33.71666666666667],[130.975,33.71666666666666],[130.975,33.725],[130.9875,33.725],[130.9875,33.71666666666667]]]}},{"type":"Feature","id":"40213:50304769","properties":{"id":"40213:50304769","meshCode":"50304769","cityCode":"40213","city":"行橋市","lat":33.7208333,"lon":130.99375,"areaKm2":1.0706687,"populated2020":true,"population2020":1209.2431,"populationNote":"収録500mメッシュ人口の合算（原典収録外は補完しない）"},"geometry":{"type":"Polygon","coordinates":[[[131.0,33.71666666666667],[130.9875,33.71666666666667],[130.9875,33.725],[131.0,33.725],[131.0,33.71666666666667]]]}},{"type":"Feature","id":"40213:50314060","properties":{"id":"40213:50314060","meshCode":"50314060","cityCode":"40213","city":"行橋市","lat":33.7208333,"lon":131.00625,"areaKm2":1.0706687,"populated2020":true,"population2020":681.3761,"populationNote":"収録500mメッシュ人口の合算（原典収録外は補完しない）"},"geometry":{"type":"Polygon","coordinates":[[[131.0125,33.71666666666667],[131.0,33.71666666666667],[131.0,33.725],[131.0125,33.725],[131.0125,33.71666666666667]]]}},{"type":"Feature","id":"40213:50314061","properties":{"id":"40213:50314061","meshCode":"50314061","cityCode":"40213","city":"行橋市","lat":33.7207028,"lon":131.0183831,"areaKm2":1.0039739,"populated2020":true,"population2020":244.2963,"populationNote":"収録500mメッシュ人口の合算（原典収録外は補完しない）"},"geometry":{"type":"Polygon","coordinates":[[[131.02440819700007,33.72120136000012],[131.02470070000004,33.72075535999994],[131.025,33.720832360000145],[131.025,33.720668198000055],[131.02436311300005,33.72049582900007],[131.02425389100006,33.720037279],[131.025,33.71800641400006],[131.025,33.71666666666666],[131.0125,33.71666666666667],[131.0125,33.725],[131.022366498,33.725],[131.02256294400001,33.72448538700013],[131.02294572000005,33.724187333000145],[131.0230424120001,33.723765413999956],[131.023858495,33.723783667000134],[131.02418230900003,33.72368530600011],[131.02453542199999,33.72346444100003],[131.02445630400007,33.723385721000106],[131.02404338500003,33.723587414],[131.02389258100004,33.723385108000116],[131.02384344999996,33.723136000000125],[131.02440819700007,33.72120136000012]]]}},{"type":"Feature","id":"40213:50314062","properties":{"id":"40213:50314062","meshCode":"50314062","cityCode":"40213","city":"行橋市","lat":33.7207984,"lon":131.0252328,"areaKm2":0.0035995,"populated2020":false,"population2020":null,"populationNote":"境界またぎ・収録外等のため人口未集計"},"geometry":{"type":"MultiPolygon","coordinates":[[[[131.02532869000004,33.71713377500009],[131.02520795099997,33.717048414000026],[131.02535335912896,33.716666666666676],[131.025,33.71666666666666],[131.025,33.71800641400006],[131.02532869000004,33.71713377500009]]],[[[131.02542444899996,33.72092553200002],[131.02542688699998,33.72078333300004],[131.025,33.720668198000055],[131.025,33.720832360000145],[131.02542444899996,33.72092553200002]]]]}},{"type":"Feature","id":"40213:50304761","properties":{"id":"40213:50304761","meshCode":"50304761","cityCode":"40213","city":"行橋市","lat":33.7235505,"lon":130.8983599,"areaKm2":0.1076707,"populated2020":false,"population2020":null,"populationNote":"境界またぎ・収録外等のため人口未集計"},"geometry":{"type":"Polygon","coordinates":[[[130.895986939,33.724375559],[130.895972218,33.724666667],[130.896207108,33.724999999999994],[130.9,33.725],[130.9,33.721435162],[130.898752218,33.721679721],[130.898203891,33.721930559],[130.897276394,33.722729162],[130.896606394,33.723457225],[130.895986939,33.724375559]]]}},{"type":"Feature","id":"40213:50304771","properties":{"id":"40213:50304771","meshCode":"50304771","cityCode":"40213","city":"行橋市","lat":33.7293391,"lon":130.8980083,"areaKm2":0.3385829,"populated2020":false,"population2020":null,"populationNote":"境界またぎ・収録外等のため人口未集計"},"geometry":{"type":"Polygon","coordinates":[[[130.896207108,33.724999999999994],[130.896554994,33.725484720999994],[130.896664163,33.72604389199999],[130.896621388,33.726506946],[130.896405551,33.726953613],[130.896213891,33.727173613],[130.895831946,33.727371108],[130.895776394,33.72748861299999],[130.895885279,33.728183613],[130.896212218,33.728756667],[130.895780558,33.73093305399999],[130.89595917000003,33.732277225],[130.8951521656499,33.733333333333334],[130.9,33.73333333333334],[130.9,33.725],[130.896207108,33.724999999999994]]]}},{"type":"Feature","id":"40213:50304772","properties":{"id":"40213:50304772","meshCode":"50304772","cityCode":"40213","city":"行橋市","lat":33.7291667,"lon":130.90625,"areaKm2":1.0705687,"populated2020":true,"population2020":211.8121,"populationNote":"収録500mメッシュ人口の合算（原典収録外は補完しない）"},"geometry":{"type":"Polygon","coordinates":[[[130.9125,33.725],[130.9,33.725],[130.9,33.73333333333334],[130.9125,33.733333333333334],[130.9125,33.725]]]}},{"type":"Feature","id":"40213:50304773","properties":{"id":"40213:50304773","meshCode":"50304773","cityCode":"40213","city":"行橋市","lat":33.7291667,"lon":130.91875,"areaKm2":1.0705681,"populated2020":true,"population2020":53.1207,"populationNote":"収録500mメッシュ人口の合算（原典収録外は補完しない）"},"geometry":{"type":"Polygon","coordinates":[[[130.925,33.725],[130.9125,33.725],[130.9125,33.733333333333334],[130.925,33.73333333333334],[130.925,33.725]]]}},{"type":"Feature","id":"40213:50304774","properties":{"id":"40213:50304774","meshCode":"50304774","cityCode":"40213","city":"行橋市","lat":33.7291667,"lon":130.93125,"areaKm2":1.0705677,"populated2020":true,"population2020":499.7704,"populationNote":"収録500mメッシュ人口の合算（原典収録外は補完しない）"},"geometry":{"type":"Polygon","coordinates":[[[130.9375,33.725],[130.925,33.725],[130.925,33.73333333333334],[130.9375,33.733333333333334],[130.9375,33.725]]]}},{"type":"Feature","id":"40213:50304775","properties":{"id":"40213:50304775","meshCode":"50304775","cityCode":"40213","city":"行橋市","lat":33.7291667,"lon":130.94375,"areaKm2":1.0705673,"populated2020":true,"population2020":642.5342,"populationNote":"収録500mメッシュ人口の合算（原典収録外は補完しない）"},"geometry":{"type":"Polygon","coordinates":[[[130.95,33.724999999999994],[130.9375,33.725],[130.9375,33.733333333333334],[130.95,33.733333333333334],[130.95,33.724999999999994]]]}},{"type":"Feature","id":"40213:50304776","properties":{"id":"40213:50304776","meshCode":"50304776","cityCode":"40213","city":"行橋市","lat":33.7291667,"lon":130.95625,"areaKm2":1.0705671,"populated2020":true,"population2020":3197.032,"populationNote":"収録500mメッシュ人口の合算（原典収録外は補完しない）"},"geometry":{"type":"Polygon","coordinates":[[[130.9625,33.725],[130.95,33.724999999999994],[130.95,33.733333333333334],[130.9625,33.73333333333334],[130.9625,33.725]]]}},{"type":"Feature","id":"40213:50304777","properties":{"id":"40213:50304777","meshCode":"50304777","cityCode":"40213","city":"行橋市","lat":33.7291667,"lon":130.96875,"areaKm2":1.0705669,"populated2020":true,"population2020":5341.5507,"populationNote":"収録500mメッシュ人口の合算（原典収録外は補完しない）"},"geometry":{"type":"Polygon","coordinates":[[[130.975,33.725],[130.9625,33.725],[130.9625,33.73333333333334],[130.975,33.733333333333334],[130.975,33.725]]]}},{"type":"Feature","id":"40213:50304778","properties":{"id":"40213:50304778","meshCode":"50304778","cityCode":"40213","city":"行橋市","lat":33.7291667,"lon":130.98125,"areaKm2":1.0705668,"populated2020":true,"population2020":3098.3892,"populationNote":"収録500mメッシュ人口の合算（原典収録外は補完しない）"},"geometry":{"type":"Polygon","coordinates":[[[130.9875,33.725],[130.975,33.725],[130.975,33.733333333333334],[130.9875,33.733333333333334],[130.9875,33.725]]]}},{"type":"Feature","id":"40213:50304779","properties":{"id":"40213:50304779","meshCode":"50304779","cityCode":"40213","city":"行橋市","lat":33.7291667,"lon":130.99375,"areaKm2":1.0705666,"populated2020":true,"population2020":2172.9055,"populationNote":"収録500mメッシュ人口の合算（原典収録外は補完しない）"},"geometry":{"type":"Polygon","coordinates":[[[131.0,33.725],[130.9875,33.725],[130.9875,33.733333333333334],[131.0,33.733333333333334],[131.0,33.725]]]}},{"type":"Feature","id":"40213:50314070","properties":{"id":"40213:50314070","meshCode":"50314070","cityCode":"40213","city":"行橋市","lat":33.7291667,"lon":131.00625,"areaKm2":1.0705666,"populated2020":true,"population2020":748.7249,"populationNote":"収録500mメッシュ人口の合算（原典収録外は補完しない）"},"geometry":{"type":"Polygon","coordinates":[[[131.0125,33.725],[131.0,33.725],[131.0,33.733333333333334],[131.0125,33.733333333333334],[131.0125,33.725]]]}},{"type":"Feature","id":"40213:50314071","properties":{"id":"40213:50314071","meshCode":"50314071","cityCode":"40213","city":"行橋市","lat":33.7284659,"lon":131.0170391,"areaKm2":0.68078,"populated2020":true,"population2020":151.0124,"populationNote":"収録500mメッシュ人口の合算（原典収録外は補完しない）"},"geometry":{"type":"Polygon","coordinates":[[[131.02192788600007,33.72905116199996],[131.021863995,33.72903179300005],[131.022223982,33.728384081000115],[131.0225469390001,33.728053360000054],[131.02233358000012,33.72789753200011],[131.022379377,33.72775798200008],[131.02226486400002,33.72770778400001],[131.022366498,33.725],[131.0125,33.725],[131.0125,33.733333333333334],[131.0144161608609,33.733333333333334],[131.01452854700005,33.73316974800002],[131.014963437,33.73324306300014],[131.0149812190001,33.73317844099995],[131.01446132299998,33.73308035100001],[131.01405525300004,33.73289334200007],[131.01386386499996,33.732729081000116],[131.0137092220001,33.732018739000125],[131.01408802900005,33.7314750810001],[131.01505955900018,33.731877000000004],[131.01695844400012,33.73238916200012],[131.01827992200003,33.73261964],[131.01826416300003,33.73256813500013],[131.01700031099995,33.73232677500005],[131.01708869000004,33.731812081000044],[131.01767197100014,33.731879640000045],[131.017686005,33.731818586000145],[131.01800888500009,33.73185722500006],[131.0180279770001,33.73177725200014],[131.01889106399994,33.731913486],[131.01880413699996,33.73242777500001],[131.01853533100018,33.732558],[131.01874286600003,33.73249577500013],[131.019024994,33.73270049500002],[131.01894489000017,33.73254441400002],[131.01937312600012,33.73180455000004],[131.019601051,33.73177638699997],[131.01956513599998,33.731709018],[131.01980613499995,33.73156066700005],[131.02024708200008,33.73153489200012],[131.02023258100007,33.731335359999946],[131.02073238700007,33.73104438699994],[131.02083765199995,33.730910315000074],[131.02107606999994,33.73088952299992],[131.02101034999998,33.73055669400003],[131.02108273700003,33.73023724299997],[131.02126505800015,33.729917847000024],[131.02148549899994,33.72973155900006],[131.021861051,33.72972680200013],[131.02176102500005,33.72932555000011],[131.02192788600007,33.72905116199996]]]}},{"type":"Feature","id":"40213:50314072","properties":{"id":"40213:50314072","meshCode":"50314072","cityCode":"40213","city":"行橋市","lat":33.7289875,"lon":131.0278884,"areaKm2":0.031936,"populated2020":false,"population2020":null,"populationNote":"境界またぎ・収録外等のため人口未集計"},"geometry":{"type":"Polygon","coordinates":[[[131.0266107000001,33.728183387000065],[131.026829001,33.72818153199995],[131.02683124500015,33.728504865000005],[131.02774538300014,33.728499973000105],[131.02774625200016,33.72985038700011],[131.027439027,33.72985813500003],[131.02743725000016,33.730084721000146],[131.0281586640001,33.730382143999975],[131.02877132300014,33.73046735100002],[131.0287692610001,33.72887474800012],[131.02803635500004,33.72887480200012],[131.02803520099997,33.727757613],[131.029733943,33.72774691899997],[131.02973552499998,33.72765710800008],[131.02683662799996,33.72768694600006],[131.02660271100012,33.72784292800004],[131.02657535699996,33.72942010800011],[131.02669338500016,33.72998966700009],[131.02686710800003,33.730308],[131.02715706899994,33.730625279000094],[131.02751607000005,33.73088666700005],[131.0278631650001,33.73105052300014],[131.02718469500007,33.73060374800002],[131.02676905299995,33.73006646800013],[131.02662416300006,33.72951469399999],[131.0266107000001,33.728183387000065]]]}},{"type":"Feature","id":"40213:50304781","properties":{"id":"40213:50304781","meshCode":"50304781","cityCode":"40213","city":"行橋市","lat":33.7372293,"lon":130.8975987,"areaKm2":0.4002105,"populated2020":false,"population2020":null,"populationNote":"境界またぎ・収録外等のため人口未集計"},"geometry":{"type":"Polygon","coordinates":[[[130.8951521656499,33.733333333333334],[130.894338327,33.734143613],[130.895164449,33.735066667],[130.895378327,33.735840559],[130.895354449,33.736176667],[130.895086667,33.73674972100001],[130.894782503,33.73824333299999],[130.894682776,33.738993054],[130.894784449,33.739226667],[130.895918327,33.740197775000006],[130.897006109,33.740933892],[130.897284721,33.741305829],[130.8973020230131,33.74166666666667],[130.9,33.74166666666666],[130.9,33.73333333333334],[130.8951521656499,33.733333333333334]]]}},{"type":"Feature","id":"40213:50304782","properties":{"id":"40213:50304782","meshCode":"50304782","cityCode":"40213","city":"行橋市","lat":33.7375,"lon":130.90625,"areaKm2":1.0704666,"populated2020":true,"population2020":15.3067,"populationNote":"収録500mメッシュ人口の合算（原典収録外は補完しない）"},"geometry":{"type":"Polygon","coordinates":[[[130.9125,33.733333333333334],[130.9,33.73333333333334],[130.9,33.74166666666666],[130.9125,33.74166666666666],[130.9125,33.733333333333334]]]}},{"type":"Feature","id":"40213:50304783","properties":{"id":"40213:50304783","meshCode":"50304783","cityCode":"40213","city":"行橋市","lat":33.7375,"lon":130.91875,"areaKm2":1.0704661,"populated2020":true,"population2020":297.7079,"populationNote":"収録500mメッシュ人口の合算（原典収録外は補完しない）"},"geometry":{"type":"Polygon","coordinates":[[[130.925,33.73333333333334],[130.9125,33.733333333333334],[130.9125,33.74166666666666],[130.925,33.74166666666666],[130.925,33.73333333333334]]]}},{"type":"Feature","id":"40213:50304784","properties":{"id":"40213:50304784","meshCode":"50304784","cityCode":"40213","city":"行橋市","lat":33.7371752,"lon":130.9309303,"areaKm2":0.9774906,"populated2020":true,"population2020":null,"populationNote":"境界またぎ・収録外等のため人口未集計"},"geometry":{"type":"Polygon","coordinates":[[[130.9375,33.733333333333334],[130.925,33.73333333333334],[130.925,33.74166666666666],[130.9311110890514,33.74166666666667],[130.931436109,33.74109000000001],[130.931903891,33.740561667],[130.933241115,33.74014222499999],[130.934471115,33.740082775],[130.934971946,33.739876946],[130.935270558,33.739835],[130.935555837,33.739850829],[130.936260272,33.740190559],[130.936851946,33.740213054],[130.9375,33.740083476851254],[130.9375,33.733333333333334]]]}},{"type":"Feature","id":"40213:50304785","properties":{"id":"40213:50304785","meshCode":"50304785","cityCode":"40213","city":"行橋市","lat":33.736055,"lon":130.9424246,"areaKm2":0.6049982,"populated2020":true,"population2020":null,"populationNote":"境界またぎ・収録外等のため人口未集計"},"geometry":{"type":"Polygon","coordinates":[[[130.943807497,33.73738],[130.943927497,33.737013333],[130.945062218,33.736650279],[130.945588054,33.73637889199999],[130.948146667,33.736199441],[130.94816917,33.73576666699999],[130.95,33.735684080999995],[130.95,33.733333333333334],[130.9375,33.733333333333334],[130.9375,33.740083476851254],[130.937934449,33.740024721],[130.938334163,33.740130828999995],[130.938695551,33.74013527899999],[130.94032555100003,33.740025829],[130.94074166,33.739968333],[130.941338327,33.73974],[130.942161115,33.740023054],[130.943043061,33.739963892],[130.94317,33.73982861299999],[130.943174994,33.73923610800001],[130.943426939,33.738295279],[130.94347,33.737456946],[130.943807497,33.73738]]]}},{"type":"Feature","id":"40213:50304786","properties":{"id":"40213:50304786","meshCode":"50304786","cityCode":"40213","city":"行橋市","lat":33.735531,"lon":130.9571144,"areaKm2":0.5225331,"populated2020":true,"population2020":null,"populationNote":"境界またぎ・収録外等のため人口未集計"},"geometry":{"type":"Polygon","coordinates":[[[130.95,33.735684080999995],[130.951373891,33.73566361300001],[130.951615837,33.735744162],[130.951905279,33.736417225],[130.95264055800004,33.736842775],[130.952740272,33.73721110799999],[130.95306917000002,33.737524441],[130.95467166,33.736991108000005],[130.95555917,33.736322225],[130.956418612,33.73615972099999],[130.957415837,33.736114721],[130.957410272,33.736328613],[130.956976667,33.73639777500001],[130.957008885,33.737312225],[130.957233606,33.737482495],[130.957176939,33.73784027899999],[130.956791115,33.738269721],[130.956994994,33.738680828999996],[130.957627782,33.738526667],[130.958627224,33.738435],[130.9625,33.7388277171809],[130.9625,33.73333333333334],[130.95,33.733333333333334],[130.95,33.735684080999995]]]}},{"type":"Feature","id":"40213:50304787","properties":{"id":"40213:50304787","meshCode":"50304787","cityCode":"40213","city":"行橋市","lat":33.7371007,"lon":130.9692485,"areaKm2":0.946854,"populated2020":true,"population2020":null,"populationNote":"境界またぎ・収録外等のため人口未集計"},"geometry":{"type":"Polygon","coordinates":[[[130.975,33.733333333333334],[130.9625,33.73333333333334],[130.9625,33.7388277171809],[130.964053061,33.738990829],[130.965156667,33.739297775],[130.968196939,33.741071387000005],[130.96868,33.74130861300001],[130.96981147777103,33.74166666666667],[130.975,33.74166666666667],[130.975,33.733333333333334]]]}},{"type":"Feature","id":"40213:50304788","properties":{"id":"40213:50304788","meshCode":"50304788","cityCode":"40213","city":"行橋市","lat":33.737462,"lon":130.9812066,"areaKm2":1.060361,"populated2020":true,"population2020":4597.9379,"populationNote":"収録500mメッシュ人口の合算（原典収録外は補完しない）"},"geometry":{"type":"Polygon","coordinates":[[[130.9875,33.733333333333334],[130.975,33.733333333333334],[130.975,33.74166666666667],[130.9841743065763,33.74166666666666],[130.984801388,33.741378613],[130.985712218,33.741203333],[130.986477497,33.74131249500001],[130.9875,33.74162768144181],[130.9875,33.733333333333334]]]}},{"type":"Feature","id":"40213:50304789","properties":{"id":"40213:50304789","meshCode":"50304789","cityCode":"40213","city":"行橋市","lat":33.7374999,"lon":130.9937501,"areaKm2":1.0704407,"populated2020":true,"population2020":1009.8096,"populationNote":"収録500mメッシュ人口の合算（原典収録外は補完しない）"},"geometry":{"type":"Polygon","coordinates":[[[131.0,33.733333333333334],[130.9875,33.733333333333334],[130.9875,33.74162768144181],[131.0,33.74166666666667],[131.0,33.733333333333334]]]}},{"type":"Feature","id":"40213:50314080","properties":{"id":"40213:50314080","meshCode":"50314080","cityCode":"40213","city":"行橋市","lat":33.7375,"lon":131.00625,"areaKm2":1.0704646,"populated2020":true,"population2020":420.6806,"populationNote":"収録500mメッシュ人口の合算（原典収録外は補完しない）"},"geometry":{"type":"Polygon","coordinates":[[[131.0125,33.733333333333334],[131.0,33.733333333333334],[131.0,33.74166666666667],[131.0125,33.74166666666666],[131.0125,33.733333333333334]]]}},{"type":"Feature","id":"40213:50314081","properties":{"id":"40213:50314081","meshCode":"50314081","cityCode":"40213","city":"行橋市","lat":33.738172,"lon":131.0145984,"areaKm2":0.3248807,"populated2020":true,"population2020":157.0158,"populationNote":"収録500mメッシュ人口の合算（原典収録外は補完しない）"},"geometry":{"type":"MultiPolygon","coordinates":[[[[131.01786655000012,33.73899325199994],[131.01464418900002,33.7346034410001],[131.0141569,33.73435589199994],[131.01417387800018,33.73399245000007],[131.0144161608609,33.733333333333334],[131.0125,33.733333333333334],[131.0125,33.74166666666666],[131.01632949420423,33.74166666666667],[131.01766603099998,33.73972353199997],[131.01794321700015,33.73984782900005],[131.01767233500016,33.73970923400003],[131.01790508399995,33.73934862200009],[131.01786655000012,33.73899325199994]]],[[[131.01855316503077,33.74166666666666],[131.01812194600018,33.741373495],[131.01839002600013,33.74033530599997],[131.01835603100005,33.73981964000013],[131.01836564200005,33.74031013500012],[131.01802946800012,33.74154277499997],[131.017557613,33.74147610800002],[131.0171388601206,33.74166666666667],[131.01855316503077,33.74166666666666]]]]}},{"type":"Feature","id":"40213:50304791","properties":{"id":"40213:50304791","meshCode":"50304791","cityCode":"40213","city":"行橋市","lat":33.744416,"lon":130.8989194,"areaKm2":0.1364067,"populated2020":false,"population2020":null,"populationNote":"境界またぎ・収録外等のため人口未集計"},"geometry":{"type":"Polygon","coordinates":[[[130.897301115,33.74169],[130.897310272,33.74203694599999],[130.89703,33.742835279000005],[130.89784166,33.744319162],[130.898156667,33.745504440999994],[130.898637497,33.746608892],[130.89866166,33.747068892],[130.89945083,33.748266946],[130.9,33.749439198],[130.9,33.74166666666666],[130.897301115,33.74169]]]}},{"type":"Feature","id":"40213:50304792","properties":{"id":"40213:50304792","meshCode":"50304792","cityCode":"40213","city":"行橋市","lat":33.7452383,"lon":130.9058222,"areaKm2":0.8876258,"populated2020":true,"population2020":10.2369,"populationNote":"収録500mメッシュ人口の合算（原典収録外は補完しない）"},"geometry":{"type":"Polygon","coordinates":[[[130.9125,33.74166666666666],[130.9,33.74166666666666],[130.9,33.749439198],[130.900316109,33.75000000000001],[130.90425719800004,33.74999999999999],[130.904562218,33.74970138700001],[130.904858327,33.749190279000004],[130.905081115,33.74857],[130.90563832700002,33.748244441000004],[130.905889442,33.748007494999996],[130.905984994,33.747778054],[130.90592917,33.747152495],[130.906353606,33.746737225],[130.906572776,33.746162225000006],[130.906842218,33.74601666699999],[130.907226109,33.74600277500001],[130.907638885,33.74689694600001],[130.907916394,33.74729555900001],[130.908388885,33.747698891999995],[130.909304163,33.748020559],[130.909620558,33.748218613],[130.910040558,33.74887777499999],[130.910751115,33.74842472099999],[130.91142083,33.748169441],[130.911906109,33.747788613],[130.912223333,33.747656666999994],[130.9125,33.74764086410819],[130.9125,33.74166666666666]]]}},{"type":"Feature","id":"40213:50304793","properties":{"id":"40213:50304793","meshCode":"50304793","cityCode":"40213","city":"行橋市","lat":33.744309,"lon":130.9181203,"areaKm2":0.653742,"populated2020":true,"population2020":null,"populationNote":"境界またぎ・収録外等のため人口未集計"},"geometry":{"type":"Polygon","coordinates":[[[130.922352503,33.745949721],[130.922558327,33.745433613],[130.923168612,33.745201107999996],[130.923886394,33.74497944099999],[130.925,33.744857892],[130.925,33.74166666666666],[130.9125,33.74166666666666],[130.9125,33.74764086410819],[130.913400558,33.747459162],[130.91460166,33.747421946],[130.915572776,33.74752194599999],[130.916497782,33.74775000000002],[130.918060558,33.747660559],[130.918781946,33.747204162],[130.919839728,33.747061946],[130.920132776,33.746921946],[130.920636667,33.746409441],[130.920983333,33.746214720999994],[130.922352503,33.745949721]]]}},{"type":"Feature","id":"40213:50304794","properties":{"id":"40213:50304794","meshCode":"50304794","cityCode":"40213","city":"行橋市","lat":33.7431578,"lon":130.9278114,"areaKm2":0.1812671,"populated2020":true,"population2020":48.062,"populationNote":"収録500mメッシュ人口の合算（原典収録外は補完しない）"},"geometry":{"type":"Polygon","coordinates":[[[130.925,33.744857892],[130.927115279,33.744865829],[130.928699442,33.744740279],[130.929248885,33.744613892],[130.929964163,33.744277495000006],[130.93052944200002,33.743813892000006],[130.930795279,33.743432775],[130.931086394,33.74249916200001],[130.9311110890514,33.74166666666667],[130.925,33.74166666666666],[130.925,33.744857892]]]}},{"type":"Feature","id":"40213:50304797","properties":{"id":"40213:50304797","meshCode":"50304797","cityCode":"40213","city":"行橋市","lat":33.7419293,"lon":130.9746007,"areaKm2":0.0090255,"populated2020":true,"population2020":null,"populationNote":"境界またぎ・収録外等のため人口未集計"},"geometry":{"type":"Polygon","coordinates":[[[130.969811479,33.741666667],[130.970408327,33.741808332999994],[130.972748612,33.741752225],[130.973563333,33.74180527899999],[130.973982776,33.741858613000005],[130.975,33.74220200000001],[130.975,33.74166666666667],[130.969811479,33.741666667]]]}},{"type":"Feature","id":"40213:50304798","properties":{"id":"40213:50304798","meshCode":"50304798","cityCode":"40213","city":"行橋市","lat":33.7430053,"lon":130.9790552,"areaKm2":0.1918922,"populated2020":true,"population2020":null,"populationNote":"境界またぎ・収録外等のため人口未集計"},"geometry":{"type":"Polygon","coordinates":[[[130.978876939,33.74527444100001],[130.982436667,33.742771387],[130.9841743065763,33.74166666666666],[130.975,33.74166666666667],[130.975,33.74220200000001],[130.975525279,33.742419440999996],[130.975908885,33.74275638700001],[130.977257782,33.744772775],[130.977903606,33.745219721],[130.97852944200002,33.745340279000004],[130.978876939,33.74527444100001]]]}},{"type":"Feature","id":"40213:50304799","properties":{"id":"40213:50304799","meshCode":"50304799","cityCode":"40213","city":"行橋市","lat":33.7439654,"lon":130.9961861,"areaKm2":0.4046991,"populated2020":true,"population2020":null,"populationNote":"境界またぎ・収録外等のため人口未集計"},"geometry":{"type":"Polygon","coordinates":[[[130.9876158101301,33.74166666666667],[130.989864449,33.742503333],[130.991769728,33.743402495],[130.994090558,33.74491416200001],[130.996026667,33.746035829000014],[130.99870861200003,33.747981667],[131.0,33.74863889200005],[131.0,33.74166666666667],[130.9876158101301,33.74166666666667]]]}},{"type":"Feature","id":"40213:50314090","properties":{"id":"40213:50314090","meshCode":"50314090","cityCode":"40213","city":"行橋市","lat":33.7450806,"lon":131.0058828,"areaKm2":0.7659385,"populated2020":true,"population2020":169.8402,"populationNote":"収録500mメッシュ人口の合算（原典収録外は補完しない）"},"geometry":{"type":"Polygon","coordinates":[[[131.00589795100007,33.74639955899999],[131.00619686100015,33.74553349500014],[131.00831717300002,33.74391308099996],[131.00868966300015,33.74425541399995],[131.00965753599996,33.74472686499996],[131.00976620000017,33.745068350999986],[131.00943583700007,33.74550236000011],[131.0091466670001,33.745541532],[131.00838907900015,33.746532586000114],[131.00797152999996,33.748319081000034],[131.009141946,33.75000000000001],[131.008428911,33.748965252000126],[131.00807936399997,33.748287333000064],[131.00849508400006,33.746545306000094],[131.00920756200017,33.745611667],[131.00936783400005,33.74559577499991],[131.00934766500006,33.745676027],[131.00962878100006,33.74529497300011],[131.01017538299993,33.74559146800004],[131.00989211400008,33.74596380200012],[131.01163902700011,33.74689389199994],[131.01076866400012,33.74803482900012],[131.00938625200013,33.747300198],[131.00905968899997,33.74772155900012],[131.010718366,33.74860511700007],[131.01027422800007,33.74918459500004],[131.00986719799994,33.748969829000025],[131.00950927400004,33.74906174800009],[131.00985338500016,33.74903953200005],[131.01050147900014,33.74937010800005],[131.01058946800003,33.74948472099999],[131.01035588800005,33.74945966700005],[131.00988169900018,33.74918694599996],[131.00974083000017,33.74920769400013],[131.009633774,33.749423107999974],[131.009897756,33.749919829000135],[131.00996880699978,33.75],[131.0125,33.75000000000001],[131.0125,33.74166666666666],[131.0,33.74166666666667],[131.0,33.74863889200005],[131.002464163,33.74950472100005],[131.00416827499998,33.749918243000025],[131.0043284310001,33.74817409000003],[131.00501046700003,33.747722044999996],[131.005605499,33.747004865],[131.00589795100007,33.74639955899999]]]}},{"type":"Feature","id":"40213:50314091","properties":{"id":"40213:50314091","meshCode":"50314091","cityCode":"40213","city":"行橋市","lat":33.7457104,"lon":131.0153184,"areaKm2":0.4637315,"populated2020":true,"population2020":590.1836,"populationNote":"収録500mメッシュ人口の合算（原典収録外は補完しない）"},"geometry":{"type":"Polygon","coordinates":[[[131.01856939000004,33.74424746800002],[131.0178958880001,33.74374274799999],[131.017883217,33.74356466700009],[131.01825978,33.74198608100005],[131.01855316503077,33.74166666666666],[131.0171388601206,33.74166666666667],[131.01657335899995,33.74186197300009],[131.01636869000004,33.74224438700008],[131.01627866399997,33.742655026999955],[131.01691444900018,33.743009748000134],[131.01671155600013,33.743631468000046],[131.01629880700003,33.743644414000016],[131.015806861,33.74356594600011],[131.01567277599997,33.74343838699997],[131.01620891100004,33.741910532000134],[131.01644277599996,33.74187733300011],[131.01635674399995,33.74184380200011],[131.01632949420423,33.74166666666667],[131.0125,33.74166666666666],[131.0125,33.75000000000001],[131.0167652270002,33.75000000000001],[131.01682588799997,33.74995269400012],[131.01672319099998,33.749726414],[131.01680581100004,33.74930189200006],[131.0171662780001,33.74802833299993],[131.01744094700018,33.74746819800004],[131.01787469500005,33.747183387],[131.018070856,33.74738072100001],[131.01829555100005,33.747323251999944],[131.018707134,33.74690933300007],[131.01896435800006,33.74694374799998],[131.01905649800017,33.746868802],[131.0189694940001,33.74675205400012],[131.01904438400004,33.74673382899993],[131.018938586,33.746645918999945],[131.0189838,33.746122775],[131.01932525300015,33.745329162000026],[131.019200856,33.745066081],[131.01893975400014,33.74495649499999],[131.01856939000004,33.74424746800002]]]}},{"type":"Feature","id":"40213:50305702","properties":{"id":"40213:50305702","meshCode":"50305702","cityCode":"40213","city":"行橋市","lat":33.751262,"lon":130.9023901,"areaKm2":0.0689697,"populated2020":false,"population2020":null,"populationNote":"境界またぎ・収録外等のため人口未集計"},"geometry":{"type":"Polygon","coordinates":[[[130.900334163,33.750025279000006],[130.901662776,33.751868333000004],[130.902258327,33.75320610799999],[130.903924721,33.752483612999995],[130.903636939,33.751860558999994],[130.903316394,33.75155694600001],[130.903276109,33.751325],[130.903648612,33.750374441],[130.90425719800004,33.74999999999999],[130.900334163,33.750025279000006]]]}},{"type":"Feature","id":"40213:50315000","properties":{"id":"40213:50315000","meshCode":"50315000","cityCode":"40213","city":"行橋市","lat":33.7503533,"lon":131.0117034,"areaKm2":0.0115071,"populated2020":true,"population2020":16.2613,"populationNote":"収録500mメッシュ人口の合算（原典収録外は補完しない）"},"geometry":{"type":"MultiPolygon","coordinates":[[[[131.00912011700004,33.75000000000001],[131.009569585,33.750651559],[131.009584916,33.750644865],[131.00912011700004,33.75000000000001]]],[[[131.00998778200017,33.750011775000075],[131.0105238000001,33.750162865],[131.01107968899998,33.750195162000075],[131.011343645,33.750435080999985],[131.0125,33.751040881234566],[131.0125,33.75000000000001],[131.00998778200017,33.750011775000075]]],[[[131.010117782,33.751284919],[131.010456835,33.75152805399999],[131.010906978,33.75173513499999],[131.010258418,33.751374973],[131.009738223,33.75088838700001],[131.010117782,33.751284919]]]]}},{"type":"Feature","id":"40213:50315001","properties":{"id":"40213:50315001","meshCode":"50315001","cityCode":"40213","city":"行橋市","lat":33.7505141,"lon":131.0143478,"areaKm2":0.0417557,"populated2020":false,"population2020":null,"populationNote":"境界またぎ・収録外等のため人口未集計"},"geometry":{"type":"Polygon","coordinates":[[[131.0125,33.751040881234566],[131.01323260699996,33.75138425200003],[131.01332564200015,33.75118533300002],[131.0142477170001,33.75093736000002],[131.01471577200005,33.75103522500007],[131.01523775600003,33.75092002700011],[131.01556827499996,33.75098536000007],[131.01616267200018,33.750802252000035],[131.0167652270002,33.75000000000001],[131.0125,33.75000000000001],[131.0125,33.751040881234566]]]}}]}