{"type":"FeatureCollection","metadata":{"cityCode":"40229","city":"みやま市","resolution":1000,"boundaryDate":"2026-01-01","populationLabel":"2020年基準人口（国交省調整値）","method":"標準地域メッシュを行政界で切抜き。中心が区域外のとき区域内代表点を判定点にする。人口不明をゼロにしない。"},"features":[{"type":"Feature","id":"40229:49304383","properties":{"id":"40229:49304383","meshCode":"49304383","cityCode":"40229","city":"みやま市","lat":33.073764,"lon":130.4202952,"areaKm2":0.217545,"populated2020":false,"population2020":null,"populationNote":"境界またぎ・収録外等のため人口未集計"},"geometry":{"type":"Polygon","coordinates":[[[130.418394163,33.072087495000005],[130.417677717,33.07189000000001],[130.417536135,33.072210919],[130.417413476,33.072170559],[130.417321219,33.072454667],[130.41660841800004,33.072212108],[130.416579689,33.072269225],[130.417365525,33.072563972999994],[130.417287717,33.072759252],[130.417112387,33.072705946],[130.416474747,33.074000865],[130.416189144,33.073911252],[130.415607808,33.07500000000001],[130.425,33.074999999999996],[130.425,33.07354364],[130.419318054,33.071948892],[130.418547224,33.071790279],[130.418394163,33.072087495000005]]]}},{"type":"Feature","id":"40229:49304384","properties":{"id":"40229:49304384","meshCode":"49304384","cityCode":"40229","city":"みやま市","lat":33.0744527,"lon":130.4260194,"areaKm2":0.0257612,"populated2020":true,"population2020":null,"populationNote":"境界またぎ・収録外等のため人口未集計"},"geometry":{"type":"Polygon","coordinates":[[[130.427837782,33.075],[130.426457224,33.073986108],[130.425,33.07354364],[130.425,33.074999999999996],[130.427837782,33.075]]]}},{"type":"Feature","id":"40229:49304393","properties":{"id":"40229:49304393","meshCode":"49304393","cityCode":"40229","city":"みやま市","lat":33.0793943,"lon":130.4194179,"areaKm2":0.95336,"populated2020":false,"population2020":null,"populationNote":"境界またぎ・収録外等のため人口未集計"},"geometry":{"type":"Polygon","coordinates":[[[130.415607808,33.07500000000001],[130.414728003,33.076741162],[130.414698949,33.078990892],[130.415009805,33.078989441],[130.414990726,33.079140802],[130.414556615,33.07951444099999],[130.413169831,33.080375054],[130.412736226,33.080518027],[130.4125,33.080710484321656],[130.4125,33.083333333333336],[130.425,33.083333333333336],[130.425,33.074999999999996],[130.415607808,33.07500000000001]]]}},{"type":"Feature","id":"40229:49304394","properties":{"id":"40229:49304394","meshCode":"49304394","cityCode":"40229","city":"みやま市","lat":33.0793343,"lon":130.4311621,"areaKm2":1.0337255,"populated2020":true,"population2020":225.3217,"populationNote":"収録500mメッシュ人口の合算（原典収録外は補完しない）"},"geometry":{"type":"Polygon","coordinates":[[[130.43078166,33.075370559],[130.43004083,33.075755559],[130.429425551,33.07567722500001],[130.428604721,33.07547777500001],[130.427837782,33.075],[130.425,33.074999999999996],[130.425,33.083333333333336],[130.4375,33.08333333333333],[130.4375,33.07607900854531],[130.435851115,33.075513054],[130.435490272,33.07545861300001],[130.433884163,33.07546833300001],[130.432638054,33.075039441],[130.431734994,33.07509166700001],[130.43078166,33.075370559]]]}},{"type":"Feature","id":"40229:49304395","properties":{"id":"40229:49304395","meshCode":"49304395","cityCode":"40229","city":"みやま市","lat":33.0803896,"lon":130.4418337,"areaKm2":0.5869871,"populated2020":true,"population2020":null,"populationNote":"境界またぎ・収録外等のため人口未集計"},"geometry":{"type":"Polygon","coordinates":[[[130.443766667,33.07816],[130.440589728,33.076489441],[130.439146939,33.07593916199999],[130.4375,33.07607900854531],[130.4375,33.08333333333333],[130.4486753571064,33.08333333333333],[130.447808327,33.081446108],[130.447413333,33.080975279],[130.446543606,33.08050444100001],[130.44523917,33.07935944100001],[130.444745279,33.078804162000004],[130.443766667,33.07816]]]}},{"type":"Feature","id":"40229:49304392","properties":{"id":"40229:49304392","meshCode":"49304392","cityCode":"40229","city":"みやま市","lat":33.082029,"lon":130.4123666,"areaKm2":0.0063743,"populated2020":false,"population2020":null,"populationNote":"境界またぎ・収録外等のため人口未集計"},"geometry":{"type":"Polygon","coordinates":[[[130.412491167,33.080718748],[130.412188275,33.08117427900001],[130.41223275,33.082032694],[130.412372335,33.08225255899999],[130.412366498,33.08292419799999],[130.412179144,33.08302810799999],[130.41216457802898,33.08333333333334],[130.4125,33.083333333333336],[130.412491167,33.080718748]]]}},{"type":"Feature","id":"40229:49304491","properties":{"id":"40229:49304491","meshCode":"49304491","cityCode":"40229","city":"みやま市","lat":33.0830631,"lon":130.5238783,"areaKm2":0.0136676,"populated2020":false,"population2020":null,"populationNote":"境界またぎ・収録外等のため人口未集計"},"geometry":{"type":"Polygon","coordinates":[[[130.525,33.082635964000005],[130.523818742,33.082764892],[130.523095383,33.08292986500001],[130.522715914,33.082920404999996],[130.522521751,33.083000117],[130.5224082878883,33.083333333333336],[130.525,33.083333333333336],[130.525,33.082635964000005]]]}},{"type":"Feature","id":"40229:49304492","properties":{"id":"40229:49304492","meshCode":"49304492","cityCode":"40229","city":"みやま市","lat":33.0830764,"lon":130.5263507,"areaKm2":0.0158628,"populated2020":false,"population2020":null,"populationNote":"境界またぎ・収録外等のため人口未集計"},"geometry":{"type":"Polygon","coordinates":[[[130.528629468,33.083333333000006],[130.528229883,33.083022171],[130.52777655,33.08317716199999],[130.527538223,33.083177162000005],[130.527220169,33.08300882900001],[130.526252944,33.082740775000005],[130.52567572,33.082769937],[130.525197665,33.082610495000004],[130.525,33.082635964000005],[130.525,33.083333333333336],[130.528629468,33.083333333000006]]]}},{"type":"Feature","id":"40229:49304493","properties":{"id":"40229:49304493","meshCode":"49304493","cityCode":"40229","city":"みやま市","lat":33.0822209,"lon":130.5457261,"areaKm2":0.1245567,"populated2020":true,"population2020":null,"populationNote":"境界またぎ・収録外等のため人口未集計"},"geometry":{"type":"Polygon","coordinates":[[[130.548388106,33.083313613],[130.548020052,33.08291666699999],[130.547955603,33.08272277499999],[130.548452542,33.081762775],[130.548553645,33.081356658],[130.54845559,33.08097971200001],[130.548077536,33.08074444100001],[130.547191712,33.08071055],[130.546631154,33.080569153000006],[130.546308392,33.080656658],[130.545498949,33.081061378],[130.544888405,33.08179609900001],[130.544284241,33.082270541],[130.54411869,33.082316657999996],[130.543920078,33.08222804500001],[130.543518975,33.081854153],[130.54318703,33.081720261],[130.542799533,33.08167415300001],[130.542453424,33.081735261],[130.54230426700002,33.082378874],[130.54222958497598,33.083333333333336],[130.548388106,33.083313613]]]}},{"type":"Feature","id":"40229:49304494","properties":{"id":"40229:49304494","meshCode":"49304494","cityCode":"40229","city":"みやま市","lat":33.0831967,"lon":130.5524017,"areaKm2":0.0025771,"populated2020":false,"population2020":null,"populationNote":"境界またぎ・収録外等のため人口未集計"},"geometry":{"type":"Polygon","coordinates":[[[130.55180901369053,33.08333333333333],[130.55289835326641,33.08333333333334],[130.552731414,33.083055009],[130.552464462,33.082971955],[130.55180901369053,33.08333333333333]]]}},{"type":"Feature","id":"40229:49305302","properties":{"id":"40229:49305302","meshCode":"49305302","cityCode":"40229","city":"みやま市","lat":33.0865894,"lon":130.4121638,"areaKm2":0.0069781,"populated2020":false,"population2020":null,"populationNote":"境界またぎ・収録外等のため人口未集計"},"geometry":{"type":"MultiPolygon","coordinates":[[[[130.41216457802898,33.08333333333334],[130.412353217,33.08391461299999],[130.4125,33.08410316020778],[130.4125,33.083333333333336],[130.41216457802898,33.08333333333334]]],[[[130.411729351,33.086683234],[130.4125,33.08725212594693],[130.4125,33.08594716765266],[130.411925888,33.086495514],[130.411729351,33.086683234]]]]}},{"type":"Feature","id":"40229:49305303","properties":{"id":"40229:49305303","meshCode":"49305303","cityCode":"40229","city":"みやま市","lat":33.0871057,"lon":130.4194701,"areaKm2":0.9230623,"populated2020":false,"population2020":null,"populationNote":"境界またぎ・収録外等のため人口未集計"},"geometry":{"type":"Polygon","coordinates":[[[130.4125,33.08410316020778],[130.413519546,33.084973378],[130.4125,33.08594716765266],[130.4125,33.08725212594693],[130.414254449,33.088384441],[130.416818054,33.090242225],[130.41862868957628,33.09166666666667],[130.425,33.09166666666667],[130.425,33.083333333333336],[130.4125,33.083333333333336],[130.4125,33.08410316020778]]]}},{"type":"Feature","id":"40229:49305304","properties":{"id":"40229:49305304","meshCode":"49305304","cityCode":"40229","city":"みやま市","lat":33.0875,"lon":130.43125,"areaKm2":1.0784302,"populated2020":true,"population2020":177.83,"populationNote":"収録500mメッシュ人口の合算（原典収録外は補完しない）"},"geometry":{"type":"Polygon","coordinates":[[[130.4375,33.08333333333333],[130.425,33.083333333333336],[130.425,33.09166666666667],[130.4375,33.09166666666667],[130.4375,33.08333333333333]]]}},{"type":"Feature","id":"40229:49305305","properties":{"id":"40229:49305305","meshCode":"49305305","cityCode":"40229","city":"みやま市","lat":33.0875459,"lon":130.4436547,"areaKm2":1.0611033,"populated2020":true,"population2020":250.512,"populationNote":"収録500mメッシュ人口の合算（原典収録外は補完しない）"},"geometry":{"type":"Polygon","coordinates":[[[130.449778327,33.087452495],[130.449786394,33.086449441],[130.449853333,33.086172225],[130.45,33.08603769400001],[130.45,33.08487336],[130.448914994,33.08390944100001],[130.4486753571064,33.08333333333333],[130.4375,33.08333333333333],[130.4375,33.09166666666667],[130.45,33.09166666666667],[130.45,33.08789189200001],[130.449593333,33.087888613000004],[130.449778327,33.087452495]]]}},{"type":"Feature","id":"40229:49305306","properties":{"id":"40229:49305306","meshCode":"49305306","cityCode":"40229","city":"みやま市","lat":33.089934,"lon":130.455696,"areaKm2":0.4311793,"populated2020":true,"population2020":null,"populationNote":"境界またぎ・収録外等のため人口未集計"},"geometry":{"type":"MultiPolygon","coordinates":[[[[130.450426667,33.085815279],[130.450750272,33.085488054],[130.45,33.08487336],[130.45,33.08603769400001],[130.450426667,33.085815279]]],[[[130.455875279,33.088360558999995],[130.455433606,33.08841666699999],[130.454767224,33.08798082900001],[130.453762776,33.087951946],[130.451723061,33.087679441000006],[130.45,33.08789189200001],[130.45,33.09166666666667],[130.4625,33.09166666666667],[130.4625,33.08885410162331],[130.462271946,33.088832495000005],[130.461482218,33.089099441],[130.461359442,33.089102225],[130.461006667,33.088878613],[130.460467782,33.088964441],[130.45986917,33.088953054],[130.459563891,33.08857166699999],[130.459132218,33.088465559],[130.458385551,33.088815279],[130.457713606,33.088973054],[130.45769000000004,33.08873222500001],[130.457584163,33.08868638700001],[130.456806394,33.088700559],[130.455875279,33.088360558999995]]]]}},{"type":"Feature","id":"40229:49305308","properties":{"id":"40229:49305308","meshCode":"49305308","cityCode":"40229","city":"みやま市","lat":33.0889396,"lon":130.4819511,"areaKm2":0.6756315,"populated2020":true,"population2020":null,"populationNote":"境界またぎ・収録外等のため人口未集計"},"geometry":{"type":"Polygon","coordinates":[[[130.486871115,33.085616108],[130.48617917,33.085251108],[130.485883891,33.085208333],[130.484880272,33.085293892],[130.483483061,33.085017775],[130.483095837,33.08503082899999],[130.482764721,33.085215279],[130.482626939,33.085623333],[130.482003606,33.085936387],[130.481714994,33.086189721],[130.481472218,33.086676387],[130.481183333,33.08685416200001],[130.480255551,33.087118054],[130.479933333,33.087284440999994],[130.479206939,33.087037775],[130.478154994,33.086908613],[130.478042503,33.086948892],[130.477806939,33.087312775],[130.47746083,33.087413054],[130.47705832700004,33.087705829],[130.476586109,33.087602495],[130.476166394,33.087674162],[130.475755551,33.088144441],[130.475504721,33.08870389199999],[130.475381946,33.088764162],[130.475,33.088740892000004],[130.475,33.09166666666667],[130.4875,33.09166666666666],[130.4875,33.08569618687298],[130.487176394,33.08556694600001],[130.486871115,33.085616108]]]}},{"type":"Feature","id":"40229:49305309","properties":{"id":"40229:49305309","meshCode":"49305309","cityCode":"40229","city":"みやま市","lat":33.0894737,"lon":130.4921955,"areaKm2":0.4733121,"populated2020":false,"population2020":null,"populationNote":"境界またぎ・収録外等のため人口未集計"},"geometry":{"type":"Polygon","coordinates":[[[130.492989728,33.08723472100001],[130.491297497,33.086573892],[130.490155837,33.08644222499999],[130.488935837,33.085994721],[130.488714721,33.08582027900001],[130.487943891,33.085856387],[130.4875,33.08569618687298],[130.4875,33.09166666666666],[130.5,33.09166666666667],[130.5,33.090122775000005],[130.49846166,33.089841666999995],[130.497578885,33.089768892],[130.49731,33.089994999999995],[130.497126939,33.090033613],[130.495758885,33.090004721],[130.495656394,33.089927775],[130.495541946,33.08941277500001],[130.494829442,33.088372775],[130.492989728,33.08723472100001]]]}},{"type":"Feature","id":"40229:49305401","properties":{"id":"40229:49305401","meshCode":"49305401","cityCode":"40229","city":"みやま市","lat":33.0878014,"lon":130.5227056,"areaKm2":0.3850478,"populated2020":false,"population2020":null,"populationNote":"境界またぎ・収録外等のため人口未集計"},"geometry":{"type":"Polygon","coordinates":[[[130.522398132,33.08336316199999],[130.522159767,33.083921468],[130.520728833,33.085444964],[130.520490195,33.086109377999996],[130.519653191,33.087058486],[130.520228444,33.088420117],[130.520191479,33.088975099],[130.51993339800003,33.08962618],[130.519977549,33.089966450000006],[130.5202131,33.09024782899999],[130.520405019,33.090965586],[130.520279455,33.091231964],[130.51963011754208,33.09166666666667],[130.525,33.09166666666667],[130.525,33.083333333333336],[130.522398132,33.08336316199999]]]}},{"type":"Feature","id":"40229:49305402","properties":{"id":"40229:49305402","meshCode":"49305402","cityCode":"40229","city":"みやま市","lat":33.088019,"lon":130.5298241,"areaKm2":0.7914667,"populated2020":false,"population2020":null,"populationNote":"境界またぎ・収録外等のため人口未集計"},"geometry":{"type":"Polygon","coordinates":[[[130.530687639,33.08376882899999],[130.530019585,33.08381493700001],[130.529386809,33.083695766000005],[130.529162931,33.083460495],[130.5286294698152,33.083333333333336],[130.525,33.083333333333336],[130.525,33.09166666666667],[130.5375,33.09166666666667],[130.5375,33.09061044287709],[130.536338457,33.090501865],[130.535940117,33.090664630999996],[130.535548988,33.090509063000006],[130.535394267,33.090124333],[130.535534553,33.089487964],[130.535335383,33.088844072],[130.534885383,33.08819267599999],[130.534627328,33.08797073000001],[130.534066485,33.087719054],[130.53380454000003,33.087430721000004],[130.533786213,33.086961009],[130.534033437,33.086676847],[130.534082062,33.086259909999995],[130.534055668,33.085967414],[130.533916783,33.085752144000004],[130.533402062,33.085444919],[130.532386226,33.085382685],[130.532112348,33.084476314999996],[130.531856511,33.08442603600001],[130.531688742,33.084497144],[130.531441518,33.084346315],[130.531088197,33.083876883],[130.530687639,33.08376882899999]]]}},{"type":"Feature","id":"40229:49305403","properties":{"id":"40229:49305403","meshCode":"49305403","cityCode":"40229","city":"みやま市","lat":33.0879275,"lon":130.5448484,"areaKm2":0.8440428,"populated2020":true,"population2020":null,"populationNote":"境界またぎ・収録外等のため人口未集計"},"geometry":{"type":"Polygon","coordinates":[[[130.542092049,33.08391164900001],[130.542180389,33.085036649],[130.541977328,33.08511636899999],[130.54183594,33.085275811],[130.541509287,33.08603775699999],[130.541279559,33.086267756999995],[130.540749844,33.086055252],[130.540432062,33.086383036],[130.539629027,33.087682477],[130.53886904,33.08965830599999],[130.538891258,33.090183577],[130.53904487700004,33.090618027],[130.5375,33.09061044287709],[130.5375,33.09166666666667],[130.55,33.09166666666667],[130.55,33.08456205400001],[130.549750324,33.08449194599999],[130.549078379,33.084079721],[130.54840726331724,33.08333333333333],[130.54222958497598,33.083333333333336],[130.542092049,33.08391164900001]]]}},{"type":"Feature","id":"40229:49305404","properties":{"id":"40229:49305404","meshCode":"49305404","cityCode":"40229","city":"みやま市","lat":33.0882942,"lon":130.5557179,"areaKm2":0.8490817,"populated2020":true,"population2020":107.3039,"populationNote":"収録500mメッシュ人口の合算（原典収録外は補完しない）"},"geometry":{"type":"Polygon","coordinates":[[[130.55150559,33.083598622000004],[130.551019754,33.083673613],[130.550715863,33.08383973000001],[130.550347808,33.084430559],[130.550090597,33.084587505],[130.55,33.08456205400001],[130.55,33.09166666666667],[130.5625,33.09166666666667],[130.5625,33.08637500756839],[130.560202776,33.086147252],[130.559761388,33.086045577],[130.55946805400004,33.085741414],[130.558924163,33.085621414],[130.558381115,33.085667523000005],[130.557722789,33.085930297],[130.556445006,33.085962514],[130.555956122,33.08609168500001],[130.555758898,33.085981126000014],[130.555490013,33.085500847],[130.553982802,33.083904459],[130.553320026,33.08370139600001],[130.553081128,33.083562793],[130.55289835326641,33.08333333333334],[130.55180901369053,33.08333333333333],[130.55150559,33.083598622000004]]]}},{"type":"Feature","id":"40229:49305405","properties":{"id":"40229:49305405","meshCode":"49305405","cityCode":"40229","city":"みやま市","lat":33.0890457,"lon":130.5638923,"areaKm2":0.1473881,"populated2020":false,"population2020":null,"populationNote":"境界またぎ・収録外等のため人口未集計"},"geometry":{"type":"Polygon","coordinates":[[[130.565721064,33.08725308999999],[130.565612451,33.08710558600001],[130.565388016,33.087004476999994],[130.564226628,33.086771703],[130.564194137,33.086677532],[130.563887743,33.086492811],[130.5625,33.08637500756839],[130.5625,33.09166666666667],[130.565426628,33.091633359999996],[130.565388016,33.091221694000005],[130.564923294,33.09056947700001],[130.564822737,33.090134477],[130.565124682,33.089381143999994],[130.565256342,33.08878309],[130.565775227,33.088216144],[130.565721064,33.08725308999999]]]}},{"type":"Feature","id":"40229:49305307","properties":{"id":"40229:49305307","meshCode":"49305307","cityCode":"40229","city":"みやま市","lat":33.0900105,"lon":130.4687921,"areaKm2":0.4193988,"populated2020":true,"population2020":null,"populationNote":"境界またぎ・収録外等のため人口未集計"},"geometry":{"type":"Polygon","coordinates":[[[130.46846693900002,33.088210559],[130.466986939,33.087731667],[130.466364449,33.087605278999995],[130.46582917,33.087602495000006],[130.465709728,33.087846387],[130.465325837,33.088061387],[130.464996939,33.088591667],[130.464485279,33.08899610800001],[130.463588327,33.08918249500001],[130.4625,33.08885410162331],[130.4625,33.09166666666667],[130.475,33.09166666666667],[130.475,33.088740892000004],[130.474360558,33.088557495],[130.473507782,33.088041387000004],[130.473245279,33.08796666700001],[130.472958612,33.088032775],[130.472600558,33.088348054],[130.472365279,33.088938892],[130.471801115,33.089073892],[130.471166667,33.088967775],[130.470718054,33.088580559],[130.469908054,33.088302225],[130.46846693900002,33.088210559]]]}},{"type":"Feature","id":"40229:49305400","properties":{"id":"40229:49305400","meshCode":"49305400","cityCode":"40229","city":"みやま市","lat":33.0910953,"lon":130.5021365,"areaKm2":0.056726,"populated2020":true,"population2020":null,"populationNote":"境界またぎ・収録外等のため人口未集計"},"geometry":{"type":"Polygon","coordinates":[[[130.50597713319306,33.09166666666667],[130.50536083000003,33.091329162],[130.504467782,33.091158891999996],[130.503774163,33.0909],[130.503301946,33.090929441000014],[130.502947782,33.090685279000006],[130.501826109,33.09040389200001],[130.501316939,33.090344721],[130.500564721,33.090070829000005],[130.5,33.090122775000005],[130.5,33.09166666666667],[130.50597713319306,33.09166666666667]]]}},{"type":"Feature","id":"40229:49305313","properties":{"id":"40229:49305313","meshCode":"49305313","cityCode":"40229","city":"みやま市","lat":33.0943614,"lon":130.4230752,"areaKm2":0.2401634,"populated2020":false,"population2020":null,"populationNote":"境界またぎ・収録外等のため人口未集計"},"geometry":{"type":"Polygon","coordinates":[[[130.418666109,33.091696108],[130.420843606,33.093667225],[130.422322776,33.09560444099999],[130.423112503,33.096677775],[130.424382776,33.09933944099999],[130.42482917,33.1],[130.425,33.1],[130.425,33.09166666666667],[130.418666109,33.091696108]]]}},{"type":"Feature","id":"40229:49305314","properties":{"id":"40229:49305314","meshCode":"49305314","cityCode":"40229","city":"みやま市","lat":33.0958333,"lon":130.43125,"areaKm2":1.0783298,"populated2020":true,"population2020":147.6269,"populationNote":"収録500mメッシュ人口の合算（原典収録外は補完しない）"},"geometry":{"type":"Polygon","coordinates":[[[130.4375,33.09166666666667],[130.425,33.09166666666667],[130.425,33.1],[130.4375,33.099999999999994],[130.4375,33.09166666666667]]]}},{"type":"Feature","id":"40229:49305315","properties":{"id":"40229:49305315","meshCode":"49305315","cityCode":"40229","city":"みやま市","lat":33.0958333,"lon":130.44375,"areaKm2":1.0783266,"populated2020":true,"population2020":419.4084,"populationNote":"収録500mメッシュ人口の合算（原典収録外は補完しない）"},"geometry":{"type":"Polygon","coordinates":[[[130.45,33.09166666666667],[130.4375,33.09166666666667],[130.4375,33.099999999999994],[130.45,33.1],[130.45,33.09166666666667]]]}},{"type":"Feature","id":"40229:49305316","properties":{"id":"40229:49305316","meshCode":"49305316","cityCode":"40229","city":"みやま市","lat":33.0958333,"lon":130.45625,"areaKm2":1.0783234,"populated2020":true,"population2020":1913.1253,"populationNote":"収録500mメッシュ人口の合算（原典収録外は補完しない）"},"geometry":{"type":"Polygon","coordinates":[[[130.4625,33.09166666666667],[130.45,33.09166666666667],[130.45,33.1],[130.4625,33.1],[130.4625,33.09166666666667]]]}},{"type":"Feature","id":"40229:49305317","properties":{"id":"40229:49305317","meshCode":"49305317","cityCode":"40229","city":"みやま市","lat":33.0958333,"lon":130.46875,"areaKm2":1.0783203,"populated2020":true,"population2020":412.4387,"populationNote":"収録500mメッシュ人口の合算（原典収録外は補完しない）"},"geometry":{"type":"Polygon","coordinates":[[[130.475,33.09166666666667],[130.4625,33.09166666666667],[130.4625,33.1],[130.475,33.099999999999994],[130.475,33.09166666666667]]]}},{"type":"Feature","id":"40229:49305318","properties":{"id":"40229:49305318","meshCode":"49305318","cityCode":"40229","city":"みやま市","lat":33.0958333,"lon":130.48125,"areaKm2":1.0783173,"populated2020":true,"population2020":202.5764,"populationNote":"収録500mメッシュ人口の合算（原典収録外は補完しない）"},"geometry":{"type":"Polygon","coordinates":[[[130.4875,33.09166666666666],[130.475,33.09166666666667],[130.475,33.099999999999994],[130.4875,33.099999999999994],[130.4875,33.09166666666666]]]}},{"type":"Feature","id":"40229:49305319","properties":{"id":"40229:49305319","meshCode":"49305319","cityCode":"40229","city":"みやま市","lat":33.0958333,"lon":130.49375,"areaKm2":1.0783143,"populated2020":true,"population2020":14.1947,"populationNote":"収録500mメッシュ人口の合算（原典収録外は補完しない）"},"geometry":{"type":"Polygon","coordinates":[[[130.5,33.09166666666667],[130.4875,33.09166666666666],[130.4875,33.099999999999994],[130.5,33.099999999999994],[130.5,33.09166666666667]]]}},{"type":"Feature","id":"40229:49305410","properties":{"id":"40229:49305410","meshCode":"49305410","cityCode":"40229","city":"みやま市","lat":33.0963973,"lon":130.5042627,"areaKm2":0.6785317,"populated2020":false,"population2020":null,"populationNote":"境界またぎ・収録外等のため人口未集計"},"geometry":{"type":"Polygon","coordinates":[[[130.506356667,33.09271305400001],[130.50679917,33.092135829],[130.506791946,33.091980279],[130.50597713319306,33.09166666666667],[130.5,33.09166666666667],[130.5,33.099999999999994],[130.5125,33.099999999999994],[130.5125,33.09822804442546],[130.511521115,33.09858110799999],[130.510908612,33.098514721],[130.509691388,33.098566387],[130.508304449,33.098277775],[130.507839442,33.09801861300001],[130.507699442,33.097493332999996],[130.507352503,33.097086108],[130.507286109,33.096827225],[130.507256667,33.095606387],[130.506696109,33.095199441],[130.505869728,33.094873891999995],[130.506231115,33.093016387000006],[130.506356667,33.09271305400001]]]}},{"type":"Feature","id":"40229:49305411","properties":{"id":"40229:49305411","meshCode":"49305411","cityCode":"40229","city":"みやま市","lat":33.0964625,"lon":130.5202892,"areaKm2":0.7555432,"populated2020":false,"population2020":null,"populationNote":"境界またぎ・収録外等のため人口未集計"},"geometry":{"type":"Polygon","coordinates":[[[130.519121115,33.092031387],[130.518264994,33.093001108],[130.518368327,33.093696667],[130.517866394,33.09422222500002],[130.517836939,33.09496944100001],[130.517645279,33.09526527900001],[130.517541946,33.095798054],[130.51715083,33.096375559],[130.516715551,33.09661222500001],[130.51583,33.096819440999994],[130.51512917,33.097071108],[130.514184721,33.097789162],[130.51360917,33.09807777500001],[130.513026394,33.098210829],[130.5125,33.09822804442546],[130.5125,33.099999999999994],[130.525,33.1],[130.525,33.09166666666667],[130.51963011754208,33.09166666666667],[130.519121115,33.092031387]]]}},{"type":"Feature","id":"40229:49305412","properties":{"id":"40229:49305412","meshCode":"49305412","cityCode":"40229","city":"みやま市","lat":33.0958333,"lon":130.53125,"areaKm2":1.0783059,"populated2020":true,"population2020":141.4219,"populationNote":"収録500mメッシュ人口の合算（原典収録外は補完しない）"},"geometry":{"type":"Polygon","coordinates":[[[130.5375,33.09166666666667],[130.525,33.09166666666667],[130.525,33.1],[130.5375,33.1],[130.5375,33.09166666666667]]]}},{"type":"Feature","id":"40229:49305413","properties":{"id":"40229:49305413","meshCode":"49305413","cityCode":"40229","city":"みやま市","lat":33.0958333,"lon":130.54375,"areaKm2":1.0783032,"populated2020":true,"population2020":36.4058,"populationNote":"収録500mメッシュ人口の合算（原典収録外は補完しない）"},"geometry":{"type":"Polygon","coordinates":[[[130.55,33.09166666666667],[130.5375,33.09166666666667],[130.5375,33.1],[130.55,33.1],[130.55,33.09166666666667]]]}},{"type":"Feature","id":"40229:49305414","properties":{"id":"40229:49305414","meshCode":"49305414","cityCode":"40229","city":"みやま市","lat":33.0957371,"lon":130.5559323,"areaKm2":1.0210731,"populated2020":true,"population2020":23.2031,"populationNote":"収録500mメッシュ人口の合算（原典収録外は補完しない）"},"geometry":{"type":"Polygon","coordinates":[[[130.561269183,33.095788080999995],[130.562213619,33.09526002700001],[130.5625,33.094429022070756],[130.5625,33.09166666666667],[130.55,33.09166666666667],[130.55,33.1],[130.561978794,33.099999999999994],[130.561586978,33.099873369],[130.561230311,33.098218919],[130.561168353,33.096432811],[130.561269183,33.095788080999995]]]}},{"type":"Feature","id":"40229:49305415","properties":{"id":"40229:49305415","meshCode":"49305415","cityCode":"40229","city":"みやま市","lat":33.0925637,"lon":130.5633909,"areaKm2":0.0366813,"populated2020":false,"population2020":null,"populationNote":"境界またぎ・収録外等のため人口未集計"},"geometry":{"type":"Polygon","coordinates":[[[130.5625,33.094429022070756],[130.562941388,33.093714468],[130.563320545,33.093520306],[130.563769715,33.093403919],[130.563986654,33.09317864],[130.564242205,33.092394197999994],[130.56458275,33.09202169400001],[130.56539645930192,33.091666666666676],[130.5625,33.09166666666667],[130.5625,33.094429022070756]]]}},{"type":"Feature","id":"40229:49305323","properties":{"id":"40229:49305323","meshCode":"49305323","cityCode":"40229","city":"みやま市","lat":33.1000782,"lon":130.4249431,"areaKm2":0.0002075,"populated2020":true,"population2020":null,"populationNote":"境界またぎ・収録外等のため人口未集計"},"geometry":{"type":"Polygon","coordinates":[[[130.425,33.100234666999995],[130.425,33.1],[130.42482917,33.1],[130.425,33.100234666999995]]]}},{"type":"Feature","id":"40229:49305324","properties":{"id":"40229:49305324","meshCode":"49305324","cityCode":"40229","city":"みやま市","lat":33.1036823,"lon":130.4325771,"areaKm2":0.8161614,"populated2020":true,"population2020":52.5117,"populationNote":"収録500mメッシュ人口の合算（原典収録外は補完しない）"},"geometry":{"type":"Polygon","coordinates":[[[130.425,33.100234666999995],[130.427927782,33.104145559],[130.430888885,33.10766638700001],[130.4313071732089,33.10833333333333],[130.4375,33.10833333333333],[130.4375,33.099999999999994],[130.425,33.1],[130.425,33.100234666999995]]]}},{"type":"Feature","id":"40229:49305325","properties":{"id":"40229:49305325","meshCode":"49305325","cityCode":"40229","city":"みやま市","lat":33.1041667,"lon":130.44375,"areaKm2":1.0782262,"populated2020":true,"population2020":530.3262,"populationNote":"収録500mメッシュ人口の合算（原典収録外は補完しない）"},"geometry":{"type":"Polygon","coordinates":[[[130.45,33.1],[130.4375,33.099999999999994],[130.4375,33.10833333333333],[130.45,33.10833333333333],[130.45,33.1]]]}},{"type":"Feature","id":"40229:49305326","properties":{"id":"40229:49305326","meshCode":"49305326","cityCode":"40229","city":"みやま市","lat":33.1041667,"lon":130.45625,"areaKm2":1.0782231,"populated2020":true,"population2020":1111.8671,"populationNote":"収録500mメッシュ人口の合算（原典収録外は補完しない）"},"geometry":{"type":"Polygon","coordinates":[[[130.4625,33.1],[130.45,33.1],[130.45,33.10833333333333],[130.4625,33.108333333333334],[130.4625,33.1]]]}},{"type":"Feature","id":"40229:49305327","properties":{"id":"40229:49305327","meshCode":"49305327","cityCode":"40229","city":"みやま市","lat":33.1041667,"lon":130.46875,"areaKm2":1.07822,"populated2020":true,"population2020":169.8993,"populationNote":"収録500mメッシュ人口の合算（原典収録外は補完しない）"},"geometry":{"type":"Polygon","coordinates":[[[130.475,33.099999999999994],[130.4625,33.1],[130.4625,33.108333333333334],[130.475,33.10833333333333],[130.475,33.099999999999994]]]}},{"type":"Feature","id":"40229:49305328","properties":{"id":"40229:49305328","meshCode":"49305328","cityCode":"40229","city":"みやま市","lat":33.1041667,"lon":130.48125,"areaKm2":1.078217,"populated2020":true,"population2020":82.943,"populationNote":"収録500mメッシュ人口の合算（原典収録外は補完しない）"},"geometry":{"type":"Polygon","coordinates":[[[130.4875,33.099999999999994],[130.475,33.099999999999994],[130.475,33.10833333333333],[130.4875,33.10833333333334],[130.4875,33.099999999999994]]]}},{"type":"Feature","id":"40229:49305329","properties":{"id":"40229:49305329","meshCode":"49305329","cityCode":"40229","city":"みやま市","lat":33.1041667,"lon":130.49375,"areaKm2":1.078214,"populated2020":true,"population2020":15.1315,"populationNote":"収録500mメッシュ人口の合算（原典収録外は補完しない）"},"geometry":{"type":"Polygon","coordinates":[[[130.5,33.099999999999994],[130.4875,33.099999999999994],[130.4875,33.10833333333334],[130.5,33.108333333333334],[130.5,33.099999999999994]]]}},{"type":"Feature","id":"40229:49305420","properties":{"id":"40229:49305420","meshCode":"49305420","cityCode":"40229","city":"みやま市","lat":33.1041667,"lon":130.50625,"areaKm2":1.0782111,"populated2020":true,"population2020":59.796,"populationNote":"収録500mメッシュ人口の合算（原典収録外は補完しない）"},"geometry":{"type":"Polygon","coordinates":[[[130.5125,33.099999999999994],[130.5,33.099999999999994],[130.5,33.108333333333334],[130.5125,33.108333333333334],[130.5125,33.099999999999994]]]}},{"type":"Feature","id":"40229:49305421","properties":{"id":"40229:49305421","meshCode":"49305421","cityCode":"40229","city":"みやま市","lat":33.1041667,"lon":130.51875,"areaKm2":1.0782083,"populated2020":true,"population2020":75.841,"populationNote":"収録500mメッシュ人口の合算（原典収録外は補完しない）"},"geometry":{"type":"Polygon","coordinates":[[[130.525,33.1],[130.5125,33.099999999999994],[130.5125,33.108333333333334],[130.525,33.108333333333334],[130.525,33.1]]]}},{"type":"Feature","id":"40229:49305422","properties":{"id":"40229:49305422","meshCode":"49305422","cityCode":"40229","city":"みやま市","lat":33.1041667,"lon":130.53125,"areaKm2":1.0782055,"populated2020":true,"population2020":425.3925,"populationNote":"収録500mメッシュ人口の合算（原典収録外は補完しない）"},"geometry":{"type":"Polygon","coordinates":[[[130.5375,33.1],[130.525,33.1],[130.525,33.108333333333334],[130.5375,33.108333333333334],[130.5375,33.1]]]}},{"type":"Feature","id":"40229:49305423","properties":{"id":"40229:49305423","meshCode":"49305423","cityCode":"40229","city":"みやま市","lat":33.1041667,"lon":130.54375,"areaKm2":1.0782028,"populated2020":false,"population2020":null,"populationNote":"境界またぎ・収録外等のため人口未集計"},"geometry":{"type":"Polygon","coordinates":[[[130.55,33.1],[130.5375,33.1],[130.5375,33.108333333333334],[130.55,33.108333333333334],[130.55,33.1]]]}},{"type":"Feature","id":"40229:49305424","properties":{"id":"40229:49305424","meshCode":"49305424","cityCode":"40229","city":"みやま市","lat":33.1036163,"lon":130.555293,"areaKm2":0.8613387,"populated2020":false,"population2020":null,"populationNote":"境界またぎ・収録外等のため人口未集計"},"geometry":{"type":"Polygon","coordinates":[[[130.561795875,33.10418919800001],[130.561780311,33.103585586],[130.561919767,33.103344757],[130.562275875,33.10316614400001],[130.562322257,33.102917532000006],[130.562353087,33.102280865],[130.562028093,33.101100586],[130.562066706,33.100960586],[130.5625,33.10053012181334],[130.5625,33.10020301589248],[130.562043372,33.100020865],[130.55,33.1],[130.55,33.108333333333334],[130.55678258117487,33.10833333333333],[130.556457575,33.107905288000005],[130.556052296,33.10757335099999],[130.555938405,33.107361405000006],[130.556428962,33.106898072],[130.55670284,33.10627445899999],[130.556919792,33.106274459],[130.557353398,33.106446126],[130.557615901,33.106434738999994],[130.557747004,33.10634307200001],[130.557992283,33.105919739],[130.558477276,33.105845297],[130.558711167,33.105341685],[130.559173113,33.10512418900001],[130.559583943,33.104803910000015],[130.56045393,33.104360586],[130.561795875,33.10418919800001]]]}},{"type":"Feature","id":"40229:49305425","properties":{"id":"40229:49305425","meshCode":"49305425","cityCode":"40229","city":"みやま市","lat":33.1003453,"lon":130.5625555,"areaKm2":0.0003131,"populated2020":false,"population2020":null,"populationNote":"境界またぎ・収録外等のため人口未集計"},"geometry":{"type":"Polygon","coordinates":[[[130.5625,33.10053012181334],[130.562639754,33.10028503600001],[130.5625,33.10020301589248],[130.5625,33.10053012181334]]]}},{"type":"Feature","id":"40229:49305334","properties":{"id":"40229:49305334","meshCode":"49305334","cityCode":"40229","city":"みやま市","lat":33.1115566,"lon":130.4352967,"areaKm2":0.3285218,"populated2020":true,"population2020":null,"populationNote":"境界またぎ・収録外等のため人口未集計"},"geometry":{"type":"Polygon","coordinates":[[[130.431958885,33.10949555900001],[130.43223083,33.11028249499999],[130.432946109,33.111774721],[130.433435551,33.112455829],[130.435426667,33.114693892000005],[130.435715837,33.115601108],[130.43582119297324,33.11666666666667],[130.4375,33.11666666666667],[130.4375,33.10833333333333],[130.4313071732089,33.10833333333333],[130.431958885,33.10949555900001]]]}},{"type":"Feature","id":"40229:49305335","properties":{"id":"40229:49305335","meshCode":"49305335","cityCode":"40229","city":"みやま市","lat":33.1125,"lon":130.44375,"areaKm2":1.078126,"populated2020":true,"population2020":802.4113,"populationNote":"収録500mメッシュ人口の合算（原典収録外は補完しない）"},"geometry":{"type":"Polygon","coordinates":[[[130.45,33.10833333333333],[130.4375,33.10833333333333],[130.4375,33.11666666666667],[130.45,33.11666666666667],[130.45,33.10833333333333]]]}},{"type":"Feature","id":"40229:49305336","properties":{"id":"40229:49305336","meshCode":"49305336","cityCode":"40229","city":"みやま市","lat":33.1125,"lon":130.45625,"areaKm2":1.0781228,"populated2020":true,"population2020":228.5419,"populationNote":"収録500mメッシュ人口の合算（原典収録外は補完しない）"},"geometry":{"type":"Polygon","coordinates":[[[130.4625,33.108333333333334],[130.45,33.10833333333333],[130.45,33.11666666666667],[130.4625,33.11666666666667],[130.4625,33.108333333333334]]]}},{"type":"Feature","id":"40229:49305337","properties":{"id":"40229:49305337","meshCode":"49305337","cityCode":"40229","city":"みやま市","lat":33.1125,"lon":130.46875,"areaKm2":1.0781196,"populated2020":true,"population2020":1284.1688,"populationNote":"収録500mメッシュ人口の合算（原典収録外は補完しない）"},"geometry":{"type":"Polygon","coordinates":[[[130.475,33.10833333333333],[130.4625,33.108333333333334],[130.4625,33.11666666666667],[130.475,33.11666666666666],[130.475,33.10833333333333]]]}},{"type":"Feature","id":"40229:49305338","properties":{"id":"40229:49305338","meshCode":"49305338","cityCode":"40229","city":"みやま市","lat":33.1125,"lon":130.48125,"areaKm2":1.0781166,"populated2020":true,"population2020":411.8708,"populationNote":"収録500mメッシュ人口の合算（原典収録外は補完しない）"},"geometry":{"type":"Polygon","coordinates":[[[130.4875,33.10833333333334],[130.475,33.10833333333333],[130.475,33.11666666666666],[130.4875,33.11666666666667],[130.4875,33.10833333333334]]]}},{"type":"Feature","id":"40229:49305339","properties":{"id":"40229:49305339","meshCode":"49305339","cityCode":"40229","city":"みやま市","lat":33.1125,"lon":130.49375,"areaKm2":1.0781137,"populated2020":true,"population2020":58.6537,"populationNote":"収録500mメッシュ人口の合算（原典収録外は補完しない）"},"geometry":{"type":"Polygon","coordinates":[[[130.5,33.108333333333334],[130.4875,33.10833333333334],[130.4875,33.11666666666667],[130.5,33.11666666666666],[130.5,33.108333333333334]]]}},{"type":"Feature","id":"40229:49305430","properties":{"id":"40229:49305430","meshCode":"49305430","cityCode":"40229","city":"みやま市","lat":33.1125,"lon":130.50625,"areaKm2":1.0781107,"populated2020":true,"population2020":207.328,"populationNote":"収録500mメッシュ人口の合算（原典収録外は補完しない）"},"geometry":{"type":"Polygon","coordinates":[[[130.5125,33.108333333333334],[130.5,33.108333333333334],[130.5,33.11666666666666],[130.5125,33.11666666666667],[130.5125,33.108333333333334]]]}},{"type":"Feature","id":"40229:49305431","properties":{"id":"40229:49305431","meshCode":"49305431","cityCode":"40229","city":"みやま市","lat":33.1125,"lon":130.51875,"areaKm2":1.0781079,"populated2020":true,"population2020":166.8053,"populationNote":"収録500mメッシュ人口の合算（原典収録外は補完しない）"},"geometry":{"type":"Polygon","coordinates":[[[130.525,33.108333333333334],[130.5125,33.108333333333334],[130.5125,33.11666666666667],[130.525,33.11666666666667],[130.525,33.108333333333334]]]}},{"type":"Feature","id":"40229:49305432","properties":{"id":"40229:49305432","meshCode":"49305432","cityCode":"40229","city":"みやま市","lat":33.1125,"lon":130.53125,"areaKm2":1.0781052,"populated2020":true,"population2020":397.0358,"populationNote":"収録500mメッシュ人口の合算（原典収録外は補完しない）"},"geometry":{"type":"Polygon","coordinates":[[[130.5375,33.108333333333334],[130.525,33.108333333333334],[130.525,33.11666666666667],[130.5375,33.11666666666667],[130.5375,33.108333333333334]]]}},{"type":"Feature","id":"40229:49305433","properties":{"id":"40229:49305433","meshCode":"49305433","cityCode":"40229","city":"みやま市","lat":33.1125,"lon":130.54375,"areaKm2":1.0781025,"populated2020":true,"population2020":59.7746,"populationNote":"収録500mメッシュ人口の合算（原典収録外は補完しない）"},"geometry":{"type":"Polygon","coordinates":[[[130.55,33.108333333333334],[130.5375,33.108333333333334],[130.5375,33.11666666666667],[130.55,33.11666666666667],[130.55,33.108333333333334]]]}},{"type":"Feature","id":"40229:49305434","properties":{"id":"40229:49305434","meshCode":"49305434","cityCode":"40229","city":"みやま市","lat":33.1125741,"lon":130.5536078,"areaKm2":0.6205675,"populated2020":false,"population2020":null,"populationNote":"境界またぎ・収録外等のため人口未集計"},"geometry":{"type":"Polygon","coordinates":[[[130.557512568,33.112425288],[130.556919235,33.112191117],[130.55665673200002,33.111836116999996],[130.556468405,33.11138418000001],[130.556593956,33.11066890099999],[130.557375616,33.109324459],[130.556988119,33.10881501800001],[130.55678258117487,33.10833333333333],[130.55,33.108333333333334],[130.55,33.11666666666667],[130.55745843080345,33.116666666666674],[130.557387289,33.116385279],[130.557478405,33.11554973],[130.557421453,33.11421667599999],[130.557712568,33.112946117],[130.557512568,33.112425288]]]}},{"type":"Feature","id":"40229:49305344","properties":{"id":"40229:49305344","meshCode":"49305344","cityCode":"40229","city":"みやま市","lat":33.1179688,"lon":130.4367869,"areaKm2":0.0419914,"populated2020":true,"population2020":null,"populationNote":"境界またぎ・収録外等のため人口未集計"},"geometry":{"type":"Polygon","coordinates":[[[130.435821193,33.116666667000004],[130.436021946,33.11839027900001],[130.436539728,33.119076387],[130.4375,33.11994987994921],[130.4375,33.11666666666667],[130.435821193,33.116666667000004]]]}},{"type":"Feature","id":"40229:49305345","properties":{"id":"40229:49305345","meshCode":"49305345","cityCode":"40229","city":"みやま市","lat":33.1202784,"lon":130.4446432,"areaKm2":0.872233,"populated2020":true,"population2020":null,"populationNote":"境界またぎ・収録外等のため人口未集計"},"geometry":{"type":"Polygon","coordinates":[[[130.45,33.11666666666667],[130.4375,33.11666666666667],[130.4375,33.11994987994921],[130.439183606,33.120963333],[130.441034721,33.121826946],[130.442353891,33.122748892],[130.443226394,33.123661108],[130.443595551,33.124366108],[130.44362250300003,33.125],[130.45,33.12499999999999],[130.45,33.11666666666667]]]}},{"type":"Feature","id":"40229:49305346","properties":{"id":"40229:49305346","meshCode":"49305346","cityCode":"40229","city":"みやま市","lat":33.1208333,"lon":130.45625,"areaKm2":1.0780224,"populated2020":true,"population2020":286.8081,"populationNote":"収録500mメッシュ人口の合算（原典収録外は補完しない）"},"geometry":{"type":"Polygon","coordinates":[[[130.4625,33.11666666666667],[130.45,33.11666666666667],[130.45,33.12499999999999],[130.4625,33.125],[130.4625,33.11666666666667]]]}},{"type":"Feature","id":"40229:49305347","properties":{"id":"40229:49305347","meshCode":"49305347","cityCode":"40229","city":"みやま市","lat":33.1208333,"lon":130.46875,"areaKm2":1.0780193,"populated2020":true,"population2020":323.2234,"populationNote":"収録500mメッシュ人口の合算（原典収録外は補完しない）"},"geometry":{"type":"Polygon","coordinates":[[[130.475,33.11666666666666],[130.4625,33.11666666666667],[130.4625,33.125],[130.475,33.125],[130.475,33.11666666666666]]]}},{"type":"Feature","id":"40229:49305348","properties":{"id":"40229:49305348","meshCode":"49305348","cityCode":"40229","city":"みやま市","lat":33.1208333,"lon":130.48125,"areaKm2":1.0780162,"populated2020":true,"population2020":139.335,"populationNote":"収録500mメッシュ人口の合算（原典収録外は補完しない）"},"geometry":{"type":"Polygon","coordinates":[[[130.4875,33.11666666666667],[130.475,33.11666666666666],[130.475,33.125],[130.4875,33.12499999999999],[130.4875,33.11666666666667]]]}},{"type":"Feature","id":"40229:49305349","properties":{"id":"40229:49305349","meshCode":"49305349","cityCode":"40229","city":"みやま市","lat":33.1208333,"lon":130.49375,"areaKm2":1.0780133,"populated2020":true,"population2020":619.1627,"populationNote":"収録500mメッシュ人口の合算（原典収録外は補完しない）"},"geometry":{"type":"Polygon","coordinates":[[[130.5,33.11666666666666],[130.4875,33.11666666666667],[130.4875,33.12499999999999],[130.5,33.125],[130.5,33.11666666666666]]]}},{"type":"Feature","id":"40229:49305440","properties":{"id":"40229:49305440","meshCode":"49305440","cityCode":"40229","city":"みやま市","lat":33.1208333,"lon":130.50625,"areaKm2":1.0780104,"populated2020":true,"population2020":217.0706,"populationNote":"収録500mメッシュ人口の合算（原典収録外は補完しない）"},"geometry":{"type":"Polygon","coordinates":[[[130.5125,33.11666666666667],[130.5,33.11666666666666],[130.5,33.125],[130.5125,33.12499999999999],[130.5125,33.11666666666667]]]}},{"type":"Feature","id":"40229:49305441","properties":{"id":"40229:49305441","meshCode":"49305441","cityCode":"40229","city":"みやま市","lat":33.1208333,"lon":130.51875,"areaKm2":1.0780075,"populated2020":true,"population2020":653.5135,"populationNote":"収録500mメッシュ人口の合算（原典収録外は補完しない）"},"geometry":{"type":"Polygon","coordinates":[[[130.525,33.11666666666667],[130.5125,33.11666666666667],[130.5125,33.12499999999999],[130.525,33.125],[130.525,33.11666666666667]]]}},{"type":"Feature","id":"40229:49305442","properties":{"id":"40229:49305442","meshCode":"49305442","cityCode":"40229","city":"みやま市","lat":33.1208333,"lon":130.53125,"areaKm2":1.0780048,"populated2020":true,"population2020":79.4674,"populationNote":"収録500mメッシュ人口の合算（原典収録外は補完しない）"},"geometry":{"type":"Polygon","coordinates":[[[130.5375,33.11666666666667],[130.525,33.11666666666667],[130.525,33.125],[130.5375,33.12499999999999],[130.5375,33.11666666666667]]]}},{"type":"Feature","id":"40229:49305443","properties":{"id":"40229:49305443","meshCode":"49305443","cityCode":"40229","city":"みやま市","lat":33.1208333,"lon":130.54375,"areaKm2":1.0780021,"populated2020":true,"population2020":75.6636,"populationNote":"収録500mメッシュ人口の合算（原典収録外は補完しない）"},"geometry":{"type":"Polygon","coordinates":[[[130.55,33.11666666666667],[130.5375,33.11666666666667],[130.5375,33.12499999999999],[130.55,33.12499999999999],[130.55,33.11666666666667]]]}},{"type":"Feature","id":"40229:49305444","properties":{"id":"40229:49305444","meshCode":"49305444","cityCode":"40229","city":"みやま市","lat":33.1200442,"lon":130.5530984,"areaKm2":0.4793675,"populated2020":false,"population2020":null,"populationNote":"境界またぎ・収録外等のため人口未集計"},"geometry":{"type":"Polygon","coordinates":[[[130.556753969,33.120390838000006],[130.557033411,33.12008778399999],[130.557067847,33.11971],[130.557558405,33.118462505000004],[130.557643956,33.117570009],[130.55756979200004,33.11685473000001],[130.55745843080345,33.116666666666674],[130.55,33.11666666666667],[130.55,33.12499999999999],[130.552367315,33.125],[130.55264621300003,33.124384991],[130.553296757,33.123629712],[130.5536162,33.12298860399999],[130.553964254,33.12260555],[130.554209261,33.12210777500001],[130.555515914,33.121089162000004],[130.55590952,33.120991667],[130.556753969,33.120390838000006]]]}},{"type":"Feature","id":"40229:49305355","properties":{"id":"40229:49305355","meshCode":"49305355","cityCode":"40229","city":"みやま市","lat":33.1285356,"lon":130.4475539,"areaKm2":0.3932678,"populated2020":true,"population2020":null,"populationNote":"境界またぎ・収録外等のため人口未集計"},"geometry":{"type":"Polygon","coordinates":[[[130.443722776,33.126509162000005],[130.443825837,33.126745],[130.445771388,33.12907944100001],[130.446214721,33.129746108],[130.446357782,33.130097495],[130.446741388,33.13233555899999],[130.44709511015427,33.13333333333333],[130.45,33.13333333333333],[130.45,33.12499999999999],[130.44362250300003,33.125],[130.443722776,33.126509162000005]]]}},{"type":"Feature","id":"40229:49305356","properties":{"id":"40229:49305356","meshCode":"49305356","cityCode":"40229","city":"みやま市","lat":33.1291667,"lon":130.45625,"areaKm2":1.077922,"populated2020":true,"population2020":310.2395,"populationNote":"収録500mメッシュ人口の合算（原典収録外は補完しない）"},"geometry":{"type":"Polygon","coordinates":[[[130.4625,33.125],[130.45,33.12499999999999],[130.45,33.13333333333333],[130.4625,33.13333333333333],[130.4625,33.125]]]}},{"type":"Feature","id":"40229:49305357","properties":{"id":"40229:49305357","meshCode":"49305357","cityCode":"40229","city":"みやま市","lat":33.1291667,"lon":130.46875,"areaKm2":1.0779189,"populated2020":true,"population2020":239.2388,"populationNote":"収録500mメッシュ人口の合算（原典収録外は補完しない）"},"geometry":{"type":"Polygon","coordinates":[[[130.475,33.125],[130.4625,33.125],[130.4625,33.13333333333333],[130.475,33.13333333333333],[130.475,33.125]]]}},{"type":"Feature","id":"40229:49305358","properties":{"id":"40229:49305358","meshCode":"49305358","cityCode":"40229","city":"みやま市","lat":33.1291667,"lon":130.48125,"areaKm2":1.0779159,"populated2020":true,"population2020":396.5219,"populationNote":"収録500mメッシュ人口の合算（原典収録外は補完しない）"},"geometry":{"type":"Polygon","coordinates":[[[130.4875,33.12499999999999],[130.475,33.125],[130.475,33.13333333333333],[130.4875,33.133333333333326],[130.4875,33.12499999999999]]]}},{"type":"Feature","id":"40229:49305359","properties":{"id":"40229:49305359","meshCode":"49305359","cityCode":"40229","city":"みやま市","lat":33.1291667,"lon":130.49375,"areaKm2":1.0779129,"populated2020":true,"population2020":193.6524,"populationNote":"収録500mメッシュ人口の合算（原典収録外は補完しない）"},"geometry":{"type":"Polygon","coordinates":[[[130.5,33.125],[130.4875,33.12499999999999],[130.4875,33.133333333333326],[130.5,33.13333333333333],[130.5,33.125]]]}},{"type":"Feature","id":"40229:49305450","properties":{"id":"40229:49305450","meshCode":"49305450","cityCode":"40229","city":"みやま市","lat":33.1291667,"lon":130.50625,"areaKm2":1.07791,"populated2020":true,"population2020":643.4231,"populationNote":"収録500mメッシュ人口の合算（原典収録外は補完しない）"},"geometry":{"type":"Polygon","coordinates":[[[130.5125,33.12499999999999],[130.5,33.125],[130.5,33.13333333333333],[130.5125,33.13333333333333],[130.5125,33.12499999999999]]]}},{"type":"Feature","id":"40229:49305451","properties":{"id":"40229:49305451","meshCode":"49305451","cityCode":"40229","city":"みやま市","lat":33.1291667,"lon":130.51875,"areaKm2":1.0779071,"populated2020":true,"population2020":935.7059,"populationNote":"収録500mメッシュ人口の合算（原典収録外は補完しない）"},"geometry":{"type":"Polygon","coordinates":[[[130.525,33.125],[130.5125,33.12499999999999],[130.5125,33.13333333333333],[130.525,33.133333333333326],[130.525,33.125]]]}},{"type":"Feature","id":"40229:49305452","properties":{"id":"40229:49305452","meshCode":"49305452","cityCode":"40229","city":"みやま市","lat":33.1291667,"lon":130.53125,"areaKm2":1.0779045,"populated2020":true,"population2020":4.0192,"populationNote":"収録500mメッシュ人口の合算（原典収録外は補完しない）"},"geometry":{"type":"Polygon","coordinates":[[[130.5375,33.12499999999999],[130.525,33.125],[130.525,33.133333333333326],[130.5375,33.13333333333333],[130.5375,33.12499999999999]]]}},{"type":"Feature","id":"40229:49305453","properties":{"id":"40229:49305453","meshCode":"49305453","cityCode":"40229","city":"みやま市","lat":33.1291667,"lon":130.54375,"areaKm2":1.0779018,"populated2020":true,"population2020":20.2857,"populationNote":"収録500mメッシュ人口の合算（原典収録外は補完しない）"},"geometry":{"type":"Polygon","coordinates":[[[130.55,33.12499999999999],[130.5375,33.12499999999999],[130.5375,33.13333333333333],[130.55,33.13333333333333],[130.55,33.12499999999999]]]}},{"type":"Feature","id":"40229:49305454","properties":{"id":"40229:49305454","meshCode":"49305454","cityCode":"40229","city":"みやま市","lat":33.1291053,"lon":130.5510873,"areaKm2":0.1856386,"populated2020":false,"population2020":null,"populationNote":"境界またぎ・収録外等のため人口未集計"},"geometry":{"type":"Polygon","coordinates":[[[130.55175594,33.12914582],[130.552298158,33.127006099],[130.552332322,33.125895541],[130.55223537,33.125563594999996],[130.552367315,33.125],[130.55,33.12499999999999],[130.55,33.13333333333333],[130.5519753960955,33.13333333333333],[130.551858988,33.132865261],[130.551904553,33.13245331500001],[130.552474825,33.131119982],[130.552520649,33.130725261],[130.552389261,33.130204432],[130.55175594,33.12914582]]]}},{"type":"Feature","id":"40229:49305365","properties":{"id":"40229:49305365","meshCode":"49305365","cityCode":"40229","city":"みやま市","lat":33.134244,"lon":130.4488999,"areaKm2":0.0462595,"populated2020":true,"population2020":null,"populationNote":"境界またぎ・収録外等のため人口未集計"},"geometry":{"type":"Polygon","coordinates":[[[130.44709511015427,33.13333333333333],[130.447776939,33.134376108],[130.448137497,33.134693892],[130.448746939,33.135134441],[130.45,33.135818532],[130.45,33.13333333333333],[130.44709511015427,33.13333333333333]]]}},{"type":"Feature","id":"40229:49305366","properties":{"id":"40229:49305366","meshCode":"49305366","cityCode":"40229","city":"みやま市","lat":33.1371129,"lon":130.4572189,"areaKm2":0.8836138,"populated2020":true,"population2020":null,"populationNote":"境界またぎ・収録外等のため人口未集計"},"geometry":{"type":"Polygon","coordinates":[[[130.451502218,33.136638613],[130.453373333,33.137938054],[130.453762503,33.138376108],[130.454320558,33.139254441],[130.454400558,33.139644441],[130.454357782,33.140041667000006],[130.454065837,33.14072],[130.4532739952788,33.14166666666666],[130.4625,33.141666666666666],[130.4625,33.13333333333333],[130.45,33.13333333333333],[130.45,33.135818532],[130.451502218,33.136638613]]]}},{"type":"Feature","id":"40229:49305367","properties":{"id":"40229:49305367","meshCode":"49305367","cityCode":"40229","city":"みやま市","lat":33.1375,"lon":130.46875,"areaKm2":1.0778185,"populated2020":true,"population2020":926.8132,"populationNote":"収録500mメッシュ人口の合算（原典収録外は補完しない）"},"geometry":{"type":"Polygon","coordinates":[[[130.475,33.13333333333333],[130.4625,33.13333333333333],[130.4625,33.141666666666666],[130.475,33.14166666666666],[130.475,33.13333333333333]]]}},{"type":"Feature","id":"40229:49305368","properties":{"id":"40229:49305368","meshCode":"49305368","cityCode":"40229","city":"みやま市","lat":33.1375,"lon":130.48125,"areaKm2":1.0778155,"populated2020":true,"population2020":889.3305,"populationNote":"収録500mメッシュ人口の合算（原典収録外は補完しない）"},"geometry":{"type":"Polygon","coordinates":[[[130.4875,33.133333333333326],[130.475,33.13333333333333],[130.475,33.14166666666666],[130.4875,33.141666666666666],[130.4875,33.133333333333326]]]}},{"type":"Feature","id":"40229:49305369","properties":{"id":"40229:49305369","meshCode":"49305369","cityCode":"40229","city":"みやま市","lat":33.1375,"lon":130.49375,"areaKm2":1.0778125,"populated2020":true,"population2020":155.4496,"populationNote":"収録500mメッシュ人口の合算（原典収録外は補完しない）"},"geometry":{"type":"Polygon","coordinates":[[[130.5,33.13333333333333],[130.4875,33.133333333333326],[130.4875,33.141666666666666],[130.5,33.141666666666666],[130.5,33.13333333333333]]]}},{"type":"Feature","id":"40229:49305460","properties":{"id":"40229:49305460","meshCode":"49305460","cityCode":"40229","city":"みやま市","lat":33.1375,"lon":130.50625,"areaKm2":1.0778096,"populated2020":true,"population2020":443.5949,"populationNote":"収録500mメッシュ人口の合算（原典収録外は補完しない）"},"geometry":{"type":"Polygon","coordinates":[[[130.5125,33.13333333333333],[130.5,33.13333333333333],[130.5,33.141666666666666],[130.5125,33.141666666666666],[130.5125,33.13333333333333]]]}},{"type":"Feature","id":"40229:49305461","properties":{"id":"40229:49305461","meshCode":"49305461","cityCode":"40229","city":"みやま市","lat":33.1375,"lon":130.51875,"areaKm2":1.0778067,"populated2020":true,"population2020":246.9496,"populationNote":"収録500mメッシュ人口の合算（原典収録外は補完しない）"},"geometry":{"type":"Polygon","coordinates":[[[130.525,33.133333333333326],[130.5125,33.13333333333333],[130.5125,33.141666666666666],[130.525,33.14166666666666],[130.525,33.133333333333326]]]}},{"type":"Feature","id":"40229:49305462","properties":{"id":"40229:49305462","meshCode":"49305462","cityCode":"40229","city":"みやま市","lat":33.1375,"lon":130.53125,"areaKm2":1.0778041,"populated2020":true,"population2020":47.4628,"populationNote":"収録500mメッシュ人口の合算（原典収録外は補完しない）"},"geometry":{"type":"Polygon","coordinates":[[[130.5375,33.13333333333333],[130.525,33.133333333333326],[130.525,33.14166666666666],[130.5375,33.141666666666666],[130.5375,33.13333333333333]]]}},{"type":"Feature","id":"40229:49305463","properties":{"id":"40229:49305463","meshCode":"49305463","cityCode":"40229","city":"みやま市","lat":33.1375,"lon":130.54375,"areaKm2":1.0778013,"populated2020":true,"population2020":3.0533,"populationNote":"収録500mメッシュ人口の合算（原典収録外は補完しない）"},"geometry":{"type":"Polygon","coordinates":[[[130.55,33.13333333333333],[130.5375,33.13333333333333],[130.5375,33.141666666666666],[130.55,33.141666666666666],[130.55,33.13333333333333]]]}},{"type":"Feature","id":"40229:49305464","properties":{"id":"40229:49305464","meshCode":"49305464","cityCode":"40229","city":"みやま市","lat":33.1376695,"lon":130.5515674,"areaKm2":0.2593635,"populated2020":false,"population2020":null,"populationNote":"境界またぎ・収録外等のため人口未集計"},"geometry":{"type":"Polygon","coordinates":[[[130.553826744,33.13705970299999],[130.553632853,33.136756369],[130.553062309,33.136464423],[130.552691479,33.136121089999996],[130.552845642,33.13532026099999],[130.552725642,33.134993874],[130.552092322,33.134146928],[130.5519753960955,33.13333333333333],[130.55,33.13333333333333],[130.55,33.141666666666666],[130.55196970251123,33.14166666666666],[130.552651453,33.140990802000005],[130.553022283,33.140252748],[130.553033684,33.139823586],[130.553495901,33.139503026999996],[130.55375284,33.139159423],[130.553843956,33.13877053200001],[130.553667017,33.137528865],[130.553826744,33.137225541],[130.553826744,33.13705970299999]]]}},{"type":"Feature","id":"40229:49305376","properties":{"id":"40229:49305376","meshCode":"49305376","cityCode":"40229","city":"みやま市","lat":33.1447326,"lon":130.4576821,"areaKm2":0.6307439,"populated2020":true,"population2020":null,"populationNote":"境界またぎ・収録外等のため人口未集計"},"geometry":{"type":"Polygon","coordinates":[[[130.452220272,33.142936387000006],[130.451859728,33.143687225],[130.451773891,33.144895279],[130.451988327,33.145821946],[130.452188885,33.14625027900001],[130.452746667,33.146835],[130.453135837,33.147051667],[130.453776939,33.14724416199999],[130.454257497,33.147297225],[130.455035551,33.14727805399998],[130.457756939,33.146909721],[130.458348885,33.146897775],[130.459522218,33.147143054],[130.460188885,33.14744416199999],[130.460566667,33.147752225],[130.460709728,33.147973613],[130.460952776,33.148799162],[130.461132529,33.15],[130.4625,33.15],[130.4625,33.141666666666666],[130.4532739952788,33.14166666666666],[130.452220272,33.142936387000006]]]}},{"type":"Feature","id":"40229:49305377","properties":{"id":"40229:49305377","meshCode":"49305377","cityCode":"40229","city":"みやま市","lat":33.1458333,"lon":130.46875,"areaKm2":1.077718,"populated2020":true,"population2020":574.3347,"populationNote":"収録500mメッシュ人口の合算（原典収録外は補完しない）"},"geometry":{"type":"Polygon","coordinates":[[[130.475,33.14166666666666],[130.4625,33.141666666666666],[130.4625,33.15],[130.475,33.14999999999999],[130.475,33.14166666666666]]]}},{"type":"Feature","id":"40229:49305378","properties":{"id":"40229:49305378","meshCode":"49305378","cityCode":"40229","city":"みやま市","lat":33.1458333,"lon":130.48125,"areaKm2":1.077715,"populated2020":true,"population2020":977.2262,"populationNote":"収録500mメッシュ人口の合算（原典収録外は補完しない）"},"geometry":{"type":"Polygon","coordinates":[[[130.4875,33.141666666666666],[130.475,33.14166666666666],[130.475,33.14999999999999],[130.4875,33.15],[130.4875,33.141666666666666]]]}},{"type":"Feature","id":"40229:49305379","properties":{"id":"40229:49305379","meshCode":"49305379","cityCode":"40229","city":"みやま市","lat":33.1458333,"lon":130.49375,"areaKm2":1.0777121,"populated2020":true,"population2020":651.7829,"populationNote":"収録500mメッシュ人口の合算（原典収録外は補完しない）"},"geometry":{"type":"Polygon","coordinates":[[[130.5,33.141666666666666],[130.4875,33.141666666666666],[130.4875,33.15],[130.5,33.14999999999999],[130.5,33.141666666666666]]]}},{"type":"Feature","id":"40229:49305470","properties":{"id":"40229:49305470","meshCode":"49305470","cityCode":"40229","city":"みやま市","lat":33.1458333,"lon":130.50625,"areaKm2":1.0777091,"populated2020":true,"population2020":176.8514,"populationNote":"収録500mメッシュ人口の合算（原典収録外は補完しない）"},"geometry":{"type":"Polygon","coordinates":[[[130.5125,33.141666666666666],[130.5,33.141666666666666],[130.5,33.14999999999999],[130.5125,33.15],[130.5125,33.141666666666666]]]}},{"type":"Feature","id":"40229:49305471","properties":{"id":"40229:49305471","meshCode":"49305471","cityCode":"40229","city":"みやま市","lat":33.1458333,"lon":130.51875,"areaKm2":1.0777063,"populated2020":true,"population2020":87.8581,"populationNote":"収録500mメッシュ人口の合算（原典収録外は補完しない）"},"geometry":{"type":"Polygon","coordinates":[[[130.525,33.14166666666666],[130.5125,33.141666666666666],[130.5125,33.15],[130.525,33.15],[130.525,33.14166666666666]]]}},{"type":"Feature","id":"40229:49305472","properties":{"id":"40229:49305472","meshCode":"49305472","cityCode":"40229","city":"みやま市","lat":33.1458333,"lon":130.53125,"areaKm2":1.0777036,"populated2020":false,"population2020":null,"populationNote":"境界またぎ・収録外等のため人口未集計"},"geometry":{"type":"Polygon","coordinates":[[[130.5375,33.141666666666666],[130.525,33.14166666666666],[130.525,33.15],[130.5375,33.15],[130.5375,33.141666666666666]]]}},{"type":"Feature","id":"40229:49305473","properties":{"id":"40229:49305473","meshCode":"49305473","cityCode":"40229","city":"みやま市","lat":33.1458363,"lon":130.5437281,"areaKm2":1.0738874,"populated2020":false,"population2020":null,"populationNote":"境界またぎ・収録外等のため人口未集計"},"geometry":{"type":"Polygon","coordinates":[[[130.55,33.146337162],[130.549787562,33.144795783999996],[130.549804786,33.14433245],[130.55,33.143806793],[130.55,33.141666666666666],[130.5375,33.141666666666666],[130.5375,33.15],[130.55,33.150000000000006],[130.55,33.146337162]]]}},{"type":"Feature","id":"40229:49305474","properties":{"id":"40229:49305474","meshCode":"49305474","cityCode":"40229","city":"みやま市","lat":33.1428275,"lon":130.550413,"areaKm2":0.0514433,"populated2020":false,"population2020":null,"populationNote":"境界またぎ・収録外等のため人口未集計"},"geometry":{"type":"MultiPolygon","coordinates":[[[[130.550004514,33.143794676],[130.55014118,33.143508567999994],[130.550495071,33.143090793],[130.551202568,33.142524126000005],[130.551356459,33.142032189],[130.551527562,33.141814964],[130.55196970251123,33.14166666666666],[130.55,33.141666666666666],[130.550004514,33.143794676]]],[[[130.551601699,33.149819955],[130.551367808,33.149339396],[130.551550311,33.14896718],[130.551533372,33.148755514],[130.550768651,33.148252171],[130.550626148,33.148074955],[130.55,33.146337162],[130.55,33.150000000000006],[130.55156751,33.14999999999999],[130.551601699,33.149819955]]]]}},{"type":"Feature","id":"40229:49305386","properties":{"id":"40229:49305386","meshCode":"49305386","cityCode":"40229","city":"みやま市","lat":33.1545607,"lon":130.4622432,"areaKm2":0.1023553,"populated2020":true,"population2020":null,"populationNote":"境界またぎ・収録外等のため人口未集計"},"geometry":{"type":"Polygon","coordinates":[[[130.461132529,33.15],[130.461364721,33.152774441],[130.461501946,33.15329444100001],[130.462137224,33.15495472100001],[130.46040917,33.156764441],[130.461107224,33.157775279],[130.461132776,33.158143613],[130.4609736956377,33.158333333333324],[130.4625,33.15833333333333],[130.4625,33.15],[130.461132529,33.15]]]}},{"type":"Feature","id":"40229:49305387","properties":{"id":"40229:49305387","meshCode":"49305387","cityCode":"40229","city":"みやま市","lat":33.1541667,"lon":130.46875,"areaKm2":1.0776176,"populated2020":true,"population2020":1878.4425,"populationNote":"収録500mメッシュ人口の合算（原典収録外は補完しない）"},"geometry":{"type":"Polygon","coordinates":[[[130.475,33.14999999999999],[130.4625,33.15],[130.4625,33.15833333333333],[130.475,33.15833333333333],[130.475,33.14999999999999]]]}},{"type":"Feature","id":"40229:49305388","properties":{"id":"40229:49305388","meshCode":"49305388","cityCode":"40229","city":"みやま市","lat":33.1541667,"lon":130.48125,"areaKm2":1.0776145,"populated2020":true,"population2020":1962.9822,"populationNote":"収録500mメッシュ人口の合算（原典収録外は補完しない）"},"geometry":{"type":"Polygon","coordinates":[[[130.4875,33.15],[130.475,33.14999999999999],[130.475,33.15833333333333],[130.4875,33.15833333333332],[130.4875,33.15]]]}},{"type":"Feature","id":"40229:49305389","properties":{"id":"40229:49305389","meshCode":"49305389","cityCode":"40229","city":"みやま市","lat":33.1541667,"lon":130.49375,"areaKm2":1.0776116,"populated2020":true,"population2020":1388.3517,"populationNote":"収録500mメッシュ人口の合算（原典収録外は補完しない）"},"geometry":{"type":"Polygon","coordinates":[[[130.5,33.14999999999999],[130.4875,33.15],[130.4875,33.15833333333332],[130.5,33.15833333333333],[130.5,33.14999999999999]]]}},{"type":"Feature","id":"40229:49305480","properties":{"id":"40229:49305480","meshCode":"49305480","cityCode":"40229","city":"みやま市","lat":33.1541667,"lon":130.50625,"areaKm2":1.0776087,"populated2020":true,"population2020":649.6848,"populationNote":"収録500mメッシュ人口の合算（原典収録外は補完しない）"},"geometry":{"type":"Polygon","coordinates":[[[130.5125,33.15],[130.5,33.14999999999999],[130.5,33.15833333333333],[130.5125,33.15833333333333],[130.5125,33.15]]]}},{"type":"Feature","id":"40229:49305481","properties":{"id":"40229:49305481","meshCode":"49305481","cityCode":"40229","city":"みやま市","lat":33.1541667,"lon":130.51875,"areaKm2":1.0776059,"populated2020":true,"population2020":44.773,"populationNote":"収録500mメッシュ人口の合算（原典収録外は補完しない）"},"geometry":{"type":"Polygon","coordinates":[[[130.525,33.15],[130.5125,33.15],[130.5125,33.15833333333333],[130.525,33.158333333333324],[130.525,33.15]]]}},{"type":"Feature","id":"40229:49305482","properties":{"id":"40229:49305482","meshCode":"49305482","cityCode":"40229","city":"みやま市","lat":33.1541667,"lon":130.53125,"areaKm2":1.0776031,"populated2020":false,"population2020":null,"populationNote":"境界またぎ・収録外等のため人口未集計"},"geometry":{"type":"Polygon","coordinates":[[[130.5375,33.15],[130.525,33.15],[130.525,33.158333333333324],[130.5375,33.158333333333324],[130.5375,33.15]]]}},{"type":"Feature","id":"40229:49305483","properties":{"id":"40229:49305483","meshCode":"49305483","cityCode":"40229","city":"みやま市","lat":33.1537375,"lon":130.5438037,"areaKm2":0.95387,"populated2020":false,"population2020":null,"populationNote":"境界またぎ・収録外等のため人口未集計"},"geometry":{"type":"Polygon","coordinates":[[[130.55,33.150000000000006],[130.5375,33.15],[130.5375,33.158333333333324],[130.53946687379218,33.15833333333333],[130.539991154,33.15772242300001],[130.540686991,33.15667547699999],[130.540960882,33.155994369],[130.541423113,33.155382144],[130.541554215,33.155370757],[130.542472815,33.155994649],[130.542780869,33.156463811],[130.543185863,33.156767153],[130.543933359,33.15705326100001],[130.544521128,33.157047432],[130.545650571,33.157379658],[130.54660917,33.157985766],[130.547162503,33.15803743200001],[130.548617497,33.157894658],[130.55,33.157894207000005],[130.55,33.150000000000006]]]}},{"type":"Feature","id":"40229:49305484","properties":{"id":"40229:49305484","meshCode":"49305484","cityCode":"40229","city":"みやま市","lat":33.154112,"lon":130.5509531,"areaKm2":0.1447204,"populated2020":false,"population2020":null,"populationNote":"境界またぎ・収録外等のため人口未集計"},"geometry":{"type":"Polygon","coordinates":[[[130.55206917,33.15399745],[130.55171,33.153865784],[130.551801401,33.15351106299999],[130.551544449,33.152904396000004],[130.551590285,33.152372171],[130.55129363200004,33.150541063],[130.55156751,33.14999999999999],[130.55,33.150000000000006],[130.55,33.157894207000005],[130.550488599,33.15796910800001],[130.550819702,33.157837441],[130.55132166,33.157041892],[130.551635266,33.156744396],[130.552279987,33.15637245],[130.552645279,33.155142170999994],[130.55256,33.154678568],[130.552308885,33.154426901],[130.55206917,33.15399745]]]}},{"type":"Feature","id":"40229:49305396","properties":{"id":"40229:49305396","meshCode":"49305396","cityCode":"40229","city":"みやま市","lat":33.1625287,"lon":130.4591921,"areaKm2":0.4730011,"populated2020":true,"population2020":null,"populationNote":"境界またぎ・収録外等のため人口未集計"},"geometry":{"type":"Polygon","coordinates":[[[130.460597782,33.159007775],[130.458497782,33.15943082900001],[130.45761917,33.159914721],[130.457304449,33.160189161999995],[130.457138612,33.160559721],[130.454426109,33.161618613],[130.453253061,33.161974721],[130.453255837,33.163195],[130.453885279,33.16317555900001],[130.453916939,33.163938333000004],[130.45870083,33.16383277500001],[130.458746667,33.165628054],[130.458577782,33.16610194599999],[130.459087224,33.16614055899999],[130.4590837480022,33.16666666666667],[130.4625,33.16666666666667],[130.4625,33.15833333333333],[130.4609736956377,33.158333333333324],[130.460583606,33.158692225],[130.460597782,33.159007775]]]}},{"type":"Feature","id":"40229:49305397","properties":{"id":"40229:49305397","meshCode":"49305397","cityCode":"40229","city":"みやま市","lat":33.1623929,"lon":130.4686649,"areaKm2":1.0447632,"populated2020":true,"population2020":1079.6111,"populationNote":"収録500mメッシュ人口の合算（原典収録外は補完しない）"},"geometry":{"type":"Polygon","coordinates":[[[130.475,33.15833333333333],[130.4625,33.15833333333333],[130.4625,33.16666666666667],[130.46752800439492,33.166666666666664],[130.468300272,33.166482224999996],[130.46834019492783,33.166666666666664],[130.4693585208107,33.166666666666664],[130.469298885,33.166494441],[130.46941917,33.16614805399999],[130.469175837,33.16467749499999],[130.470234721,33.164850828999995],[130.470406394,33.165389999999995],[130.470065837,33.165753333],[130.47032005190724,33.166666666666664],[130.47304788580752,33.166666666666664],[130.472952776,33.166501946000004],[130.473267497,33.166371946],[130.473444994,33.16554889199999],[130.474658327,33.16581833299999],[130.474526667,33.166501946000004],[130.47471871561137,33.166666666666664],[130.475,33.16666666666667],[130.475,33.15833333333333]]]}},{"type":"Feature","id":"40229:49305398","properties":{"id":"40229:49305398","meshCode":"49305398","cityCode":"40229","city":"みやま市","lat":33.1625,"lon":130.48125,"areaKm2":1.077514,"populated2020":true,"population2020":1399.9878,"populationNote":"収録500mメッシュ人口の合算（原典収録外は補完しない）"},"geometry":{"type":"Polygon","coordinates":[[[130.4875,33.15833333333332],[130.475,33.15833333333333],[130.475,33.16666666666667],[130.4875,33.166666666666664],[130.4875,33.15833333333332]]]}},{"type":"Feature","id":"40229:49305399","properties":{"id":"40229:49305399","meshCode":"49305399","cityCode":"40229","city":"みやま市","lat":33.1625,"lon":130.49375,"areaKm2":1.0775111,"populated2020":true,"population2020":571.054,"populationNote":"収録500mメッシュ人口の合算（原典収録外は補完しない）"},"geometry":{"type":"Polygon","coordinates":[[[130.5,33.15833333333333],[130.4875,33.15833333333332],[130.4875,33.166666666666664],[130.5,33.166666666666664],[130.5,33.15833333333333]]]}},{"type":"Feature","id":"40229:49305490","properties":{"id":"40229:49305490","meshCode":"49305490","cityCode":"40229","city":"みやま市","lat":33.1625,"lon":130.50625,"areaKm2":1.0775083,"populated2020":true,"population2020":559.7211,"populationNote":"収録500mメッシュ人口の合算（原典収録外は補完しない）"},"geometry":{"type":"Polygon","coordinates":[[[130.5125,33.15833333333333],[130.5,33.15833333333333],[130.5,33.166666666666664],[130.5125,33.16666666666666],[130.5125,33.15833333333333]]]}},{"type":"Feature","id":"40229:49305491","properties":{"id":"40229:49305491","meshCode":"49305491","cityCode":"40229","city":"みやま市","lat":33.1625,"lon":130.51875,"areaKm2":1.0775054,"populated2020":true,"population2020":2.0178,"populationNote":"収録500mメッシュ人口の合算（原典収録外は補完しない）"},"geometry":{"type":"Polygon","coordinates":[[[130.525,33.158333333333324],[130.5125,33.15833333333333],[130.5125,33.16666666666666],[130.525,33.166666666666664],[130.525,33.158333333333324]]]}},{"type":"Feature","id":"40229:49305492","properties":{"id":"40229:49305492","meshCode":"49305492","cityCode":"40229","city":"みやま市","lat":33.1625,"lon":130.53125,"areaKm2":1.0775027,"populated2020":false,"population2020":null,"populationNote":"境界またぎ・収録外等のため人口未集計"},"geometry":{"type":"Polygon","coordinates":[[[130.5375,33.158333333333324],[130.525,33.158333333333324],[130.525,33.166666666666664],[130.5375,33.16666666666666],[130.5375,33.158333333333324]]]}},{"type":"Feature","id":"40229:49305493","properties":{"id":"40229:49305493","meshCode":"49305493","cityCode":"40229","city":"みやま市","lat":33.1631028,"lon":130.5384727,"areaKm2":0.1500516,"populated2020":false,"population2020":null,"populationNote":"境界またぎ・収録外等のため人口未集計"},"geometry":{"type":"Polygon","coordinates":[[[130.538718625,33.16244324299999],[130.538602802,33.161455748],[130.538806693,33.160970748],[130.538661699,33.160022973000004],[130.53904476,33.159076586],[130.53946687379218,33.15833333333333],[130.5375,33.158333333333324],[130.5375,33.16666666666666],[130.54062627784208,33.166666666666664],[130.540412205,33.166063523000005],[130.540399987,33.165415748],[130.539790817,33.165356027],[130.539551375,33.16523018899999],[130.539237769,33.164892414],[130.539266109,33.164406027],[130.539454163,33.16386991000001],[130.539444721,33.163538243],[130.539393333,33.16330408100001],[130.538718625,33.16244324299999]]]}},{"type":"Feature","id":"40229:49306306","properties":{"id":"40229:49306306","meshCode":"49306306","cityCode":"40229","city":"みやま市","lat":33.1672076,"lon":130.4606803,"areaKm2":0.0375094,"populated2020":true,"population2020":null,"populationNote":"境界またぎ・収録外等のため人口未集計"},"geometry":{"type":"Polygon","coordinates":[[[130.459083748,33.16666666700001],[130.459075837,33.16783],[130.461516394,33.167784162],[130.4625,33.167272981112625],[130.4625,33.16666666666667],[130.459083748,33.16666666700001]]]}},{"type":"Feature","id":"40229:49306307","properties":{"id":"40229:49306307","meshCode":"49306307","cityCode":"40229","city":"みやま市","lat":33.1672308,"lon":130.4638831,"areaKm2":0.0694825,"populated2020":true,"population2020":null,"populationNote":"境界またぎ・収録外等のため人口未集計"},"geometry":{"type":"MultiPolygon","coordinates":[[[[130.475,33.16666666666667],[130.47471871561137,33.166666666666664],[130.475,33.166907918999996],[130.475,33.16666666666667]]],[[[130.468718054,33.167266946],[130.468815279,33.167781946000005],[130.469204449,33.16768582900001],[130.469021388,33.167353612999996],[130.469639442,33.167161108],[130.4693585208107,33.166666666666664],[130.46834019492783,33.166666666666664],[130.468471946,33.167276667],[130.468718054,33.167266946]]],[[[130.47125917,33.16732472099999],[130.472068885,33.167582225],[130.472978612,33.16773138700001],[130.473144449,33.16758222499999],[130.472875551,33.167038333],[130.473184721,33.166903613],[130.47304788580752,33.166666666666664],[130.47032005190724,33.166666666666664],[130.470801388,33.167079162],[130.47125917,33.16732472099999]]],[[[130.462775279,33.16712972100001],[130.462769728,33.167760279],[130.464924163,33.16772916200001],[130.464995551,33.167149161999994],[130.467573891,33.167093613000006],[130.467453606,33.166684441],[130.46752800439492,33.166666666666664],[130.4625,33.16666666666667],[130.4625,33.167272981112625],[130.462775279,33.16712972100001]]],[[[130.475,33.167525441],[130.474432218,33.16797694600001],[130.475,33.168312586000006],[130.475,33.167525441]]]]}},{"type":"Feature","id":"40229:49306308","properties":{"id":"40229:49306308","meshCode":"49306308","cityCode":"40229","city":"みやま市","lat":33.1706748,"lon":130.481726,"areaKm2":0.9777859,"populated2020":true,"population2020":null,"populationNote":"境界またぎ・収録外等のため人口未集計"},"geometry":{"type":"Polygon","coordinates":[[[130.475,33.168312586000006],[130.475745551,33.169014441],[130.47586917,33.17012972100001],[130.476278054,33.170256387],[130.476233333,33.170588613],[130.476034721,33.170977224999994],[130.476429728,33.171350559],[130.476852503,33.172097225],[130.476563606,33.17237638700001],[130.476631946,33.173505],[130.476802503,33.174277495],[130.476742503,33.175],[130.48580061,33.17499999999999],[130.486856667,33.174592775],[130.487168327,33.174308054],[130.4875,33.17356303581507],[130.4875,33.166666666666664],[130.475,33.16666666666667],[130.475,33.166907918999996],[130.475373606,33.167228333],[130.475,33.167525441],[130.475,33.168312586000006]]]}},{"type":"Feature","id":"40229:49306309","properties":{"id":"40229:49306309","meshCode":"49306309","cityCode":"40229","city":"みやま市","lat":33.1700286,"lon":130.4940715,"areaKm2":0.8562226,"populated2020":true,"population2020":null,"populationNote":"境界またぎ・収録外等のため人口未集計"},"geometry":{"type":"Polygon","coordinates":[[[130.5,33.166666666666664],[130.4875,33.166666666666664],[130.4875,33.17356303581507],[130.487788885,33.172926387000004],[130.488004449,33.172715],[130.488182218,33.172668054],[130.491071115,33.17295527900001],[130.492642218,33.173034721],[130.493150558,33.172997225],[130.494464163,33.172665828999996],[130.495753061,33.17268638699999],[130.497219728,33.173474441],[130.497789442,33.173882225],[130.497853606,33.17400249500001],[130.49780131,33.175],[130.5,33.175000000000004],[130.5,33.166666666666664]]]}},{"type":"Feature","id":"40229:49306400","properties":{"id":"40229:49306400","meshCode":"49306400","cityCode":"40229","city":"みやま市","lat":33.1708333,"lon":130.50625,"areaKm2":1.0774077,"populated2020":true,"population2020":503.1192,"populationNote":"収録500mメッシュ人口の合算（原典収録外は補完しない）"},"geometry":{"type":"Polygon","coordinates":[[[130.5125,33.16666666666666],[130.5,33.166666666666664],[130.5,33.175000000000004],[130.5125,33.175],[130.5125,33.16666666666666]]]}},{"type":"Feature","id":"40229:49306401","properties":{"id":"40229:49306401","meshCode":"49306401","cityCode":"40229","city":"みやま市","lat":33.1708333,"lon":130.51875,"areaKm2":1.0774049,"populated2020":true,"population2020":199.8714,"populationNote":"収録500mメッシュ人口の合算（原典収録外は補完しない）"},"geometry":{"type":"Polygon","coordinates":[[[130.525,33.166666666666664],[130.5125,33.16666666666666],[130.5125,33.175],[130.525,33.175000000000004],[130.525,33.166666666666664]]]}},{"type":"Feature","id":"40229:49306402","properties":{"id":"40229:49306402","meshCode":"49306402","cityCode":"40229","city":"みやま市","lat":33.1708333,"lon":130.53125,"areaKm2":1.0774022,"populated2020":true,"population2020":10.1122,"populationNote":"収録500mメッシュ人口の合算（原典収録外は補完しない）"},"geometry":{"type":"Polygon","coordinates":[[[130.5375,33.16666666666666],[130.525,33.166666666666664],[130.525,33.175000000000004],[130.5375,33.175],[130.5375,33.16666666666666]]]}},{"type":"Feature","id":"40229:49306403","properties":{"id":"40229:49306403","meshCode":"49306403","cityCode":"40229","city":"みやま市","lat":33.1710863,"lon":130.5391808,"areaKm2":0.2811351,"populated2020":false,"population2020":null,"populationNote":"境界またぎ・収録外等のため人口未集計"},"geometry":{"type":"Polygon","coordinates":[[[130.539772438,33.170002405],[130.539961894,33.169802135000005],[130.540030233,33.168657685],[130.540640791,33.168045189],[130.541057458,33.16775908100001],[130.541131634,33.167490189000006],[130.541080246,33.167204081],[130.54062627784208,33.166666666666664],[130.5375,33.16666666666666],[130.5375,33.175],[130.541632477,33.175],[130.541648508,33.174426856],[130.541428794,33.174019072],[130.541439909,33.17358491],[130.541169637,33.172646856],[130.540821868,33.172061856],[130.540560208,33.171128802],[130.540293268,33.170604909999994],[130.539772438,33.170002405]]]}},{"type":"Feature","id":"40229:49306318","properties":{"id":"40229:49306318","meshCode":"49306318","cityCode":"40229","city":"みやま市","lat":33.1790606,"lon":130.4818146,"areaKm2":0.8815426,"populated2020":true,"population2020":null,"populationNote":"境界またぎ・収録外等のため人口未集計"},"geometry":{"type":"Polygon","coordinates":[[[130.476742503,33.175],[130.47675083,33.176188054],[130.475743061,33.176243613],[130.475644994,33.178257224999996],[130.476860558,33.178294441],[130.476820272,33.183161946000006],[130.483295188,33.18303164],[130.483254916,33.182909973],[130.48586214,33.182864108000004],[130.48589016901113,33.18333333333332],[130.48616722399717,33.18333333333332],[130.486127419,33.182782945999996],[130.4875,33.18275600945544],[130.4875,33.176879968760545],[130.485527782,33.175773333],[130.485426667,33.175169721],[130.48580061,33.17499999999999],[130.476742503,33.175]]]}},{"type":"Feature","id":"40229:49306319","properties":{"id":"40229:49306319","meshCode":"49306319","cityCode":"40229","city":"みやま市","lat":33.1801887,"lon":130.4881831,"areaKm2":0.1165536,"populated2020":true,"population2020":null,"populationNote":"境界またぎ・収録外等のため人口未集計"},"geometry":{"type":"MultiPolygon","coordinates":[[[[130.49780131,33.175],[130.497829728,33.17559916199999],[130.498408054,33.176024162000004],[130.499348327,33.17699472099999],[130.5,33.177821640000005],[130.5,33.175000000000004],[130.49780131,33.175]]],[[[130.488636913,33.180588108],[130.490165525,33.17803541400001],[130.489717834,33.17784694599999],[130.489739611,33.177782748],[130.4875,33.176879968760545],[130.4875,33.18275600945544],[130.487622114,33.182753612999996],[130.487593256,33.181873081000006],[130.48791572,33.181873081],[130.487911362,33.18174835999999],[130.488611336,33.181730027],[130.488636913,33.180588108]]]]}},{"type":"Feature","id":"40229:49306410","properties":{"id":"40229:49306410","meshCode":"49306410","cityCode":"40229","city":"みやま市","lat":33.1783695,"lon":130.5066466,"areaKm2":0.8431078,"populated2020":true,"population2020":null,"populationNote":"境界またぎ・収録外等のため人口未集計"},"geometry":{"type":"Polygon","coordinates":[[[130.5,33.177821640000005],[130.502006939,33.180428613],[130.503653606,33.181784721],[130.505396394,33.182506667],[130.506802218,33.182562774999994],[130.508441115,33.182410559000004],[130.511653891,33.181455829],[130.5125,33.18136591081114],[130.5125,33.175],[130.5,33.175000000000004],[130.5,33.177821640000005]]]}},{"type":"Feature","id":"40229:49306411","properties":{"id":"40229:49306411","meshCode":"49306411","cityCode":"40229","city":"みやま市","lat":33.1783697,"lon":130.5188191,"areaKm2":0.8700847,"populated2020":true,"population2020":556.5481,"populationNote":"収録500mメッシュ人口の合算（原典収録外は補完しない）"},"geometry":{"type":"Polygon","coordinates":[[[130.525,33.175000000000004],[130.5125,33.175],[130.5125,33.18136591081114],[130.513581946,33.18128697299999],[130.51424834,33.181335045],[130.517630311,33.181920694],[130.519574228,33.182057144],[130.521124514,33.181985243],[130.522481738,33.18178499100001],[130.525,33.18156645],[130.525,33.175000000000004]]]}},{"type":"Feature","id":"40229:49306412","properties":{"id":"40229:49306412","meshCode":"49306412","cityCode":"40229","city":"みやま市","lat":33.1789355,"lon":130.5315305,"areaKm2":1.0097667,"populated2020":true,"population2020":null,"populationNote":"境界またぎ・収録外等のため人口未集計"},"geometry":{"type":"Polygon","coordinates":[[[130.5375,33.175],[130.525,33.175000000000004],[130.525,33.18156645],[130.526080376,33.181536171000005],[130.526843424,33.181704793],[130.52973511,33.18289236],[130.53100381394842,33.18333333333332],[130.5375,33.18333333333333],[130.5375,33.175]]]}},{"type":"Feature","id":"40229:49306413","properties":{"id":"40229:49306413","meshCode":"49306413","cityCode":"40229","city":"みやま市","lat":33.1797622,"lon":130.5404281,"areaKm2":0.4705062,"populated2020":true,"population2020":null,"populationNote":"境界またぎ・収録外等のため人口未集計"},"geometry":{"type":"Polygon","coordinates":[[[130.541985694,33.17792351400001],[130.54137348900002,33.176088793000005],[130.541357938,33.17588491],[130.541632477,33.175],[130.5375,33.175],[130.5375,33.18333333333333],[130.5441499995116,33.18333333333333],[130.545655914,33.18229074799999],[130.546105914,33.182138243000004],[130.545896472,33.182071297],[130.543587056,33.180628243],[130.542692335,33.17986768500001],[130.542237069,33.17925629700001],[130.541985694,33.17792351400001]]]}},{"type":"Feature","id":"40229:49306328","properties":{"id":"40229:49306328","meshCode":"49306328","cityCode":"40229","city":"みやま市","lat":33.1838987,"lon":130.4860788,"areaKm2":0.0051507,"populated2020":true,"population2020":null,"populationNote":"境界またぎ・収録外等のため人口未集計"},"geometry":{"type":"Polygon","coordinates":[[[130.48589016901113,33.18333333333332],[130.48595444900002,33.183764198],[130.485533333,33.183807495],[130.486044721,33.184291387],[130.486306667,33.18431555899999],[130.486601284,33.184068802],[130.48619847,33.183694387],[130.48616722399717,33.18333333333332],[130.48589016901113,33.18333333333332]]]}},{"type":"Feature","id":"40229:49306422","properties":{"id":"40229:49306422","meshCode":"49306422","cityCode":"40229","city":"みやま市","lat":33.1838187,"lon":130.5351518,"areaKm2":0.0528533,"populated2020":true,"population2020":null,"populationNote":"境界またぎ・収録外等のため人口未集計"},"geometry":{"type":"Polygon","coordinates":[[[130.53100381394842,33.18333333333332],[130.531928158,33.183654595],[130.534578988,33.184240162],[130.5375,33.18466140543307],[130.5375,33.18333333333333],[130.53100381394842,33.18333333333332]]]}},{"type":"Feature","id":"40229:49306423","properties":{"id":"40229:49306423","meshCode":"49306423","cityCode":"40229","city":"みやま市","lat":33.1839711,"lon":130.5401921,"areaKm2":0.0766058,"populated2020":true,"population2020":null,"populationNote":"境界またぎ・収録外等のため人口未集計"},"geometry":{"type":"Polygon","coordinates":[[[130.544149326,33.183333793],[130.5375,33.18333333333333],[130.5375,33.18466140543307],[130.539462853,33.18485766700001],[130.54012119300003,33.18482545],[130.541535071,33.184521008999994],[130.542314241,33.184248234],[130.543053411,33.183951288],[130.544149326,33.183333793]]]}}]}