{"type":"FeatureCollection","metadata":{"cityCode":"40221","city":"太宰府市","resolution":1000,"boundaryDate":"2026-01-01","populationLabel":"2020年基準人口（国交省調整値）","method":"標準地域メッシュを行政界で切抜き。中心が区域外のとき区域内代表点を判定点にする。人口不明をゼロにしない。"},"features":[{"type":"Feature","id":"40221:50301369","properties":{"id":"40221:50301369","meshCode":"50301369","cityCode":"40221","city":"太宰府市","lat":33.4732748,"lon":130.4905346,"areaKm2":0.1733258,"populated2020":false,"population2020":null,"populationNote":"境界またぎ・収録外等のため人口未集計"},"geometry":{"type":"Polygon","coordinates":[[[130.491097497,33.470862225],[130.490000272,33.470467775],[130.489348054,33.471134162],[130.489066667,33.471331387],[130.48834,33.47164666700001],[130.488023891,33.471983613],[130.488023891,33.472238892],[130.48841166,33.472688891999994],[130.488566939,33.473040279],[130.48821917,33.473971387000006],[130.488181946,33.47451305399999],[130.488024643,33.47500000000001],[130.494244578,33.475],[130.494127782,33.474666946],[130.493783061,33.474190559],[130.493030558,33.473800829000005],[130.492817782,33.473613054000005],[130.492289442,33.472891108],[130.491384721,33.471964441],[130.491106109,33.471543333],[130.491097497,33.470862225]]]}},{"type":"Feature","id":"40221:50301378","properties":{"id":"40221:50301378","meshCode":"50301378","cityCode":"40221","city":"太宰府市","lat":33.4803604,"lon":130.4869612,"areaKm2":0.0657982,"populated2020":false,"population2020":null,"populationNote":"境界またぎ・収録外等のため人口未集計"},"geometry":{"type":"Polygon","coordinates":[[[130.487090272,33.47640944100001],[130.486800272,33.477311667],[130.486418327,33.47799777499999],[130.486481388,33.478204721],[130.487070272,33.478828054],[130.487038612,33.480048053999994],[130.486989728,33.480214162],[130.486573333,33.480616108],[130.486331946,33.481039720999995],[130.485869442,33.481369441000005],[130.485783333,33.481561946],[130.486104994,33.482591667],[130.486277497,33.482890279],[130.4867512841188,33.48333333333334],[130.4875,33.483333333333334],[130.4875,33.47572511214158],[130.487090272,33.47640944100001]]]}},{"type":"Feature","id":"40221:50301379","properties":{"id":"40221:50301379","meshCode":"50301379","cityCode":"40221","city":"太宰府市","lat":33.4790288,"lon":130.4914631,"areaKm2":0.6517567,"populated2020":false,"population2020":null,"populationNote":"境界またぎ・収録外等のため人口未集計"},"geometry":{"type":"Polygon","coordinates":[[[130.487526939,33.475682775],[130.4875,33.483333333333334],[130.49304313886162,33.483333333333334],[130.493475551,33.482076946],[130.49365917,33.481773613],[130.494029728,33.481338054],[130.494478054,33.481087775],[130.494486667,33.48051749500001],[130.494693333,33.480180559],[130.49500360600004,33.480031108],[130.496074994,33.480009441],[130.497663891,33.480222225000006],[130.4979,33.480004162],[130.497955837,33.479738613],[130.497812503,33.47935166700001],[130.497664163,33.479160559],[130.497175279,33.478808892],[130.496618054,33.478587495000006],[130.496411115,33.477879721],[130.49552360600003,33.477526108],[130.49516166,33.47723249500001],[130.49502083,33.476691108],[130.494704994,33.476296387000005],[130.494244578,33.475],[130.488024643,33.47500000000001],[130.487526939,33.475682775]]]}},{"type":"Feature","id":"40221:50301388","properties":{"id":"40221:50301388","meshCode":"50301388","cityCode":"40221","city":"太宰府市","lat":33.4886223,"lon":130.4859146,"areaKm2":0.2223615,"populated2020":true,"population2020":null,"populationNote":"境界またぎ・収録外等のため人口未集計"},"geometry":{"type":"Polygon","coordinates":[[[130.486768612,33.483489440999996],[130.48600166,33.485975559],[130.485068054,33.486844162000004],[130.48485832700004,33.48729416199999],[130.484436109,33.487855],[130.484174721,33.488738054],[130.484120272,33.489274721],[130.48390194600003,33.48977527900001],[130.483318885,33.490129162],[130.483123333,33.490336108],[130.483120558,33.490814721],[130.48349044090037,33.49166666666667],[130.4875,33.491666666666674],[130.4875,33.483333333333334],[130.4867512841188,33.48333333333334],[130.486768612,33.483489440999996]]]}},{"type":"Feature","id":"40221:50301389","properties":{"id":"40221:50301389","meshCode":"50301389","cityCode":"40221","city":"太宰府市","lat":33.4878359,"lon":130.4910436,"areaKm2":0.5917025,"populated2020":true,"population2020":null,"populationNote":"境界またぎ・収録外等のため人口未集計"},"geometry":{"type":"Polygon","coordinates":[[[130.493802776,33.487198054],[130.494124721,33.48702],[130.494808054,33.486846667],[130.49495166,33.48663],[130.494113061,33.48595138700001],[130.494006939,33.485025],[130.493868885,33.484745829],[130.493630558,33.484594162],[130.492883606,33.484368054],[130.492587782,33.484096108],[130.492622218,33.48383610799999],[130.49304313886162,33.483333333333334],[130.4875,33.483333333333334],[130.4875,33.491666666666674],[130.49622272423085,33.49166666666667],[130.496474163,33.491303613],[130.496548612,33.490971387],[130.496476939,33.490473333],[130.496361946,33.49033361299999],[130.496091946,33.49023749500001],[130.495919728,33.490083333],[130.495603606,33.490073613],[130.495078054,33.489628613],[130.494583891,33.489561387],[130.494325551,33.489450559],[130.493998327,33.488767225],[130.493587497,33.488273613],[130.493564449,33.487758613],[130.493802776,33.487198054]]]}},{"type":"Feature","id":"40221:50301483","properties":{"id":"40221:50301483","meshCode":"50301483","cityCode":"40221","city":"太宰府市","lat":33.4914053,"lon":130.5405141,"areaKm2":0.0106225,"populated2020":true,"population2020":null,"populationNote":"境界またぎ・収録外等のため人口未集計"},"geometry":{"type":"Polygon","coordinates":[[[130.541815058,33.49160505399999],[130.54116358,33.491343468],[130.540842607,33.490886225000004],[130.540218612,33.491081387],[130.53916347653504,33.49166666666667],[130.54178447516543,33.49166666666667],[130.541815058,33.49160505399999]]]}},{"type":"Feature","id":"40221:50301398","properties":{"id":"40221:50301398","meshCode":"50301398","cityCode":"40221","city":"太宰府市","lat":33.4956385,"lon":130.4857388,"areaKm2":0.3002808,"populated2020":true,"population2020":null,"populationNote":"境界またぎ・収録外等のため人口未集計"},"geometry":{"type":"Polygon","coordinates":[[[130.483496057,33.49168546800001],[130.483775551,33.493895279],[130.483907782,33.494188892],[130.484036939,33.494893892],[130.483824449,33.495129721],[130.483772776,33.49532249500001],[130.483924994,33.495719441000006],[130.484036939,33.496434162],[130.484125837,33.496662775],[130.484321388,33.496754162],[130.484332776,33.496836108],[130.484048327,33.49743527900001],[130.484042776,33.497647225],[130.484114449,33.49815972100001],[130.484467782,33.49873],[130.484413333,33.499637224999994],[130.484768418,33.50000000000001],[130.4875,33.5],[130.4875,33.491666666666674],[130.483496057,33.49168546800001]]]}},{"type":"Feature","id":"40221:50301399","properties":{"id":"40221:50301399","meshCode":"50301399","cityCode":"40221","city":"太宰府市","lat":33.4959949,"lon":130.4921059,"areaKm2":0.785782,"populated2020":true,"population2020":null,"populationNote":"境界またぎ・収録外等のため人口未集計"},"geometry":{"type":"Polygon","coordinates":[[[130.496218054,33.49554610799999],[130.496151946,33.495110559],[130.496769728,33.494718613],[130.495977224,33.493558613000005],[130.496074721,33.491946108],[130.49622272423085,33.49166666666667],[130.4875,33.491666666666674],[130.4875,33.5],[130.498060195,33.5],[130.49812832700002,33.49928277499999],[130.498023333,33.498807494999994],[130.497663606,33.498413891999995],[130.496893061,33.497878054],[130.496433606,33.497271667],[130.496393139,33.496835559],[130.495982503,33.496523333],[130.496218054,33.49554610799999]]]}},{"type":"Feature","id":"40221:50301492","properties":{"id":"40221:50301492","meshCode":"50301492","cityCode":"40221","city":"太宰府市","lat":33.4971484,"lon":130.5350385,"areaKm2":0.3216339,"populated2020":true,"population2020":null,"populationNote":"境界またぎ・収録外等のため人口未集計"},"geometry":{"type":"Polygon","coordinates":[[[130.536823061,33.49253082900001],[130.536420272,33.492711108],[130.535910272,33.493223892],[130.534357497,33.494227224999996],[130.534098885,33.494789721],[130.534462503,33.495281667],[130.534497497,33.495688333],[130.533233891,33.496807225],[130.532247497,33.497285829],[130.532227224,33.497531865],[130.531288612,33.497993054],[130.530961115,33.498326946000006],[130.530863061,33.498727224999996],[130.53092610900003,33.49907472100001],[130.531226667,33.499612775],[130.531152918,33.49999999999999],[130.5375,33.49999999999999],[130.5375,33.49237556475788],[130.536823061,33.49253082900001]]]}},{"type":"Feature","id":"40221:50301493","properties":{"id":"40221:50301493","meshCode":"50301493","cityCode":"40221","city":"太宰府市","lat":33.4964715,"lon":130.5414018,"areaKm2":0.6166199,"populated2020":true,"population2020":null,"populationNote":"境界またぎ・収録外等のため人口未集計"},"geometry":{"type":"Polygon","coordinates":[[[130.542860272,33.494531386999995],[130.542867497,33.493042495],[130.542783606,33.492898054],[130.542168054,33.492609441000006],[130.541454721,33.492386387],[130.541412776,33.492288054],[130.54178447516543,33.49166666666667],[130.53916347653504,33.49166666666667],[130.538323333,33.49202249499999],[130.537851388,33.49232749499999],[130.5375,33.49237556475788],[130.5375,33.49999999999999],[130.546922607,33.5],[130.546605551,33.49881333300001],[130.546542776,33.497577225],[130.5462,33.496914720999996],[130.545920272,33.496560559],[130.545423891,33.49625861300001],[130.544760272,33.494733333],[130.544186667,33.494608613000004],[130.543934721,33.494785559],[130.543724994,33.494805279],[130.542860272,33.494531386999995]]]}},{"type":"Feature","id":"40221:50301490","properties":{"id":"40221:50301490","meshCode":"50301490","cityCode":"40221","city":"太宰府市","lat":33.4999935,"lon":130.5099771,"areaKm2":0.0006464,"populated2020":true,"population2020":null,"populationNote":"境界またぎ・収録外等のため人口未集計"},"geometry":{"type":"MultiPolygon","coordinates":[[[[130.512333606,33.499846387],[130.512083256,33.5],[130.5125,33.49999999999999],[130.5125,33.499922176199874],[130.512333606,33.499846387]]],[[[130.508044942,33.5],[130.508441971,33.5],[130.508111115,33.499967225000006],[130.508044942,33.5]]],[[[130.509372023,33.5],[130.510519442,33.5],[130.510103606,33.49997389200001],[130.509372023,33.5]]]]}},{"type":"Feature","id":"40221:50301491","properties":{"id":"40221:50301491","meshCode":"50301491","cityCode":"40221","city":"太宰府市","lat":33.4999741,"lon":130.5125395,"areaKm2":4.75e-05,"populated2020":true,"population2020":null,"populationNote":"境界またぎ・収録外等のため人口未集計"},"geometry":{"type":"Polygon","coordinates":[[[130.5125,33.499922176199874],[130.5125,33.49999999999999],[130.51261856,33.5],[130.5125,33.499922176199874]]]}},{"type":"Feature","id":"40221:50302308","properties":{"id":"40221:50302308","meshCode":"50302308","cityCode":"40221","city":"太宰府市","lat":33.5014844,"lon":130.4873623,"areaKm2":0.0255564,"populated2020":true,"population2020":null,"populationNote":"境界またぎ・収録外等のため人口未集計"},"geometry":{"type":"MultiPolygon","coordinates":[[[[130.484768418,33.50000000000001],[130.48582917,33.500896108],[130.485943891,33.50088638700001],[130.486406394,33.500523054000006],[130.48648693900003,33.50053249500001],[130.48720778200004,33.501189440999994],[130.487113061,33.50201972100001],[130.487251115,33.502582775],[130.4875,33.50296877745356],[130.4875,33.5],[130.484768418,33.50000000000001]]],[[[130.4875,33.50809364878144],[130.4872383656365,33.50833333333333],[130.4875,33.508333333333326],[130.4875,33.50809364878144]]]]}},{"type":"Feature","id":"40221:50302309","properties":{"id":"40221:50302309","meshCode":"50302309","cityCode":"40221","city":"太宰府市","lat":33.5041708,"lon":130.4939115,"areaKm2":1.014851,"populated2020":true,"population2020":6673.8735,"populationNote":"収録500mメッシュ人口の合算（原典収録外は補完しない）"},"geometry":{"type":"Polygon","coordinates":[[[130.4875,33.50296877745356],[130.488101946,33.50370194600001],[130.488382218,33.503766667],[130.488628327,33.50366972100001],[130.48875,33.50378],[130.4888,33.503909162],[130.489222776,33.504288892],[130.489311946,33.504718612999994],[130.48918722400003,33.505009162],[130.488854163,33.505243892],[130.488824994,33.505488892],[130.488261388,33.50543972100001],[130.488107497,33.505508053999996],[130.487955551,33.506427495],[130.488047782,33.506687774999996],[130.488005837,33.506959441],[130.488167782,33.507273613],[130.487821946,33.507798613],[130.4875,33.50809364878144],[130.4875,33.508333333333326],[130.5,33.50833333333334],[130.5,33.502726559],[130.499792218,33.502511946],[130.499463606,33.50175805400001],[130.5,33.500810279],[130.49993917,33.500708892],[130.498051388,33.500144999999996],[130.498060195,33.5],[130.4875,33.5],[130.4875,33.50296877745356]]]}},{"type":"Feature","id":"40221:50302400","properties":{"id":"40221:50302400","meshCode":"50302400","cityCode":"40221","city":"太宰府市","lat":33.5049828,"lon":130.5076158,"areaKm2":0.6755913,"populated2020":true,"population2020":null,"populationNote":"境界またぎ・収録外等のため人口未集計"},"geometry":{"type":"MultiPolygon","coordinates":[[[[130.5,33.500810279],[130.50003,33.500754721],[130.5,33.500739586],[130.5,33.500810279]]],[[[130.5125,33.49999999999999],[130.512083256,33.5],[130.51161166,33.50028944100001],[130.510991946,33.500163892],[130.510935837,33.500026108],[130.507992218,33.500026108],[130.507887224,33.500157495],[130.50795027200002,33.500616387],[130.508188054,33.501252225],[130.50820917,33.502173613],[130.50848808,33.502638919],[130.50805808,33.50288086500001],[130.506734721,33.502478333],[130.506573891,33.502504720999994],[130.506308054,33.502763613],[130.50628778200002,33.503301946],[130.50615083,33.503862225000006],[130.505813333,33.504252224999995],[130.505248054,33.504485279],[130.50513166,33.504623892000005],[130.505107224,33.505235829],[130.504911946,33.505537775],[130.504600272,33.505701108000004],[130.50457172499299,33.50833333333333],[130.5125,33.50833333333333],[130.5125,33.50068273956495],[130.512366939,33.500663054],[130.5125,33.50047486315896],[130.5125,33.49999999999999]]],[[[130.501187224,33.50346694600001],[130.50019083,33.502923333],[130.5,33.502726559],[130.5,33.50833333333334],[130.50258992200997,33.50833333333333],[130.502640558,33.50802916199999],[130.50309472100002,33.50786055900001],[130.503205551,33.50597638699999],[130.502814721,33.505758613],[130.502538054,33.50525416200001],[130.50226055800002,33.505113054],[130.501991115,33.505100559000006],[130.501514721,33.50413472100001],[130.501522503,33.503733333],[130.501187224,33.50346694600001]]]]}},{"type":"Feature","id":"40221:50302401","properties":{"id":"40221:50302401","meshCode":"50302401","cityCode":"40221","city":"太宰府市","lat":33.5056469,"lon":130.517062,"areaKm2":0.5423078,"populated2020":true,"population2020":null,"populationNote":"境界またぎ・収録外等のため人口未集計"},"geometry":{"type":"MultiPolygon","coordinates":[[[[130.51261856,33.5],[130.5125,33.49999999999999],[130.5125,33.50047486315896],[130.512653606,33.50026305400001],[130.51261856,33.5]]],[[[130.51838221800003,33.502854441],[130.517761388,33.50287749500001],[130.51732166,33.503059441000005],[130.516872218,33.502926667],[130.516535837,33.502955829000015],[130.516360558,33.502778054000004],[130.516116394,33.50265833299999],[130.515962503,33.50266500000001],[130.515773606,33.502727225],[130.514662218,33.50353749500002],[130.513903333,33.503912775],[130.513793606,33.50372861299999],[130.513757782,33.503302225],[130.513814449,33.502676107999996],[130.514052218,33.501685829],[130.513954163,33.500545279],[130.513821388,33.50036166700001],[130.513772503,33.500013892],[130.513171115,33.50011222500001],[130.51281444900002,33.500728892],[130.5125,33.50068273956495],[130.5125,33.50833333333333],[130.525,33.50833333333333],[130.525,33.50671691899999],[130.524144721,33.50686889199999],[130.523748327,33.50718110799999],[130.522845279,33.507166387],[130.522274721,33.506913613],[130.522068612,33.506908613],[130.521534994,33.507002775000004],[130.520784994,33.50734944100001],[130.52075333300002,33.507235559],[130.521086109,33.506522495000006],[130.52119166,33.506022225],[130.521424163,33.505610829],[130.52118917,33.50536305399999],[130.521157588,33.505019135],[130.521025616,33.504733892],[130.520566472,33.504287829000006],[130.520015279,33.504192495000005],[130.519885837,33.504058892],[130.519636939,33.50330222499999],[130.51838221800003,33.502854441]]]]}},{"type":"Feature","id":"40221:50302402","properties":{"id":"40221:50302402","meshCode":"50302402","cityCode":"40221","city":"太宰府市","lat":33.5047968,"lon":130.5330942,"areaKm2":0.6933047,"populated2020":true,"population2020":null,"populationNote":"境界またぎ・収録外等のため人口未集計"},"geometry":{"type":"Polygon","coordinates":[[[130.531062218,33.50126889199999],[130.531555279,33.501357225],[130.531362218,33.50330194600001],[130.530796109,33.503379162],[130.530240558,33.504427495],[130.530604721,33.504655279],[130.530388327,33.504952495000005],[130.530087497,33.505279441],[130.529236939,33.505943333],[130.526746667,33.506567225],[130.525,33.50671691899999],[130.525,33.50833333333333],[130.5375,33.50833333333333],[130.5375,33.49999999999999],[130.531152918,33.49999999999999],[130.531062218,33.50126889199999]]]}},{"type":"Feature","id":"40221:50302403","properties":{"id":"40221:50302403","meshCode":"50302403","cityCode":"40221","city":"太宰府市","lat":33.5043004,"lon":130.542706,"areaKm2":0.8887842,"populated2020":true,"population2020":null,"populationNote":"境界またぎ・収録外等のため人口未集計"},"geometry":{"type":"Polygon","coordinates":[[[130.54777083,33.50427555900001],[130.547588612,33.503729721000006],[130.547316278,33.503542667],[130.547304163,33.502981946],[130.547026446,33.502889829],[130.547097523,33.502409252],[130.547381115,33.502319441],[130.547604994,33.502030829],[130.54741,33.501653333],[130.54696922200003,33.501268306],[130.546843333,33.501050000000006],[130.546785525,33.500500198],[130.546934449,33.50045944099999],[130.546976394,33.500315279],[130.546922607,33.5],[130.5375,33.49999999999999],[130.5375,33.50833333333333],[130.54723591372525,33.50833333333333],[130.547973333,33.507645279],[130.54837277600004,33.50738916200001],[130.549474994,33.50619527900001],[130.549484994,33.505929441],[130.54939917,33.505829721],[130.549105551,33.505810829],[130.548503606,33.505274721],[130.548231115,33.504816387000005],[130.54777083,33.50427555900001]]]}},{"type":"Feature","id":"40221:50302318","properties":{"id":"40221:50302318","meshCode":"50302318","cityCode":"40221","city":"太宰府市","lat":33.5114819,"lon":130.4868902,"areaKm2":0.0626104,"populated2020":true,"population2020":null,"populationNote":"境界またぎ・収録外等のため人口未集計"},"geometry":{"type":"Polygon","coordinates":[[[130.4872383656365,33.50833333333333],[130.487112776,33.50897249500001],[130.486827497,33.509536387],[130.486500558,33.509751387],[130.486034163,33.510284999999996],[130.485973256,33.510479775],[130.486311803,33.511073892],[130.486051946,33.51154027900001],[130.485881946,33.512106946],[130.486387497,33.512241667000005],[130.486166939,33.512856387],[130.486193061,33.51333472100001],[130.486683061,33.513758613],[130.4875,33.5141191489118],[130.4875,33.508333333333326],[130.4872383656365,33.50833333333333]]]}},{"type":"Feature","id":"40221:50302319","properties":{"id":"40221:50302319","meshCode":"50302319","cityCode":"40221","city":"太宰府市","lat":33.5123855,"lon":130.493922,"areaKm2":1.0387749,"populated2020":true,"population2020":6755.5946,"populationNote":"収録500mメッシュ人口の合算（原典収録外は補完しない）"},"geometry":{"type":"Polygon","coordinates":[[[130.5,33.50833333333334],[130.4875,33.508333333333326],[130.4875,33.5141191489118],[130.488023061,33.514758333],[130.488335551,33.515469721],[130.488597782,33.515636667],[130.489490272,33.515832225],[130.489776939,33.515969162],[130.49081302151154,33.51666666666666],[130.5,33.51666666666667],[130.5,33.50833333333334]]]}},{"type":"Feature","id":"40221:50302410","properties":{"id":"40221:50302410","meshCode":"50302410","cityCode":"40221","city":"太宰府市","lat":33.5126781,"lon":130.506446,"areaKm2":1.0041201,"populated2020":true,"population2020":7148.5395,"populationNote":"収録500mメッシュ人口の合算（原典収録外は補完しない）"},"geometry":{"type":"Polygon","coordinates":[[[130.50457172499299,33.50833333333333],[130.504399728,33.510812495],[130.504162218,33.511332495],[130.503882503,33.511698892],[130.50331722400003,33.511698892],[130.502973891,33.511406387],[130.50254083,33.511302495],[130.502297782,33.511114162],[130.502212503,33.509148333],[130.502561115,33.508885829],[130.50258992200997,33.50833333333333],[130.5,33.50833333333334],[130.5,33.51666666666667],[130.5125,33.51666666666667],[130.5125,33.50833333333333],[130.50457172499299,33.50833333333333]]]}},{"type":"Feature","id":"40221:50302411","properties":{"id":"40221:50302411","meshCode":"50302411","cityCode":"40221","city":"太宰府市","lat":33.5125,"lon":130.51875,"areaKm2":1.0732646,"populated2020":true,"population2020":5804.7967,"populationNote":"収録500mメッシュ人口の合算（原典収録外は補完しない）"},"geometry":{"type":"Polygon","coordinates":[[[130.525,33.50833333333333],[130.5125,33.50833333333333],[130.5125,33.51666666666667],[130.525,33.516666666666666],[130.525,33.50833333333333]]]}},{"type":"Feature","id":"40221:50302412","properties":{"id":"40221:50302412","meshCode":"50302412","cityCode":"40221","city":"太宰府市","lat":33.5125,"lon":130.53125,"areaKm2":1.0732619,"populated2020":true,"population2020":5783.6942,"populationNote":"収録500mメッシュ人口の合算（原典収録外は補完しない）"},"geometry":{"type":"Polygon","coordinates":[[[130.5375,33.50833333333333],[130.525,33.50833333333333],[130.525,33.516666666666666],[130.5375,33.516666666666666],[130.5375,33.50833333333333]]]}},{"type":"Feature","id":"40221:50302413","properties":{"id":"40221:50302413","meshCode":"50302413","cityCode":"40221","city":"太宰府市","lat":33.5111914,"lon":130.54084,"areaKm2":0.4268028,"populated2020":true,"population2020":null,"populationNote":"境界またぎ・収録外等のため人口未集計"},"geometry":{"type":"Polygon","coordinates":[[[130.54413778200004,33.510985559],[130.54498138800002,33.510919441],[130.545795837,33.510311946],[130.546447224,33.510213054000005],[130.547028612,33.508639721],[130.54723591372525,33.50833333333333],[130.5375,33.50833333333333],[130.5375,33.516666666666666],[130.54024486381877,33.51666666666667],[130.539555837,33.515392495],[130.539555837,33.515216946],[130.539774163,33.514791667000004],[130.540168612,33.51310472099999],[130.540411388,33.512549441],[130.54063917,33.512407225000004],[130.541498054,33.51222749499999],[130.542535279,33.51181],[130.543211946,33.511417494999996],[130.543581115,33.511331946],[130.54413778200004,33.510985559]]]}},{"type":"Feature","id":"40221:50302329","properties":{"id":"40221:50302329","meshCode":"50302329","cityCode":"40221","city":"太宰府市","lat":33.5208238,"lon":130.4965577,"areaKm2":0.5783313,"populated2020":true,"population2020":null,"populationNote":"境界またぎ・収録外等のため人口未集計"},"geometry":{"type":"Polygon","coordinates":[[[130.49081302151154,33.51666666666666],[130.493620272,33.51857305399999],[130.494603061,33.519411108],[130.494813606,33.519678892],[130.493895551,33.521660279],[130.493259728,33.522147225],[130.492674163,33.524030558999996],[130.492058223,33.525],[130.5,33.525],[130.5,33.51666666666667],[130.49081302151154,33.51666666666666]]]}},{"type":"Feature","id":"40221:50302420","properties":{"id":"40221:50302420","meshCode":"50302420","cityCode":"40221","city":"太宰府市","lat":33.5208333,"lon":130.50625,"areaKm2":1.0731659,"populated2020":true,"population2020":5369.52,"populationNote":"収録500mメッシュ人口の合算（原典収録外は補完しない）"},"geometry":{"type":"Polygon","coordinates":[[[130.5125,33.51666666666667],[130.5,33.51666666666667],[130.5,33.525],[130.5125,33.525],[130.5125,33.51666666666667]]]}},{"type":"Feature","id":"40221:50302421","properties":{"id":"40221:50302421","meshCode":"50302421","cityCode":"40221","city":"太宰府市","lat":33.5208333,"lon":130.51875,"areaKm2":1.0731632,"populated2020":true,"population2020":662.08,"populationNote":"収録500mメッシュ人口の合算（原典収録外は補完しない）"},"geometry":{"type":"Polygon","coordinates":[[[130.525,33.516666666666666],[130.5125,33.51666666666667],[130.5125,33.525],[130.525,33.525000000000006],[130.525,33.516666666666666]]]}},{"type":"Feature","id":"40221:50302422","properties":{"id":"40221:50302422","meshCode":"50302422","cityCode":"40221","city":"太宰府市","lat":33.5208333,"lon":130.53125,"areaKm2":1.0731604,"populated2020":true,"population2020":3453.988,"populationNote":"収録500mメッシュ人口の合算（原典収録外は補完しない）"},"geometry":{"type":"Polygon","coordinates":[[[130.5375,33.516666666666666],[130.525,33.516666666666666],[130.525,33.525000000000006],[130.5375,33.525],[130.5375,33.516666666666666]]]}},{"type":"Feature","id":"40221:50302423","properties":{"id":"40221:50302423","meshCode":"50302423","cityCode":"40221","city":"太宰府市","lat":33.522041,"lon":130.5418035,"areaKm2":0.5489522,"populated2020":true,"population2020":null,"populationNote":"境界またぎ・収録外等のため人口未集計"},"geometry":{"type":"Polygon","coordinates":[[[130.54216166,33.521693333],[130.541101946,33.519477775],[130.541006939,33.518516387000005],[130.54024486381877,33.51666666666667],[130.5375,33.516666666666666],[130.5375,33.525],[130.55,33.52500000000001],[130.55,33.521502946],[130.548407224,33.522610829],[130.548093606,33.52297610800001],[130.547961946,33.523322225],[130.548027782,33.52354527899999],[130.54866,33.524232775],[130.54864,33.524318333],[130.54829083,33.524550559],[130.547896394,33.52463138699999],[130.547213333,33.52441777500001],[130.546894721,33.524223333],[130.546763333,33.524043054],[130.546687497,33.523678054],[130.54592055800003,33.52285333299999],[130.545566667,33.522208333],[130.5444807,33.521314108],[130.544293061,33.521262775000004],[130.543755837,33.52158889199999],[130.54237917,33.521811946],[130.54216166,33.521693333]]]}},{"type":"Feature","id":"40221:50302424","properties":{"id":"40221:50302424","meshCode":"50302424","cityCode":"40221","city":"太宰府市","lat":33.5235655,"lon":130.55365,"areaKm2":0.2360733,"populated2020":false,"population2020":null,"populationNote":"境界またぎ・収録外等のため人口未集計"},"geometry":{"type":"Polygon","coordinates":[[[130.556128885,33.523231108000004],[130.555724449,33.522989162],[130.555523606,33.522368891999996],[130.555022776,33.52195138700001],[130.554790272,33.521885000000005],[130.553996109,33.521889720999994],[130.553753333,33.521695279],[130.553581115,33.5217],[130.553040272,33.521856387],[130.552350272,33.52223722499999],[130.552208612,33.522151667],[130.552112503,33.521900279],[130.551976109,33.521786387000006],[130.551444721,33.521558613],[130.550276394,33.521425829],[130.550043606,33.52147805399999],[130.55,33.52500000000001],[130.559219105,33.525000000000006],[130.558358612,33.524140278999994],[130.558222776,33.523534721],[130.557919442,33.523430279],[130.55719610900002,33.523463333],[130.55665,33.52318361299999],[130.556128885,33.523231108000004]]]}},{"type":"Feature","id":"40221:50302339","properties":{"id":"40221:50302339","meshCode":"50302339","cityCode":"40221","city":"太宰府市","lat":33.5286117,"lon":130.4952804,"areaKm2":0.6363223,"populated2020":true,"population2020":null,"populationNote":"境界またぎ・収録外等のため人口未集計"},"geometry":{"type":"Polygon","coordinates":[[[130.492058223,33.525],[130.491358054,33.526616387],[130.491743333,33.526720829],[130.491992503,33.528260559],[130.491032218,33.528811108000006],[130.490505551,33.528462775],[130.489832218,33.529758333],[130.489344721,33.53045194600001],[130.489348054,33.53056],[130.490291115,33.531082225000006],[130.492592218,33.532153054],[130.492766394,33.532302225],[130.493006109,33.532780829],[130.493461388,33.532906108],[130.494385837,33.533016387],[130.49474917,33.53296916199999],[130.494912776,33.532815279],[130.495066667,33.532627225000006],[130.49510083,33.532230279],[130.495743606,33.531893333],[130.49754,33.531235],[130.499271115,33.53094527900001],[130.499539442,33.530978613],[130.5,33.531171865],[130.5,33.525],[130.492058223,33.525]]]}},{"type":"Feature","id":"40221:50302430","properties":{"id":"40221:50302430","meshCode":"50302430","cityCode":"40221","city":"太宰府市","lat":33.5289518,"lon":130.5065113,"areaKm2":1.010456,"populated2020":true,"population2020":null,"populationNote":"境界またぎ・収録外等のため人口未集計"},"geometry":{"type":"Polygon","coordinates":[[[130.5125,33.525],[130.5,33.525],[130.5,33.531171865],[130.50036917,33.531320279],[130.500657782,33.531538612999995],[130.501492503,33.53181861299999],[130.501914994,33.531892225],[130.50240083,33.53186277499999],[130.503036109,33.532613613],[130.50344083,33.532869721000004],[130.503997497,33.533088054000004],[130.504402218,33.532993333],[130.504857497,33.532485559],[130.50499917,33.53243333299999],[130.505166109,33.53248555900001],[130.50581791225503,33.53333333333333],[130.5125,33.53333333333333],[130.5125,33.525]]]}},{"type":"Feature","id":"40221:50302431","properties":{"id":"40221:50302431","meshCode":"50302431","cityCode":"40221","city":"太宰府市","lat":33.5284177,"lon":130.5184358,"areaKm2":0.8556193,"populated2020":false,"population2020":null,"populationNote":"境界またぎ・収録外等のため人口未集計"},"geometry":{"type":"Polygon","coordinates":[[[130.525,33.525000000000006],[130.5125,33.525],[130.5125,33.53333333333333],[130.51449199648718,33.53333333333333],[130.514865279,33.533104162],[130.51521306100003,33.53305610799999],[130.515598885,33.532792225],[130.516102218,33.532228333],[130.516143333,33.531982495],[130.515975551,33.531425279000004],[130.51633917,33.530992495],[130.516765551,33.530828613000004],[130.517254721,33.530972774999995],[130.517673891,33.531254720999996],[130.51831,33.531300559],[130.518498885,33.531176108],[130.51888083000003,33.530580829],[130.519293333,33.530443054],[130.52016,33.529813892],[130.521243606,33.530685829],[130.52208083,33.530672495],[130.522192776,33.531098613],[130.522570272,33.531393613],[130.52332917,33.531549721],[130.523553061,33.53167444099999],[130.52409111500003,33.531805279000004],[130.524273061,33.53193638700001],[130.524314994,33.532205279],[130.524720272,33.53274277500001],[130.525,33.532923775],[130.525,33.525000000000006]]]}},{"type":"Feature","id":"40221:50302432","properties":{"id":"40221:50302432","meshCode":"50302432","cityCode":"40221","city":"太宰府市","lat":33.5291591,"lon":130.531261,"areaKm2":1.0710642,"populated2020":true,"population2020":2251.6636,"populationNote":"収録500mメッシュ人口の合算（原典収録外は補完しない）"},"geometry":{"type":"Polygon","coordinates":[[[130.5375,33.525],[130.525,33.525000000000006],[130.525,33.532923775],[130.525481946,33.533168892],[130.5260469135924,33.53333333333333],[130.5375,33.53333333333333],[130.5375,33.525]]]}},{"type":"Feature","id":"40221:50302433","properties":{"id":"40221:50302433","meshCode":"50302433","cityCode":"40221","city":"太宰府市","lat":33.5291667,"lon":130.54375,"areaKm2":1.0730564,"populated2020":true,"population2020":241.7945,"populationNote":"収録500mメッシュ人口の合算（原典収録外は補完しない）"},"geometry":{"type":"Polygon","coordinates":[[[130.55,33.52500000000001],[130.5375,33.525],[130.5375,33.53333333333333],[130.55,33.53333333333333],[130.55,33.52500000000001]]]}},{"type":"Feature","id":"40221:50302434","properties":{"id":"40221:50302434","meshCode":"50302434","cityCode":"40221","city":"太宰府市","lat":33.5294048,"lon":130.5557801,"areaKm2":0.9805703,"populated2020":true,"population2020":121.8874,"populationNote":"収録500mメッシュ人口の合算（原典収録外は補完しない）"},"geometry":{"type":"Polygon","coordinates":[[[130.5625,33.52883903668677],[130.562092776,33.528603892],[130.560712218,33.52858],[130.560560558,33.528456667],[130.560143061,33.526873892],[130.559219105,33.525000000000006],[130.55,33.52500000000001],[130.55,33.53333333333333],[130.5625,33.53333333333333],[130.5625,33.52883903668677]]]}},{"type":"Feature","id":"40221:50302435","properties":{"id":"40221:50302435","meshCode":"50302435","cityCode":"40221","city":"太宰府市","lat":33.5316922,"lon":130.5641185,"areaKm2":0.1215217,"populated2020":false,"population2020":null,"populationNote":"境界またぎ・収録外等のため人口未集計"},"geometry":{"type":"Polygon","coordinates":[[[130.5625,33.52883903668677],[130.5625,33.53333333333333],[130.56674347600978,33.53333333333333],[130.566743333,33.533043613000004],[130.566652218,33.532873054],[130.566161946,33.53234638699999],[130.565368612,33.53084472100001],[130.564019728,33.529751387000005],[130.563124449,33.529485829],[130.5625,33.52883903668677]]]}},{"type":"Feature","id":"40221:50302440","properties":{"id":"40221:50302440","meshCode":"50302440","cityCode":"40221","city":"太宰府市","lat":33.5342928,"lon":130.5101289,"areaKm2":0.1054044,"populated2020":true,"population2020":null,"populationNote":"境界またぎ・収録外等のため人口未集計"},"geometry":{"type":"Polygon","coordinates":[[[130.506075279,33.53366972100001],[130.510266667,33.53528582900001],[130.5125,33.53619317607386],[130.5125,33.53333333333333],[130.50581791225503,33.53333333333333],[130.506075279,33.53366972100001]]]}},{"type":"Feature","id":"40221:50302441","properties":{"id":"40221:50302441","meshCode":"50302441","cityCode":"40221","city":"太宰府市","lat":33.5349658,"lon":130.5133555,"areaKm2":0.0541495,"populated2020":false,"population2020":null,"populationNote":"境界またぎ・収録外等のため人口未集計"},"geometry":{"type":"Polygon","coordinates":[[[130.5125,33.53619317607386],[130.51432083,33.536975559000005],[130.51420083,33.536016108],[130.513949442,33.535273333],[130.513977224,33.534326108],[130.514345837,33.53342833300001],[130.51449199648718,33.53333333333333],[130.5125,33.53333333333333],[130.5125,33.53619317607386]]]}},{"type":"Feature","id":"40221:50302442","properties":{"id":"40221:50302442","meshCode":"50302442","cityCode":"40221","city":"太宰府市","lat":33.5374326,"lon":130.5327866,"areaKm2":0.8021422,"populated2020":true,"population2020":46.1661,"populationNote":"収録500mメッシュ人口の合算（原典収録外は補完しない）"},"geometry":{"type":"Polygon","coordinates":[[[130.526621388,33.533896667],[130.526886939,33.53442722500001],[130.527750558,33.535209721],[130.527876394,33.535301387],[130.528372503,33.53537361299999],[130.52868,33.53562277499999],[130.529239442,33.535838892],[130.529441946,33.53597666699999],[130.529679728,33.53650110800001],[130.529330272,33.53694],[130.528631115,33.537254721],[130.528498327,33.53741861300001],[130.528484449,33.53791027900001],[130.528714721,33.538646946],[130.52863083,33.53884999999999],[130.52837917,33.53900722499999],[130.527624163,33.540252775],[130.527973891,33.540606667],[130.528106667,33.541078892],[130.5280947208434,33.54166666666667],[130.5375,33.541666666666664],[130.5375,33.53333333333333],[130.5260469135924,33.53333333333333],[130.526243891,33.53344416200001],[130.526621388,33.533896667]]]}},{"type":"Feature","id":"40221:50302443","properties":{"id":"40221:50302443","meshCode":"50302443","cityCode":"40221","city":"太宰府市","lat":33.5375,"lon":130.54375,"areaKm2":1.0729548,"populated2020":true,"population2020":651.6223,"populationNote":"収録500mメッシュ人口の合算（原典収録外は補完しない）"},"geometry":{"type":"Polygon","coordinates":[[[130.55,33.53333333333333],[130.5375,33.53333333333333],[130.5375,33.541666666666664],[130.55,33.541666666666664],[130.55,33.53333333333333]]]}},{"type":"Feature","id":"40221:50302444","properties":{"id":"40221:50302444","meshCode":"50302444","cityCode":"40221","city":"太宰府市","lat":33.5375,"lon":130.55625,"areaKm2":1.0729523,"populated2020":true,"population2020":20.3621,"populationNote":"収録500mメッシュ人口の合算（原典収録外は補完しない）"},"geometry":{"type":"Polygon","coordinates":[[[130.5625,33.53333333333333],[130.55,33.53333333333333],[130.55,33.541666666666664],[130.5625,33.54166666666667],[130.5625,33.53333333333333]]]}},{"type":"Feature","id":"40221:50302445","properties":{"id":"40221:50302445","meshCode":"50302445","cityCode":"40221","city":"太宰府市","lat":33.5379786,"lon":130.5654385,"areaKm2":0.4828915,"populated2020":false,"population2020":null,"populationNote":"境界またぎ・収録外等のため人口未集計"},"geometry":{"type":"Polygon","coordinates":[[[130.567359728,33.537373892000005],[130.567177782,33.53677194600001],[130.567319442,33.53635444100001],[130.567374994,33.53557805399999],[130.566773606,33.53384055899999],[130.56674347600978,33.53333333333333],[130.5625,33.53333333333333],[130.5625,33.54166666666667],[130.571012917819,33.541666666666664],[130.570468612,33.541061387],[130.569902218,33.54075777500001],[130.569305551,33.540264441],[130.569103061,33.540179162],[130.568809728,33.53963833299999],[130.568755551,33.538853613],[130.568280272,33.538412775000005],[130.568082776,33.537857775],[130.567359728,33.537373892000005]]]}},{"type":"Feature","id":"40221:50302452","properties":{"id":"40221:50302452","meshCode":"50302452","cityCode":"40221","city":"太宰府市","lat":33.543157,"lon":130.5340659,"areaKm2":0.2300052,"populated2020":false,"population2020":null,"populationNote":"境界またぎ・収録外等のため人口未集計"},"geometry":{"type":"Polygon","coordinates":[[[130.528169442,33.54182582899999],[130.528497224,33.542110828999995],[130.528636939,33.542491108],[130.528916667,33.542753333],[130.529545551,33.542917225],[130.52969917,33.54303527900001],[130.52986,33.54335],[130.530573061,33.543592225],[130.530845551,33.543769162],[130.531076394,33.543762775],[130.531404994,33.543382495],[130.531565551,33.54335],[130.532743891,33.543736108],[130.533023606,33.543631108],[130.533296109,33.543401667],[130.533659728,33.543618054],[130.534246667,33.543781946],[130.534407497,33.54393277500001],[130.534784994,33.544627775],[130.53565166,33.545303054],[130.535904721,33.545464441],[130.536121388,33.545503892],[130.536261388,33.54589027899999],[130.53642917,33.546060829000005],[130.53717,33.546486945999995],[130.5375,33.54656234273743],[130.5375,33.541666666666664],[130.5280947208434,33.54166666666667],[130.528169442,33.54182582899999]]]}},{"type":"Feature","id":"40221:50302453","properties":{"id":"40221:50302453","meshCode":"50302453","cityCode":"40221","city":"太宰府市","lat":33.5455237,"lon":130.544225,"areaKm2":0.9689627,"populated2020":true,"population2020":null,"populationNote":"境界またぎ・収録外等のため人口未集計"},"geometry":{"type":"Polygon","coordinates":[[[130.55,33.541666666666664],[130.5375,33.541666666666664],[130.5375,33.54656234273743],[130.538295279,33.547227775],[130.538672776,33.547149162000004],[130.538966394,33.547267225],[130.539022503,33.547470278999995],[130.539553606,33.54750305400001],[130.540067782,33.547663892],[130.540284449,33.54764416199999],[130.54069,33.547768613],[130.540955279,33.547945559],[130.541367782,33.548417495],[130.541332776,33.548863333],[130.541675551,33.549276387000006],[130.541681245,33.55],[130.55,33.54999999999999],[130.55,33.541666666666664]]]}},{"type":"Feature","id":"40221:50302454","properties":{"id":"40221:50302454","meshCode":"50302454","cityCode":"40221","city":"太宰府市","lat":33.5456929,"lon":130.5560238,"areaKm2":1.0281796,"populated2020":false,"population2020":null,"populationNote":"境界またぎ・収録外等のため人口未集計"},"geometry":{"type":"Polygon","coordinates":[[[130.5625,33.54166666666667],[130.55,33.541666666666664],[130.55,33.54999999999999],[130.55962083,33.549973333000004],[130.560288054,33.549248613],[130.560693333,33.54864],[130.56082917,33.54829],[130.561073891,33.548152225],[130.561629728,33.54812944100001],[130.561895279,33.548050559],[130.561947782,33.547834162],[130.5625,33.5472479734544],[130.5625,33.54166666666667]]]}},{"type":"Feature","id":"40221:50302455","properties":{"id":"40221:50302455","meshCode":"50302455","cityCode":"40221","city":"太宰府市","lat":33.543564,"lon":130.5661986,"areaKm2":0.3186807,"populated2020":false,"population2020":null,"populationNote":"境界またぎ・収録外等のため人口未集計"},"geometry":{"type":"Polygon","coordinates":[[[130.568163061,33.544435829],[130.570225551,33.544236108],[130.570470272,33.544068892],[130.570596109,33.543633054],[130.570765551,33.54343166700001],[130.57215555100004,33.54247694600001],[130.571720558,33.54214027900001],[130.571146394,33.541882225],[130.571012917819,33.541666666666664],[130.5625,33.54166666666667],[130.5625,33.5472479734544],[130.562690272,33.547006108],[130.563508327,33.54683582900001],[130.56402917,33.546540559],[130.56455693900003,33.54648861300001],[130.564944163,33.546325278999994],[130.565216667,33.54593861299999],[130.565317224,33.545425559],[130.565516667,33.545110828999995],[130.565694721,33.545012494999995],[130.566793061,33.544717774999995],[130.567268327,33.544721108000005],[130.568163061,33.544435829]]]}},{"type":"Feature","id":"40221:50302463","properties":{"id":"40221:50302463","meshCode":"50302463","cityCode":"40221","city":"太宰府市","lat":33.5528776,"lon":130.5457154,"areaKm2":0.5161077,"populated2020":true,"population2020":null,"populationNote":"境界またぎ・収録外等のため人口未集計"},"geometry":{"type":"Polygon","coordinates":[[[130.541681245,33.55],[130.541717224,33.551862225],[130.541640272,33.551980279],[130.541066939,33.55228194600001],[130.54066166,33.552616107999995],[130.53987166,33.552793054],[130.539745837,33.552897775],[130.53971083,33.553074721],[130.540291115,33.55355333300001],[130.540797782,33.554102225],[130.540465551,33.554535],[130.54078,33.554970559],[130.54096166,33.554905000000005],[130.542038327,33.554950829],[130.543113606,33.554738054],[130.543487782,33.55482000000001],[130.543893333,33.555141108],[130.544706667,33.555452225],[130.54707166,33.555831946],[130.548726394,33.556365559],[130.54919472100002,33.55644082900001],[130.55,33.55610966700001],[130.55,33.54999999999999],[130.541681245,33.55]]]}},{"type":"Feature","id":"40221:50302464","properties":{"id":"40221:50302464","meshCode":"50302464","cityCode":"40221","city":"太宰府市","lat":33.5521829,"lon":130.5534846,"areaKm2":0.3491099,"populated2020":true,"population2020":null,"populationNote":"境界またぎ・収録外等のため人口未集計"},"geometry":{"type":"Polygon","coordinates":[[[130.55648083,33.552658054],[130.55671166,33.552303892000005],[130.557458327,33.552137495],[130.557703061,33.552012774999994],[130.558056109,33.55156361300001],[130.55863555100004,33.551096387],[130.558782218,33.550660279],[130.559563969,33.54999999999999],[130.55,33.54999999999999],[130.55,33.55610966700001],[130.55031,33.555913054],[130.55105,33.55516638699999],[130.55146166,33.555231946],[130.552725551,33.555045279],[130.553263891,33.554887775],[130.553826667,33.55490082899999],[130.554389442,33.55441889200001],[130.554465551,33.55385389199999],[130.554968612,33.55349305400001],[130.555251946,33.553378333000005],[130.555468612,33.553123054],[130.555949442,33.55283166699999],[130.55648083,33.552658054]]]}}]}