{"type":"FeatureCollection","metadata":{"cityCode":"40221","city":"太宰府市","resolution":500,"boundaryDate":"2026-01-01","populationLabel":"2020年基準人口（国交省調整値）","method":"標準地域メッシュを行政界で切抜き。中心が区域外のとき区域内代表点を判定点にする。人口不明をゼロにしない。"},"features":[{"type":"Feature","id":"40221:503013691","properties":{"id":"40221:503013691","meshCode":"503013691","cityCode":"40221","city":"太宰府市","lat":33.4706708,"lon":130.4902391,"areaKm2":0.0029406,"populated2020":false,"population2020":null,"populationNote":"境界またぎ・原典収録外のため自治体内人口は未集計"},"geometry":{"type":"Polygon","coordinates":[[[130.4910630978652,33.47083333333333],[130.490000272,33.470467775],[130.48964248632134,33.47083333333333],[130.4910630978652,33.47083333333333]]]}},{"type":"Feature","id":"40221:503013693","properties":{"id":"40221:503013693","meshCode":"503013693","cityCode":"40221","city":"太宰府市","lat":33.4729167,"lon":130.490625,"areaKm2":0.1678048,"populated2020":false,"population2020":null,"populationNote":"境界またぎ・原典収録外のため自治体内人口は未集計"},"geometry":{"type":"Polygon","coordinates":[[[130.49375,33.474167084595024],[130.493030558,33.473800829000005],[130.492817782,33.473613054000005],[130.492289442,33.472891108],[130.491384721,33.471964441],[130.491106109,33.471543333],[130.4910630978652,33.47083333333333],[130.48964248632134,33.47083333333333],[130.489066667,33.471331387],[130.48834,33.47164666700001],[130.488023891,33.471983613],[130.488023891,33.472238892],[130.48841166,33.472688891999994],[130.488566939,33.473040279],[130.48821917,33.473971387000006],[130.488181946,33.47451305399999],[130.488024643,33.47500000000001],[130.49375,33.47500000000001],[130.49375,33.474167084595024]]]}},{"type":"Feature","id":"40221:503013694","properties":{"id":"40221:503013694","meshCode":"503013694","cityCode":"40221","city":"太宰府市","lat":33.4745142,"lon":130.4938908,"areaKm2":0.0025804,"populated2020":false,"population2020":null,"populationNote":"境界またぎ・原典収録外のため自治体内人口は未集計"},"geometry":{"type":"Polygon","coordinates":[[[130.494244578,33.475],[130.493935279,33.47436138700001],[130.49375,33.474167084595024],[130.49375,33.47500000000001],[130.494244578,33.475]]]}},{"type":"Feature","id":"40221:503013782","properties":{"id":"40221:503013782","meshCode":"503013782","cityCode":"40221","city":"太宰府市","lat":33.4774874,"lon":130.4871114,"areaKm2":0.0209338,"populated2020":false,"population2020":null,"populationNote":"境界またぎ・原典収録外のため自治体内人口は未集計"},"geometry":{"type":"Polygon","coordinates":[[[130.487251388,33.476115829],[130.486418327,33.478089162],[130.487001388,33.478688613],[130.48711179075923,33.479166666666664],[130.4875,33.47916666666666],[130.4875,33.47572511214158],[130.487251388,33.476115829]]]}},{"type":"Feature","id":"40221:503013791","properties":{"id":"40221:503013791","meshCode":"503013791","cityCode":"40221","city":"太宰府市","lat":33.4770833,"lon":130.490625,"areaKm2":0.2663132,"populated2020":false,"population2020":null,"populationNote":"境界またぎ・原典収録外のため自治体内人口は未集計"},"geometry":{"type":"Polygon","coordinates":[[[130.488024643,33.47500000000001],[130.4875,33.47572511214158],[130.4875,33.47916666666666],[130.49375,33.47916666666667],[130.49375,33.47500000000001],[130.488024643,33.47500000000001]]]}},{"type":"Feature","id":"40221:503013792","properties":{"id":"40221:503013792","meshCode":"503013792","cityCode":"40221","city":"太宰府市","lat":33.4769775,"lon":130.4944127,"areaKm2":0.075311,"populated2020":false,"population2020":null,"populationNote":"境界またぎ・原典収録外のため自治体内人口は未集計"},"geometry":{"type":"Polygon","coordinates":[[[130.497664163,33.479160559],[130.497175279,33.478808892],[130.496618054,33.478587495000006],[130.496411115,33.477879721],[130.49552360600003,33.477526108],[130.49516166,33.47723249500001],[130.49502083,33.476691108],[130.494704994,33.476296387000005],[130.494244578,33.475],[130.49375,33.47500000000001],[130.49375,33.47916666666667],[130.497664163,33.479160559]]]}},{"type":"Feature","id":"40221:503013784","properties":{"id":"40221:503013784","meshCode":"503013784","cityCode":"40221","city":"太宰府市","lat":33.4812599,"lon":130.4867745,"areaKm2":0.0448644,"populated2020":false,"population2020":null,"populationNote":"境界またぎ・原典収録外のため自治体内人口は未集計"},"geometry":{"type":"Polygon","coordinates":[[[130.48711179075923,33.479166666666664],[130.486989728,33.480214162],[130.486573333,33.480616108],[130.486228612,33.48115027899999],[130.485869442,33.481369441000005],[130.485783333,33.481561946],[130.486104994,33.482591667],[130.486277497,33.482890279],[130.4867512841188,33.48333333333334],[130.4875,33.483333333333334],[130.4875,33.47916666666666],[130.48711179075923,33.479166666666664]]]}},{"type":"Feature","id":"40221:503013793","properties":{"id":"40221:503013793","meshCode":"503013793","cityCode":"40221","city":"太宰府市","lat":33.48125,"lon":130.490625,"areaKm2":0.2615061,"populated2020":false,"population2020":null,"populationNote":"境界またぎ・原典収録外のため自治体内人口は未集計"},"geometry":{"type":"Polygon","coordinates":[[[130.493043139,33.483333333],[130.493475551,33.482076946],[130.49375,33.48164199774385],[130.49375,33.47916666666667],[130.4875,33.47916666666666],[130.4875,33.483333333333334],[130.493043139,33.483333333]]]}},{"type":"Feature","id":"40221:503013794","properties":{"id":"40221:503013794","meshCode":"503013794","cityCode":"40221","city":"太宰府市","lat":33.4804549,"lon":130.4941283,"areaKm2":0.0486264,"populated2020":false,"population2020":null,"populationNote":"境界またぎ・原典収録外のため自治体内人口は未集計"},"geometry":{"type":"Polygon","coordinates":[[[130.493863333,33.481477775],[130.494431946,33.48115527899999],[130.494526667,33.480392224999996],[130.494693333,33.480180559],[130.49500360600004,33.480031108],[130.496074994,33.480009441],[130.497663891,33.480222225000006],[130.497781115,33.48015805400001],[130.497955837,33.479738613],[130.49766890383384,33.47916666666666],[130.49375,33.47916666666667],[130.49375,33.48164199774385],[130.493863333,33.481477775]]]}},{"type":"Feature","id":"40221:503013882","properties":{"id":"40221:503013882","meshCode":"503013882","cityCode":"40221","city":"太宰府市","lat":33.4849346,"lon":130.4869197,"areaKm2":0.064431,"populated2020":false,"population2020":null,"populationNote":"境界またぎ・原典収録外のため自治体内人口は未集計"},"geometry":{"type":"Polygon","coordinates":[[[130.486757224,33.483349999999994],[130.48600166,33.485975559],[130.485068054,33.486844162000004],[130.48471025827348,33.48749999999999],[130.4875,33.48749999999999],[130.4875,33.483333333333334],[130.486757224,33.483349999999994]]]}},{"type":"Feature","id":"40221:503013891","properties":{"id":"40221:503013891","meshCode":"503013891","cityCode":"40221","city":"太宰府市","lat":33.4854167,"lon":130.490625,"areaKm2":0.256355,"populated2020":true,"population2020":13.3423,"populationNote":"2020年基準の国交省調整値"},"geometry":{"type":"Polygon","coordinates":[[[130.493711115,33.487313613],[130.49375,33.48464877334607],[130.492883606,33.484368054],[130.492553333,33.484018892],[130.49304313886162,33.483333333333334],[130.4875,33.483333333333334],[130.4875,33.48749999999999],[130.49363191729998,33.4875],[130.493711115,33.487313613]]]}},{"type":"Feature","id":"40221:503013892","properties":{"id":"40221:503013892","meshCode":"503013892","cityCode":"40221","city":"太宰府市","lat":33.4860019,"lon":130.4939545,"areaKm2":0.0128588,"populated2020":true,"population2020":null,"populationNote":"境界またぎ・原典収録外のため自治体内人口は未集計"},"geometry":{"type":"Polygon","coordinates":[[[130.49375,33.487264589841665],[130.494124721,33.48702],[130.494808054,33.486846667],[130.49495166,33.48663],[130.494113061,33.48595138700001],[130.494006939,33.485025],[130.49375,33.48464877334607],[130.49375,33.487264589841665]]]}},{"type":"Feature","id":"40221:503013884","properties":{"id":"40221:503013884","meshCode":"503013884","cityCode":"40221","city":"太宰府市","lat":33.4895833,"lon":130.484375,"areaKm2":0.1579305,"populated2020":true,"population2020":null,"populationNote":"境界またぎ・原典収録外のため自治体内人口は未集計"},"geometry":{"type":"Polygon","coordinates":[[[130.483318885,33.490129162],[130.483123333,33.490336108],[130.483091946,33.49064666699999],[130.48349044090037,33.49166666666667],[130.4875,33.491666666666674],[130.4875,33.48749999999999],[130.48471025827348,33.48749999999999],[130.484373061,33.487970559000004],[130.483988054,33.489616387],[130.483741115,33.489900559000006],[130.483318885,33.490129162]]]}},{"type":"Feature","id":"40221:503013893","properties":{"id":"40221:503013893","meshCode":"503013893","cityCode":"40221","city":"太宰府市","lat":33.4895833,"lon":130.490625,"areaKm2":0.2667565,"populated2020":true,"population2020":3.0479,"populationNote":"2020年基準の国交省調整値"},"geometry":{"type":"Polygon","coordinates":[[[130.49375,33.48849488782962],[130.493547224,33.487989721],[130.49363191729998,33.4875],[130.4875,33.48749999999999],[130.4875,33.491666666666674],[130.49375,33.491666666666674],[130.49375,33.48849488782962]]]}},{"type":"Feature","id":"40221:503013894","properties":{"id":"40221:503013894","meshCode":"503013894","cityCode":"40221","city":"太宰府市","lat":33.490081,"lon":130.4946845,"areaKm2":0.0557322,"populated2020":true,"population2020":null,"populationNote":"境界またぎ・原典収録外のため自治体内人口は未集計"},"geometry":{"type":"Polygon","coordinates":[[[130.496474163,33.491303613],[130.496548612,33.490658613],[130.496361946,33.49033361299999],[130.496091946,33.49023749500001],[130.495919728,33.490083333],[130.495603606,33.490073613],[130.495078054,33.489628613],[130.494583891,33.489561387],[130.494325551,33.489450559],[130.493998327,33.488767225],[130.49375,33.48849488782962],[130.49375,33.491666666666674],[130.49622272423085,33.49166666666667],[130.496474163,33.491303613]]]}},{"type":"Feature","id":"40221:503014833","properties":{"id":"40221:503014833","meshCode":"503014833","cityCode":"40221","city":"太宰府市","lat":33.4911818,"lon":130.5405337,"areaKm2":0.0106225,"populated2020":true,"population2020":null,"populationNote":"境界またぎ・原典収録外のため自治体内人口は未集計"},"geometry":{"type":"Polygon","coordinates":[[[130.541815058,33.49160505399999],[130.54116358,33.491343468],[130.540842607,33.490886225000004],[130.540218612,33.491081387],[130.53916347653504,33.49166666666667],[130.54178447516543,33.49166666666667],[130.541815058,33.49160505399999]]]}},{"type":"Feature","id":"40221:503013982","properties":{"id":"40221:503013982","meshCode":"503013982","cityCode":"40221","city":"太宰府市","lat":33.49375,"lon":130.484375,"areaKm2":0.1603561,"populated2020":true,"population2020":null,"populationNote":"境界またぎ・原典収録外のため自治体内人口は未集計"},"geometry":{"type":"Polygon","coordinates":[[[130.483490441,33.491666667],[130.483775551,33.493895279],[130.483907782,33.494188892],[130.484036939,33.494893892],[130.483766939,33.495230829],[130.483924994,33.49583333333334],[130.4875,33.49583333333334],[130.4875,33.491666666666674],[130.483490441,33.491666667]]]}},{"type":"Feature","id":"40221:503013991","properties":{"id":"40221:503013991","meshCode":"503013991","cityCode":"40221","city":"太宰府市","lat":33.49375,"lon":130.490625,"areaKm2":0.2683748,"populated2020":true,"population2020":61.3235,"populationNote":"2020年基準の国交省調整値"},"geometry":{"type":"Polygon","coordinates":[[[130.4875,33.491666666666674],[130.4875,33.49583333333334],[130.49375,33.49583333333334],[130.49375,33.491666666666674],[130.4875,33.491666666666674]]]}},{"type":"Feature","id":"40221:503013992","properties":{"id":"40221:503013992","meshCode":"503013992","cityCode":"40221","city":"太宰府市","lat":33.4937379,"lon":130.4949376,"areaKm2":0.1053472,"populated2020":true,"population2020":null,"populationNote":"境界またぎ・原典収録外のため自治体内人口は未集計"},"geometry":{"type":"Polygon","coordinates":[[[130.496218054,33.49554610799999],[130.496151946,33.495110559],[130.496769728,33.494718613],[130.495977224,33.493558613000005],[130.496074721,33.491946108],[130.49622272423085,33.49166666666667],[130.49375,33.491666666666674],[130.49375,33.49583333333334],[130.49610048293064,33.49583333333334],[130.496218054,33.49554610799999]]]}},{"type":"Feature","id":"40221:503014922","properties":{"id":"40221:503014922","meshCode":"503014922","cityCode":"40221","city":"太宰府市","lat":33.4939844,"lon":130.5361246,"areaKm2":0.0864466,"populated2020":true,"population2020":null,"populationNote":"境界またぎ・原典収録外のため自治体内人口は未集計"},"geometry":{"type":"Polygon","coordinates":[[[130.5375,33.49237556475788],[130.536420272,33.492711108],[130.535910272,33.493223892],[130.534357497,33.494227224999996],[130.534098885,33.494665],[130.534098885,33.494789721],[130.534462503,33.495281667],[130.534497497,33.495688333],[130.53433346083727,33.49583333333334],[130.5375,33.49583333333333],[130.5375,33.49237556475788]]]}},{"type":"Feature","id":"40221:503014931","properties":{"id":"40221:503014931","meshCode":"503014931","cityCode":"40221","city":"太宰府市","lat":33.49375,"lon":130.540625,"areaKm2":0.2214273,"populated2020":true,"population2020":1543.3151,"populationNote":"2020年基準の国交省調整値"},"geometry":{"type":"Polygon","coordinates":[[[130.543724994,33.494805279],[130.542860272,33.494531386999995],[130.542867497,33.493042495],[130.542783606,33.492898054],[130.542168054,33.492609441000006],[130.541454721,33.492386387],[130.541412776,33.492288054],[130.54178447516543,33.49166666666667],[130.53916347653504,33.49166666666667],[130.538323333,33.49202249499999],[130.537851388,33.49232749499999],[130.5375,33.49237556475788],[130.5375,33.49583333333333],[130.54375,33.49583333333333],[130.543724994,33.494805279]]]}},{"type":"Feature","id":"40221:503014932","properties":{"id":"40221:503014932","meshCode":"503014932","cityCode":"40221","city":"太宰府市","lat":33.4951551,"lon":130.5443466,"areaKm2":0.0146781,"populated2020":true,"population2020":null,"populationNote":"境界またぎ・原典収録外のため自治体内人口は未集計"},"geometry":{"type":"Polygon","coordinates":[[[130.54526058545454,33.49583333333333],[130.544760272,33.494733333],[130.544186667,33.494608613000004],[130.543934721,33.494785559],[130.54375,33.494802927760915],[130.54375,33.49583333333333],[130.54526058545454,33.49583333333333]]]}},{"type":"Feature","id":"40221:503013984","properties":{"id":"40221:503013984","meshCode":"503013984","cityCode":"40221","city":"太宰府市","lat":33.4979167,"lon":130.484375,"areaKm2":0.1399247,"populated2020":true,"population2020":null,"populationNote":"境界またぎ・原典収録外のため自治体内人口は未集計"},"geometry":{"type":"Polygon","coordinates":[[[130.483924994,33.49583333333334],[130.484125837,33.496662775],[130.484321388,33.496754162],[130.484332776,33.496836108],[130.484048327,33.49743527900001],[130.484042776,33.497647225],[130.484114449,33.49815972100001],[130.484467782,33.49873],[130.484413333,33.499637224999994],[130.484768418,33.50000000000001],[130.4875,33.5],[130.4875,33.49583333333334],[130.483924994,33.49583333333334]]]}},{"type":"Feature","id":"40221:503013993","properties":{"id":"40221:503013993","meshCode":"503013993","cityCode":"40221","city":"太宰府市","lat":33.4979167,"lon":130.490625,"areaKm2":0.2683621,"populated2020":true,"population2020":809.8365,"populationNote":"2020年基準の国交省調整値"},"geometry":{"type":"Polygon","coordinates":[[[130.4875,33.49583333333334],[130.4875,33.5],[130.49375,33.5],[130.49375,33.49583333333334],[130.4875,33.49583333333334]]]}},{"type":"Feature","id":"40221:503013994","properties":{"id":"40221:503013994","meshCode":"503013994","cityCode":"40221","city":"太宰府市","lat":33.4979167,"lon":130.496875,"areaKm2":0.1436979,"populated2020":true,"population2020":null,"populationNote":"境界またぎ・原典収録外のため自治体内人口は未集計"},"geometry":{"type":"Polygon","coordinates":[[[130.498060195,33.5],[130.49812832700002,33.49928277499999],[130.498023333,33.498807494999994],[130.497663606,33.498413891999995],[130.496893061,33.497878054],[130.496433606,33.497271667],[130.496393139,33.496835559],[130.495982503,33.496523333],[130.49610048293064,33.49583333333334],[130.49375,33.49583333333334],[130.49375,33.5],[130.498060195,33.5]]]}},{"type":"Feature","id":"40221:503014904","properties":{"id":"40221:503014904","meshCode":"503014904","cityCode":"40221","city":"太宰府市","lat":33.4999935,"lon":130.5099771,"areaKm2":0.0006464,"populated2020":true,"population2020":null,"populationNote":"境界またぎ・原典収録外のため自治体内人口は未集計"},"geometry":{"type":"MultiPolygon","coordinates":[[[[130.5125,33.49999999999999],[130.512333606,33.499846387],[130.512083256,33.5],[130.5125,33.49999999999999]]],[[[130.510519442,33.5],[130.509705279,33.499986946],[130.509372023,33.5],[130.510519442,33.5]]],[[[130.508441971,33.5],[130.508111115,33.499967225000006],[130.508044942,33.5],[130.508441971,33.5]]]]}},{"type":"Feature","id":"40221:503014913","properties":{"id":"40221:503014913","meshCode":"503014913","cityCode":"40221","city":"太宰府市","lat":33.4999611,"lon":130.5125296,"areaKm2":4.75e-05,"populated2020":true,"population2020":null,"populationNote":"境界またぎ・原典収録外のため自治体内人口は未集計"},"geometry":{"type":"Polygon","coordinates":[[[130.5125,33.499922176199874],[130.5125,33.49999999999999],[130.51261856,33.5],[130.5125,33.499922176199874]]]}},{"type":"Feature","id":"40221:503014923","properties":{"id":"40221:503014923","meshCode":"503014923","cityCode":"40221","city":"太宰府市","lat":33.498901,"lon":130.5310723,"areaKm2":0.0042819,"populated2020":true,"population2020":null,"populationNote":"境界またぎ・原典収録外のため自治体内人口は未集計"},"geometry":{"type":"Polygon","coordinates":[[[130.531248612,33.498023054],[130.530961115,33.498326946000006],[130.530863061,33.498727224999996],[130.53092610900003,33.49907472100001],[130.531226667,33.499612775],[130.531152918,33.49999999999999],[130.53125,33.5],[130.531248612,33.498023054]]]}},{"type":"Feature","id":"40221:503014924","properties":{"id":"40221:503014924","meshCode":"503014924","cityCode":"40221","city":"太宰府市","lat":33.4979167,"lon":130.534375,"areaKm2":0.2309054,"populated2020":true,"population2020":null,"populationNote":"境界またぎ・原典収録外のため自治体内人口は未集計"},"geometry":{"type":"Polygon","coordinates":[[[130.53433346083727,33.49583333333334],[130.533233891,33.496807225],[130.532247497,33.497285829],[130.532227224,33.497531865],[130.53125,33.49802201300002],[130.53125,33.5],[130.5375,33.49999999999999],[130.5375,33.49583333333333],[130.53433346083727,33.49583333333334]]]}},{"type":"Feature","id":"40221:503014933","properties":{"id":"40221:503014933","meshCode":"503014933","cityCode":"40221","city":"太宰府市","lat":33.4979167,"lon":130.540625,"areaKm2":0.2683594,"populated2020":true,"population2020":1235.5245,"populationNote":"2020年基準の国交省調整値"},"geometry":{"type":"Polygon","coordinates":[[[130.5375,33.49583333333333],[130.5375,33.49999999999999],[130.54375,33.5],[130.54375,33.49583333333333],[130.5375,33.49583333333333]]]}},{"type":"Feature","id":"40221:503014934","properties":{"id":"40221:503014934","meshCode":"503014934","cityCode":"40221","city":"太宰府市","lat":33.4978068,"lon":130.5451569,"areaKm2":0.1121551,"populated2020":true,"population2020":null,"populationNote":"境界またぎ・原典収録外のため自治体内人口は未集計"},"geometry":{"type":"Polygon","coordinates":[[[130.546922607,33.5],[130.546605551,33.49881333300001],[130.546542776,33.497577225],[130.5462,33.496914720999996],[130.545920272,33.496560559],[130.545423891,33.49625861300001],[130.54526058545454,33.49583333333333],[130.54375,33.49583333333333],[130.54375,33.5],[130.546922607,33.5]]]}},{"type":"Feature","id":"40221:503023082","properties":{"id":"40221:503023082","meshCode":"503023082","cityCode":"40221","city":"太宰府市","lat":33.5014844,"lon":130.4873623,"areaKm2":0.0252334,"populated2020":true,"population2020":null,"populationNote":"境界またぎ・原典収録外のため自治体内人口は未集計"},"geometry":{"type":"Polygon","coordinates":[[[130.484768418,33.50000000000001],[130.48582917,33.500896108],[130.48648693900003,33.50053249500001],[130.48720778200004,33.501189440999994],[130.487113061,33.50201972100001],[130.487251115,33.502582775],[130.4875,33.50296877745356],[130.4875,33.5],[130.484768418,33.50000000000001]]]}},{"type":"Feature","id":"40221:503023091","properties":{"id":"40221:503023091","meshCode":"503023091","cityCode":"40221","city":"太宰府市","lat":33.5020833,"lon":130.490625,"areaKm2":0.2598422,"populated2020":true,"population2020":1798.276,"populationNote":"2020年基準の国交省調整値"},"geometry":{"type":"Polygon","coordinates":[[[130.487525279,33.503000279000005],[130.488101946,33.50370194600001],[130.488382218,33.503766667],[130.488628327,33.50366972100001],[130.48910272203923,33.50416666666667],[130.49375,33.50416666666668],[130.49375,33.5],[130.4875,33.5],[130.487525279,33.503000279000005]]]}},{"type":"Feature","id":"40221:503023092","properties":{"id":"40221:503023092","meshCode":"503023092","cityCode":"40221","city":"太宰府市","lat":33.5020833,"lon":130.496875,"areaKm2":0.2537164,"populated2020":true,"population2020":1169.1557,"populationNote":"2020年基準の国交省調整値"},"geometry":{"type":"Polygon","coordinates":[[[130.499976394,33.50270222499999],[130.499792218,33.502511946],[130.499463606,33.50175805400001],[130.5,33.500810279],[130.49993917,33.500708892],[130.498051388,33.500144999999996],[130.498060195,33.5],[130.49375,33.5],[130.49375,33.50416666666668],[130.5,33.50416666666667],[130.499976394,33.50270222499999]]]}},{"type":"Feature","id":"40221:503024001","properties":{"id":"40221:503024001","meshCode":"503024001","cityCode":"40221","city":"太宰府市","lat":33.5034068,"lon":130.5005434,"areaKm2":0.0156816,"populated2020":true,"population2020":null,"populationNote":"境界またぎ・原典収録外のため自治体内人口は未集計"},"geometry":{"type":"MultiPolygon","coordinates":[[[[130.50625,33.503456739688374],[130.50615083,33.503862225000006],[130.50588717656657,33.50416666666667],[130.50625,33.50416666666667],[130.50625,33.503456739688374]]],[[[130.501514721,33.50413472100001],[130.501472503,33.503634162],[130.50019083,33.502923333],[130.5,33.502726559],[130.5,33.50416666666667],[130.501514721,33.50413472100001]]],[[[130.50003,33.500754721],[130.5,33.500739586],[130.5,33.500810279],[130.50003,33.500754721]]]]}},{"type":"Feature","id":"40221:503024002","properties":{"id":"40221:503024002","meshCode":"503024002","cityCode":"40221","city":"太宰府市","lat":33.5020833,"lon":130.509375,"areaKm2":0.2136064,"populated2020":true,"population2020":null,"populationNote":"境界またぎ・原典収録外のため自治体内人口は未集計"},"geometry":{"type":"Polygon","coordinates":[[[130.512366939,33.500663054],[130.5125,33.50047486315896],[130.5125,33.49999999999999],[130.512083256,33.5],[130.51161166,33.50028944100001],[130.510991946,33.500163892],[130.510935837,33.500026108],[130.507992218,33.500026108],[130.507887224,33.500157495],[130.50795027200002,33.500616387],[130.508188054,33.501252225],[130.50820917,33.502173613],[130.50848808,33.502638919],[130.50805808,33.50288086500001],[130.506975837,33.502537495],[130.506573891,33.502504720999994],[130.506308054,33.502763613],[130.506276667,33.502904721],[130.50625,33.50416666666667],[130.5125,33.50416666666668],[130.5125,33.50068273956495],[130.512366939,33.500663054]]]}},{"type":"Feature","id":"40221:503024011","properties":{"id":"40221:503024011","meshCode":"503024011","cityCode":"40221","city":"太宰府市","lat":33.5022696,"lon":130.5132289,"areaKm2":0.1111459,"populated2020":true,"population2020":null,"populationNote":"境界またぎ・原典収録外のため自治体内人口は未集計"},"geometry":{"type":"MultiPolygon","coordinates":[[[[130.51875,33.50300844812533],[130.51838221800003,33.502854441],[130.517761388,33.50287749500001],[130.51732166,33.503059441000005],[130.516872218,33.502926667],[130.516535837,33.502955829000015],[130.516360558,33.502778054000004],[130.516116394,33.50265833299999],[130.515962503,33.50266500000001],[130.515773606,33.502727225],[130.514662218,33.50353749500002],[130.513903333,33.503912775],[130.513793606,33.50372861299999],[130.513757782,33.503302225],[130.513814449,33.502676107999996],[130.514052218,33.501685829],[130.513954163,33.500545279],[130.513821388,33.50036166700001],[130.513772503,33.500013892],[130.513171115,33.50011222500001],[130.51281444900002,33.500728892],[130.5125,33.50068273956495],[130.5125,33.50416666666668],[130.51875,33.50416666666668],[130.51875,33.50300844812533]]],[[[130.512653606,33.50026305400001],[130.512639728,33.500013892],[130.5125,33.49999999999999],[130.5125,33.50047486315896],[130.512653606,33.50026305400001]]]]}},{"type":"Feature","id":"40221:503024012","properties":{"id":"40221:503024012","meshCode":"503024012","cityCode":"40221","city":"太宰府市","lat":33.503596,"lon":130.5192399,"areaKm2":0.0107134,"populated2020":true,"population2020":null,"populationNote":"境界またぎ・原典収録外のため自治体内人口は未集計"},"geometry":{"type":"Polygon","coordinates":[[[130.519885837,33.504058892],[130.519636939,33.50330222499999],[130.51875,33.50300844812533],[130.51875,33.50416666666668],[130.51999025507746,33.50416666666666],[130.519885837,33.504058892]]]}},{"type":"Feature","id":"40221:503024021","properties":{"id":"40221:503024021","meshCode":"503024021","cityCode":"40221","city":"太宰府市","lat":33.5037822,"lon":130.5309237,"areaKm2":0.0074022,"populated2020":true,"population2020":null,"populationNote":"境界またぎ・原典収録外のため自治体内人口は未集計"},"geometry":{"type":"MultiPolygon","coordinates":[[[[130.531152918,33.49999999999999],[130.531062218,33.50126889199999],[130.53125,33.501302463794545],[130.53125,33.5],[130.531152918,33.49999999999999]]],[[[130.530796109,33.503379162],[130.5303829583735,33.50416666666667],[130.53125,33.50416666666666],[130.53125,33.50331725228393],[130.530796109,33.503379162]]]]}},{"type":"Feature","id":"40221:503024022","properties":{"id":"40221:503024022","meshCode":"503024022","cityCode":"40221","city":"太宰府市","lat":33.5020833,"lon":130.534375,"areaKm2":0.2635019,"populated2020":true,"population2020":1866.2636,"populationNote":"2020年基準の国交省調整値"},"geometry":{"type":"Polygon","coordinates":[[[130.53125,33.501302463794545],[130.531555279,33.501357225],[130.531362218,33.50330194600001],[130.53125,33.50331725228393],[130.53125,33.50416666666666],[130.5375,33.50416666666667],[130.5375,33.49999999999999],[130.53125,33.5],[130.53125,33.501302463794545]]]}},{"type":"Feature","id":"40221:503024031","properties":{"id":"40221:503024031","meshCode":"503024031","cityCode":"40221","city":"太宰府市","lat":33.5020833,"lon":130.540625,"areaKm2":0.2683467,"populated2020":true,"population2020":1063.4536,"populationNote":"2020年基準の国交省調整値"},"geometry":{"type":"Polygon","coordinates":[[[130.5375,33.49999999999999],[130.5375,33.50416666666667],[130.54375,33.50416666666666],[130.54375,33.5],[130.5375,33.49999999999999]]]}},{"type":"Feature","id":"40221:503024032","properties":{"id":"40221:503024032","meshCode":"503024032","cityCode":"40221","city":"太宰府市","lat":33.5020833,"lon":130.546875,"areaKm2":0.148786,"populated2020":true,"population2020":null,"populationNote":"境界またぎ・原典収録外のため自治体内人口は未集計"},"geometry":{"type":"Polygon","coordinates":[[[130.54772556929055,33.50416666666667],[130.547588612,33.503729721000006],[130.547316278,33.503542667],[130.547304163,33.502981946],[130.547026446,33.502889829],[130.547097523,33.502409252],[130.547381115,33.502319441],[130.547604994,33.502030829],[130.54741,33.501653333],[130.54696922200003,33.501268306],[130.546843333,33.501050000000006],[130.546785525,33.500500198],[130.546934449,33.50045944099999],[130.546976394,33.500315279],[130.546922607,33.5],[130.54375,33.5],[130.54375,33.50416666666666],[130.54772556929055,33.50416666666667]]]}},{"type":"Feature","id":"40221:503023084","properties":{"id":"40221:503023084","meshCode":"503023084","cityCode":"40221","city":"太宰府市","lat":33.5082149,"lon":130.4874339,"areaKm2":0.000323,"populated2020":true,"population2020":null,"populationNote":"境界またぎ・原典収録外のため自治体内人口は未集計"},"geometry":{"type":"Polygon","coordinates":[[[130.4875,33.50809364878144],[130.487311946,33.508265829],[130.4872383656365,33.50833333333333],[130.4875,33.508333333333326],[130.4875,33.50809364878144]]]}},{"type":"Feature","id":"40221:503023093","properties":{"id":"40221:503023093","meshCode":"503023093","cityCode":"40221","city":"太宰府市","lat":33.50625,"lon":130.490625,"areaKm2":0.232956,"populated2020":true,"population2020":2175.2807,"populationNote":"2020年基準の国交省調整値"},"geometry":{"type":"Polygon","coordinates":[[[130.48910272203923,33.50416666666667],[130.489310272,33.504533892000005],[130.489274721,33.504876108],[130.488854163,33.505243892],[130.488871946,33.505445279],[130.488261388,33.50543972100001],[130.488107497,33.505508053999996],[130.487955551,33.506427495],[130.488047782,33.506687774999996],[130.488005837,33.506959441],[130.488167782,33.507273613],[130.487821946,33.507798613],[130.4875,33.50809364878144],[130.4875,33.508333333333326],[130.49375,33.50833333333333],[130.49375,33.50416666666668],[130.48910272203923,33.50416666666667]]]}},{"type":"Feature","id":"40221:503023094","properties":{"id":"40221:503023094","meshCode":"503023094","cityCode":"40221","city":"太宰府市","lat":33.50625,"lon":130.496875,"areaKm2":0.2683364,"populated2020":true,"population2020":1531.1611,"populationNote":"2020年基準の国交省調整値"},"geometry":{"type":"Polygon","coordinates":[[[130.49375,33.50416666666668],[130.49375,33.50833333333333],[130.5,33.50833333333334],[130.5,33.50416666666667],[130.49375,33.50416666666668]]]}},{"type":"Feature","id":"40221:503024003","properties":{"id":"40221:503024003","meshCode":"503024003","cityCode":"40221","city":"太宰府市","lat":33.50625,"lon":130.503125,"areaKm2":0.1779676,"populated2020":true,"population2020":null,"populationNote":"境界またぎ・原典収録外のため自治体内人口は未集計"},"geometry":{"type":"MultiPolygon","coordinates":[[[[130.50588717656657,33.50416666666667],[130.505248054,33.504485279],[130.50513166,33.504623892000005],[130.505107224,33.505235829],[130.504911946,33.505537775],[130.504600272,33.505701108000004],[130.50457172499299,33.50833333333333],[130.50625,33.50833333333334],[130.50625,33.50416666666667],[130.50588717656657,33.50416666666667]]],[[[130.502589922,33.50833333300001],[130.502640558,33.50802916199999],[130.50309472100002,33.50786055900001],[130.503205551,33.50597638699999],[130.502814721,33.505758613],[130.502538054,33.50525416200001],[130.50226055800002,33.505113054],[130.501991115,33.505100559000006],[130.50153043148669,33.50416666666667],[130.5,33.50416666666667],[130.5,33.50833333333334],[130.502589922,33.50833333300001]]]]}},{"type":"Feature","id":"40221:503024004","properties":{"id":"40221:503024004","meshCode":"503024004","cityCode":"40221","city":"太宰府市","lat":33.50625,"lon":130.509375,"areaKm2":0.2683357,"populated2020":true,"population2020":1931.4351,"populationNote":"2020年基準の国交省調整値"},"geometry":{"type":"Polygon","coordinates":[[[130.50625,33.50416666666667],[130.50625,33.50833333333334],[130.5125,33.50833333333333],[130.5125,33.50416666666668],[130.50625,33.50416666666667]]]}},{"type":"Feature","id":"40221:503024013","properties":{"id":"40221:503024013","meshCode":"503024013","cityCode":"40221","city":"太宰府市","lat":33.50625,"lon":130.515625,"areaKm2":0.2683353,"populated2020":true,"population2020":2058.4386,"populationNote":"2020年基準の国交省調整値"},"geometry":{"type":"Polygon","coordinates":[[[130.5125,33.50416666666668],[130.5125,33.50833333333333],[130.51875,33.50833333333333],[130.51875,33.50416666666668],[130.5125,33.50416666666668]]]}},{"type":"Feature","id":"40221:503024014","properties":{"id":"40221:503024014","meshCode":"503024014","cityCode":"40221","city":"太宰府市","lat":33.5061882,"lon":130.5199563,"areaKm2":0.1521132,"populated2020":true,"population2020":null,"populationNote":"境界またぎ・原典収録外のため自治体内人口は未集計"},"geometry":{"type":"Polygon","coordinates":[[[130.525,33.50671691899999],[130.524144721,33.50686889199999],[130.523748327,33.50718110799999],[130.522845279,33.507166387],[130.522274721,33.506913613],[130.522068612,33.506908613],[130.521534994,33.507002775000004],[130.520784994,33.50734944100001],[130.52075333300002,33.507235559],[130.521086109,33.506522495000006],[130.52119166,33.506022225],[130.521424163,33.505610829],[130.52118917,33.50536305399999],[130.521157588,33.505019135],[130.521025616,33.504733892],[130.520566472,33.504287829000006],[130.51999025507746,33.50416666666666],[130.51875,33.50416666666668],[130.51875,33.50833333333333],[130.525,33.50833333333333],[130.525,33.50671691899999]]]}},{"type":"Feature","id":"40221:503024023","properties":{"id":"40221:503024023","meshCode":"503024023","cityCode":"40221","city":"太宰府市","lat":33.50625,"lon":130.528125,"areaKm2":0.1540663,"populated2020":true,"population2020":null,"populationNote":"境界またぎ・原典収録外のため自治体内人口は未集計"},"geometry":{"type":"Polygon","coordinates":[[[130.530240558,33.504427495],[130.530604721,33.504655279],[130.530087497,33.505279441],[130.529236939,33.505943333],[130.526746667,33.506567225],[130.525,33.50671691899999],[130.525,33.50833333333333],[130.53125,33.50833333333335],[130.53125,33.50416666666666],[130.5303829583735,33.50416666666667],[130.530240558,33.504427495]]]}},{"type":"Feature","id":"40221:503024024","properties":{"id":"40221:503024024","meshCode":"503024024","cityCode":"40221","city":"太宰府市","lat":33.50625,"lon":130.534375,"areaKm2":0.2683343,"populated2020":true,"population2020":1957.3257,"populationNote":"2020年基準の国交省調整値"},"geometry":{"type":"Polygon","coordinates":[[[130.53125,33.50416666666666],[130.53125,33.50833333333335],[130.5375,33.50833333333333],[130.5375,33.50416666666667],[130.53125,33.50416666666666]]]}},{"type":"Feature","id":"40221:503024033","properties":{"id":"40221:503024033","meshCode":"503024033","cityCode":"40221","city":"太宰府市","lat":33.50625,"lon":130.540625,"areaKm2":0.268334,"populated2020":true,"population2020":364.8638,"populationNote":"2020年基準の国交省調整値"},"geometry":{"type":"Polygon","coordinates":[[[130.5375,33.50416666666667],[130.5375,33.50833333333333],[130.54375,33.50833333333333],[130.54375,33.50416666666666],[130.5375,33.50416666666667]]]}},{"type":"Feature","id":"40221:503024034","properties":{"id":"40221:503024034","meshCode":"503024034","cityCode":"40221","city":"太宰府市","lat":33.50625,"lon":130.546875,"areaKm2":0.2033175,"populated2020":true,"population2020":156.5782,"populationNote":"2020年基準の国交省調整値"},"geometry":{"type":"Polygon","coordinates":[[[130.547235914,33.508333333],[130.547973333,33.507645279],[130.54837277600004,33.50738916200001],[130.54939917,33.506332775000004],[130.549484994,33.505929441],[130.54939917,33.505829721],[130.549105551,33.505810829],[130.548503606,33.505274721],[130.54772556929055,33.50416666666667],[130.54375,33.50416666666666],[130.54375,33.50833333333333],[130.547235914,33.508333333]]]}},{"type":"Feature","id":"40221:503023182","properties":{"id":"40221:503023182","meshCode":"503023182","cityCode":"40221","city":"太宰府市","lat":33.5104266,"lon":130.4867444,"areaKm2":0.0452452,"populated2020":true,"population2020":null,"populationNote":"境界またぎ・原典収録外のため自治体内人口は未集計"},"geometry":{"type":"Polygon","coordinates":[[[130.487171115,33.508395],[130.487112776,33.50897249500001],[130.486827497,33.509536387],[130.486361388,33.50989],[130.486034163,33.510284999999996],[130.485973256,33.510479775],[130.486311803,33.511073892],[130.486051946,33.51154027900001],[130.485881946,33.512106946],[130.486387497,33.512241667000005],[130.48628192530362,33.5125],[130.4875,33.5125],[130.4875,33.508333333333326],[130.4872383656365,33.50833333333333],[130.487171115,33.508395]]]}},{"type":"Feature","id":"40221:503023191","properties":{"id":"40221:503023191","meshCode":"503023191","cityCode":"40221","city":"太宰府市","lat":33.5104167,"lon":130.490625,"areaKm2":0.2683241,"populated2020":true,"population2020":1754.2107,"populationNote":"2020年基準の国交省調整値"},"geometry":{"type":"Polygon","coordinates":[[[130.4875,33.508333333333326],[130.4875,33.5125],[130.49375,33.512499999999996],[130.49375,33.50833333333333],[130.4875,33.508333333333326]]]}},{"type":"Feature","id":"40221:503023192","properties":{"id":"40221:503023192","meshCode":"503023192","cityCode":"40221","city":"太宰府市","lat":33.5104167,"lon":130.496875,"areaKm2":0.2683237,"populated2020":true,"population2020":1571.5255,"populationNote":"2020年基準の国交省調整値"},"geometry":{"type":"Polygon","coordinates":[[[130.49375,33.50833333333333],[130.49375,33.512499999999996],[130.5,33.512499999999996],[130.5,33.50833333333334],[130.49375,33.50833333333333]]]}},{"type":"Feature","id":"40221:503024101","properties":{"id":"40221:503024101","meshCode":"503024101","cityCode":"40221","city":"太宰府市","lat":33.5104168,"lon":130.5011363,"areaKm2":0.1991761,"populated2020":true,"population2020":1237.2918,"populationNote":"2020年基準の国交省調整値"},"geometry":{"type":"Polygon","coordinates":[[[130.50457172499299,33.50833333333333],[130.504399728,33.510812495],[130.504162218,33.511332495],[130.503882503,33.511698892],[130.503528612,33.511733333],[130.50331722400003,33.511698892],[130.502973891,33.511406387],[130.502361115,33.51121833300001],[130.502297782,33.511114162],[130.502212503,33.509148333],[130.502561115,33.508885829],[130.50258992200997,33.50833333333333],[130.5,33.50833333333334],[130.5,33.512499999999996],[130.50625,33.5125],[130.50625,33.50833333333334],[130.50457172499299,33.50833333333333]]]}},{"type":"Feature","id":"40221:503024102","properties":{"id":"40221:503024102","meshCode":"503024102","cityCode":"40221","city":"太宰府市","lat":33.5104167,"lon":130.509375,"areaKm2":0.268323,"populated2020":true,"population2020":2152.9261,"populationNote":"2020年基準の国交省調整値"},"geometry":{"type":"Polygon","coordinates":[[[130.50625,33.50833333333334],[130.50625,33.5125],[130.5125,33.5125],[130.5125,33.50833333333333],[130.50625,33.50833333333334]]]}},{"type":"Feature","id":"40221:503024111","properties":{"id":"40221:503024111","meshCode":"503024111","cityCode":"40221","city":"太宰府市","lat":33.5104167,"lon":130.515625,"areaKm2":0.2683227,"populated2020":true,"population2020":1687.2784,"populationNote":"2020年基準の国交省調整値"},"geometry":{"type":"Polygon","coordinates":[[[130.5125,33.50833333333333],[130.5125,33.5125],[130.51875,33.5125],[130.51875,33.50833333333333],[130.5125,33.50833333333333]]]}},{"type":"Feature","id":"40221:503024112","properties":{"id":"40221:503024112","meshCode":"503024112","cityCode":"40221","city":"太宰府市","lat":33.5104167,"lon":130.521875,"areaKm2":0.2683223,"populated2020":true,"population2020":2761.781,"populationNote":"2020年基準の国交省調整値"},"geometry":{"type":"Polygon","coordinates":[[[130.51875,33.50833333333333],[130.51875,33.5125],[130.525,33.5125],[130.525,33.50833333333333],[130.51875,33.50833333333333]]]}},{"type":"Feature","id":"40221:503024121","properties":{"id":"40221:503024121","meshCode":"503024121","cityCode":"40221","city":"太宰府市","lat":33.5104167,"lon":130.528125,"areaKm2":0.268322,"populated2020":true,"population2020":1239.7282,"populationNote":"2020年基準の国交省調整値"},"geometry":{"type":"Polygon","coordinates":[[[130.525,33.50833333333333],[130.525,33.5125],[130.53125,33.512499999999996],[130.53125,33.50833333333335],[130.525,33.50833333333333]]]}},{"type":"Feature","id":"40221:503024122","properties":{"id":"40221:503024122","meshCode":"503024122","cityCode":"40221","city":"太宰府市","lat":33.5104167,"lon":130.534375,"areaKm2":0.2683216,"populated2020":true,"population2020":953.7879,"populationNote":"2020年基準の国交省調整値"},"geometry":{"type":"Polygon","coordinates":[[[130.53125,33.50833333333335],[130.53125,33.512499999999996],[130.5375,33.512499999999996],[130.5375,33.50833333333333],[130.53125,33.50833333333335]]]}},{"type":"Feature","id":"40221:503024131","properties":{"id":"40221:503024131","meshCode":"503024131","cityCode":"40221","city":"太宰府市","lat":33.5104167,"lon":130.540625,"areaKm2":0.2487049,"populated2020":true,"population2020":18.357,"populationNote":"2020年基準の国交省調整値"},"geometry":{"type":"Polygon","coordinates":[[[130.54063917,33.512407225000004],[130.541498054,33.51222749499999],[130.542535279,33.51181],[130.543211946,33.511417494999996],[130.54375,33.511243997822],[130.54375,33.50833333333333],[130.5375,33.50833333333333],[130.5375,33.512499999999996],[130.54049045846065,33.5125],[130.54063917,33.512407225000004]]]}},{"type":"Feature","id":"40221:503024132","properties":{"id":"40221:503024132","meshCode":"503024132","cityCode":"40221","city":"太宰府市","lat":33.5096843,"lon":130.545206,"areaKm2":0.0730304,"populated2020":true,"population2020":null,"populationNote":"境界またぎ・原典収録外のため自治体内人口は未集計"},"geometry":{"type":"Polygon","coordinates":[[[130.54375,33.511243997822],[130.54413778200004,33.510985559],[130.54498138800002,33.510919441],[130.545795837,33.510311946],[130.546447224,33.510213054000005],[130.547028612,33.508639721],[130.54723591372525,33.50833333333333],[130.54375,33.50833333333333],[130.54375,33.511243997822]]]}},{"type":"Feature","id":"40221:503023184","properties":{"id":"40221:503023184","meshCode":"503023184","cityCode":"40221","city":"太宰府市","lat":33.5132578,"lon":130.4868444,"areaKm2":0.0173652,"populated2020":true,"population2020":null,"populationNote":"境界またぎ・原典収録外のため自治体内人口は未集計"},"geometry":{"type":"Polygon","coordinates":[[[130.48628192530362,33.5125],[130.486193061,33.51333472100001],[130.486683061,33.513758613],[130.4875,33.5141191489118],[130.4875,33.5125],[130.48628192530362,33.5125]]]}},{"type":"Feature","id":"40221:503023193","properties":{"id":"40221:503023193","meshCode":"503023193","cityCode":"40221","city":"太宰府市","lat":33.5145833,"lon":130.490625,"areaKm2":0.2338161,"populated2020":true,"population2020":1611.5294,"populationNote":"2020年基準の国交省調整値"},"geometry":{"type":"Polygon","coordinates":[[[130.487512503,33.514125279000005],[130.488023061,33.514758333],[130.488392218,33.515528613],[130.488954163,33.515745],[130.489490272,33.515832225],[130.489907224,33.516032495000005],[130.49081302151154,33.51666666666666],[130.49375,33.51666666666667],[130.49375,33.512499999999996],[130.4875,33.5125],[130.487512503,33.514125279000005]]]}},{"type":"Feature","id":"40221:503023194","properties":{"id":"40221:503023194","meshCode":"503023194","cityCode":"40221","city":"太宰府市","lat":33.5145833,"lon":130.496875,"areaKm2":0.268311,"populated2020":true,"population2020":1818.329,"populationNote":"2020年基準の国交省調整値"},"geometry":{"type":"Polygon","coordinates":[[[130.49375,33.512499999999996],[130.49375,33.51666666666667],[130.5,33.51666666666667],[130.5,33.512499999999996],[130.49375,33.512499999999996]]]}},{"type":"Feature","id":"40221:503024103","properties":{"id":"40221:503024103","meshCode":"503024103","cityCode":"40221","city":"太宰府市","lat":33.5145833,"lon":130.503125,"areaKm2":0.2683107,"populated2020":true,"population2020":1963.9793,"populationNote":"2020年基準の国交省調整値"},"geometry":{"type":"Polygon","coordinates":[[[130.5,33.512499999999996],[130.5,33.51666666666667],[130.50625,33.516666666666666],[130.50625,33.5125],[130.5,33.512499999999996]]]}},{"type":"Feature","id":"40221:503024104","properties":{"id":"40221:503024104","meshCode":"503024104","cityCode":"40221","city":"太宰府市","lat":33.5145833,"lon":130.509375,"areaKm2":0.2683103,"populated2020":true,"population2020":1794.3423,"populationNote":"2020年基準の国交省調整値"},"geometry":{"type":"Polygon","coordinates":[[[130.50625,33.5125],[130.50625,33.516666666666666],[130.5125,33.51666666666667],[130.5125,33.5125],[130.50625,33.5125]]]}},{"type":"Feature","id":"40221:503024113","properties":{"id":"40221:503024113","meshCode":"503024113","cityCode":"40221","city":"太宰府市","lat":33.5145833,"lon":130.515625,"areaKm2":0.26831,"populated2020":true,"population2020":435.1243,"populationNote":"2020年基準の国交省調整値"},"geometry":{"type":"Polygon","coordinates":[[[130.5125,33.5125],[130.5125,33.51666666666667],[130.51875,33.516666666666666],[130.51875,33.5125],[130.5125,33.5125]]]}},{"type":"Feature","id":"40221:503024114","properties":{"id":"40221:503024114","meshCode":"503024114","cityCode":"40221","city":"太宰府市","lat":33.5145833,"lon":130.521875,"areaKm2":0.2683096,"populated2020":true,"population2020":920.613,"populationNote":"2020年基準の国交省調整値"},"geometry":{"type":"Polygon","coordinates":[[[130.51875,33.5125],[130.51875,33.516666666666666],[130.525,33.516666666666666],[130.525,33.5125],[130.51875,33.5125]]]}},{"type":"Feature","id":"40221:503024123","properties":{"id":"40221:503024123","meshCode":"503024123","cityCode":"40221","city":"太宰府市","lat":33.5145833,"lon":130.528125,"areaKm2":0.2683093,"populated2020":true,"population2020":2133.6816,"populationNote":"2020年基準の国交省調整値"},"geometry":{"type":"Polygon","coordinates":[[[130.525,33.5125],[130.525,33.516666666666666],[130.53125,33.516666666666666],[130.53125,33.512499999999996],[130.525,33.5125]]]}},{"type":"Feature","id":"40221:503024124","properties":{"id":"40221:503024124","meshCode":"503024124","cityCode":"40221","city":"太宰府市","lat":33.5145833,"lon":130.534375,"areaKm2":0.268309,"populated2020":true,"population2020":1456.4965,"populationNote":"2020年基準の国交省調整値"},"geometry":{"type":"Polygon","coordinates":[[[130.53125,33.512499999999996],[130.53125,33.516666666666666],[130.5375,33.516666666666666],[130.5375,33.512499999999996],[130.53125,33.512499999999996]]]}},{"type":"Feature","id":"40221:503024133","properties":{"id":"40221:503024133","meshCode":"503024133","cityCode":"40221","city":"太宰府市","lat":33.5146839,"lon":130.5386518,"areaKm2":0.1050675,"populated2020":true,"population2020":null,"populationNote":"境界またぎ・原典収録外のため自治体内人口は未集計"},"geometry":{"type":"Polygon","coordinates":[[[130.54024486381877,33.51666666666667],[130.539555837,33.515392495],[130.539555837,33.515216946],[130.539774163,33.514791667000004],[130.540168612,33.51310472099999],[130.54049045846065,33.5125],[130.5375,33.512499999999996],[130.5375,33.516666666666666],[130.54024486381877,33.51666666666667]]]}},{"type":"Feature","id":"40221:503023291","properties":{"id":"40221:503023291","meshCode":"503023291","cityCode":"40221","city":"太宰府市","lat":33.5176261,"lon":130.4929621,"areaKm2":0.0306983,"populated2020":true,"population2020":null,"populationNote":"境界またぎ・原典収録外のため自治体内人口は未集計"},"geometry":{"type":"Polygon","coordinates":[[[130.490813022,33.516666667],[130.49192917,33.517474441],[130.49375,33.51868085299154],[130.49375,33.51666666666667],[130.490813022,33.516666667]]]}},{"type":"Feature","id":"40221:503023292","properties":{"id":"40221:503023292","meshCode":"503023292","cityCode":"40221","city":"太宰府市","lat":33.51875,"lon":130.496875,"areaKm2":0.2526535,"populated2020":true,"population2020":1373.457,"populationNote":"2020年基準の国交省調整値"},"geometry":{"type":"Polygon","coordinates":[[[130.49375,33.51868085299154],[130.494813606,33.519678892],[130.49429976648742,33.520833333333336],[130.5,33.52083333333334],[130.5,33.51666666666667],[130.49375,33.51666666666667],[130.49375,33.51868085299154]]]}},{"type":"Feature","id":"40221:503024201","properties":{"id":"40221:503024201","meshCode":"503024201","cityCode":"40221","city":"太宰府市","lat":33.51875,"lon":130.503125,"areaKm2":0.268298,"populated2020":true,"population2020":2261.0474,"populationNote":"2020年基準の国交省調整値"},"geometry":{"type":"Polygon","coordinates":[[[130.5,33.51666666666667],[130.5,33.52083333333334],[130.50625,33.52083333333334],[130.50625,33.516666666666666],[130.5,33.51666666666667]]]}},{"type":"Feature","id":"40221:503024202","properties":{"id":"40221:503024202","meshCode":"503024202","cityCode":"40221","city":"太宰府市","lat":33.51875,"lon":130.509375,"areaKm2":0.2682976,"populated2020":true,"population2020":1397.075,"populationNote":"2020年基準の国交省調整値"},"geometry":{"type":"Polygon","coordinates":[[[130.50625,33.516666666666666],[130.50625,33.52083333333334],[130.5125,33.520833333333336],[130.5125,33.51666666666667],[130.50625,33.516666666666666]]]}},{"type":"Feature","id":"40221:503024211","properties":{"id":"40221:503024211","meshCode":"503024211","cityCode":"40221","city":"太宰府市","lat":33.51875,"lon":130.515625,"areaKm2":0.2682973,"populated2020":true,"population2020":48.2893,"populationNote":"2020年基準の国交省調整値"},"geometry":{"type":"Polygon","coordinates":[[[130.5125,33.51666666666667],[130.5125,33.520833333333336],[130.51875,33.52083333333334],[130.51875,33.516666666666666],[130.5125,33.51666666666667]]]}},{"type":"Feature","id":"40221:503024212","properties":{"id":"40221:503024212","meshCode":"503024212","cityCode":"40221","city":"太宰府市","lat":33.51875,"lon":130.521875,"areaKm2":0.268297,"populated2020":true,"population2020":486.0748,"populationNote":"2020年基準の国交省調整値"},"geometry":{"type":"Polygon","coordinates":[[[130.51875,33.516666666666666],[130.51875,33.52083333333334],[130.525,33.52083333333335],[130.525,33.516666666666666],[130.51875,33.516666666666666]]]}},{"type":"Feature","id":"40221:503024221","properties":{"id":"40221:503024221","meshCode":"503024221","cityCode":"40221","city":"太宰府市","lat":33.51875,"lon":130.528125,"areaKm2":0.2682966,"populated2020":true,"population2020":1006.4368,"populationNote":"2020年基準の国交省調整値"},"geometry":{"type":"Polygon","coordinates":[[[130.525,33.516666666666666],[130.525,33.52083333333335],[130.53125,33.52083333333334],[130.53125,33.516666666666666],[130.525,33.516666666666666]]]}},{"type":"Feature","id":"40221:503024222","properties":{"id":"40221:503024222","meshCode":"503024222","cityCode":"40221","city":"太宰府市","lat":33.51875,"lon":130.534375,"areaKm2":0.2682963,"populated2020":true,"population2020":818.1552,"populationNote":"2020年基準の国交省調整値"},"geometry":{"type":"Polygon","coordinates":[[[130.53125,33.516666666666666],[130.53125,33.52083333333334],[130.5375,33.520833333333336],[130.5375,33.516666666666666],[130.53125,33.516666666666666]]]}},{"type":"Feature","id":"40221:503024231","properties":{"id":"40221:503024231","meshCode":"503024231","cityCode":"40221","city":"太宰府市","lat":33.51875,"lon":130.540625,"areaKm2":0.1491251,"populated2020":true,"population2020":null,"populationNote":"境界またぎ・原典収録外のため自治体内人口は未集計"},"geometry":{"type":"Polygon","coordinates":[[[130.54175514164675,33.52083333333334],[130.541101946,33.519477775],[130.541006939,33.518516387000005],[130.54024486381877,33.51666666666667],[130.5375,33.516666666666666],[130.5375,33.520833333333336],[130.54175514164675,33.52083333333334]]]}},{"type":"Feature","id":"40221:503023293","properties":{"id":"40221:503023293","meshCode":"503023293","cityCode":"40221","city":"太宰府市","lat":33.5234185,"lon":130.4933138,"areaKm2":0.0298203,"populated2020":true,"population2020":null,"populationNote":"境界またぎ・原典収録外のため自治体内人口は未集計"},"geometry":{"type":"Polygon","coordinates":[[[130.493728885,33.521774441],[130.493259728,33.522147225],[130.492674163,33.524030558999996],[130.492058223,33.525],[130.49375,33.525000000000006],[130.493728885,33.521774441]]]}},{"type":"Feature","id":"40221:503023294","properties":{"id":"40221:503023294","meshCode":"503023294","cityCode":"40221","city":"太宰府市","lat":33.5229167,"lon":130.496875,"areaKm2":0.2651592,"populated2020":true,"population2020":626.8313,"populationNote":"2020年基準の国交省調整値"},"geometry":{"type":"Polygon","coordinates":[[[130.49429976648742,33.520833333333336],[130.493895551,33.521660279],[130.49375,33.52175997775836],[130.49375,33.525000000000006],[130.5,33.525],[130.5,33.52083333333334],[130.49429976648742,33.520833333333336]]]}},{"type":"Feature","id":"40221:503024203","properties":{"id":"40221:503024203","meshCode":"503024203","cityCode":"40221","city":"太宰府市","lat":33.5229167,"lon":130.503125,"areaKm2":0.2682853,"populated2020":true,"population2020":1002.8704,"populationNote":"2020年基準の国交省調整値"},"geometry":{"type":"Polygon","coordinates":[[[130.5,33.52083333333334],[130.5,33.525],[130.50625,33.525],[130.50625,33.52083333333334],[130.5,33.52083333333334]]]}},{"type":"Feature","id":"40221:503024204","properties":{"id":"40221:503024204","meshCode":"503024204","cityCode":"40221","city":"太宰府市","lat":33.5229167,"lon":130.509375,"areaKm2":0.268285,"populated2020":true,"population2020":708.5272,"populationNote":"2020年基準の国交省調整値"},"geometry":{"type":"Polygon","coordinates":[[[130.50625,33.52083333333334],[130.50625,33.525],[130.5125,33.525],[130.5125,33.520833333333336],[130.50625,33.52083333333334]]]}},{"type":"Feature","id":"40221:503024213","properties":{"id":"40221:503024213","meshCode":"503024213","cityCode":"40221","city":"太宰府市","lat":33.5229167,"lon":130.515625,"areaKm2":0.2682846,"populated2020":false,"population2020":null,"populationNote":"境界またぎ・原典収録外のため自治体内人口は未集計"},"geometry":{"type":"Polygon","coordinates":[[[130.5125,33.520833333333336],[130.5125,33.525],[130.51875,33.525],[130.51875,33.52083333333334],[130.5125,33.520833333333336]]]}},{"type":"Feature","id":"40221:503024214","properties":{"id":"40221:503024214","meshCode":"503024214","cityCode":"40221","city":"太宰府市","lat":33.5229167,"lon":130.521875,"areaKm2":0.2682843,"populated2020":true,"population2020":127.7159,"populationNote":"2020年基準の国交省調整値"},"geometry":{"type":"Polygon","coordinates":[[[130.51875,33.52083333333334],[130.51875,33.525],[130.525,33.525000000000006],[130.525,33.52083333333335],[130.51875,33.52083333333334]]]}},{"type":"Feature","id":"40221:503024223","properties":{"id":"40221:503024223","meshCode":"503024223","cityCode":"40221","city":"太宰府市","lat":33.5229167,"lon":130.528125,"areaKm2":0.2682839,"populated2020":true,"population2020":849.5718,"populationNote":"2020年基準の国交省調整値"},"geometry":{"type":"Polygon","coordinates":[[[130.525,33.52083333333335],[130.525,33.525000000000006],[130.53125,33.525],[130.53125,33.52083333333334],[130.525,33.52083333333335]]]}},{"type":"Feature","id":"40221:503024224","properties":{"id":"40221:503024224","meshCode":"503024224","cityCode":"40221","city":"太宰府市","lat":33.5229167,"lon":130.534375,"areaKm2":0.2682836,"populated2020":true,"population2020":779.8242,"populationNote":"2020年基準の国交省調整値"},"geometry":{"type":"Polygon","coordinates":[[[130.53125,33.52083333333334],[130.53125,33.525],[130.5375,33.525],[130.5375,33.520833333333336],[130.53125,33.52083333333334]]]}},{"type":"Feature","id":"40221:503024233","properties":{"id":"40221:503024233","meshCode":"503024233","cityCode":"40221","city":"太宰府市","lat":33.5229167,"lon":130.540625,"areaKm2":0.2520353,"populated2020":true,"population2020":187.0247,"populationNote":"2020年基準の国交省調整値"},"geometry":{"type":"Polygon","coordinates":[[[130.54375,33.52159021544467],[130.542265279,33.521783333],[130.54175514164675,33.52083333333334],[130.5375,33.520833333333336],[130.5375,33.525],[130.54375,33.525],[130.54375,33.52159021544467]]]}},{"type":"Feature","id":"40221:503024234","properties":{"id":"40221:503024234","meshCode":"503024234","cityCode":"40221","city":"太宰府市","lat":33.5230662,"lon":130.5449377,"areaKm2":0.1477918,"populated2020":true,"population2020":null,"populationNote":"境界またぎ・原典収録外のため自治体内人口は未集計"},"geometry":{"type":"Polygon","coordinates":[[[130.55,33.521502946],[130.548407224,33.522610829],[130.548093606,33.52297610800001],[130.547961946,33.523322225],[130.548027782,33.52354527899999],[130.54866,33.524232775],[130.54864,33.524318333],[130.548053061,33.524645559],[130.547213333,33.52441777500001],[130.546894721,33.524223333],[130.546763333,33.524043054],[130.546687497,33.523678054],[130.54592055800003,33.52285333299999],[130.545506719,33.522142532],[130.545380584,33.522114198],[130.545062672,33.521747441],[130.5444807,33.521314108],[130.544293061,33.521262775000004],[130.544137497,33.521336108],[130.54375,33.52159021544467],[130.54375,33.525],[130.55,33.52500000000001],[130.55,33.521502946]]]}},{"type":"Feature","id":"40221:503024243","properties":{"id":"40221:503024243","meshCode":"503024243","cityCode":"40221","city":"太宰府市","lat":33.5229167,"lon":130.553125,"areaKm2":0.1972687,"populated2020":false,"population2020":null,"populationNote":"境界またぎ・原典収録外のため自治体内人口は未集計"},"geometry":{"type":"Polygon","coordinates":[[[130.55625,33.523231108000004],[130.555840558,33.52311722500001],[130.555724449,33.522989162],[130.555523606,33.522368891999996],[130.555022776,33.52195138700001],[130.554790272,33.521885000000005],[130.553996109,33.521889720999994],[130.553753333,33.521695279],[130.553581115,33.5217],[130.553040272,33.521856387],[130.552350272,33.52223722499999],[130.552208612,33.522151667],[130.552112503,33.521900279],[130.551976109,33.521786387000006],[130.551444721,33.521558613],[130.550276394,33.521425829],[130.550043606,33.52147805399999],[130.55,33.52500000000001],[130.55625,33.52499999999999],[130.55625,33.523231108000004]]]}},{"type":"Feature","id":"40221:503024244","properties":{"id":"40221:503024244","meshCode":"503024244","cityCode":"40221","city":"太宰府市","lat":33.5239957,"lon":130.5573017,"areaKm2":0.0388046,"populated2020":false,"population2020":null,"populationNote":"境界またぎ・原典収録外のため自治体内人口は未集計"},"geometry":{"type":"Polygon","coordinates":[[[130.559219105,33.525000000000006],[130.558358612,33.524140278999994],[130.558222776,33.523534721],[130.557919442,33.523430279],[130.55719610900002,33.523463333],[130.55665,33.52318361299999],[130.55625,33.523231108000004],[130.55625,33.52499999999999],[130.559219105,33.525000000000006]]]}},{"type":"Feature","id":"40221:503023391","properties":{"id":"40221:503023391","meshCode":"503023391","cityCode":"40221","city":"太宰府市","lat":33.5271611,"lon":130.4927826,"areaKm2":0.0928889,"populated2020":true,"population2020":null,"populationNote":"境界またぎ・原典収録外のため自治体内人口は未集計"},"geometry":{"type":"Polygon","coordinates":[[[130.492058223,33.525],[130.491358054,33.526616387],[130.491743333,33.526720829],[130.491992503,33.528260559],[130.491032218,33.528811108000006],[130.490505551,33.528462775],[130.4901489122638,33.52916666666667],[130.49375,33.52916666666667],[130.49375,33.525000000000006],[130.492058223,33.525]]]}},{"type":"Feature","id":"40221:503023392","properties":{"id":"40221:503023392","meshCode":"503023392","cityCode":"40221","city":"太宰府市","lat":33.5270833,"lon":130.496875,"areaKm2":0.268273,"populated2020":true,"population2020":889.3623,"populationNote":"2020年基準の国交省調整値"},"geometry":{"type":"Polygon","coordinates":[[[130.49375,33.525000000000006],[130.49375,33.52916666666667],[130.5,33.52916666666666],[130.5,33.525],[130.49375,33.525000000000006]]]}},{"type":"Feature","id":"40221:503024301","properties":{"id":"40221:503024301","meshCode":"503024301","cityCode":"40221","city":"太宰府市","lat":33.5270833,"lon":130.503125,"areaKm2":0.2682726,"populated2020":true,"population2020":998.2808,"populationNote":"2020年基準の国交省調整値"},"geometry":{"type":"Polygon","coordinates":[[[130.5,33.525],[130.5,33.52916666666666],[130.50625,33.529166666666676],[130.50625,33.525],[130.5,33.525]]]}},{"type":"Feature","id":"40221:503024302","properties":{"id":"40221:503024302","meshCode":"503024302","cityCode":"40221","city":"太宰府市","lat":33.5270833,"lon":130.509375,"areaKm2":0.2682723,"populated2020":true,"population2020":282.6503,"populationNote":"2020年基準の国交省調整値"},"geometry":{"type":"Polygon","coordinates":[[[130.50625,33.525],[130.50625,33.529166666666676],[130.5125,33.52916666666667],[130.5125,33.525],[130.50625,33.525]]]}},{"type":"Feature","id":"40221:503024311","properties":{"id":"40221:503024311","meshCode":"503024311","cityCode":"40221","city":"太宰府市","lat":33.5270833,"lon":130.515625,"areaKm2":0.2682719,"populated2020":false,"population2020":null,"populationNote":"境界またぎ・原典収録外のため自治体内人口は未集計"},"geometry":{"type":"Polygon","coordinates":[[[130.5125,33.525],[130.5125,33.52916666666667],[130.51875,33.529166666666676],[130.51875,33.525],[130.5125,33.525]]]}},{"type":"Feature","id":"40221:503024312","properties":{"id":"40221:503024312","meshCode":"503024312","cityCode":"40221","city":"太宰府市","lat":33.5270833,"lon":130.521875,"areaKm2":0.2682716,"populated2020":false,"population2020":null,"populationNote":"境界またぎ・原典収録外のため自治体内人口は未集計"},"geometry":{"type":"Polygon","coordinates":[[[130.51875,33.525],[130.51875,33.529166666666676],[130.525,33.52916666666667],[130.525,33.525000000000006],[130.51875,33.525]]]}},{"type":"Feature","id":"40221:503024321","properties":{"id":"40221:503024321","meshCode":"503024321","cityCode":"40221","city":"太宰府市","lat":33.5270833,"lon":130.528125,"areaKm2":0.2682712,"populated2020":true,"population2020":160.1071,"populationNote":"2020年基準の国交省調整値"},"geometry":{"type":"Polygon","coordinates":[[[130.525,33.525000000000006],[130.525,33.52916666666667],[130.53125,33.52916666666667],[130.53125,33.525],[130.525,33.525000000000006]]]}},{"type":"Feature","id":"40221:503024322","properties":{"id":"40221:503024322","meshCode":"503024322","cityCode":"40221","city":"太宰府市","lat":33.5270833,"lon":130.534375,"areaKm2":0.2682709,"populated2020":true,"population2020":1083.4432,"populationNote":"2020年基準の国交省調整値"},"geometry":{"type":"Polygon","coordinates":[[[130.53125,33.525],[130.53125,33.52916666666667],[130.5375,33.52916666666667],[130.5375,33.525],[130.53125,33.525]]]}},{"type":"Feature","id":"40221:503024331","properties":{"id":"40221:503024331","meshCode":"503024331","cityCode":"40221","city":"太宰府市","lat":33.5270833,"lon":130.540625,"areaKm2":0.2682706,"populated2020":true,"population2020":42.8196,"populationNote":"2020年基準の国交省調整値"},"geometry":{"type":"Polygon","coordinates":[[[130.5375,33.525],[130.5375,33.52916666666667],[130.54375,33.52916666666667],[130.54375,33.525],[130.5375,33.525]]]}},{"type":"Feature","id":"40221:503024332","properties":{"id":"40221:503024332","meshCode":"503024332","cityCode":"40221","city":"太宰府市","lat":33.5270833,"lon":130.546875,"areaKm2":0.2682703,"populated2020":true,"population2020":118.3424,"populationNote":"2020年基準の国交省調整値"},"geometry":{"type":"Polygon","coordinates":[[[130.54375,33.525],[130.54375,33.52916666666667],[130.55,33.52916666666666],[130.55,33.52500000000001],[130.54375,33.525]]]}},{"type":"Feature","id":"40221:503024341","properties":{"id":"40221:503024341","meshCode":"503024341","cityCode":"40221","city":"太宰府市","lat":33.5270833,"lon":130.553125,"areaKm2":0.2682699,"populated2020":true,"population2020":42.9363,"populationNote":"2020年基準の国交省調整値"},"geometry":{"type":"Polygon","coordinates":[[[130.55,33.52500000000001],[130.55,33.52916666666666],[130.55625,33.52916666666667],[130.55625,33.52499999999999],[130.55,33.52500000000001]]]}},{"type":"Feature","id":"40221:503024342","properties":{"id":"40221:503024342","meshCode":"503024342","cityCode":"40221","city":"太宰府市","lat":33.5270833,"lon":130.559375,"areaKm2":0.1757863,"populated2020":false,"population2020":null,"populationNote":"境界またぎ・原典収録外のため自治体内人口は未集計"},"geometry":{"type":"Polygon","coordinates":[[[130.562492503,33.528831387],[130.562092776,33.528603892],[130.560712218,33.52858],[130.560560558,33.528456667],[130.560143061,33.526873892],[130.559219105,33.525000000000006],[130.55625,33.52499999999999],[130.55625,33.52916666666667],[130.5625,33.52916666666667],[130.562492503,33.528831387]]]}},{"type":"Feature","id":"40221:503024351","properties":{"id":"40221:503024351","meshCode":"503024351","cityCode":"40221","city":"太宰府市","lat":33.5289538,"lon":130.5625562,"areaKm2":0.000532,"populated2020":false,"population2020":null,"populationNote":"境界またぎ・原典収録外のため自治体内人口は未集計"},"geometry":{"type":"Polygon","coordinates":[[[130.56280161757417,33.52916666666667],[130.5625,33.52883903668677],[130.5625,33.52916666666667],[130.56280161757417,33.52916666666667]]]}},{"type":"Feature","id":"40221:503023393","properties":{"id":"40221:503023393","meshCode":"503023393","cityCode":"40221","city":"太宰府市","lat":33.5309928,"lon":130.4919388,"areaKm2":0.1108592,"populated2020":true,"population2020":null,"populationNote":"境界またぎ・原典収録外のため自治体内人口は未集計"},"geometry":{"type":"Polygon","coordinates":[[[130.4901489122638,33.52916666666667],[130.489325279,33.530541108],[130.490291115,33.531082225000006],[130.492592218,33.532153054],[130.492766394,33.532302225],[130.493006109,33.532780829],[130.49375,33.532947824120576],[130.49375,33.52916666666667],[130.4901489122638,33.52916666666667]]]}},{"type":"Feature","id":"40221:503023394","properties":{"id":"40221:503023394","meshCode":"503023394","cityCode":"40221","city":"太宰府市","lat":33.53125,"lon":130.496875,"areaKm2":0.1643012,"populated2020":true,"population2020":null,"populationNote":"境界またぎ・原典収録外のため自治体内人口は未集計"},"geometry":{"type":"Polygon","coordinates":[[[130.49375,33.532947824120576],[130.49474917,33.53296916199999],[130.495066667,33.532627225000006],[130.49510083,33.532230279],[130.495743606,33.531893333],[130.49754,33.531235],[130.499271115,33.53094527900001],[130.499539442,33.530978613],[130.5,33.531171865],[130.5,33.52916666666666],[130.49375,33.52916666666667],[130.49375,33.532947824120576]]]}},{"type":"Feature","id":"40221:503024303","properties":{"id":"40221:503024303","meshCode":"503024303","cityCode":"40221","city":"太宰府市","lat":33.53125,"lon":130.503125,"areaKm2":0.2056515,"populated2020":true,"population2020":null,"populationNote":"境界またぎ・原典収録外のため自治体内人口は未集計"},"geometry":{"type":"Polygon","coordinates":[[[130.50036917,33.531320279],[130.500657782,33.531538612999995],[130.501492503,33.53181861299999],[130.501914994,33.531892225],[130.50240083,33.53186277499999],[130.503036109,33.532613613],[130.50344083,33.532869721000004],[130.503997497,33.533088054000004],[130.504402218,33.532993333],[130.504857497,33.532485559],[130.50499917,33.53243333299999],[130.505166109,33.53248555900001],[130.50581791225503,33.53333333333333],[130.50625,33.53333333333333],[130.50625,33.529166666666676],[130.5,33.52916666666666],[130.5,33.531171865],[130.50036917,33.531320279]]]}},{"type":"Feature","id":"40221:503024304","properties":{"id":"40221:503024304","meshCode":"503024304","cityCode":"40221","city":"太宰府市","lat":33.53125,"lon":130.509375,"areaKm2":0.2682596,"populated2020":false,"population2020":null,"populationNote":"境界またぎ・原典収録外のため自治体内人口は未集計"},"geometry":{"type":"Polygon","coordinates":[[[130.50625,33.529166666666676],[130.50625,33.53333333333333],[130.5125,33.53333333333333],[130.5125,33.52916666666667],[130.50625,33.529166666666676]]]}},{"type":"Feature","id":"40221:503024313","properties":{"id":"40221:503024313","meshCode":"503024313","cityCode":"40221","city":"太宰府市","lat":33.53125,"lon":130.515625,"areaKm2":0.1989898,"populated2020":false,"population2020":null,"populationNote":"境界またぎ・原典収録外のため自治体内人口は未集計"},"geometry":{"type":"Polygon","coordinates":[[[130.514491997,33.533333333],[130.514865279,33.533104162],[130.51521306100003,33.53305610799999],[130.515598885,33.532792225],[130.516102218,33.532228333],[130.516143333,33.531982495],[130.515975551,33.531425279000004],[130.51633917,33.530992495],[130.516765551,33.530828613000004],[130.517254721,33.530972774999995],[130.517673891,33.531254720999996],[130.51831,33.531300559],[130.518498885,33.531176108],[130.51875,33.53083190739566],[130.51875,33.529166666666676],[130.5125,33.52916666666667],[130.5125,33.53333333333333],[130.514491997,33.533333333]]]}},{"type":"Feature","id":"40221:503024314","properties":{"id":"40221:503024314","meshCode":"503024314","cityCode":"40221","city":"太宰府市","lat":33.5309963,"lon":130.5235842,"areaKm2":0.120086,"populated2020":false,"population2020":null,"populationNote":"境界またぎ・原典収録外のため自治体内人口は未集計"},"geometry":{"type":"Polygon","coordinates":[[[130.51875,33.53083190739566],[130.51888083000003,33.530580829],[130.519293333,33.530443054],[130.52016,33.529813892],[130.521243606,33.530685829],[130.52208083,33.530672495],[130.522192776,33.531098613],[130.522570272,33.531393613],[130.52332917,33.531549721],[130.523553061,33.53167444099999],[130.52409111500003,33.531805279000004],[130.524273061,33.53193638700001],[130.524314994,33.532205279],[130.524720272,33.53274277500001],[130.525,33.532923775],[130.525,33.52916666666667],[130.51875,33.529166666666676],[130.51875,33.53083190739566]]]}},{"type":"Feature","id":"40221:503024323","properties":{"id":"40221:503024323","meshCode":"503024323","cityCode":"40221","city":"太宰府市","lat":33.53125,"lon":130.528125,"areaKm2":0.2662639,"populated2020":false,"population2020":null,"populationNote":"境界またぎ・原典収録外のため自治体内人口は未集計"},"geometry":{"type":"Polygon","coordinates":[[[130.525,33.532923775],[130.5260469135924,33.53333333333333],[130.53125,33.53333333333333],[130.53125,33.52916666666667],[130.525,33.52916666666667],[130.525,33.532923775]]]}},{"type":"Feature","id":"40221:503024324","properties":{"id":"40221:503024324","meshCode":"503024324","cityCode":"40221","city":"太宰府市","lat":33.53125,"lon":130.534375,"areaKm2":0.2682582,"populated2020":true,"population2020":1008.1133,"populationNote":"2020年基準の国交省調整値"},"geometry":{"type":"Polygon","coordinates":[[[130.53125,33.52916666666667],[130.53125,33.53333333333333],[130.5375,33.53333333333333],[130.5375,33.52916666666667],[130.53125,33.52916666666667]]]}},{"type":"Feature","id":"40221:503024333","properties":{"id":"40221:503024333","meshCode":"503024333","cityCode":"40221","city":"太宰府市","lat":33.53125,"lon":130.540625,"areaKm2":0.2682579,"populated2020":true,"population2020":49.0083,"populationNote":"2020年基準の国交省調整値"},"geometry":{"type":"Polygon","coordinates":[[[130.5375,33.52916666666667],[130.5375,33.53333333333333],[130.54375,33.53333333333333],[130.54375,33.52916666666667],[130.5375,33.52916666666667]]]}},{"type":"Feature","id":"40221:503024334","properties":{"id":"40221:503024334","meshCode":"503024334","cityCode":"40221","city":"太宰府市","lat":33.53125,"lon":130.546875,"areaKm2":0.2682576,"populated2020":true,"population2020":31.6242,"populationNote":"2020年基準の国交省調整値"},"geometry":{"type":"Polygon","coordinates":[[[130.54375,33.52916666666667],[130.54375,33.53333333333333],[130.55,33.53333333333333],[130.55,33.52916666666666],[130.54375,33.52916666666667]]]}},{"type":"Feature","id":"40221:503024343","properties":{"id":"40221:503024343","meshCode":"503024343","cityCode":"40221","city":"太宰府市","lat":33.53125,"lon":130.553125,"areaKm2":0.2682572,"populated2020":true,"population2020":78.9511,"populationNote":"2020年基準の国交省調整値"},"geometry":{"type":"Polygon","coordinates":[[[130.55,33.52916666666666],[130.55,33.53333333333333],[130.55625,33.53333333333333],[130.55625,33.52916666666667],[130.55,33.52916666666666]]]}},{"type":"Feature","id":"40221:503024344","properties":{"id":"40221:503024344","meshCode":"503024344","cityCode":"40221","city":"太宰府市","lat":33.53125,"lon":130.559375,"areaKm2":0.2682569,"populated2020":false,"population2020":null,"populationNote":"境界またぎ・原典収録外のため自治体内人口は未集計"},"geometry":{"type":"Polygon","coordinates":[[[130.55625,33.52916666666667],[130.55625,33.53333333333333],[130.5625,33.53333333333333],[130.5625,33.52916666666667],[130.55625,33.52916666666667]]]}},{"type":"Feature","id":"40221:503024353","properties":{"id":"40221:503024353","meshCode":"503024353","cityCode":"40221","city":"太宰府市","lat":33.5313404,"lon":130.5640481,"areaKm2":0.1209897,"populated2020":false,"population2020":null,"populationNote":"境界またぎ・原典収録外のため自治体内人口は未集計"},"geometry":{"type":"Polygon","coordinates":[[[130.566743476,33.533333333],[130.566743333,33.533043613000004],[130.566652218,33.532873054],[130.566161946,33.53234638699999],[130.565368612,33.53084472100001],[130.564019728,33.529751387000005],[130.563124449,33.529485829],[130.56280161757417,33.52916666666667],[130.5625,33.52916666666667],[130.5625,33.53333333333333],[130.566743476,33.533333333]]]}},{"type":"Feature","id":"40221:503024401","properties":{"id":"40221:503024401","meshCode":"503024401","cityCode":"40221","city":"太宰府市","lat":33.5335015,"lon":130.5060983,"areaKm2":0.0011092,"populated2020":true,"population2020":null,"populationNote":"境界またぎ・原典収録外のため自治体内人口は未集計"},"geometry":{"type":"Polygon","coordinates":[[[130.506075279,33.53366972100001],[130.50625,33.53373407216739],[130.50625,33.53333333333333],[130.50581791225503,33.53333333333333],[130.506075279,33.53366972100001]]]}},{"type":"Feature","id":"40221:503024402","properties":{"id":"40221:503024402","meshCode":"503024402","cityCode":"40221","city":"太宰府市","lat":33.5349494,"lon":130.510931,"areaKm2":0.1042952,"populated2020":false,"population2020":null,"populationNote":"境界またぎ・原典収録外のため自治体内人口は未集計"},"geometry":{"type":"Polygon","coordinates":[[[130.50625,33.53373407216739],[130.510266667,33.53528582900001],[130.5125,33.53619317607386],[130.5125,33.53333333333333],[130.50625,33.53333333333333],[130.50625,33.53373407216739]]]}},{"type":"Feature","id":"40221:503024411","properties":{"id":"40221:503024411","meshCode":"503024411","cityCode":"40221","city":"太宰府市","lat":33.5351029,"lon":130.5132395,"areaKm2":0.0541495,"populated2020":false,"population2020":null,"populationNote":"境界またぎ・原典収録外のため自治体内人口は未集計"},"geometry":{"type":"Polygon","coordinates":[[[130.5125,33.53619317607386],[130.51432083,33.536975559000005],[130.51420083,33.536016108],[130.513949442,33.535273333],[130.513977224,33.534326108],[130.514345837,33.53342833300001],[130.51449199648718,33.53333333333333],[130.5125,33.53333333333333],[130.5125,33.53619317607386]]]}},{"type":"Feature","id":"40221:503024421","properties":{"id":"40221:503024421","meshCode":"503024421","cityCode":"40221","city":"太宰府市","lat":33.5354982,"lon":130.5298881,"areaKm2":0.135347,"populated2020":false,"population2020":null,"populationNote":"境界またぎ・原典収録外のため自治体内人口は未集計"},"geometry":{"type":"Polygon","coordinates":[[[130.526243891,33.53344416200001],[130.526621388,33.533896667],[130.526886939,33.53442722500001],[130.527750558,33.535209721],[130.527876394,33.535301387],[130.528372503,33.53537361299999],[130.52868,33.53562277499999],[130.529239442,33.535838892],[130.529441946,33.53597666699999],[130.52956083,33.536186387],[130.529679728,33.53650110800001],[130.529616939,33.536658333],[130.529330272,33.53694],[130.528631115,33.537254721],[130.5284868964581,33.53750000000001],[130.53125,33.5375],[130.53125,33.53333333333333],[130.5260469135924,33.53333333333333],[130.526243891,33.53344416200001]]]}},{"type":"Feature","id":"40221:503024422","properties":{"id":"40221:503024422","meshCode":"503024422","cityCode":"40221","city":"太宰府市","lat":33.5354167,"lon":130.534375,"areaKm2":0.2682455,"populated2020":true,"population2020":37.0031,"populationNote":"2020年基準の国交省調整値"},"geometry":{"type":"Polygon","coordinates":[[[130.53125,33.53333333333333],[130.53125,33.5375],[130.5375,33.5375],[130.5375,33.53333333333333],[130.53125,33.53333333333333]]]}},{"type":"Feature","id":"40221:503024431","properties":{"id":"40221:503024431","meshCode":"503024431","cityCode":"40221","city":"太宰府市","lat":33.5354167,"lon":130.540625,"areaKm2":0.2682452,"populated2020":true,"population2020":209.2424,"populationNote":"2020年基準の国交省調整値"},"geometry":{"type":"Polygon","coordinates":[[[130.5375,33.53333333333333],[130.5375,33.5375],[130.54375,33.53750000000001],[130.54375,33.53333333333333],[130.5375,33.53333333333333]]]}},{"type":"Feature","id":"40221:503024432","properties":{"id":"40221:503024432","meshCode":"503024432","cityCode":"40221","city":"太宰府市","lat":33.5354167,"lon":130.546875,"areaKm2":0.2682449,"populated2020":false,"population2020":null,"populationNote":"境界またぎ・原典収録外のため自治体内人口は未集計"},"geometry":{"type":"Polygon","coordinates":[[[130.54375,33.53333333333333],[130.54375,33.53750000000001],[130.55,33.537500000000016],[130.55,33.53333333333333],[130.54375,33.53333333333333]]]}},{"type":"Feature","id":"40221:503024441","properties":{"id":"40221:503024441","meshCode":"503024441","cityCode":"40221","city":"太宰府市","lat":33.5354167,"lon":130.553125,"areaKm2":0.2682446,"populated2020":false,"population2020":null,"populationNote":"境界またぎ・原典収録外のため自治体内人口は未集計"},"geometry":{"type":"Polygon","coordinates":[[[130.55,33.53333333333333],[130.55,33.537500000000016],[130.55625,33.5375],[130.55625,33.53333333333333],[130.55,33.53333333333333]]]}},{"type":"Feature","id":"40221:503024442","properties":{"id":"40221:503024442","meshCode":"503024442","cityCode":"40221","city":"太宰府市","lat":33.5354167,"lon":130.559375,"areaKm2":0.2682442,"populated2020":false,"population2020":null,"populationNote":"境界またぎ・原典収録外のため自治体内人口は未集計"},"geometry":{"type":"Polygon","coordinates":[[[130.55625,33.53333333333333],[130.55625,33.5375],[130.5625,33.537499999999994],[130.5625,33.53333333333333],[130.55625,33.53333333333333]]]}},{"type":"Feature","id":"40221:503024451","properties":{"id":"40221:503024451","meshCode":"503024451","cityCode":"40221","city":"太宰府市","lat":33.5354167,"lon":130.565625,"areaKm2":0.1992574,"populated2020":false,"population2020":null,"populationNote":"境界またぎ・原典収録外のため自治体内人口は未集計"},"geometry":{"type":"Polygon","coordinates":[[[130.567546939,33.537487775],[130.567359728,33.537373892000005],[130.567177782,33.53677194600001],[130.567319442,33.53635444100001],[130.567374994,33.53557805399999],[130.566773606,33.53384055899999],[130.56674347600978,33.53333333333333],[130.5625,33.53333333333333],[130.5625,33.537499999999994],[130.567546939,33.537487775]]]}},{"type":"Feature","id":"40221:503024423","properties":{"id":"40221:503024423","meshCode":"503024423","cityCode":"40221","city":"太宰府市","lat":33.5395833,"lon":130.528125,"areaKm2":0.1303169,"populated2020":false,"population2020":null,"populationNote":"境界またぎ・原典収録外のため自治体内人口は未集計"},"geometry":{"type":"Polygon","coordinates":[[[130.52846333300002,33.53766777500001],[130.528714721,33.538646946],[130.52863083,33.53884999999999],[130.52837917,33.53900722499999],[130.527624163,33.540252775],[130.527973891,33.540606667],[130.528106667,33.541078892],[130.5280947208434,33.54166666666667],[130.53125,33.541666666666664],[130.53125,33.5375],[130.5284868964581,33.53750000000001],[130.52846333300002,33.53766777500001]]]}},{"type":"Feature","id":"40221:503024424","properties":{"id":"40221:503024424","meshCode":"503024424","cityCode":"40221","city":"太宰府市","lat":33.5395833,"lon":130.534375,"areaKm2":0.2682328,"populated2020":true,"population2020":9.163,"populationNote":"2020年基準の国交省調整値"},"geometry":{"type":"Polygon","coordinates":[[[130.53125,33.5375],[130.53125,33.541666666666664],[130.5375,33.541666666666664],[130.5375,33.5375],[130.53125,33.5375]]]}},{"type":"Feature","id":"40221:503024433","properties":{"id":"40221:503024433","meshCode":"503024433","cityCode":"40221","city":"太宰府市","lat":33.5395833,"lon":130.540625,"areaKm2":0.2682325,"populated2020":true,"population2020":342.5105,"populationNote":"2020年基準の国交省調整値"},"geometry":{"type":"Polygon","coordinates":[[[130.5375,33.5375],[130.5375,33.541666666666664],[130.54375,33.541666666666664],[130.54375,33.53750000000001],[130.5375,33.5375]]]}},{"type":"Feature","id":"40221:503024434","properties":{"id":"40221:503024434","meshCode":"503024434","cityCode":"40221","city":"太宰府市","lat":33.5395833,"lon":130.546875,"areaKm2":0.2682322,"populated2020":true,"population2020":99.8694,"populationNote":"2020年基準の国交省調整値"},"geometry":{"type":"Polygon","coordinates":[[[130.54375,33.53750000000001],[130.54375,33.541666666666664],[130.55,33.541666666666664],[130.55,33.537500000000016],[130.54375,33.53750000000001]]]}},{"type":"Feature","id":"40221:503024443","properties":{"id":"40221:503024443","meshCode":"503024443","cityCode":"40221","city":"太宰府市","lat":33.5395833,"lon":130.553125,"areaKm2":0.2682319,"populated2020":true,"population2020":20.3621,"populationNote":"2020年基準の国交省調整値"},"geometry":{"type":"Polygon","coordinates":[[[130.55,33.537500000000016],[130.55,33.541666666666664],[130.55625,33.541666666666664],[130.55625,33.5375],[130.55,33.537500000000016]]]}},{"type":"Feature","id":"40221:503024444","properties":{"id":"40221:503024444","meshCode":"503024444","cityCode":"40221","city":"太宰府市","lat":33.5395833,"lon":130.559375,"areaKm2":0.2682316,"populated2020":false,"population2020":null,"populationNote":"境界またぎ・原典収録外のため自治体内人口は未集計"},"geometry":{"type":"Polygon","coordinates":[[[130.55625,33.5375],[130.55625,33.541666666666664],[130.5625,33.54166666666667],[130.5625,33.537499999999994],[130.55625,33.5375]]]}},{"type":"Feature","id":"40221:503024453","properties":{"id":"40221:503024453","meshCode":"503024453","cityCode":"40221","city":"太宰府市","lat":33.5395833,"lon":130.565625,"areaKm2":0.2606183,"populated2020":false,"population2020":null,"populationNote":"境界またぎ・原典収録外のため自治体内人口は未集計"},"geometry":{"type":"Polygon","coordinates":[[[130.56875,33.54166666666667],[130.56875,33.53884633781991],[130.568280272,33.538412775000005],[130.568082776,33.537857775],[130.56756792501827,33.53750000000001],[130.5625,33.537499999999994],[130.5625,33.54166666666667],[130.56875,33.54166666666667]]]}},{"type":"Feature","id":"40221:503024454","properties":{"id":"40221:503024454","meshCode":"503024454","cityCode":"40221","city":"太宰府市","lat":33.5406083,"lon":130.5692351,"areaKm2":0.0230158,"populated2020":false,"population2020":null,"populationNote":"境界またぎ・原典収録外のため自治体内人口は未集計"},"geometry":{"type":"MultiPolygon","coordinates":[[[[130.571012917819,33.541666666666664],[130.570468612,33.541061387],[130.569902218,33.54075777500001],[130.569305551,33.540264441],[130.569103061,33.540179162],[130.568885551,33.539870828999995],[130.56875,33.53937148323247],[130.56875,33.54166666666667],[130.571012917819,33.541666666666664]]],[[[130.568786109,33.53909082900001],[130.56875,33.53884633781991],[130.56875,33.53936155216827],[130.568786109,33.53909082900001]]]]}},{"type":"Feature","id":"40221:503024521","properties":{"id":"40221:503024521","meshCode":"503024521","cityCode":"40221","city":"太宰府市","lat":33.5426878,"lon":130.5300466,"areaKm2":0.0444529,"populated2020":false,"population2020":null,"populationNote":"境界またぎ・原典収録外のため自治体内人口は未集計"},"geometry":{"type":"Polygon","coordinates":[[[130.528094721,33.541666667],[130.528169442,33.54182582899999],[130.528497224,33.542110828999995],[130.528636939,33.542491108],[130.528916667,33.542753333],[130.529545551,33.542917225],[130.52969917,33.54303527900001],[130.52986,33.54335],[130.530069728,33.54345444100001],[130.530573061,33.543592225],[130.530845551,33.543769162],[130.531076394,33.543762775],[130.53125,33.54351864982024],[130.53125,33.541666666666664],[130.528094721,33.541666667]]]}},{"type":"Feature","id":"40221:503024522","properties":{"id":"40221:503024522","meshCode":"503024522","cityCode":"40221","city":"太宰府市","lat":33.54375,"lon":130.534375,"areaKm2":0.179579,"populated2020":false,"population2020":null,"populationNote":"境界またぎ・原典収録外のため自治体内人口は未集計"},"geometry":{"type":"Polygon","coordinates":[[[130.53125,33.54351864982024],[130.531565551,33.54335],[130.532743891,33.543736108],[130.533023606,33.543631108],[130.533296109,33.543401667],[130.533659728,33.543618054],[130.534246667,33.543781946],[130.534407497,33.54393277500001],[130.534784994,33.544627775],[130.53565166,33.545303054],[130.535904721,33.545464441],[130.536121388,33.545503892],[130.53623223935992,33.545833333333334],[130.5375,33.545833333333334],[130.5375,33.541666666666664],[130.53125,33.541666666666664],[130.53125,33.54351864982024]]]}},{"type":"Feature","id":"40221:503024531","properties":{"id":"40221:503024531","meshCode":"503024531","cityCode":"40221","city":"太宰府市","lat":33.54375,"lon":130.540625,"areaKm2":0.2682198,"populated2020":true,"population2020":114.8378,"populationNote":"2020年基準の国交省調整値"},"geometry":{"type":"Polygon","coordinates":[[[130.5375,33.541666666666664],[130.5375,33.545833333333334],[130.54375,33.545833333333334],[130.54375,33.541666666666664],[130.5375,33.541666666666664]]]}},{"type":"Feature","id":"40221:503024532","properties":{"id":"40221:503024532","meshCode":"503024532","cityCode":"40221","city":"太宰府市","lat":33.54375,"lon":130.546875,"areaKm2":0.2682195,"populated2020":true,"population2020":15.3267,"populationNote":"2020年基準の国交省調整値"},"geometry":{"type":"Polygon","coordinates":[[[130.54375,33.541666666666664],[130.54375,33.545833333333334],[130.55,33.545833333333334],[130.55,33.541666666666664],[130.54375,33.541666666666664]]]}},{"type":"Feature","id":"40221:503024541","properties":{"id":"40221:503024541","meshCode":"503024541","cityCode":"40221","city":"太宰府市","lat":33.54375,"lon":130.553125,"areaKm2":0.2682192,"populated2020":false,"population2020":null,"populationNote":"境界またぎ・原典収録外のため自治体内人口は未集計"},"geometry":{"type":"Polygon","coordinates":[[[130.55,33.541666666666664],[130.55,33.545833333333334],[130.55625,33.545833333333334],[130.55625,33.541666666666664],[130.55,33.541666666666664]]]}},{"type":"Feature","id":"40221:503024542","properties":{"id":"40221:503024542","meshCode":"503024542","cityCode":"40221","city":"太宰府市","lat":33.54375,"lon":130.559375,"areaKm2":0.2682189,"populated2020":false,"population2020":null,"populationNote":"境界またぎ・原典収録外のため自治体内人口は未集計"},"geometry":{"type":"Polygon","coordinates":[[[130.55625,33.541666666666664],[130.55625,33.545833333333334],[130.5625,33.545833333333334],[130.5625,33.54166666666667],[130.55625,33.541666666666664]]]}},{"type":"Feature","id":"40221:503024551","properties":{"id":"40221:503024551","meshCode":"503024551","cityCode":"40221","city":"太宰府市","lat":33.54375,"lon":130.565625,"areaKm2":0.2289,"populated2020":false,"population2020":null,"populationNote":"境界またぎ・原典収録外のため自治体内人口は未集計"},"geometry":{"type":"Polygon","coordinates":[[[130.56522996026877,33.545833333333334],[130.565317224,33.545425559],[130.565516667,33.545110828999995],[130.565694721,33.545012494999995],[130.566793061,33.544717774999995],[130.567268327,33.544721108000005],[130.568163061,33.544435829],[130.56875,33.544387894575216],[130.56875,33.54166666666667],[130.5625,33.54166666666667],[130.5625,33.545833333333334],[130.56522996026877,33.545833333333334]]]}},{"type":"Feature","id":"40221:503024552","properties":{"id":"40221:503024552","meshCode":"503024552","cityCode":"40221","city":"太宰府市","lat":33.5430644,"lon":130.5700504,"areaKm2":0.0664857,"populated2020":false,"population2020":null,"populationNote":"境界またぎ・原典収録外のため自治体内人口は未集計"},"geometry":{"type":"Polygon","coordinates":[[[130.56875,33.544387894575216],[130.569830558,33.544324721],[130.570225551,33.544236108],[130.570470272,33.544068892],[130.570596109,33.543633054],[130.570765551,33.54343166700001],[130.57215555100004,33.54247694600001],[130.571720558,33.54214027900001],[130.571146394,33.541882225],[130.571012917819,33.541666666666664],[130.56875,33.54166666666667],[130.56875,33.544387894575216]]]}},{"type":"Feature","id":"40221:503024524","properties":{"id":"40221:503024524","meshCode":"503024524","cityCode":"40221","city":"太宰府市","lat":33.546146,"lon":130.5370344,"areaKm2":0.0059733,"populated2020":false,"population2020":null,"populationNote":"境界またぎ・原典収録外のため自治体内人口は未集計"},"geometry":{"type":"Polygon","coordinates":[[[130.53623223935992,33.545833333333334],[130.53642917,33.546060829000005],[130.53717,33.546486945999995],[130.5375,33.54656234273743],[130.5375,33.545833333333334],[130.53623223935992,33.545833333333334]]]}},{"type":"Feature","id":"40221:503024533","properties":{"id":"40221:503024533","meshCode":"503024533","cityCode":"40221","city":"太宰府市","lat":33.5478571,"lon":130.5422863,"areaKm2":0.1643166,"populated2020":true,"population2020":null,"populationNote":"境界またぎ・原典収録外のため自治体内人口は未集計"},"geometry":{"type":"Polygon","coordinates":[[[130.5375,33.54656234273743],[130.538295279,33.547227775],[130.538672776,33.547149162000004],[130.538966394,33.547267225],[130.539022503,33.547470278999995],[130.539553606,33.54750305400001],[130.540067782,33.547663892],[130.540284449,33.54764416199999],[130.54069,33.547768613],[130.540955279,33.547945559],[130.541367782,33.548417495],[130.541332776,33.548863333],[130.541675551,33.549276387000006],[130.541681245,33.55],[130.54375,33.55],[130.54375,33.545833333333334],[130.5375,33.545833333333334],[130.5375,33.54656234273743]]]}},{"type":"Feature","id":"40221:503024534","properties":{"id":"40221:503024534","meshCode":"503024534","cityCode":"40221","city":"太宰府市","lat":33.5479167,"lon":130.546875,"areaKm2":0.2682068,"populated2020":true,"population2020":5.0882,"populationNote":"2020年基準の国交省調整値"},"geometry":{"type":"Polygon","coordinates":[[[130.54375,33.545833333333334],[130.54375,33.55],[130.55,33.54999999999999],[130.55,33.545833333333334],[130.54375,33.545833333333334]]]}},{"type":"Feature","id":"40221:503024543","properties":{"id":"40221:503024543","meshCode":"503024543","cityCode":"40221","city":"太宰府市","lat":33.5479167,"lon":130.553125,"areaKm2":0.2682065,"populated2020":false,"population2020":null,"populationNote":"境界またぎ・原典収録外のため自治体内人口は未集計"},"geometry":{"type":"Polygon","coordinates":[[[130.55,33.545833333333334],[130.55,33.54999999999999],[130.55625,33.55],[130.55625,33.545833333333334],[130.55,33.545833333333334]]]}},{"type":"Feature","id":"40221:503024544","properties":{"id":"40221:503024544","meshCode":"503024544","cityCode":"40221","city":"太宰府市","lat":33.5479167,"lon":130.559375,"areaKm2":0.223535,"populated2020":false,"population2020":null,"populationNote":"境界またぎ・原典収録外のため自治体内人口は未集計"},"geometry":{"type":"Polygon","coordinates":[[[130.55962083,33.549973333000004],[130.560288054,33.549248613],[130.560693333,33.54864],[130.56082917,33.54829],[130.561073891,33.548152225],[130.561629728,33.54812944100001],[130.561895279,33.548050559],[130.561947782,33.547834162],[130.5625,33.5472479734544],[130.5625,33.545833333333334],[130.55625,33.545833333333334],[130.55625,33.55],[130.55962083,33.549973333000004]]]}},{"type":"Feature","id":"40221:503024553","properties":{"id":"40221:503024553","meshCode":"503024553","cityCode":"40221","city":"太宰府市","lat":33.546575,"lon":130.5632367,"areaKm2":0.023295,"populated2020":false,"population2020":null,"populationNote":"境界またぎ・原典収録外のため自治体内人口は未集計"},"geometry":{"type":"Polygon","coordinates":[[[130.5625,33.5472479734544],[130.562690272,33.547006108],[130.563508327,33.54683582900001],[130.56402917,33.546540559],[130.564755279,33.546433613],[130.565146939,33.546092495],[130.56522996026877,33.545833333333334],[130.5625,33.545833333333334],[130.5625,33.5472479734544]]]}},{"type":"Feature","id":"40221:503024631","properties":{"id":"40221:503024631","meshCode":"503024631","cityCode":"40221","city":"太宰府市","lat":33.5520654,"lon":130.5426217,"areaKm2":0.1158946,"populated2020":true,"population2020":null,"populationNote":"境界またぎ・原典収録外のため自治体内人口は未集計"},"geometry":{"type":"Polygon","coordinates":[[[130.541681245,33.55],[130.541731115,33.551606387],[130.541640272,33.551980279],[130.541066939,33.55228194600001],[130.54066166,33.552616107999995],[130.53987166,33.552793054],[130.539745837,33.552897775],[130.53971083,33.553074721],[130.540291115,33.55355333300001],[130.540797782,33.554102225],[130.54074463400786,33.55416666666667],[130.54375,33.55416666666667],[130.54375,33.55],[130.541681245,33.55]]]}},{"type":"Feature","id":"40221:503024632","properties":{"id":"40221:503024632","meshCode":"503024632","cityCode":"40221","city":"太宰府市","lat":33.5520833,"lon":130.546875,"areaKm2":0.2681941,"populated2020":true,"population2020":28.5425,"populationNote":"2020年基準の国交省調整値"},"geometry":{"type":"Polygon","coordinates":[[[130.54375,33.55],[130.54375,33.55416666666667],[130.55,33.55416666666666],[130.55,33.54999999999999],[130.54375,33.55]]]}},{"type":"Feature","id":"40221:503024641","properties":{"id":"40221:503024641","meshCode":"503024641","cityCode":"40221","city":"太宰府市","lat":33.5520833,"lon":130.553125,"areaKm2":0.251314,"populated2020":false,"population2020":null,"populationNote":"境界またぎ・原典収録外のため自治体内人口は未集計"},"geometry":{"type":"Polygon","coordinates":[[[130.554465551,33.55385389199999],[130.554968612,33.55349305400001],[130.555251946,33.553378333000005],[130.555468612,33.553123054],[130.555949442,33.55283166699999],[130.55625,33.552759441499994],[130.55625,33.55],[130.55,33.54999999999999],[130.55,33.55416666666666],[130.55442859457736,33.55416666666667],[130.554465551,33.55385389199999]]]}},{"type":"Feature","id":"40221:503024642","properties":{"id":"40221:503024642","meshCode":"503024642","cityCode":"40221","city":"太宰府市","lat":33.551382,"lon":130.557274,"areaKm2":0.0529289,"populated2020":false,"population2020":null,"populationNote":"境界またぎ・原典収録外のため自治体内人口は未集計"},"geometry":{"type":"Polygon","coordinates":[[[130.556351388,33.552743054000004],[130.55671166,33.552303892000005],[130.557458327,33.552137495],[130.557703061,33.552012774999994],[130.558056109,33.55156361300001],[130.55863555100004,33.551096387],[130.558782218,33.550660279],[130.559563969,33.54999999999999],[130.55625,33.55],[130.55625,33.552759441499994],[130.556351388,33.552743054000004]]]}},{"type":"Feature","id":"40221:503024633","properties":{"id":"40221:503024633","meshCode":"503024633","cityCode":"40221","city":"太宰府市","lat":33.5546562,"lon":130.5421377,"areaKm2":0.0234469,"populated2020":true,"population2020":null,"populationNote":"境界またぎ・原典収録外のため自治体内人口は未集計"},"geometry":{"type":"Polygon","coordinates":[[[130.54074463400786,33.55416666666667],[130.540465551,33.55457444100001],[130.54078,33.554970559],[130.54096166,33.554905000000005],[130.542038327,33.554950829],[130.543113606,33.554738054],[130.543487782,33.55482000000001],[130.54375,33.55501948471334],[130.54375,33.55416666666667],[130.54074463400786,33.55416666666667]]]}},{"type":"Feature","id":"40221:503024634","properties":{"id":"40221:503024634","meshCode":"503024634","cityCode":"40221","city":"太宰府市","lat":33.5553258,"lon":130.5471558,"areaKm2":0.1085721,"populated2020":true,"population2020":null,"populationNote":"境界またぎ・原典収録外のため自治体内人口は未集計"},"geometry":{"type":"Polygon","coordinates":[[[130.543893333,33.555141108],[130.544706667,33.555452225],[130.54707166,33.555831946],[130.548184449,33.556211387000005],[130.54919472100002,33.55644082900001],[130.55,33.55610966700001],[130.55,33.55416666666666],[130.54375,33.55416666666667],[130.54375,33.55501948471334],[130.543893333,33.555141108]]]}},{"type":"Feature","id":"40221:503024643","properties":{"id":"40221:503024643","meshCode":"503024643","cityCode":"40221","city":"太宰府市","lat":33.5551174,"lon":130.551054,"areaKm2":0.044867,"populated2020":true,"population2020":null,"populationNote":"境界またぎ・原典収録外のため自治体内人口は未集計"},"geometry":{"type":"Polygon","coordinates":[[[130.55,33.55610966700001],[130.55031,33.555913054],[130.55105,33.55516638699999],[130.55146166,33.555231946],[130.552725551,33.555045279],[130.553263891,33.554887775],[130.553826667,33.55490082899999],[130.554277782,33.55456333299999],[130.554389442,33.55441889200001],[130.55442859457736,33.55416666666667],[130.55,33.55416666666666],[130.55,33.55610966700001]]]}}]}