{"type":"FeatureCollection","metadata":{"cityCode":"40224","city":"福津市","resolution":1000,"boundaryDate":"2026-01-01","populationLabel":"2020年基準人口（国交省調整値）","method":"標準地域メッシュを行政界で切抜き。中心が区域外のとき区域内代表点を判定点にする。人口不明をゼロにしない。"},"features":[{"type":"Feature","id":"40224:50304473","properties":{"id":"40224:50304473","meshCode":"50304473","cityCode":"40224","city":"福津市","lat":33.7323487,"lon":130.5473004,"areaKm2":0.0575801,"populated2020":false,"population2020":null,"populationNote":"境界またぎ・収録外等のため人口未集計"},"geometry":{"type":"Polygon","coordinates":[[[130.548703476,33.733333333],[130.548732776,33.732685829000005],[130.548613891,33.732059441],[130.547736939,33.730611667],[130.547177497,33.730805279],[130.547016394,33.730935279000015],[130.546988612,33.731335279],[130.546533891,33.732033613],[130.545629728,33.732723613000005],[130.54499766463454,33.733333333333334],[130.548703476,33.733333333]]]}},{"type":"Feature","id":"40224:50304483","properties":{"id":"40224:50304483","meshCode":"50304483","cityCode":"40224","city":"福津市","lat":33.7381683,"lon":130.5447655,"areaKm2":0.8067321,"populated2020":true,"population2020":null,"populationNote":"境界またぎ・収録外等のため人口未集計"},"geometry":{"type":"Polygon","coordinates":[[[130.55,33.735858748],[130.549532776,33.735064441],[130.54959917,33.73466749499999],[130.548851115,33.734080829],[130.5487034760228,33.73333333333333],[130.54499766463454,33.733333333333334],[130.544843061,33.733464721],[130.544326939,33.733638054],[130.543966939,33.73393638700001],[130.543561388,33.734142775],[130.54326749700002,33.73424777499999],[130.54261,33.734198613],[130.542424721,33.734369162],[130.542228885,33.734916667000014],[130.542375837,33.735455559],[130.54227444900002,33.736144162],[130.541947497,33.736617775],[130.541041946,33.73741472100001],[130.541021115,33.737929721],[130.540901946,33.738083892],[130.540398885,33.738277225],[130.539924721,33.738257495],[130.539389728,33.738490279],[130.538368612,33.73830666700001],[130.5375,33.73850842687303],[130.5375,33.74166666666666],[130.55,33.74166666666667],[130.55,33.735858748]]]}},{"type":"Feature","id":"40224:50304484","properties":{"id":"40224:50304484","meshCode":"50304484","cityCode":"40224","city":"福津市","lat":33.7394187,"lon":130.5517027,"areaKm2":0.1712526,"populated2020":true,"population2020":null,"populationNote":"境界またぎ・収録外等のため人口未集計"},"geometry":{"type":"Polygon","coordinates":[[[130.552854449,33.73764499999999],[130.551164163,33.737010000000005],[130.550877224,33.736452775],[130.55,33.735858748],[130.55,33.74166666666667],[130.55391169898542,33.74166666666666],[130.553906394,33.740873892],[130.554011115,33.740134721],[130.553874721,33.739787225],[130.553364721,33.739210279],[130.553322503,33.73903],[130.553491115,33.738527225],[130.552854449,33.73764499999999]]]}},{"type":"Feature","id":"40224:50304480","properties":{"id":"40224:50304480","meshCode":"50304480","cityCode":"40224","city":"福津市","lat":33.7410394,"lon":130.5100598,"areaKm2":0.0665283,"populated2020":false,"population2020":null,"populationNote":"境界またぎ・収録外等のため人口未集計"},"geometry":{"type":"Polygon","coordinates":[[[130.5125,33.74063016727291],[130.51122083,33.74013833299999],[130.509186939,33.74034472099999],[130.508263891,33.740685829],[130.507092503,33.741318613],[130.50664880730764,33.74166666666666],[130.5125,33.74166666666666],[130.5125,33.74063016727291]]]}},{"type":"Feature","id":"40224:50304481","properties":{"id":"40224:50304481","meshCode":"50304481","cityCode":"40224","city":"福津市","lat":33.7408964,"lon":130.5195521,"areaKm2":0.1880703,"populated2020":true,"population2020":null,"populationNote":"境界またぎ・収録外等のため人口未集計"},"geometry":{"type":"Polygon","coordinates":[[[130.525,33.73974546800001],[130.523534994,33.739695279],[130.523059728,33.739754441],[130.521903891,33.74008527899999],[130.521162503,33.739898333],[130.5176,33.740393613],[130.516376394,33.74021],[130.516005837,33.74028555899999],[130.515285551,33.740593612999994],[130.513287782,33.740773892],[130.5125,33.74063016727291],[130.5125,33.74166666666666],[130.525,33.74166666666667],[130.525,33.73974546800001]]]}},{"type":"Feature","id":"40224:50304482","properties":{"id":"40224:50304482","meshCode":"50304482","cityCode":"40224","city":"福津市","lat":33.7404148,"lon":130.5317164,"areaKm2":0.3145932,"populated2020":true,"population2020":26.3648,"populationNote":"収録500mメッシュ人口の合算（原典収録外は補完しない）"},"geometry":{"type":"Polygon","coordinates":[[[130.537013891,33.738951946],[130.53647917,33.739119162],[130.536273061,33.739083333],[130.535797497,33.738808054],[130.535360272,33.73869972100001],[130.534944163,33.738755559],[130.534575551,33.73890222499999],[130.533526667,33.738816946],[130.53300917,33.738889162],[130.532245551,33.73882055899999],[130.531283891,33.739046946],[130.530906109,33.73946],[130.530404449,33.739656667],[130.52985917,33.73971555899999],[130.529296109,33.739459720999996],[130.528673891,33.739394161999996],[130.527423606,33.739573892],[130.526504449,33.739583892],[130.525,33.73974546800001],[130.525,33.74166666666667],[130.5375,33.74166666666666],[130.5375,33.73850842687303],[130.537013891,33.738951946]]]}},{"type":"Feature","id":"40224:50304399","properties":{"id":"40224:50304399","meshCode":"50304399","cityCode":"40224","city":"福津市","lat":33.7481813,"lon":130.4948963,"areaKm2":0.4170433,"populated2020":true,"population2020":null,"populationNote":"境界またぎ・収録外等のため人口未集計"},"geometry":{"type":"Polygon","coordinates":[[[130.5,33.74463135999999],[130.497659442,33.745582495],[130.497341414,33.745487973],[130.497016109,33.745490559],[130.494560272,33.746749162000015],[130.494246667,33.746825559],[130.493656329,33.74678664],[130.49232083,33.747959162],[130.491580558,33.74844027899999],[130.491426939,33.748473333],[130.491193606,33.748381387],[130.490494994,33.747798892000006],[130.490206939,33.747445000000006],[130.489700441,33.74766586500001],[130.489468885,33.747382225],[130.489248249,33.747342440999994],[130.488742776,33.747556667000005],[130.4875,33.74811116979688],[130.4875,33.74999999999999],[130.5,33.75000000000001],[130.5,33.74463135999999]]]}},{"type":"Feature","id":"40224:50304490","properties":{"id":"40224:50304490","meshCode":"50304490","cityCode":"40224","city":"福津市","lat":33.7461578,"lon":130.5066663,"areaKm2":0.97122,"populated2020":true,"population2020":2.0435,"populationNote":"収録500mメッシュ人口の合算（原典収録外は補完しない）"},"geometry":{"type":"Polygon","coordinates":[[[130.506342503,33.741940559],[130.504907497,33.742260559],[130.504557782,33.742401667],[130.502590272,33.743492495],[130.5,33.74463135999999],[130.5,33.75000000000001],[130.5125,33.75000000000001],[130.5125,33.74166666666666],[130.50664880730764,33.74166666666666],[130.506342503,33.741940559]]]}},{"type":"Feature","id":"40224:50304491","properties":{"id":"40224:50304491","meshCode":"50304491","cityCode":"40224","city":"福津市","lat":33.7458333,"lon":130.51875,"areaKm2":1.070415,"populated2020":true,"population2020":184.9624,"populationNote":"収録500mメッシュ人口の合算（原典収録外は補完しない）"},"geometry":{"type":"Polygon","coordinates":[[[130.525,33.74166666666667],[130.5125,33.74166666666666],[130.5125,33.75000000000001],[130.525,33.75],[130.525,33.74166666666667]]]}},{"type":"Feature","id":"40224:50304492","properties":{"id":"40224:50304492","meshCode":"50304492","cityCode":"40224","city":"福津市","lat":33.7458333,"lon":130.53125,"areaKm2":1.0704123,"populated2020":true,"population2020":3.0693,"populationNote":"収録500mメッシュ人口の合算（原典収録外は補完しない）"},"geometry":{"type":"Polygon","coordinates":[[[130.5375,33.74166666666666],[130.525,33.74166666666667],[130.525,33.75],[130.5375,33.75],[130.5375,33.74166666666666]]]}},{"type":"Feature","id":"40224:50304493","properties":{"id":"40224:50304493","meshCode":"50304493","cityCode":"40224","city":"福津市","lat":33.7458333,"lon":130.54375,"areaKm2":1.0704097,"populated2020":true,"population2020":1.0206,"populationNote":"収録500mメッシュ人口の合算（原典収録外は補完しない）"},"geometry":{"type":"Polygon","coordinates":[[[130.55,33.74166666666667],[130.5375,33.74166666666666],[130.5375,33.75],[130.55,33.75],[130.55,33.74166666666667]]]}},{"type":"Feature","id":"40224:50304494","properties":{"id":"40224:50304494","meshCode":"50304494","cityCode":"40224","city":"福津市","lat":33.7462674,"lon":130.5519417,"areaKm2":0.3129336,"populated2020":true,"population2020":null,"populationNote":"境界またぎ・収録外等のため人口未集計"},"geometry":{"type":"Polygon","coordinates":[[[130.55287917,33.745631386999996],[130.552393606,33.74517861300001],[130.55227805400003,33.744814441],[130.55229917,33.744542225],[130.552361946,33.744381667],[130.553126939,33.743957225],[130.553259728,33.74377722500001],[130.553011388,33.743170559],[130.553001115,33.74288194599999],[130.55307083,33.742704721],[130.553756109,33.74210666700001],[130.55391169898542,33.74166666666666],[130.55,33.74166666666667],[130.55,33.75],[130.555327276,33.750000000000014],[130.555335551,33.749770829],[130.554604994,33.748647495],[130.554748327,33.747972225],[130.554183061,33.74723166700001],[130.553253061,33.74661499999999],[130.553124163,33.746050829],[130.55287917,33.745631386999996]]]}},{"type":"Feature","id":"40224:50304398","properties":{"id":"40224:50304398","meshCode":"50304398","cityCode":"40224","city":"福津市","lat":33.7488486,"lon":130.4870875,"areaKm2":0.0269602,"populated2020":true,"population2020":null,"populationNote":"境界またぎ・収録外等のため人口未集計"},"geometry":{"type":"Polygon","coordinates":[[[130.4875,33.74811116979688],[130.486449442,33.748595],[130.487114163,33.749341387],[130.486183606,33.749726667],[130.485642776,33.749102224999994],[130.483807134,33.75000000000001],[130.4875,33.74999999999999],[130.4875,33.74811116979688]]]}},{"type":"Feature","id":"40224:50305307","properties":{"id":"40224:50305307","meshCode":"50305307","cityCode":"40224","city":"福津市","lat":33.7553974,"lon":130.4717412,"areaKm2":0.3995329,"populated2020":true,"population2020":null,"populationNote":"境界またぎ・収録外等のため人口未集計"},"geometry":{"type":"Polygon","coordinates":[[[130.475,33.752015027],[130.473584994,33.752039441],[130.473415837,33.752238613],[130.472082218,33.75240472099999],[130.470437497,33.75295833300001],[130.467409053,33.75375257700001],[130.468430752,33.756743748000005],[130.468496498,33.757005586],[130.468437691,33.757055828999995],[130.468535966,33.75711630600001],[130.4688702720778,33.75833333333333],[130.475,33.758333333333326],[130.475,33.752015027]]]}},{"type":"Feature","id":"40224:50305308","properties":{"id":"40224:50305308","meshCode":"50305308","cityCode":"40224","city":"福津市","lat":33.7546615,"lon":130.4816079,"areaKm2":0.9311231,"populated2020":true,"population2020":null,"populationNote":"境界またぎ・収録外等のため人口未集計"},"geometry":{"type":"Polygon","coordinates":[[[130.483807134,33.75000000000001],[130.482586939,33.750575],[130.483007497,33.751199162000006],[130.481741388,33.751794720999996],[130.481604994,33.751573613],[130.480781388,33.751956946],[130.480149728,33.751939162],[130.479981115,33.751667495],[130.478315837,33.751459441],[130.477768327,33.75145555900001],[130.47692917,33.751674441],[130.475626394,33.752143333],[130.475,33.752015027],[130.475,33.758333333333326],[130.4875,33.758333333333326],[130.4875,33.74999999999999],[130.483807134,33.75000000000001]]]}},{"type":"Feature","id":"40224:50305309","properties":{"id":"40224:50305309","meshCode":"50305309","cityCode":"40224","city":"福津市","lat":33.7541667,"lon":130.49375,"areaKm2":1.0703185,"populated2020":true,"population2020":2410.7157,"populationNote":"収録500mメッシュ人口の合算（原典収録外は補完しない）"},"geometry":{"type":"Polygon","coordinates":[[[130.5,33.75000000000001],[130.4875,33.74999999999999],[130.4875,33.758333333333326],[130.5,33.75833333333333],[130.5,33.75000000000001]]]}},{"type":"Feature","id":"40224:50305400","properties":{"id":"40224:50305400","meshCode":"50305400","cityCode":"40224","city":"福津市","lat":33.7541667,"lon":130.50625,"areaKm2":1.0703157,"populated2020":true,"population2020":466.8652,"populationNote":"収録500mメッシュ人口の合算（原典収録外は補完しない）"},"geometry":{"type":"Polygon","coordinates":[[[130.5125,33.75000000000001],[130.5,33.75000000000001],[130.5,33.75833333333333],[130.5125,33.75833333333333],[130.5125,33.75000000000001]]]}},{"type":"Feature","id":"40224:50305401","properties":{"id":"40224:50305401","meshCode":"50305401","cityCode":"40224","city":"福津市","lat":33.7541667,"lon":130.51875,"areaKm2":1.0703129,"populated2020":true,"population2020":520.8247,"populationNote":"収録500mメッシュ人口の合算（原典収録外は補完しない）"},"geometry":{"type":"Polygon","coordinates":[[[130.525,33.75],[130.5125,33.75000000000001],[130.5125,33.75833333333333],[130.525,33.75833333333333],[130.525,33.75]]]}},{"type":"Feature","id":"40224:50305402","properties":{"id":"40224:50305402","meshCode":"50305402","cityCode":"40224","city":"福津市","lat":33.7541667,"lon":130.53125,"areaKm2":1.0703102,"populated2020":true,"population2020":238.1084,"populationNote":"収録500mメッシュ人口の合算（原典収録外は補完しない）"},"geometry":{"type":"Polygon","coordinates":[[[130.5375,33.75],[130.525,33.75],[130.525,33.75833333333333],[130.5375,33.758333333333326],[130.5375,33.75]]]}},{"type":"Feature","id":"40224:50305403","properties":{"id":"40224:50305403","meshCode":"50305403","cityCode":"40224","city":"福津市","lat":33.7541325,"lon":130.5436935,"areaKm2":1.0597562,"populated2020":true,"population2020":118.2133,"populationNote":"収録500mメッシュ人口の合算（原典収録外は補完しない）"},"geometry":{"type":"Polygon","coordinates":[[[130.55,33.75],[130.5375,33.75],[130.5375,33.758333333333326],[130.54736367120825,33.758333333333326],[130.5473,33.758231387],[130.547456394,33.758126946],[130.548241946,33.758273333],[130.549032218,33.758214721],[130.549289728,33.75809861300001],[130.549789728,33.757650559],[130.549878885,33.75748305399999],[130.549651115,33.75697277500001],[130.549642218,33.756654441],[130.549945837,33.755993054],[130.55,33.755612333],[130.55,33.75]]]}},{"type":"Feature","id":"40224:50305404","properties":{"id":"40224:50305404","meshCode":"50305404","cityCode":"40224","city":"福津市","lat":33.7528206,"lon":130.5508358,"areaKm2":0.0940381,"populated2020":false,"population2020":null,"populationNote":"境界またぎ・収録外等のため人口未集計"},"geometry":{"type":"Polygon","coordinates":[[[130.55073,33.754266946],[130.551399728,33.75370999999999],[130.551778054,33.753275559],[130.551589442,33.75237138699999],[130.55125360600002,33.751915829],[130.551271115,33.751636946],[130.551400558,33.751486108],[130.551529728,33.75139277499999],[130.551963333,33.751297495],[130.552655551,33.750858333],[130.55412166,33.750216946],[130.554638612,33.750157775],[130.555110558,33.75051527899999],[130.555327276,33.750000000000014],[130.55,33.75],[130.55,33.755612333],[130.550131946,33.755229441000004],[130.55073,33.754266946]]]}},{"type":"Feature","id":"40224:50305317","properties":{"id":"40224:50305317","meshCode":"50305317","cityCode":"40224","city":"福津市","lat":33.7625687,"lon":130.4719582,"areaKm2":0.5128208,"populated2020":true,"population2020":2003.2763,"populationNote":"収録500mメッシュ人口の合算（原典収録外は補完しない）"},"geometry":{"type":"Polygon","coordinates":[[[130.4688702720778,33.75833333333333],[130.469488392,33.761444135],[130.469365305,33.761830225],[130.469038054,33.76185694600001],[130.469350311,33.76189119800001],[130.469470415,33.76211481099999],[130.468954553,33.76212916200001],[130.46947847,33.762157558999995],[130.469622477,33.763281252],[130.468224475,33.763595973],[130.468240973,33.763701973],[130.466805253,33.764009198],[130.466512361,33.764181748],[130.466324553,33.765291306],[130.466476978,33.765365919],[130.466633917,33.764235586],[130.466859611,33.764101748],[130.468125746,33.763832225],[130.46841192,33.764816135],[130.467878418,33.76491555900001],[130.467907977,33.76502522500001],[130.468444384,33.764924667],[130.468728975,33.765882162],[130.469052944,33.765813135],[130.46910691300002,33.765990919],[130.467753969,33.766273613],[130.467398885,33.765123108],[130.467561505,33.765049252],[130.467381219,33.76508264],[130.466984449,33.76486444099999],[130.466944747,33.76492955900001],[130.467099883,33.76499513500001],[130.467074864,33.765080694],[130.467246693,33.765155441000005],[130.467681336,33.766619892],[130.467835966,33.76654364],[130.46776786,33.76631325200001],[130.468997134,33.766059225],[130.469706978,33.76600294600001],[130.47018130979095,33.766666666666666],[130.475,33.766666666666666],[130.475,33.758333333333326],[130.4688702720778,33.75833333333333]]]}},{"type":"Feature","id":"40224:50305318","properties":{"id":"40224:50305318","meshCode":"50305318","cityCode":"40224","city":"福津市","lat":33.7625,"lon":130.48125,"areaKm2":1.0702193,"populated2020":true,"population2020":8347.427,"populationNote":"収録500mメッシュ人口の合算（原典収録外は補完しない）"},"geometry":{"type":"Polygon","coordinates":[[[130.4875,33.758333333333326],[130.475,33.758333333333326],[130.475,33.766666666666666],[130.4875,33.766666666666666],[130.4875,33.758333333333326]]]}},{"type":"Feature","id":"40224:50305319","properties":{"id":"40224:50305319","meshCode":"50305319","cityCode":"40224","city":"福津市","lat":33.7625,"lon":130.49375,"areaKm2":1.0702164,"populated2020":true,"population2020":6081.9394,"populationNote":"収録500mメッシュ人口の合算（原典収録外は補完しない）"},"geometry":{"type":"Polygon","coordinates":[[[130.5,33.75833333333333],[130.4875,33.758333333333326],[130.4875,33.766666666666666],[130.5,33.76666666666666],[130.5,33.75833333333333]]]}},{"type":"Feature","id":"40224:50305410","properties":{"id":"40224:50305410","meshCode":"50305410","cityCode":"40224","city":"福津市","lat":33.7625,"lon":130.50625,"areaKm2":1.0702135,"populated2020":true,"population2020":310.2048,"populationNote":"収録500mメッシュ人口の合算（原典収録外は補完しない）"},"geometry":{"type":"Polygon","coordinates":[[[130.5125,33.75833333333333],[130.5,33.75833333333333],[130.5,33.76666666666666],[130.5125,33.766666666666666],[130.5125,33.75833333333333]]]}},{"type":"Feature","id":"40224:50305411","properties":{"id":"40224:50305411","meshCode":"50305411","cityCode":"40224","city":"福津市","lat":33.7625,"lon":130.51875,"areaKm2":1.0702108,"populated2020":true,"population2020":344.9219,"populationNote":"収録500mメッシュ人口の合算（原典収録外は補完しない）"},"geometry":{"type":"Polygon","coordinates":[[[130.525,33.75833333333333],[130.5125,33.75833333333333],[130.5125,33.766666666666666],[130.525,33.76666666666666],[130.525,33.75833333333333]]]}},{"type":"Feature","id":"40224:50305412","properties":{"id":"40224:50305412","meshCode":"50305412","cityCode":"40224","city":"福津市","lat":33.7625,"lon":130.53125,"areaKm2":1.0702081,"populated2020":true,"population2020":353.8128,"populationNote":"収録500mメッシュ人口の合算（原典収録外は補完しない）"},"geometry":{"type":"Polygon","coordinates":[[[130.5375,33.758333333333326],[130.525,33.75833333333333],[130.525,33.76666666666666],[130.5375,33.76666666666666],[130.5375,33.758333333333326]]]}},{"type":"Feature","id":"40224:50305413","properties":{"id":"40224:50305413","meshCode":"50305413","cityCode":"40224","city":"福津市","lat":33.76186,"lon":130.5409859,"areaKm2":0.5485594,"populated2020":false,"population2020":null,"populationNote":"境界またぎ・収録外等のため人口未集計"},"geometry":{"type":"Polygon","coordinates":[[[130.543967497,33.762102775],[130.544284449,33.761801387000006],[130.544297782,33.761684162],[130.544025837,33.761230279],[130.543963333,33.760886946],[130.544369442,33.760602495],[130.544780272,33.759978613],[130.546070558,33.760296667],[130.547563333,33.759003892],[130.54736367120825,33.758333333333326],[130.5375,33.758333333333326],[130.5375,33.76666666666666],[130.54312221799333,33.76666666666666],[130.543018327,33.766393892],[130.542540558,33.76608000000001],[130.542393333,33.766059162],[130.541857497,33.765406108],[130.54163888500003,33.765012775],[130.541759442,33.764807495],[130.542183333,33.764547775],[130.542250272,33.764361387],[130.542076394,33.763921667],[130.54217,33.76368305399999],[130.542817497,33.763210279],[130.54343166,33.762441946],[130.543967497,33.762102775]]]}},{"type":"Feature","id":"40224:50305327","properties":{"id":"40224:50305327","meshCode":"50305327","cityCode":"40224","city":"福津市","lat":33.7707663,"lon":130.4729082,"areaKm2":0.3571042,"populated2020":true,"population2020":1095.2227,"populationNote":"収録500mメッシュ人口の合算（原典収録外は補完しない）"},"geometry":{"type":"Polygon","coordinates":[[[130.470183502,33.766670135],[130.470519339,33.767600441],[130.470736861,33.76853494600001],[130.470953969,33.769833973],[130.471068664,33.771196468],[130.471019663,33.772707775],[130.470786511,33.774524793],[130.47063705600002,33.774649532],[130.470568223,33.775],[130.475,33.77499999999999],[130.475,33.766666666666666],[130.470183502,33.766670135]]]}},{"type":"Feature","id":"40224:50305328","properties":{"id":"40224:50305328","meshCode":"50305328","cityCode":"40224","city":"福津市","lat":33.7708333,"lon":130.48125,"areaKm2":1.0701172,"populated2020":true,"population2020":5664.7386,"populationNote":"収録500mメッシュ人口の合算（原典収録外は補完しない）"},"geometry":{"type":"Polygon","coordinates":[[[130.4875,33.766666666666666],[130.475,33.766666666666666],[130.475,33.77499999999999],[130.4875,33.775],[130.4875,33.766666666666666]]]}},{"type":"Feature","id":"40224:50305329","properties":{"id":"40224:50305329","meshCode":"50305329","cityCode":"40224","city":"福津市","lat":33.7708333,"lon":130.49375,"areaKm2":1.0701143,"populated2020":true,"population2020":3024.6567,"populationNote":"収録500mメッシュ人口の合算（原典収録外は補完しない）"},"geometry":{"type":"Polygon","coordinates":[[[130.5,33.76666666666666],[130.4875,33.766666666666666],[130.4875,33.775],[130.5,33.775],[130.5,33.76666666666666]]]}},{"type":"Feature","id":"40224:50305420","properties":{"id":"40224:50305420","meshCode":"50305420","cityCode":"40224","city":"福津市","lat":33.7708333,"lon":130.50625,"areaKm2":1.0701114,"populated2020":true,"population2020":3950.1723,"populationNote":"収録500mメッシュ人口の合算（原典収録外は補完しない）"},"geometry":{"type":"Polygon","coordinates":[[[130.5125,33.766666666666666],[130.5,33.76666666666666],[130.5,33.775],[130.5125,33.775000000000006],[130.5125,33.766666666666666]]]}},{"type":"Feature","id":"40224:50305421","properties":{"id":"40224:50305421","meshCode":"50305421","cityCode":"40224","city":"福津市","lat":33.7708332,"lon":130.5187499,"areaKm2":1.070077,"populated2020":true,"population2020":4129.8713,"populationNote":"収録500mメッシュ人口の合算（原典収録外は補完しない）"},"geometry":{"type":"Polygon","coordinates":[[[130.525,33.76666666666666],[130.5125,33.766666666666666],[130.5125,33.775000000000006],[130.520766744,33.775],[130.520819728,33.774948892],[130.520882776,33.775],[130.525,33.775],[130.525,33.76666666666666]]]}},{"type":"Feature","id":"40224:50305422","properties":{"id":"40224:50305422","meshCode":"50305422","cityCode":"40224","city":"福津市","lat":33.7708333,"lon":130.53125,"areaKm2":1.0701059,"populated2020":true,"population2020":193.3522,"populationNote":"収録500mメッシュ人口の合算（原典収録外は補完しない）"},"geometry":{"type":"Polygon","coordinates":[[[130.5375,33.76666666666666],[130.525,33.76666666666666],[130.525,33.775],[130.5375,33.775],[130.5375,33.76666666666666]]]}},{"type":"Feature","id":"40224:50305423","properties":{"id":"40224:50305423","meshCode":"50305423","cityCode":"40224","city":"福津市","lat":33.7707783,"lon":130.5404231,"areaKm2":0.4221776,"populated2020":true,"population2020":null,"populationNote":"境界またぎ・収録外等のため人口未集計"},"geometry":{"type":"Polygon","coordinates":[[[130.542214994,33.77010916199999],[130.540296667,33.769458054],[130.540777782,33.768191666999996],[130.54292083,33.767438333],[130.543130558,33.767082495],[130.54312221799333,33.76666666666666],[130.5375,33.76666666666666],[130.5375,33.775],[130.538805227,33.775],[130.538859728,33.774187225],[130.539074163,33.773835559],[130.539234721,33.773760279],[130.54073,33.773831387],[130.541060558,33.773965279],[130.54223917,33.774760829],[130.542716939,33.774379721],[130.542745279,33.774219162],[130.542383891,33.773549162],[130.542343606,33.773373332999995],[130.542464163,33.773247775],[130.544950558,33.772151107999996],[130.545727497,33.771539721],[130.545723061,33.77142249500001],[130.545575551,33.771263613],[130.544517224,33.770445279],[130.543338612,33.770344721],[130.542214994,33.77010916199999]]]}},{"type":"Feature","id":"40224:50305337","properties":{"id":"40224:50305337","meshCode":"50305337","cityCode":"40224","city":"福津市","lat":33.779562,"lon":130.4720584,"areaKm2":0.4899018,"populated2020":true,"population2020":1584.4918,"populationNote":"収録500mメッシュ人口の合算（原典収録外は補完しない）"},"geometry":{"type":"Polygon","coordinates":[[[130.470568223,33.775],[130.469662335,33.778734279],[130.469123541,33.780239775],[130.468123645,33.781643559],[130.46746433184592,33.78333333333333],[130.475,33.78333333333334],[130.475,33.77499999999999],[130.470568223,33.775]]]}},{"type":"Feature","id":"40224:50305338","properties":{"id":"40224:50305338","meshCode":"50305338","cityCode":"40224","city":"福津市","lat":33.7791667,"lon":130.48125,"areaKm2":1.0700149,"populated2020":true,"population2020":3406.8114,"populationNote":"収録500mメッシュ人口の合算（原典収録外は補完しない）"},"geometry":{"type":"Polygon","coordinates":[[[130.4875,33.775],[130.475,33.77499999999999],[130.475,33.78333333333334],[130.4875,33.783333333333324],[130.4875,33.775]]]}},{"type":"Feature","id":"40224:50305339","properties":{"id":"40224:50305339","meshCode":"50305339","cityCode":"40224","city":"福津市","lat":33.7791667,"lon":130.49375,"areaKm2":1.0700121,"populated2020":true,"population2020":246.0231,"populationNote":"収録500mメッシュ人口の合算（原典収録外は補完しない）"},"geometry":{"type":"Polygon","coordinates":[[[130.5,33.775],[130.4875,33.775],[130.4875,33.783333333333324],[130.5,33.78333333333333],[130.5,33.775]]]}},{"type":"Feature","id":"40224:50305430","properties":{"id":"40224:50305430","meshCode":"50305430","cityCode":"40224","city":"福津市","lat":33.7791667,"lon":130.50625,"areaKm2":1.0700092,"populated2020":true,"population2020":3286.3924,"populationNote":"収録500mメッシュ人口の合算（原典収録外は補完しない）"},"geometry":{"type":"Polygon","coordinates":[[[130.5125,33.775000000000006],[130.5,33.775],[130.5,33.78333333333333],[130.5125,33.78333333333333],[130.5125,33.775000000000006]]]}},{"type":"Feature","id":"40224:50305431","properties":{"id":"40224:50305431","meshCode":"50305431","cityCode":"40224","city":"福津市","lat":33.7778812,"lon":130.5166489,"areaKm2":0.4844435,"populated2020":true,"population2020":null,"populationNote":"境界またぎ・収録外等のため人口未集計"},"geometry":{"type":"MultiPolygon","coordinates":[[[[130.518783061,33.777301946],[130.520766744,33.775],[130.5125,33.775000000000006],[130.5125,33.78333333333333],[130.5130062775318,33.783333333333324],[130.51325166,33.78315861299999],[130.513908054,33.782941108],[130.514550558,33.78233],[130.515108612,33.782099721],[130.515273606,33.781961387],[130.515414163,33.781654720999995],[130.515588327,33.78101861299999],[130.51578917,33.780855279],[130.51655693900003,33.780733892],[130.516722218,33.78078],[130.517262218,33.781340829],[130.517422503,33.781386946],[130.517583333,33.781261387],[130.517623333,33.781051946],[130.517489728,33.78056638699999],[130.517048054,33.780072495],[130.516579728,33.77901972099999],[130.516731388,33.778781108],[130.517146667,33.778617775],[130.51737416300003,33.778375000000004],[130.517997497,33.777477774999994],[130.518783061,33.777301946]]],[[[130.520882776,33.775],[130.52164083,33.775612775000006],[130.522616939,33.77664805399999],[130.522861946,33.77677333300001],[130.522956667,33.776983892],[130.523613061,33.777571946],[130.525,33.778509027],[130.525,33.775],[130.520882776,33.775]]]]}},{"type":"Feature","id":"40224:50305432","properties":{"id":"40224:50305432","meshCode":"50305432","cityCode":"40224","city":"福津市","lat":33.7774089,"lon":130.5310405,"areaKm2":0.6092665,"populated2020":true,"population2020":null,"populationNote":"境界またぎ・収録外等のため人口未集計"},"geometry":{"type":"Polygon","coordinates":[[[130.525248612,33.778653891999994],[130.525108054,33.779260559],[130.525433891,33.77934027900001],[130.525616939,33.779264721],[130.525876109,33.779696108],[130.526228612,33.780060279],[130.527293606,33.780691108000006],[130.527552503,33.780720559],[130.528633061,33.780666108],[130.529226667,33.780351945999996],[130.52939194600003,33.780193054],[130.529574994,33.779565000000005],[130.529735551,33.779338892],[130.530115279,33.779079161999995],[130.530481946,33.779255],[130.530709728,33.77956472099999],[130.531897224,33.77953138699999],[130.532888327,33.779719721000006],[130.533937224,33.779711387],[130.535026667,33.78013833299999],[130.535216394,33.780046387],[130.535640272,33.779623613],[130.536247497,33.77925110799999],[130.536524449,33.778828054],[130.536926109,33.778623054],[130.5375,33.77853200030088],[130.5375,33.775],[130.525,33.775],[130.525,33.778509027],[130.525248612,33.778653891999994]]]}},{"type":"Feature","id":"40224:50305433","properties":{"id":"40224:50305433","meshCode":"50305433","cityCode":"40224","city":"福津市","lat":33.7766933,"lon":130.5382554,"areaKm2":0.0535109,"populated2020":false,"population2020":null,"populationNote":"境界またぎ・収録外等のため人口未集計"},"geometry":{"type":"Polygon","coordinates":[[[130.5375,33.77853200030088],[130.53843166,33.778433613],[130.538645837,33.778282775],[130.539114721,33.777495829],[130.539128054,33.777366108],[130.538918327,33.776934721],[130.539244163,33.776135279],[130.539212776,33.77590082900001],[130.538805227,33.775],[130.5375,33.775],[130.5375,33.77853200030088]]]}},{"type":"Feature","id":"40224:50305345","properties":{"id":"40224:50305345","meshCode":"50305345","cityCode":"40224","city":"福津市","lat":33.7891416,"lon":130.4486246,"areaKm2":0.1541012,"populated2020":false,"population2020":null,"populationNote":"境界またぎ・収録外等のため人口未集計"},"geometry":{"type":"MultiPolygon","coordinates":[[[[130.45,33.785129387],[130.44924594,33.785722441000004],[130.449062361,33.785773],[130.4490662,33.785935946],[130.448530389,33.786306559],[130.447949416,33.78691736],[130.447748249,33.786293694],[130.447738366,33.786939306],[130.447838885,33.78727705400001],[130.447631777,33.78726080199999],[130.447802049,33.787466946],[130.44777647200002,33.78753246800001],[130.44770797700002,33.78750530600001],[130.447752827,33.787561135000004],[130.447633385,33.787566387],[130.447712166,33.787672306],[130.447601336,33.787783613],[130.447679027,33.78789172100001],[130.447583256,33.78814464],[130.447765694,33.789091279],[130.447669079,33.789792135000006],[130.44726022000003,33.790568586000006],[130.446827134,33.790761865],[130.446525694,33.790770892],[130.446400363,33.790695559],[130.446422698,33.790447],[130.446262049,33.790475306],[130.446354942,33.790403054],[130.446292309,33.790370667000005],[130.4458962,33.790726748],[130.445875888,33.790913386999996],[130.445715811,33.791100946],[130.445939754,33.79107264],[130.446019001,33.791206892000005],[130.445625694,33.79132827899999],[130.445833087,33.791320027000005],[130.445952529,33.791568694],[130.446121479,33.791561495],[130.44600413768677,33.791666666666664],[130.45,33.79166666666666],[130.45,33.785129387]]],[[[130.446137302,33.790446802],[130.446001414,33.790500640000005],[130.445923839,33.790592973],[130.446132607,33.790502225],[130.446137302,33.790446802]]],[[[130.445683554,33.791182108],[130.445581946,33.791181306],[130.445524384,33.791280135],[130.445605447,33.791285081],[130.445683554,33.791182108]]],[[[130.445561608,33.791434667000004],[130.445560078,33.791469802],[130.445601336,33.791438441],[130.445561608,33.791434667000004]]],[[[130.445937445,33.791613613],[130.445824358,33.791618613],[130.44571138853155,33.79166666666666],[130.4459148903674,33.79166666666667],[130.445937445,33.791613613]]]]}},{"type":"Feature","id":"40224:50305346","properties":{"id":"40224:50305346","meshCode":"50305346","cityCode":"40224","city":"福津市","lat":33.7889888,"lon":130.4554525,"areaKm2":0.6141161,"populated2020":true,"population2020":920.502,"populationNote":"収録500mメッシュ人口の合算（原典収録外は補完しない）"},"geometry":{"type":"MultiPolygon","coordinates":[[[[130.455025058,33.783636198],[130.454504942,33.784670135],[130.454578003,33.784694892000005],[130.455101193,33.78366736],[130.455025058,33.783636198]]],[[[130.451629728,33.78421622500001],[130.451799468,33.784421640000005],[130.451831025,33.784397081],[130.451629728,33.78421622500001]]],[[[130.455385966,33.78413864],[130.457396589,33.785127667],[130.458242361,33.78605663999999],[130.457790895,33.78631613499999],[130.457587367,33.78608874799999],[130.456977173,33.786478829],[130.45722856,33.786959252],[130.457031855,33.787034108],[130.457248223,33.786988279],[130.457625422,33.787710495],[130.457437523,33.787810667],[130.457640467,33.78773455900001],[130.458465162,33.789329027],[130.458665966,33.789285279000005],[130.45939147900003,33.790857495],[130.458620636,33.791132278999996],[130.458772283,33.79088786500001],[130.458567134,33.791087387],[130.45832703,33.790978414],[130.457621193,33.789510333],[130.456583696,33.788034468],[130.45597725,33.787280386999996],[130.454370895,33.785970532],[130.455014838,33.784873919],[130.4543593,33.785891586],[130.454104112,33.786099802],[130.453252529,33.785938252],[130.452899805,33.78596266699999],[130.451876304,33.785359532],[130.452041141,33.784639108],[130.451917613,33.78446861300001],[130.452008418,33.784638081],[130.451838911,33.785364865],[130.450323606,33.784840108],[130.450496005,33.78454705400001],[130.450791362,33.784301946],[130.451293502,33.784112946],[130.451578664,33.78417858600001],[130.451288003,33.784077027],[130.450644643,33.784349162],[130.45031345,33.784740252],[130.45022406,33.785008000000005],[130.45,33.785129387],[130.45,33.79166666666666],[130.4625,33.791666666666664],[130.4625,33.7877075120071],[130.461084643,33.788351667],[130.460717134,33.787531387],[130.459769857,33.787829468],[130.459002633,33.786886694],[130.459158885,33.786954108],[130.459011362,33.78676691900001],[130.458936809,33.78680841399999],[130.45836939,33.786137721],[130.458405914,33.78609774800001],[130.45745594,33.785060865],[130.455385966,33.78413864]]]]}},{"type":"Feature","id":"40224:50305347","properties":{"id":"40224:50305347","meshCode":"50305347","cityCode":"40224","city":"福津市","lat":33.7878756,"lon":130.4693932,"areaKm2":0.9332375,"populated2020":true,"population2020":2760.5693,"populationNote":"収録500mメッシュ人口の合算（原典収録外は補完しない）"},"geometry":{"type":"Polygon","coordinates":[[[130.46746433184592,33.78333333333333],[130.466595668,33.78471119799999],[130.465729053,33.785677964],[130.465609559,33.78575922500001],[130.465522802,33.785680586000005],[130.464895772,33.786267532],[130.464066446,33.78686119799999],[130.4625,33.7877075120071],[130.4625,33.791666666666664],[130.475,33.791666666666664],[130.475,33.78333333333334],[130.46746433184592,33.78333333333333]]]}},{"type":"Feature","id":"40224:50305348","properties":{"id":"40224:50305348","meshCode":"50305348","cityCode":"40224","city":"福津市","lat":33.7875,"lon":130.48125,"areaKm2":1.0699128,"populated2020":true,"population2020":1963.7899,"populationNote":"収録500mメッシュ人口の合算（原典収録外は補完しない）"},"geometry":{"type":"Polygon","coordinates":[[[130.4875,33.783333333333324],[130.475,33.78333333333334],[130.475,33.791666666666664],[130.4875,33.79166666666666],[130.4875,33.783333333333324]]]}},{"type":"Feature","id":"40224:50305349","properties":{"id":"40224:50305349","meshCode":"50305349","cityCode":"40224","city":"福津市","lat":33.7875,"lon":130.49375,"areaKm2":1.0699099,"populated2020":true,"population2020":16.3016,"populationNote":"収録500mメッシュ人口の合算（原典収録外は補完しない）"},"geometry":{"type":"Polygon","coordinates":[[[130.5,33.78333333333333],[130.4875,33.783333333333324],[130.4875,33.79166666666666],[130.5,33.79166666666666],[130.5,33.78333333333333]]]}},{"type":"Feature","id":"40224:50305440","properties":{"id":"40224:50305440","meshCode":"50305440","cityCode":"40224","city":"福津市","lat":33.7863319,"lon":130.5044177,"areaKm2":0.6091115,"populated2020":true,"population2020":null,"populationNote":"境界またぎ・収録外等のため人口未集計"},"geometry":{"type":"Polygon","coordinates":[[[130.507932503,33.78738444100001],[130.508176667,33.786813333000005],[130.508529442,33.786629162],[130.509060558,33.785926108],[130.50927917,33.78597222500001],[130.50969444900002,33.786231666999996],[130.509823891,33.78620638700001],[130.511343061,33.784935829000005],[130.511204721,33.78436638699999],[130.511378612,33.783818333],[130.511526109,33.783642495],[130.511807224,33.783496108],[130.5125,33.78343453086008],[130.5125,33.78333333333333],[130.5,33.78333333333333],[130.5,33.79166666666666],[130.5014687812415,33.79166666666666],[130.501974449,33.79110500000001],[130.502344721,33.790315279],[130.502866939,33.78982972100001],[130.503148054,33.789679162],[130.50419917,33.789505279],[130.505230272,33.78908666700001],[130.50579917,33.788702775000004],[130.506656394,33.787765279],[130.507584721,33.78762722500001],[130.507932503,33.78738444100001]]]}},{"type":"Feature","id":"40224:50305441","properties":{"id":"40224:50305441","meshCode":"50305441","cityCode":"40224","city":"福津市","lat":33.7833713,"lon":130.5126944,"areaKm2":0.0003383,"populated2020":false,"population2020":null,"populationNote":"境界またぎ・収録外等のため人口未集計"},"geometry":{"type":"Polygon","coordinates":[[[130.5125,33.78343453086008],[130.512971946,33.783357775],[130.5130062775318,33.783333333333324],[130.5125,33.78333333333333],[130.5125,33.78343453086008]]]}},{"type":"Feature","id":"40224:50305355","properties":{"id":"40224:50305355","meshCode":"50305355","cityCode":"40224","city":"福津市","lat":33.7943193,"lon":130.4480313,"areaKm2":0.2268013,"populated2020":false,"population2020":null,"populationNote":"境界またぎ・収録外等のため人口未集計"},"geometry":{"type":"MultiPolygon","coordinates":[[[[130.445345642,33.792625279],[130.445385473,33.792711225],[130.445534228,33.792653919],[130.445503865,33.792605441],[130.445345642,33.792625279]]],[[[130.445179585,33.792988162],[130.445218249,33.79293622499999],[130.445124812,33.792975306],[130.445179585,33.792988162]]],[[[130.445218327,33.793122135000004],[130.445169533,33.793089108],[130.445162361,33.793145693999996],[130.445218327,33.793122135000004]]],[[[130.445276304,33.793124748],[130.445294423,33.793150162],[130.445307977,33.79312300000001],[130.445276304,33.793124748]]],[[[130.44510542200004,33.79321810799999],[130.445064617,33.793165721],[130.445006589,33.793187919000005],[130.44510542200004,33.79321810799999]]],[[[130.445243917,33.79376297299999],[130.445332529,33.79371955900001],[130.445327613,33.793712225],[130.44520166,33.793715973],[130.445243917,33.79376297299999]]],[[[130.445414773,33.79434664],[130.445468418,33.794367081000004],[130.445504695,33.794332802],[130.445414773,33.79434664]]],[[[130.444779494,33.794506162],[130.444790726,33.794558252],[130.444845136,33.79449058600001],[130.444779494,33.794506162]]],[[[130.444769222,33.794711531999994],[130.444706524,33.79471972100001],[130.444692192,33.794780414],[130.444738755,33.794778279000006],[130.444769222,33.794711531999994]]],[[[130.445462049,33.794984225],[130.445399585,33.794940946],[130.445408521,33.794978027],[130.445462049,33.794984225]]],[[[130.445211362,33.795240865],[130.445587717,33.795258532],[130.445671946,33.79519569400001],[130.44544511,33.79516564],[130.445211362,33.795240865]]],[[[130.445300363,33.795407532000006],[130.445395966,33.795403802],[130.445409728,33.795361414000006],[130.445299663,33.79535],[130.445300363,33.795407532000006]]],[[[130.44571138853155,33.79166666666666],[130.445701362,33.791735892],[130.4459148903674,33.79166666666667],[130.44571138853155,33.79166666666666]]],[[[130.445525772,33.792187919],[130.445562892,33.79232755900001],[130.445721245,33.792182919],[130.445525772,33.792187919]]],[[[130.445544254,33.793041468],[130.445487834,33.79297864000001],[130.445442023,33.793016027],[130.445544254,33.793041468]]],[[[130.445994695,33.79168058599999],[130.446017523,33.791754721],[130.445842892,33.791808306],[130.446041855,33.791868054],[130.445776446,33.792350892],[130.445683528,33.792375802],[130.44568655,33.792273559],[130.445517834,33.79243041400001],[130.445718716,33.792577640000005],[130.445626161,33.792677054],[130.445707756,33.792772892],[130.445670311,33.793019945999994],[130.445777639,33.793271721],[130.445586109,33.793465694],[130.445735383,33.79344222499999],[130.445790726,33.793535973],[130.445592918,33.793598802000005],[130.445694669,33.793644162],[130.445741051,33.79438966699999],[130.445651946,33.794595306],[130.445696744,33.79466330599999],[130.445544034,33.794767559],[130.445676161,33.79478900000001],[130.445775642,33.795055495],[130.445662918,33.795070865],[130.445820973,33.79532927900001],[130.445767951,33.795444532],[130.445657717,33.795388225],[130.44559594,33.795408414],[130.445648755,33.795491775],[130.445887056,33.79551486500001],[130.445741414,33.795741586],[130.445817302,33.795815054],[130.445536615,33.79596589199999],[130.445489857,33.796099225000006],[130.445627977,33.796153108],[130.446364553,33.795975027],[130.446509416,33.79598549499999],[130.446430246,33.796052775],[130.446508859,33.796069441],[130.447184721,33.796014946],[130.448012555,33.79637580200001],[130.448940584,33.79733377499999],[130.449106498,33.797599333],[130.449133139,33.797806468],[130.449318444,33.797943532],[130.45,33.798940640000005],[130.45,33.79166666666666],[130.445994695,33.79168058599999]]],[[[130.445603645,33.794097108],[130.44560917,33.794127694000004],[130.445641479,33.794107468],[130.445603645,33.794097108]]],[[[130.445484916,33.794420892],[130.445552892,33.794348081],[130.445456161,33.79442527900001],[130.445484916,33.794420892]]],[[[130.445511388,33.795706667],[130.445482088,33.795680360000006],[130.445468664,33.795702414],[130.445511388,33.795706667]]],[[[130.44542192,33.795868801999994],[130.445406589,33.795933306],[130.445549442,33.795835135],[130.44542192,33.795868801999994]]],[[[130.445798171,33.796254135],[130.445684994,33.796236333],[130.44570455300004,33.79628519799999],[130.445798171,33.796254135]]],[[[130.446587951,33.796150747999995],[130.446268029,33.796308829000004],[130.446060415,33.79634864],[130.446024137,33.796446946],[130.446129442,33.796477252],[130.446153385,33.796567802000006],[130.446439754,33.796606775],[130.446483528,33.796331162],[130.446616835,33.796260973],[130.446587951,33.796150747999995]]],[[[130.445934916,33.79646510800001],[130.445930246,33.796404775000006],[130.445847224,33.796466161999994],[130.445934916,33.79646510800001]]]]}},{"type":"Feature","id":"40224:50305356","properties":{"id":"40224:50305356","meshCode":"50305356","cityCode":"40224","city":"福津市","lat":33.7958257,"lon":130.4562624,"areaKm2":1.0676605,"populated2020":true,"population2020":417.2652,"populationNote":"収録500mメッシュ人口の合算（原典収録外は補完しない）"},"geometry":{"type":"Polygon","coordinates":[[[130.4625,33.791666666666664],[130.45,33.79166666666666],[130.45,33.798940640000005],[130.450218495,33.79944525199999],[130.450192244,33.799666224999996],[130.450376939,33.8],[130.4625,33.8],[130.4625,33.791666666666664]]]}},{"type":"Feature","id":"40224:50305357","properties":{"id":"40224:50305357","meshCode":"50305357","cityCode":"40224","city":"福津市","lat":33.7958333,"lon":130.46875,"areaKm2":1.0698136,"populated2020":true,"population2020":2200.2318,"populationNote":"収録500mメッシュ人口の合算（原典収録外は補完しない）"},"geometry":{"type":"Polygon","coordinates":[[[130.475,33.791666666666664],[130.4625,33.791666666666664],[130.4625,33.8],[130.475,33.8],[130.475,33.791666666666664]]]}},{"type":"Feature","id":"40224:50305358","properties":{"id":"40224:50305358","meshCode":"50305358","cityCode":"40224","city":"福津市","lat":33.7958333,"lon":130.48125,"areaKm2":1.0698105,"populated2020":true,"population2020":312.3176,"populationNote":"収録500mメッシュ人口の合算（原典収録外は補完しない）"},"geometry":{"type":"Polygon","coordinates":[[[130.4875,33.79166666666666],[130.475,33.791666666666664],[130.475,33.8],[130.4875,33.79999999999999],[130.4875,33.79166666666666]]]}},{"type":"Feature","id":"40224:50305359","properties":{"id":"40224:50305359","meshCode":"50305359","cityCode":"40224","city":"福津市","lat":33.7959341,"lon":130.4924847,"areaKm2":0.834754,"populated2020":false,"population2020":null,"populationNote":"境界またぎ・収録外等のため人口未集計"},"geometry":{"type":"Polygon","coordinates":[[[130.496019442,33.795818054],[130.495769728,33.79558166699999],[130.494777782,33.795178892],[130.494956109,33.794346387],[130.495318885,33.79417416199999],[130.496778885,33.793927225],[130.497220272,33.793470000000006],[130.497658054,33.793207775],[130.498070558,33.792476107999995],[130.498503333,33.792101667],[130.498926109,33.791882495],[130.5,33.79172936],[130.5,33.79166666666666],[130.4875,33.79166666666666],[130.4875,33.79999999999999],[130.499029274,33.8],[130.499387782,33.798760279],[130.498989442,33.798497495],[130.498230558,33.798479721],[130.497942503,33.798327775000004],[130.497658054,33.797823333],[130.49689917,33.797245559],[130.496612218,33.796909162],[130.496019442,33.795818054]]]}},{"type":"Feature","id":"40224:50305450","properties":{"id":"40224:50305450","meshCode":"50305450","cityCode":"40224","city":"福津市","lat":33.7917246,"lon":130.5008091,"areaKm2":0.0016014,"populated2020":false,"population2020":null,"populationNote":"境界またぎ・収録外等のため人口未集計"},"geometry":{"type":"Polygon","coordinates":[[[130.500048327,33.791727495],[130.501274449,33.791838613],[130.5014687812415,33.79166666666666],[130.5,33.79166666666666],[130.500048327,33.791727495]]]}},{"type":"Feature","id":"40224:50305366","properties":{"id":"40224:50305366","meshCode":"50305366","cityCode":"40224","city":"福津市","lat":33.8042392,"lon":130.456473,"areaKm2":1.0300291,"populated2020":true,"population2020":4.096,"populationNote":"収録500mメッシュ人口の合算（原典収録外は補完しない）"},"geometry":{"type":"MultiPolygon","coordinates":[[[[130.450376939,33.8],[130.450559857,33.80052908100001],[130.45120297,33.801617252],[130.451267328,33.802784162],[130.451031971,33.803027829],[130.450739857,33.803071252],[130.45080131,33.803173748000006],[130.450675383,33.803258225],[130.450687613,33.803472694],[130.45066083,33.80352261299999],[130.450570778,33.80341816199999],[130.450575772,33.803598252],[130.450284669,33.80402764],[130.450380143,33.803976414],[130.450135772,33.804780748000006],[130.450207523,33.80491163999999],[130.450208586,33.80553664],[130.45,33.80604625200001],[130.45,33.80833333333334],[130.4625,33.80833333333333],[130.4625,33.8],[130.450376939,33.8]]],[[[130.450461556,33.803625054],[130.450394475,33.80340691899999],[130.450335888,33.803433532],[130.450135422,33.803859108],[130.450461556,33.803625054]]]]}},{"type":"Feature","id":"40224:50305367","properties":{"id":"40224:50305367","meshCode":"50305367","cityCode":"40224","city":"福津市","lat":33.8041667,"lon":130.46875,"areaKm2":1.0697112,"populated2020":true,"population2020":199.9879,"populationNote":"収録500mメッシュ人口の合算（原典収録外は補完しない）"},"geometry":{"type":"Polygon","coordinates":[[[130.475,33.8],[130.4625,33.8],[130.4625,33.80833333333333],[130.475,33.80833333333332],[130.475,33.8]]]}},{"type":"Feature","id":"40224:50305368","properties":{"id":"40224:50305368","meshCode":"50305368","cityCode":"40224","city":"福津市","lat":33.8041667,"lon":130.48125,"areaKm2":1.0697084,"populated2020":true,"population2020":164.7089,"populationNote":"収録500mメッシュ人口の合算（原典収録外は補完しない）"},"geometry":{"type":"Polygon","coordinates":[[[130.4875,33.79999999999999],[130.475,33.8],[130.475,33.80833333333332],[130.4875,33.80833333333333],[130.4875,33.79999999999999]]]}},{"type":"Feature","id":"40224:50305369","properties":{"id":"40224:50305369","meshCode":"50305369","cityCode":"40224","city":"福津市","lat":33.8042645,"lon":130.493366,"areaKm2":1.0011488,"populated2020":true,"population2020":15.2464,"populationNote":"収録500mメッシュ人口の合算（原典収録外は補完しない）"},"geometry":{"type":"Polygon","coordinates":[[[130.498441388,33.80399499999999],[130.49838083,33.803606387],[130.49853166,33.803199441],[130.498534449,33.80238305400001],[130.498572503,33.802126387],[130.498934721,33.801554721],[130.498918327,33.800879162],[130.499029274,33.8],[130.4875,33.79999999999999],[130.4875,33.80833333333333],[130.5,33.80833333333333],[130.5,33.805601135],[130.499429442,33.805288333],[130.499001388,33.804849721],[130.498441388,33.80399499999999]]]}},{"type":"Feature","id":"40224:50305365","properties":{"id":"40224:50305365","meshCode":"50305365","cityCode":"40224","city":"福津市","lat":33.8075792,"lon":130.4488935,"areaKm2":0.038241,"populated2020":false,"population2020":null,"populationNote":"境界またぎ・収録外等のため人口未集計"},"geometry":{"type":"Polygon","coordinates":[[[130.449999922,33.806046495],[130.449838716,33.806304559],[130.449645357,33.806444252],[130.448956809,33.806833559],[130.448790467,33.806835441],[130.448057198,33.807173333],[130.44796211400003,33.807277946],[130.448283606,33.80718400000001],[130.447610337,33.807611775],[130.447540804,33.80769253199999],[130.447618197,33.807651306],[130.447596161,33.80771549499999],[130.44770297,33.807704613],[130.447500272,33.807933892],[130.44738192,33.807946532],[130.447368859,33.807810694],[130.447205811,33.807905802],[130.447097004,33.808096801999994],[130.44721083,33.808112387],[130.44703639377462,33.80833333333333],[130.45,33.80833333333334],[130.449999922,33.806046495]]]}},{"type":"Feature","id":"40224:50305460","properties":{"id":"40224:50305460","meshCode":"50305460","cityCode":"40224","city":"福津市","lat":33.8072861,"lon":130.5017432,"areaKm2":0.0819678,"populated2020":false,"population2020":null,"populationNote":"境界またぎ・収録外等のため人口未集計"},"geometry":{"type":"Polygon","coordinates":[[[130.504767276,33.80833333300001],[130.50459,33.808149162],[130.50376917,33.807731946],[130.503296939,33.807047225],[130.502257497,33.80604722500001],[130.501716939,33.805980279],[130.500816394,33.806080829],[130.5,33.805601135],[130.5,33.80833333333333],[130.504767276,33.80833333300001]]]}},{"type":"Feature","id":"40224:50305375","properties":{"id":"40224:50305375","meshCode":"50305375","cityCode":"40224","city":"福津市","lat":33.8128221,"lon":130.4478097,"areaKm2":0.345952,"populated2020":false,"population2020":null,"populationNote":"境界またぎ・収録外等のため人口未集計"},"geometry":{"type":"MultiPolygon","coordinates":[[[[130.445411634,33.813112694],[130.445376278,33.81315202700001],[130.445430778,33.81311089199999],[130.445411634,33.813112694]]],[[[130.444103722,33.815078414],[130.444097328,33.81516466699999],[130.444129339,33.815060667],[130.444103722,33.815078414]]],[[[130.44379358,33.815098468],[130.443796589,33.815168532],[130.443831479,33.815133532],[130.44379358,33.815098468]]],[[[130.443716109,33.81536933300001],[130.443894112,33.81525166699999],[130.44378655,33.815197162],[130.443716109,33.81536933300001]]],[[[130.44442808,33.816118198],[130.443827004,33.816125667],[130.443673696,33.816261387000004],[130.443639728,33.816454279],[130.443949805,33.81637833300001],[130.44442808,33.816118198]]],[[[130.44465975378856,33.81666666666666],[130.444567276,33.816256865],[130.444468755,33.816223865],[130.444137134,33.816340748],[130.44386538376702,33.81666666666668],[130.44465975378856,33.81666666666666]]],[[[130.44639983100004,33.808910305999994],[130.446460052,33.808902802],[130.446562918,33.808795613],[130.446491699,33.808805027],[130.44639983100004,33.808910305999994]]],[[[130.446178029,33.809123721],[130.446326615,33.809010414],[130.446349339,33.80897319799999],[130.446225136,33.809035279],[130.446178029,33.809123721]]],[[[130.446128885,33.809489559000006],[130.446244086,33.809415946],[130.446235136,33.80935955900001],[130.446152918,33.809397532],[130.446128885,33.809489559000006]]],[[[130.44703639377462,33.80833333333333],[130.446694501,33.808673586],[130.446673528,33.808627252],[130.446590636,33.808685747999995],[130.446646031,33.808736387],[130.446586355,33.808896973],[130.446273671,33.809146946],[130.446451751,33.80921889199999],[130.446238171,33.809713387],[130.446346109,33.809690495],[130.446308664,33.810136387],[130.446414254,33.810933802],[130.446395305,33.81114010799999],[130.44626297,33.811259252],[130.446378911,33.811268414000004],[130.44621847,33.811578865],[130.446258197,33.811665586],[130.446390052,33.811620198],[130.446357665,33.811684892],[130.446458223,33.811787027],[130.446575694,33.811792440999994],[130.44656869,33.811872558999994],[130.446702866,33.811803999999995],[130.446629274,33.811942531999996],[130.44684917,33.811865802],[130.446803333,33.811953134999996],[130.447209416,33.81214446800001],[130.447282555,33.812311532],[130.447252412,33.81256266700001],[130.447152477,33.81270169399999],[130.44674061,33.812903639999995],[130.446795811,33.813007829],[130.446676667,33.813191414],[130.445958418,33.813330027],[130.445392503,33.813234613],[130.445130999,33.813482721],[130.444953191,33.813484081],[130.444995227,33.81355127900001],[130.44488345,33.81365013500001],[130.445081336,33.81359736],[130.444898885,33.81401897300001],[130.444986109,33.814109802000004],[130.444961946,33.81423664],[130.444508197,33.814585945999994],[130.44466277600003,33.814564919],[130.444500272,33.814725586],[130.444334527,33.814713559000005],[130.444028145,33.814854720999996],[130.444371946,33.814809225],[130.444397497,33.814934225],[130.44407061,33.81521908099999],[130.444161089,33.81522519799999],[130.443964137,33.81541364],[130.444184163,33.81540074800001],[130.444140506,33.815569973],[130.444565331,33.815486414],[130.444578612,33.815573108],[130.444809079,33.815679198000005],[130.444848054,33.815800279],[130.445007886,33.815687919],[130.445236329,33.815776333],[130.445330752,33.81587422500001],[130.445315032,33.81601613499999],[130.445526861,33.816167667],[130.445510078,33.816337278999995],[130.445694034,33.816255333],[130.445764163,33.81633464000001],[130.445808418,33.81627597300001],[130.446203645,33.816295225],[130.446375188,33.816424748],[130.446509883,33.81619408099999],[130.446746161,33.816087414],[130.446925616,33.816165829],[130.446791245,33.816345747999996],[130.447004306,33.816460305999996],[130.4471079758812,33.81666666666667],[130.44750083022493,33.81666666666667],[130.447652607,33.816564198],[130.4477975618978,33.81666666666667],[130.44855455306507,33.81666666666667],[130.448730778,33.816562973],[130.44877396909973,33.81666666666668],[130.44887922217916,33.81666666666667],[130.448990804,33.81655836],[130.448951505,33.816386802],[130.449191608,33.81654186499999],[130.449196589,33.816390694],[130.449400661,33.81625038699999],[130.449384306,33.81639197300001],[130.449592023,33.81657664],[130.449825032,33.816476973],[130.449807302,33.816309198],[130.45,33.81640422499999],[130.449915058,33.816250892],[130.45,33.81625861300002],[130.449983217,33.81616553199999],[130.449883645,33.816129108000005],[130.449860856,33.816025135000004],[130.45,33.815882919],[130.45,33.814805333],[130.449843385,33.814534865],[130.45,33.814274],[130.45,33.80833333333334],[130.44703639377462,33.80833333333333]]],[[[130.445634669,33.813050775],[130.445684475,33.81301564],[130.445608171,33.813022414],[130.445634669,33.813050775]]],[[[130.449904617,33.816480027000004],[130.449660999,33.81657064000001],[130.44962219176506,33.81666666666667],[130.44977199730033,33.81666666666666],[130.449904617,33.816480027000004]]]]}},{"type":"Feature","id":"40224:50305376","properties":{"id":"40224:50305376","meshCode":"50305376","cityCode":"40224","city":"福津市","lat":33.8097381,"lon":130.4553096,"areaKm2":0.3106221,"populated2020":true,"population2020":4.0948,"populationNote":"収録500mメッシュ人口の合算（原典収録外は補完しない）"},"geometry":{"type":"MultiPolygon","coordinates":[[[[130.45628683500001,33.81119619800001],[130.456455279,33.811135694000015],[130.456870584,33.81118666700001],[130.456842166,33.811070775],[130.457020921,33.810951919],[130.457464994,33.81113366699999],[130.457601115,33.811112613],[130.457802802,33.810922],[130.45773347600002,33.81105694600001],[130.457831971,33.811175135],[130.45791856,33.811166586],[130.458011115,33.81092958600001],[130.457969754,33.81113264],[130.458200947,33.81103825200001],[130.458474916,33.810756080999994],[130.458332049,33.810508946],[130.458359248,33.810414225],[130.458227328,33.81031382899999],[130.45829642,33.810064559000004],[130.458858223,33.809630802],[130.459121699,33.80955677499999],[130.459766887,33.80958458600001],[130.460446939,33.809718829000005],[130.4625,33.810308707131824],[130.4625,33.80833333333333],[130.45,33.80833333333334],[130.45,33.814274],[130.450275473,33.814465721],[130.450373256,33.813922225000006],[130.450372802,33.81320055900001],[130.450632387,33.812738613],[130.450217834,33.812416162],[130.450188495,33.81191922499999],[130.450496809,33.811510279000004],[130.450900947,33.811229306],[130.45180783400002,33.81085836],[130.452329559,33.810770973],[130.452500636,33.810873252],[130.452521556,33.810791027],[130.45264428,33.810756586],[130.453109196,33.810955279000005],[130.453600636,33.81095594600001],[130.453965577,33.810810135000004],[130.454991894,33.81122391900001],[130.455662672,33.811117532],[130.45628683500001,33.81119619800001]]],[[[130.450007393,33.815864694],[130.450140078,33.815858865],[130.450151388,33.81559564],[130.450371089,33.81522686500001],[130.450284384,33.815031081],[130.450381025,33.814564829000005],[130.450261115,33.81488735999999],[130.45,33.814805333],[130.450007393,33.815864694]]],[[[130.45,33.81625861300002],[130.45005489,33.816275667000006],[130.45,33.816217495],[130.45,33.81625861300002]]],[[[130.450010506,33.816392865],[130.45,33.816377414],[130.45,33.81640422499999],[130.450010506,33.816392865]]]]}},{"type":"Feature","id":"40224:50305377","properties":{"id":"40224:50305377","meshCode":"50305377","cityCode":"40224","city":"福津市","lat":33.811578,"lon":130.4702236,"areaKm2":0.7103892,"populated2020":true,"population2020":210.7863,"populationNote":"収録500mメッシュ人口の合算（原典収録外は補完しない）"},"geometry":{"type":"Polygon","coordinates":[[[130.4625,33.810308707131824],[130.464030026,33.810893775],[130.465569922,33.811618495],[130.467562049,33.812847946],[130.469450195,33.814348721],[130.470842776,33.815712748],[130.47165922169845,33.81666666666667],[130.475,33.81666666666667],[130.475,33.80833333333332],[130.4625,33.80833333333333],[130.4625,33.810308707131824]]]}},{"type":"Feature","id":"40224:50305378","properties":{"id":"40224:50305378","meshCode":"50305378","cityCode":"40224","city":"福津市","lat":33.8125,"lon":130.48125,"areaKm2":1.069606,"populated2020":true,"population2020":67.0559,"populationNote":"収録500mメッシュ人口の合算（原典収録外は補完しない）"},"geometry":{"type":"Polygon","coordinates":[[[130.4875,33.80833333333333],[130.475,33.80833333333332],[130.475,33.81666666666667],[130.4875,33.81666666666666],[130.4875,33.80833333333333]]]}},{"type":"Feature","id":"40224:50305379","properties":{"id":"40224:50305379","meshCode":"50305379","cityCode":"40224","city":"福津市","lat":33.8125,"lon":130.49375,"areaKm2":1.0696032,"populated2020":true,"population2020":113.6904,"populationNote":"収録500mメッシュ人口の合算（原典収録外は補完しない）"},"geometry":{"type":"Polygon","coordinates":[[[130.5,33.80833333333333],[130.4875,33.80833333333333],[130.4875,33.81666666666666],[130.5,33.81666666666668],[130.5,33.80833333333333]]]}},{"type":"Feature","id":"40224:50305470","properties":{"id":"40224:50305470","meshCode":"50305470","cityCode":"40224","city":"福津市","lat":33.8114265,"lon":130.5022822,"areaKm2":0.3117036,"populated2020":false,"population2020":null,"populationNote":"境界またぎ・収録外等のため人口未集計"},"geometry":{"type":"Polygon","coordinates":[[[130.505146939,33.812212775],[130.504997497,33.811727774999994],[130.50521722400003,33.810924441],[130.505159728,33.80948166699999],[130.504849728,33.80877610800002],[130.5047672760373,33.80833333333333],[130.5,33.80833333333333],[130.5,33.81666666666668],[130.5002626721096,33.81666666666666],[130.500313891,33.816058892],[130.500745279,33.815293333],[130.501031115,33.815075279000006],[130.503586667,33.813772775000004],[130.505146939,33.812212775]]]}},{"type":"Feature","id":"40224:50305385","properties":{"id":"40224:50305385","meshCode":"50305385","cityCode":"40224","city":"福津市","lat":33.8182227,"lon":130.4424106,"areaKm2":0.0076239,"populated2020":false,"population2020":null,"populationNote":"境界またぎ・収録外等のため人口未集計"},"geometry":{"type":"MultiPolygon","coordinates":[[[[130.44710949515093,33.81666666666666],[130.4471079758812,33.81666666666667],[130.447108716,33.81666689199999],[130.44710949515093,33.81666666666666]]],[[[130.44877396909973,33.81666666666668],[130.448832698,33.816704081000005],[130.44887922217916,33.81666666666667],[130.44877396909973,33.81666666666668]]],[[[130.44962219176506,33.81666666666667],[130.449713917,33.816706225000004],[130.44977199730033,33.81666666666666],[130.44962219176506,33.81666666666667]]],[[[130.44720277630202,33.81666666666666],[130.447408859,33.81670736000001],[130.44750083022493,33.81666666666667],[130.44720277630202,33.81666666666666]]],[[[130.44384697800004,33.816676828999995],[130.444036031,33.81682430600001],[130.444227367,33.816738865],[130.444195525,33.816881558999995],[130.444417782,33.81669222500001],[130.444344086,33.816777441],[130.444386524,33.816847333],[130.444702309,33.816706919],[130.44465975378856,33.81666666666666],[130.44384697800004,33.816676828999995]]],[[[130.447802866,33.81668441400001],[130.447855772,33.81675200000001],[130.447759468,33.816763108],[130.447855331,33.816769495],[130.447884838,33.816905865],[130.448114254,33.816957919],[130.448138444,33.816841919000005],[130.448229105,33.81683410800001],[130.448167004,33.816951135],[130.44826345,33.817040919],[130.44823144,33.817108225000005],[130.448329728,33.81713146800001],[130.448299754,33.817355919],[130.44856275,33.817361333],[130.44858406,33.817474413999996],[130.448671725,33.81744722500001],[130.448713217,33.817310081],[130.44861808,33.817355829],[130.44859275,33.81726536],[130.44851425400003,33.817277],[130.448510078,33.81713533300001],[130.448274838,33.81686264],[130.448496031,33.81691680200001],[130.44855455306507,33.81666666666667],[130.447802866,33.81668441400001]]],[[[130.448782581,33.817360333],[130.448720856,33.817400559],[130.448807912,33.817402387],[130.448782581,33.817360333]]],[[[130.448579663,33.817637495],[130.448693502,33.817625919],[130.448908521,33.817497225000004],[130.448729196,33.817467387],[130.448579663,33.817637495]]],[[[130.4423707,33.818637721],[130.442444617,33.818450774999995],[130.44265594,33.818458495],[130.44266863800001,33.818402198],[130.442560999,33.818440667],[130.442473113,33.818383559],[130.442776278,33.818109027],[130.442505279,33.81794180200001],[130.442549222,33.817775027],[130.44238358,33.81781674799999],[130.442109364,33.81812619800001],[130.442100636,33.818337694],[130.44216321700003,33.818364386999995],[130.442084968,33.818452306],[130.44214192,33.81848664],[130.44228489,33.818327252],[130.442249831,33.818632386999994],[130.4423707,33.818637721]]]]}},{"type":"Feature","id":"40224:50305387","properties":{"id":"40224:50305387","meshCode":"50305387","cityCode":"40224","city":"福津市","lat":33.8181241,"lon":130.473926,"areaKm2":0.0722234,"populated2020":true,"population2020":34.6429,"populationNote":"収録500mメッシュ人口の合算（原典収録外は補完しない）"},"geometry":{"type":"Polygon","coordinates":[[[130.47165922169845,33.81666666666667],[130.472207328,33.81725091900001],[130.47212358,33.817397],[130.472235746,33.817272027],[130.472323774,33.817340134999995],[130.47209386500003,33.817472252],[130.472410921,33.817540945999994],[130.473485162,33.818846586],[130.475,33.821214802],[130.475,33.81666666666667],[130.47165922169845,33.81666666666667]]]}},{"type":"Feature","id":"40224:50305388","properties":{"id":"40224:50305388","meshCode":"50305388","cityCode":"40224","city":"福津市","lat":33.8207227,"lon":130.4814653,"areaKm2":1.0298136,"populated2020":true,"population2020":34.7396,"populationNote":"収録500mメッシュ人口の合算（原典収録外は補完しない）"},"geometry":{"type":"Polygon","coordinates":[[[130.4875,33.81666666666666],[130.475,33.81666666666667],[130.475,33.821214802],[130.476164747,33.823321802],[130.476922335,33.825],[130.4875,33.825],[130.4875,33.81666666666666]]]}},{"type":"Feature","id":"40224:50305389","properties":{"id":"40224:50305389","meshCode":"50305389","cityCode":"40224","city":"福津市","lat":33.8207592,"lon":130.4931453,"areaKm2":0.9633031,"populated2020":true,"population2020":303.4216,"populationNote":"収録500mメッシュ人口の合算（原典収録外は補完しない）"},"geometry":{"type":"Polygon","coordinates":[[[130.49847861200004,33.820888054],[130.498671115,33.819755559],[130.49898083,33.81914361300001],[130.499002776,33.818340559],[130.499155551,33.818047495],[130.499963891,33.817230559],[130.5,33.81666666666668],[130.4875,33.81666666666666],[130.4875,33.825],[130.499093839,33.82500000000001],[130.499067782,33.82428277500001],[130.498952503,33.823998054],[130.49826166,33.823220000000006],[130.497864994,33.82298110800001],[130.497840558,33.822760828999996],[130.498084163,33.82184805399999],[130.498041946,33.821480279],[130.498119442,33.821239441],[130.49847861200004,33.820888054]]]}},{"type":"Feature","id":"40224:50305480","properties":{"id":"40224:50305480","meshCode":"50305480","cityCode":"40224","city":"福津市","lat":33.8168364,"lon":130.5000931,"areaKm2":0.0007297,"populated2020":false,"population2020":null,"populationNote":"境界またぎ・収録外等のため人口未集計"},"geometry":{"type":"Polygon","coordinates":[[[130.5,33.817167946000005],[130.5002626721096,33.81666666666666],[130.5,33.81666666666668],[130.5,33.817167946000005]]]}},{"type":"Feature","id":"40224:50305398","properties":{"id":"40224:50305398","meshCode":"50305398","cityCode":"40224","city":"福津市","lat":33.8289371,"lon":130.482966,"areaKm2":0.7687651,"populated2020":true,"population2020":123.2556,"populationNote":"収録500mメッシュ人口の合算（原典収録外は補完しない）"},"geometry":{"type":"Polygon","coordinates":[[[130.476922335,33.825],[130.47818572,33.82798677499999],[130.479644747,33.83229544100001],[130.47986386512576,33.833333333333336],[130.4875,33.833333333333336],[130.4875,33.825],[130.476922335,33.825]]]}},{"type":"Feature","id":"40224:50305399","properties":{"id":"40224:50305399","meshCode":"50305399","cityCode":"40224","city":"福津市","lat":33.8290687,"lon":130.4934549,"areaKm2":1.0125658,"populated2020":true,"population2020":110.7841,"populationNote":"収録500mメッシュ人口の合算（原典収録外は補完しない）"},"geometry":{"type":"Polygon","coordinates":[[[130.499860558,33.828854721000006],[130.5,33.82857910799999],[130.5,33.827517721],[130.499401946,33.82685],[130.499324449,33.826567495],[130.499539442,33.826165],[130.499585837,33.825886387],[130.499477782,33.82561749500001],[130.499280558,33.82547],[130.499093839,33.82500000000001],[130.4875,33.825],[130.4875,33.833333333333336],[130.4970284949292,33.83333333333334],[130.497353891,33.832539162],[130.498012503,33.832007225],[130.499217782,33.831649721000005],[130.499705551,33.831658053999995],[130.5,33.831373586],[130.5,33.830384559],[130.499860558,33.828854721000006]]]}},{"type":"Feature","id":"40224:50305490","properties":{"id":"40224:50305490","meshCode":"50305490","cityCode":"40224","city":"福津市","lat":33.8279639,"lon":130.5001539,"areaKm2":0.0035203,"populated2020":false,"population2020":null,"populationNote":"境界またぎ・収録外等のため人口未集計"},"geometry":{"type":"MultiPolygon","coordinates":[[[[130.50029,33.82808027899999],[130.50032555100003,33.82784749500001],[130.5,33.827517721],[130.5,33.82857910799999],[130.50029,33.82808027899999]]],[[[130.500201946,33.830943333],[130.50006444900004,33.830525559],[130.5,33.830384559],[130.5,33.831373586],[130.500148612,33.83123],[130.500201946,33.830943333]]]]}},{"type":"Feature","id":"40224:50306308","properties":{"id":"40224:50306308","meshCode":"50306308","cityCode":"40224","city":"福津市","lat":33.8371417,"lon":130.4840397,"areaKm2":0.544392,"populated2020":true,"population2020":null,"populationNote":"境界またぎ・収録外等のため人口未集計"},"geometry":{"type":"MultiPolygon","coordinates":[[[[130.47986386512576,33.833333333333336],[130.480437977,33.835529252],[130.4812407,33.839313972999996],[130.481480389,33.840540198],[130.48154866399338,33.841666666666676],[130.48534221816624,33.84166666666667],[130.485434721,33.841277775],[130.485203891,33.84115027899999],[130.484922503,33.840845829],[130.485062503,33.840433333],[130.485560272,33.840203333],[130.486387497,33.840349162],[130.487370272,33.840355],[130.4875,33.84063805232745],[130.4875,33.833333333333336],[130.47986386512576,33.833333333333336]]],[[[130.48699083,33.841068333],[130.486723606,33.841377775],[130.48661111533332,33.84166666666667],[130.4875,33.841666666666676],[130.4875,33.84093663865032],[130.48699083,33.841068333]]]]}},{"type":"Feature","id":"40224:50306309","properties":{"id":"40224:50306309","meshCode":"50306309","cityCode":"40224","city":"福津市","lat":33.8368247,"lon":130.4911321,"areaKm2":0.5725642,"populated2020":true,"population2020":2.0447,"populationNote":"収録500mメッシュ人口の合算（原典収録外は補完しない）"},"geometry":{"type":"Polygon","coordinates":[[[130.493744994,33.83697277499999],[130.495151946,33.836481108],[130.495351946,33.83629972100001],[130.495780558,33.835406387],[130.496175551,33.834883333],[130.496988054,33.83444527900001],[130.497086394,33.83430166699999],[130.497144449,33.834053892],[130.4970284949292,33.83333333333334],[130.4875,33.833333333333336],[130.4875,33.84063805232745],[130.487559442,33.840806387],[130.4875,33.841666666666676],[130.49031608326985,33.84166666666667],[130.491548327,33.840601667],[130.492724721,33.839883333],[130.493614721,33.839497224999995],[130.494135837,33.838935279],[130.494203606,33.838616387],[130.493766394,33.838487775],[130.493587497,33.838208613000006],[130.493313333,33.837982225],[130.493361115,33.83732389199999],[130.493744994,33.83697277499999]]]}},{"type":"Feature","id":"40224:50306318","properties":{"id":"40224:50306318","meshCode":"50306318","cityCode":"40224","city":"福津市","lat":33.8429903,"lon":130.4861881,"areaKm2":0.1431533,"populated2020":true,"population2020":null,"populationNote":"境界またぎ・収録外等のため人口未集計"},"geometry":{"type":"MultiPolygon","coordinates":[[[[130.48653917,33.841712495],[130.485341115,33.841955279000004],[130.485196667,33.842104441],[130.484801115,33.843134721],[130.484796939,33.843482225],[130.48489499400003,33.843681946],[130.485632503,33.843979162000004],[130.485973061,33.84450861300001],[130.486085837,33.844568892],[130.486198327,33.84454722499999],[130.486339728,33.84434249499999],[130.486341115,33.843934721],[130.48654472100003,33.84364944099999],[130.486914163,33.843548612999996],[130.487171115,33.843606387],[130.4875,33.843813255098105],[130.4875,33.841666666666676],[130.48653917,33.841712495]]],[[[130.48154866399338,33.841666666666676],[130.481642361,33.84232899999999],[130.481993917,33.843230306],[130.482174669,33.844151162],[130.482140661,33.844985586],[130.482352918,33.84737930599999],[130.482254306,33.848285225],[130.481884501,33.849366694],[130.480965032,33.84927077500001],[130.481555383,33.84935602699999],[130.481473411,33.849687748],[130.481174527,33.85],[130.481633774,33.85],[130.48209083,33.84949027900001],[130.482411115,33.848731946],[130.482681115,33.847258054],[130.482523891,33.845947775],[130.482526939,33.844927495],[130.482972776,33.84452444099999],[130.483226939,33.84410082899999],[130.483932503,33.843695279],[130.484148885,33.843266667],[130.484488054,33.843095000000005],[130.48460778200004,33.842472775],[130.48534221816624,33.84166666666667],[130.48154866399338,33.841666666666676]]],[[[130.479708716,33.85],[130.479524553,33.849112586],[130.479566278,33.84968105400001],[130.479643696,33.85],[130.479708716,33.85]]]]}},{"type":"Feature","id":"40224:50306319","properties":{"id":"40224:50306319","meshCode":"50306319","cityCode":"40224","city":"福津市","lat":33.8436678,"lon":130.4889721,"areaKm2":0.1007787,"populated2020":true,"population2020":null,"populationNote":"境界またぎ・収録外等のため人口未集計"},"geometry":{"type":"Polygon","coordinates":[[[130.4875,33.843813255098105],[130.487678275,33.84433146800001],[130.487906524,33.844553495],[130.488148223,33.844572162000006],[130.488227224,33.84471082899999],[130.48821,33.845026108],[130.488049728,33.845441386999994],[130.488096109,33.845576108],[130.488246109,33.84558582900001],[130.488530272,33.845430559],[130.48885083,33.84508389199999],[130.488875279,33.844781946],[130.488751115,33.844490559],[130.489236109,33.844589441000004],[130.489520558,33.844754162],[130.489569442,33.844939441],[130.489503061,33.84516082900001],[130.489618612,33.84528361299999],[130.49023917,33.845223613],[130.490607224,33.845056108],[130.491181388,33.844986387],[130.49131,33.84464861299999],[130.491296939,33.844127495],[130.490614449,33.84386389200001],[130.490435551,33.843628054],[130.490552503,33.843248892],[130.49089166,33.842679721],[130.491040272,33.841961387000005],[130.490991115,33.841783613],[130.490791946,33.841783613],[130.490142503,33.842230829],[130.489876939,33.842303054000006],[130.489796109,33.842192495],[130.49031608326985,33.84166666666667],[130.4875,33.841666666666676],[130.4875,33.843813255098105]],[[130.490336939,33.842977225],[130.48923,33.843516667],[130.488852218,33.843469441],[130.488717782,33.843288613000006],[130.488795837,33.84297],[130.488947782,33.842803613],[130.489785551,33.842531945999994],[130.49018083,33.842528333000004],[130.490315279,33.842593613],[130.490419442,33.842807225],[130.490336939,33.842977225]]]}},{"type":"Feature","id":"40224:50306328","properties":{"id":"40224:50306328","meshCode":"50306328","cityCode":"40224","city":"福津市","lat":33.8503468,"lon":130.4807095,"areaKm2":0.0048962,"populated2020":true,"population2020":null,"populationNote":"境界またぎ・収録外等のため人口未集計"},"geometry":{"type":"Polygon","coordinates":[[[130.481633774,33.85],[130.481174527,33.85],[130.480702088,33.85027749500001],[130.480003502,33.850517919],[130.479887004,33.85046755900001],[130.479708716,33.85],[130.479643696,33.85],[130.479837951,33.850501081],[130.479744254,33.85070004500001],[130.48120749700004,33.850436108],[130.481633774,33.85]]]}}]}