{"type":"FeatureCollection","metadata":{"cityCode":"40223","city":"古賀市","resolution":1000,"boundaryDate":"2026-01-01","populationLabel":"2020年基準人口（国交省調整値）","method":"標準地域メッシュを行政界で切抜き。中心が区域外のとき区域内代表点を判定点にする。人口不明をゼロにしない。"},"features":[{"type":"Feature","id":"40223:50304420","properties":{"id":"40223:50304420","meshCode":"50304420","cityCode":"40223","city":"古賀市","lat":33.6897542,"lon":130.5087967,"areaKm2":0.2941393,"populated2020":false,"population2020":null,"populationNote":"境界またぎ・収録外等のため人口未集計"},"geometry":{"type":"Polygon","coordinates":[[[130.510428612,33.687394162],[130.509794994,33.687381667],[130.50939083,33.68746361299999],[130.508936109,33.687309441000004],[130.508666667,33.686961667],[130.508432218,33.686945279],[130.507983061,33.68726861300001],[130.507346394,33.68733110800001],[130.507231115,33.687419441],[130.50694166,33.688092775],[130.507102503,33.688509162],[130.507056939,33.688702775],[130.506014449,33.688574721],[130.505444449,33.68884722500001],[130.505026394,33.689243053999995],[130.505106939,33.689715279],[130.505397224,33.690207495],[130.505320272,33.690433891999994],[130.504554449,33.69085361300001],[130.50433406000002,33.69107016200001],[130.504127782,33.691480000000006],[130.50413977997857,33.69166666666667],[130.5125,33.69166666666667],[130.5125,33.68837342590059],[130.512385837,33.68841610799999],[130.512133891,33.688862225],[130.51195917,33.688993333],[130.511833061,33.688832495],[130.511603333,33.68808027899999],[130.511151946,33.687666946],[130.510428612,33.687394162]]]}},{"type":"Feature","id":"40223:50304421","properties":{"id":"40223:50304421","meshCode":"50304421","cityCode":"40223","city":"古賀市","lat":33.6904952,"lon":130.5138308,"areaKm2":0.0693298,"populated2020":false,"population2020":null,"populationNote":"境界またぎ・収録外等のため人口未集計"},"geometry":{"type":"Polygon","coordinates":[[[130.517159442,33.691460279],[130.516644163,33.691261946],[130.515339442,33.69132749500001],[130.514808054,33.69055],[130.51424832700002,33.690028333],[130.514166394,33.689465829],[130.513585551,33.689140829],[130.513277782,33.688648892],[130.513018885,33.688429441000004],[130.512704163,33.688340829],[130.5125,33.68837342590059],[130.5125,33.69166666666667],[130.5174583915172,33.69166666666667],[130.517159442,33.691460279]]]}},{"type":"Feature","id":"40223:50304337","properties":{"id":"40223:50304337","meshCode":"50304337","cityCode":"40223","city":"古賀市","lat":33.6972763,"lon":130.4713724,"areaKm2":0.4321256,"populated2020":true,"population2020":null,"populationNote":"境界またぎ・収録外等のため人口未集計"},"geometry":{"type":"Polygon","coordinates":[[[130.475,33.6942],[130.473939442,33.693828892],[130.473296939,33.69380194600001],[130.471840272,33.694283053999996],[130.470762503,33.694410559000005],[130.46979,33.694893613000005],[130.469181115,33.695073332999996],[130.468560272,33.695437225],[130.467278885,33.695650559],[130.467423891,33.696028333],[130.467513891,33.696976946],[130.467751115,33.697790559],[130.467325551,33.698032775],[130.467300558,33.698549162000006],[130.467060272,33.69913],[130.46683166,33.699462775],[130.466241051,33.7],[130.475,33.7],[130.475,33.6942]]]}},{"type":"Feature","id":"40223:50304338","properties":{"id":"40223:50304338","meshCode":"50304338","cityCode":"40223","city":"古賀市","lat":33.6971422,"lon":130.4814624,"areaKm2":0.7296979,"populated2020":true,"population2020":null,"populationNote":"境界またぎ・収録外等のため人口未集計"},"geometry":{"type":"Polygon","coordinates":[[[130.487026667,33.693802225],[130.486211115,33.693534162],[130.485328327,33.693461946],[130.485116109,33.693522494999996],[130.484711115,33.693940829],[130.484337224,33.694171667000006],[130.483316109,33.69423805400001],[130.482163061,33.694200829],[130.481994449,33.694343892],[130.481802503,33.694709721],[130.48159083,33.694784162],[130.481365551,33.694733333],[130.480868327,33.69440861300001],[130.480209442,33.694545559000005],[130.479842218,33.694533892],[130.479101388,33.69498777500001],[130.478405837,33.695110559],[130.478105551,33.695116387],[130.477758612,33.695018613],[130.477172776,33.694752495],[130.476937497,33.694482494999995],[130.475,33.6942],[130.475,33.7],[130.4875,33.7],[130.4875,33.693789730976555],[130.487026667,33.693802225]]]}},{"type":"Feature","id":"40223:50304339","properties":{"id":"40223:50304339","meshCode":"50304339","cityCode":"40223","city":"古賀市","lat":33.696873,"lon":130.4926512,"areaKm2":0.7101813,"populated2020":true,"population2020":null,"populationNote":"境界またぎ・収録外等のため人口未集計"},"geometry":{"type":"Polygon","coordinates":[[[130.493148327,33.692856666999994],[130.491506667,33.69235],[130.491024994,33.692305829000006],[130.49065,33.692393892],[130.490433061,33.692526946],[130.489378885,33.693358333],[130.488944994,33.693469721],[130.488337782,33.69347389200001],[130.4875,33.693789730976555],[130.4875,33.7],[130.5,33.7],[130.5,33.69757564],[130.499578327,33.69853666700001],[130.498847497,33.698480829],[130.497853891,33.697342494999994],[130.49784,33.697060279000006],[130.498098885,33.69661944100001],[130.498014994,33.696524162],[130.497371946,33.69621582900001],[130.49719027200004,33.695903054000006],[130.49696,33.695701667],[130.496351388,33.695511946],[130.495895837,33.695220559],[130.49412917,33.69330000000001],[130.493148327,33.692856666999994]]]}},{"type":"Feature","id":"40223:50304430","properties":{"id":"40223:50304430","meshCode":"50304430","cityCode":"40223","city":"古賀市","lat":33.6962262,"lon":130.5072693,"areaKm2":0.8695122,"populated2020":false,"population2020":null,"populationNote":"境界またぎ・収録外等のため人口未集計"},"geometry":{"type":"Polygon","coordinates":[[[130.504173606,33.692058054],[130.504544449,33.692546667],[130.504617782,33.693727775],[130.503813333,33.69376361300001],[130.503543891,33.69383889200001],[130.503115279,33.694167775],[130.502985837,33.69437138700001],[130.502968327,33.694558332999996],[130.503143333,33.69516194599999],[130.502748327,33.69701277499999],[130.50259083,33.697111108],[130.501985837,33.697248892],[130.501230272,33.697009441],[130.500282218,33.69727833300001],[130.50006917000002,33.697432495],[130.5,33.69757564],[130.5,33.7],[130.5125,33.70000000000001],[130.5125,33.69166666666667],[130.50413977997857,33.69166666666667],[130.504173606,33.692058054]]]}},{"type":"Feature","id":"40223:50304431","properties":{"id":"40223:50304431","meshCode":"50304431","cityCode":"40223","city":"古賀市","lat":33.6961169,"lon":130.5162343,"areaKm2":0.6298034,"populated2020":false,"population2020":null,"populationNote":"境界またぎ・収録外等のため人口未集計"},"geometry":{"type":"Polygon","coordinates":[[[130.519184449,33.693276108000006],[130.51939083,33.692977495],[130.519376667,33.69283305399999],[130.518928885,33.692439441000005],[130.518597224,33.691929441],[130.517890558,33.691896666999995],[130.5174583915172,33.69166666666667],[130.5125,33.69166666666667],[130.5125,33.70000000000001],[130.521144721,33.7],[130.521193891,33.69917972100001],[130.520637497,33.698520279],[130.520673606,33.69781110800001],[130.52033083,33.69697805399999],[130.520390272,33.696577775],[130.52057944200004,33.696310559],[130.52057944200004,33.696172775],[130.520296109,33.695985828999994],[130.519785279,33.69587749499998],[130.519393606,33.69554638700001],[130.518739442,33.695195279],[130.519366109,33.694446945999985],[130.519324163,33.694227225000006],[130.518711946,33.693764720999994],[130.518659728,33.693541667],[130.519184449,33.693276108000006]]]}},{"type":"Feature","id":"40223:50304347","properties":{"id":"40223:50304347","meshCode":"50304347","cityCode":"40223","city":"古賀市","lat":33.7039242,"lon":130.4713332,"areaKm2":0.6195031,"populated2020":true,"population2020":null,"populationNote":"境界またぎ・収録外等のため人口未集計"},"geometry":{"type":"Polygon","coordinates":[[[130.466241051,33.7],[130.465717224,33.700970559],[130.46664166000002,33.701344162],[130.46804138800002,33.702472775],[130.468154721,33.702656667],[130.468174994,33.703593892],[130.467994721,33.704237495],[130.468099442,33.70535249500001],[130.468069728,33.70591027900001],[130.468143061,33.70617582900001],[130.468676667,33.706848892],[130.468736939,33.707056387],[130.46850166,33.708036387],[130.46810430561646,33.708333333333336],[130.475,33.70833333333334],[130.475,33.7],[130.466241051,33.7]]]}},{"type":"Feature","id":"40223:50304348","properties":{"id":"40223:50304348","meshCode":"50304348","cityCode":"40223","city":"古賀市","lat":33.7041667,"lon":130.48125,"areaKm2":1.0709337,"populated2020":true,"population2020":268.0753,"populationNote":"収録500mメッシュ人口の合算（原典収録外は補完しない）"},"geometry":{"type":"Polygon","coordinates":[[[130.4875,33.7],[130.475,33.7],[130.475,33.70833333333334],[130.4875,33.708333333333336],[130.4875,33.7]]]}},{"type":"Feature","id":"40223:50304349","properties":{"id":"40223:50304349","meshCode":"50304349","cityCode":"40223","city":"古賀市","lat":33.7041667,"lon":130.49375,"areaKm2":1.0709307,"populated2020":false,"population2020":null,"populationNote":"境界またぎ・収録外等のため人口未集計"},"geometry":{"type":"Polygon","coordinates":[[[130.5,33.7],[130.4875,33.7],[130.4875,33.708333333333336],[130.5,33.708333333333336],[130.5,33.7]]]}},{"type":"Feature","id":"40223:50304440","properties":{"id":"40223:50304440","meshCode":"50304440","cityCode":"40223","city":"古賀市","lat":33.7041667,"lon":130.50625,"areaKm2":1.0709279,"populated2020":true,"population2020":9.9641,"populationNote":"収録500mメッシュ人口の合算（原典収録外は補完しない）"},"geometry":{"type":"Polygon","coordinates":[[[130.5125,33.70000000000001],[130.5,33.7],[130.5,33.708333333333336],[130.5125,33.70833333333334],[130.5125,33.70000000000001]]]}},{"type":"Feature","id":"40223:50304441","properties":{"id":"40223:50304441","meshCode":"50304441","cityCode":"40223","city":"古賀市","lat":33.7044213,"lon":130.5184272,"areaKm2":0.9940372,"populated2020":false,"population2020":null,"populationNote":"境界またぎ・収録外等のため人口未集計"},"geometry":{"type":"Polygon","coordinates":[[[130.525,33.702084973000005],[130.524510272,33.70202333300001],[130.523992503,33.701800279],[130.52309888500002,33.701728892],[130.522637497,33.70155833300001],[130.521573891,33.701692775],[130.520851388,33.701244162],[130.52027083,33.701172225],[130.520092503,33.700952224999995],[130.520214721,33.700752225],[130.520791946,33.700417495],[130.521144721,33.7],[130.5125,33.70000000000001],[130.5125,33.70833333333334],[130.525,33.708333333333336],[130.525,33.702084973000005]]]}},{"type":"Feature","id":"40223:50304442","properties":{"id":"40223:50304442","meshCode":"50304442","cityCode":"40223","city":"古賀市","lat":33.7062991,"lon":130.5268112,"areaKm2":0.1616154,"populated2020":false,"population2020":null,"populationNote":"境界またぎ・収録外等のため人口未集計"},"geometry":{"type":"Polygon","coordinates":[[[130.526493333,33.703971667000005],[130.526157782,33.703361666999996],[130.526283891,33.702751667],[130.52551083,33.702377775],[130.525206394,33.70213805400001],[130.525,33.702084973000005],[130.525,33.708333333333336],[130.531115032292,33.708333333333336],[130.53104,33.708154721],[130.53042083,33.707721667],[130.529665279,33.706996667],[130.529420272,33.70688499999999],[130.52909166,33.706858892],[130.528184449,33.707125829],[130.527851946,33.707056946],[130.527600272,33.706653333000006],[130.527781946,33.705573054000006],[130.527631388,33.705504162],[130.527148885,33.70548472099999],[130.52691083,33.70534027899999],[130.526480558,33.70487777499999],[130.526382776,33.704753054],[130.526493333,33.703971667000005]]]}},{"type":"Feature","id":"40223:50304357","properties":{"id":"40223:50304357","meshCode":"50304357","cityCode":"40223","city":"古賀市","lat":33.7129504,"lon":130.4696624,"areaKm2":0.8819191,"populated2020":true,"population2020":null,"populationNote":"境界またぎ・収録外等のため人口未集計"},"geometry":{"type":"Polygon","coordinates":[[[130.467742218,33.70875055900001],[130.467552218,33.709458892],[130.467285279,33.709820279],[130.466901388,33.710055278999995],[130.466462218,33.710579441],[130.46585000000002,33.710853332999996],[130.46510749700002,33.711586946],[130.464923891,33.711952775],[130.46503917,33.712361387],[130.464932218,33.712584441],[130.464608612,33.71284610800001],[130.463486394,33.713356667],[130.463047497,33.71380082900001],[130.4625,33.71397416512155],[130.4625,33.71666666666667],[130.475,33.71666666666667],[130.475,33.70833333333334],[130.46810430561646,33.708333333333336],[130.467742218,33.70875055900001]]]}},{"type":"Feature","id":"40223:50304358","properties":{"id":"40223:50304358","meshCode":"50304358","cityCode":"40223","city":"古賀市","lat":33.7125,"lon":130.48125,"areaKm2":1.0708317,"populated2020":true,"population2020":583.3192,"populationNote":"収録500mメッシュ人口の合算（原典収録外は補完しない）"},"geometry":{"type":"Polygon","coordinates":[[[130.4875,33.708333333333336],[130.475,33.70833333333334],[130.475,33.71666666666667],[130.4875,33.71666666666667],[130.4875,33.708333333333336]]]}},{"type":"Feature","id":"40223:50304359","properties":{"id":"40223:50304359","meshCode":"50304359","cityCode":"40223","city":"古賀市","lat":33.7125,"lon":130.49375,"areaKm2":1.0708288,"populated2020":true,"population2020":1501.9425,"populationNote":"収録500mメッシュ人口の合算（原典収録外は補完しない）"},"geometry":{"type":"Polygon","coordinates":[[[130.5,33.708333333333336],[130.4875,33.708333333333336],[130.4875,33.71666666666667],[130.5,33.716666666666676],[130.5,33.708333333333336]]]}},{"type":"Feature","id":"40223:50304450","properties":{"id":"40223:50304450","meshCode":"50304450","cityCode":"40223","city":"古賀市","lat":33.7125,"lon":130.50625,"areaKm2":1.0708259,"populated2020":true,"population2020":1114.5535,"populationNote":"収録500mメッシュ人口の合算（原典収録外は補完しない）"},"geometry":{"type":"Polygon","coordinates":[[[130.5125,33.70833333333334],[130.5,33.708333333333336],[130.5,33.716666666666676],[130.5125,33.716666666666676],[130.5125,33.70833333333334]]]}},{"type":"Feature","id":"40223:50304451","properties":{"id":"40223:50304451","meshCode":"50304451","cityCode":"40223","city":"古賀市","lat":33.7125,"lon":130.51875,"areaKm2":1.0708232,"populated2020":true,"population2020":45.7425,"populationNote":"収録500mメッシュ人口の合算（原典収録外は補完しない）"},"geometry":{"type":"Polygon","coordinates":[[[130.525,33.708333333333336],[130.5125,33.70833333333334],[130.5125,33.716666666666676],[130.525,33.71666666666667],[130.525,33.708333333333336]]]}},{"type":"Feature","id":"40223:50304452","properties":{"id":"40223:50304452","meshCode":"50304452","cityCode":"40223","city":"古賀市","lat":33.7128422,"lon":130.5308615,"areaKm2":0.9685943,"populated2020":false,"population2020":null,"populationNote":"境界またぎ・収録外等のため人口未集計"},"geometry":{"type":"Polygon","coordinates":[[[130.525,33.708333333333336],[130.525,33.71666666666667],[130.5375,33.71666666666667],[130.5375,33.70994207863271],[130.536749442,33.710224441],[130.536222503,33.710332225],[130.535578885,33.71061777500001],[130.535190558,33.710673613],[130.534511115,33.710425829],[130.534105551,33.710117495000006],[130.53286,33.709802495],[130.53230027200001,33.70911722500001],[130.532136109,33.70879249499999],[130.531344449,33.708545],[130.531115032292,33.708333333333336],[130.525,33.708333333333336]]]}},{"type":"Feature","id":"40223:50304453","properties":{"id":"40223:50304453","meshCode":"50304453","cityCode":"40223","city":"古賀市","lat":33.7137811,"lon":130.5420309,"areaKm2":0.5643045,"populated2020":false,"population2020":null,"populationNote":"境界またぎ・収録外等のため人口未集計"},"geometry":{"type":"Polygon","coordinates":[[[130.543344994,33.710287225],[130.542214994,33.710762775],[130.540598885,33.711060279],[130.540172218,33.71083389199999],[130.5375,33.70994207863271],[130.5375,33.71666666666667],[130.54729883291841,33.716666666666676],[130.547288327,33.715950829],[130.547843891,33.715235279],[130.547945279,33.714982494999994],[130.54792083,33.714605559],[130.547091946,33.713982225],[130.545796394,33.713268892],[130.54561083,33.712868613],[130.545498885,33.712104441],[130.545135279,33.711341946],[130.545058327,33.710722225],[130.544716394,33.710165829],[130.54435610900003,33.710192225],[130.543974721,33.710319999999996],[130.543344994,33.710287225]]]}},{"type":"Feature","id":"40223:50304356","properties":{"id":"40223:50304356","meshCode":"50304356","cityCode":"40223","city":"古賀市","lat":33.7157577,"lon":130.4621582,"areaKm2":0.0141035,"populated2020":true,"population2020":null,"populationNote":"境界またぎ・収録外等のため人口未集計"},"geometry":{"type":"Polygon","coordinates":[[[130.4625,33.71397416512155],[130.462259442,33.71433499999999],[130.462056109,33.715487225],[130.46134306119808,33.71666666666667],[130.4625,33.71666666666667],[130.4625,33.71397416512155]]]}},{"type":"Feature","id":"40223:50304366","properties":{"id":"40223:50304366","meshCode":"50304366","cityCode":"40223","city":"古賀市","lat":33.7222357,"lon":130.4577481,"areaKm2":0.6027076,"populated2020":true,"population2020":null,"populationNote":"境界またぎ・収録外等のため人口未集計"},"geometry":{"type":"Polygon","coordinates":[[[130.46134306119808,33.71666666666667],[130.460676109,33.717683613000005],[130.460230558,33.718157225],[130.45892083,33.719297775],[130.458093061,33.719641667],[130.456458612,33.72048194599999],[130.455256939,33.720945559],[130.455327224,33.721162774999996],[130.455053333,33.72146],[130.453634721,33.721970559000006],[130.453002776,33.721997775],[130.451656109,33.72233],[130.45,33.72334425199999],[130.45,33.725],[130.4625,33.725],[130.4625,33.71666666666667],[130.46134306119808,33.71666666666667]]]}},{"type":"Feature","id":"40223:50304367","properties":{"id":"40223:50304367","meshCode":"50304367","cityCode":"40223","city":"古賀市","lat":33.7208333,"lon":130.46875,"areaKm2":1.0707327,"populated2020":true,"population2020":2948.0707,"populationNote":"収録500mメッシュ人口の合算（原典収録外は補完しない）"},"geometry":{"type":"Polygon","coordinates":[[[130.475,33.71666666666667],[130.4625,33.71666666666667],[130.4625,33.725],[130.475,33.725],[130.475,33.71666666666667]]]}},{"type":"Feature","id":"40223:50304368","properties":{"id":"40223:50304368","meshCode":"50304368","cityCode":"40223","city":"古賀市","lat":33.7208333,"lon":130.48125,"areaKm2":1.0707297,"populated2020":true,"population2020":708.8883,"populationNote":"収録500mメッシュ人口の合算（原典収録外は補完しない）"},"geometry":{"type":"Polygon","coordinates":[[[130.4875,33.71666666666667],[130.475,33.71666666666667],[130.475,33.725],[130.4875,33.724999999999994],[130.4875,33.71666666666667]]]}},{"type":"Feature","id":"40223:50304369","properties":{"id":"40223:50304369","meshCode":"50304369","cityCode":"40223","city":"古賀市","lat":33.7208333,"lon":130.49375,"areaKm2":1.0707268,"populated2020":true,"population2020":22.8556,"populationNote":"収録500mメッシュ人口の合算（原典収録外は補完しない）"},"geometry":{"type":"Polygon","coordinates":[[[130.5,33.716666666666676],[130.4875,33.71666666666667],[130.4875,33.724999999999994],[130.5,33.725],[130.5,33.716666666666676]]]}},{"type":"Feature","id":"40223:50304460","properties":{"id":"40223:50304460","meshCode":"50304460","cityCode":"40223","city":"古賀市","lat":33.7208333,"lon":130.50625,"areaKm2":1.0707239,"populated2020":true,"population2020":645.9356,"populationNote":"収録500mメッシュ人口の合算（原典収録外は補完しない）"},"geometry":{"type":"Polygon","coordinates":[[[130.5125,33.716666666666676],[130.5,33.716666666666676],[130.5,33.725],[130.5125,33.724999999999994],[130.5125,33.716666666666676]]]}},{"type":"Feature","id":"40223:50304461","properties":{"id":"40223:50304461","meshCode":"50304461","cityCode":"40223","city":"古賀市","lat":33.7208333,"lon":130.51875,"areaKm2":1.0707212,"populated2020":true,"population2020":240.5486,"populationNote":"収録500mメッシュ人口の合算（原典収録外は補完しない）"},"geometry":{"type":"Polygon","coordinates":[[[130.525,33.71666666666667],[130.5125,33.716666666666676],[130.5125,33.724999999999994],[130.525,33.725],[130.525,33.71666666666667]]]}},{"type":"Feature","id":"40223:50304462","properties":{"id":"40223:50304462","meshCode":"50304462","cityCode":"40223","city":"古賀市","lat":33.7208333,"lon":130.53125,"areaKm2":1.0707185,"populated2020":false,"population2020":null,"populationNote":"境界またぎ・収録外等のため人口未集計"},"geometry":{"type":"Polygon","coordinates":[[[130.5375,33.71666666666667],[130.525,33.71666666666667],[130.525,33.725],[130.5375,33.725],[130.5375,33.71666666666667]]]}},{"type":"Feature","id":"40223:50304463","properties":{"id":"40223:50304463","meshCode":"50304463","cityCode":"40223","city":"古賀市","lat":33.7209198,"lon":130.5436298,"areaKm2":1.0461494,"populated2020":false,"population2020":null,"populationNote":"境界またぎ・収録外等のため人口未集計"},"geometry":{"type":"Polygon","coordinates":[[[130.55,33.717972081],[130.548929442,33.717583054],[130.548288885,33.71763055900001],[130.54812083,33.717571387],[130.547494721,33.71704],[130.54729883291841,33.716666666666676],[130.5375,33.71666666666667],[130.5375,33.725],[130.55,33.724999999999994],[130.55,33.717972081]]]}},{"type":"Feature","id":"40223:50304464","properties":{"id":"40223:50304464","meshCode":"50304464","cityCode":"40223","city":"古賀市","lat":33.7217735,"lon":130.5538853,"areaKm2":0.5156374,"populated2020":false,"population2020":null,"populationNote":"境界またぎ・収録外等のため人口未集計"},"geometry":{"type":"Polygon","coordinates":[[[130.554885279,33.718792775],[130.552673606,33.71896638700001],[130.552390272,33.718828613],[130.552082503,33.718182495],[130.55179917,33.718077775],[130.551459728,33.717828333],[130.551213606,33.717858613000004],[130.550825279,33.718094721],[130.550556109,33.718147225],[130.55,33.717972081],[130.55,33.724999999999994],[130.556178366,33.725],[130.556734449,33.724658332999994],[130.557196394,33.72389389199999],[130.558234994,33.723569441],[130.558448327,33.722783613],[130.557993333,33.722255829],[130.557926939,33.72189500000001],[130.558056394,33.721716386999994],[130.558598612,33.721719721],[130.558784163,33.72159500000001],[130.558868054,33.721427775],[130.558966109,33.720738892],[130.559056939,33.720617495],[130.55868917,33.720047495],[130.557741388,33.719814721],[130.556644721,33.71938],[130.555567224,33.71880916200001],[130.554885279,33.718792775]]]}},{"type":"Feature","id":"40223:50304365","properties":{"id":"40223:50304365","meshCode":"50304365","cityCode":"40223","city":"古賀市","lat":33.7244267,"lon":130.4489908,"areaKm2":0.0266447,"populated2020":true,"population2020":null,"populationNote":"境界またぎ・収録外等のため人口未集計"},"geometry":{"type":"Polygon","coordinates":[[[130.45,33.72334425199999],[130.44913166,33.723802494999994],[130.448540558,33.723984441000006],[130.447172918,33.725],[130.45,33.725],[130.45,33.72334425199999]]]}},{"type":"Feature","id":"40223:50304375","properties":{"id":"40223:50304375","meshCode":"50304375","cityCode":"40223","city":"古賀市","lat":33.725802,"lon":130.4490155,"areaKm2":0.0365105,"populated2020":false,"population2020":null,"populationNote":"境界またぎ・収録外等のため人口未集計"},"geometry":{"type":"Polygon","coordinates":[[[130.447097782,33.725057225],[130.449366394,33.726859054],[130.45,33.72743082899999],[130.45,33.725],[130.447172918,33.725],[130.447097782,33.725057225]]]}},{"type":"Feature","id":"40223:50304376","properties":{"id":"40223:50304376","meshCode":"50304376","cityCode":"40223","city":"古賀市","lat":33.7287271,"lon":130.4571224,"areaKm2":0.8899815,"populated2020":true,"population2020":2405.6052,"populationNote":"収録500mメッシュ人口の合算（原典収録外は補完しない）"},"geometry":{"type":"Polygon","coordinates":[[[130.450036109,33.72746091900001],[130.452396135,33.729690000000005],[130.454888301,33.732430468],[130.45580939022383,33.73333333333334],[130.4625,33.73333333333334],[130.4625,33.725],[130.45,33.725],[130.450036109,33.72746091900001]]]}},{"type":"Feature","id":"40223:50304377","properties":{"id":"40223:50304377","meshCode":"50304377","cityCode":"40223","city":"古賀市","lat":33.7291667,"lon":130.46875,"areaKm2":1.0706306,"populated2020":true,"population2020":7332.538,"populationNote":"収録500mメッシュ人口の合算（原典収録外は補完しない）"},"geometry":{"type":"Polygon","coordinates":[[[130.475,33.725],[130.4625,33.725],[130.4625,33.73333333333334],[130.475,33.733333333333334],[130.475,33.725]]]}},{"type":"Feature","id":"40223:50304378","properties":{"id":"40223:50304378","meshCode":"50304378","cityCode":"40223","city":"古賀市","lat":33.7291667,"lon":130.48125,"areaKm2":1.0706277,"populated2020":true,"population2020":1549.6024,"populationNote":"収録500mメッシュ人口の合算（原典収録外は補完しない）"},"geometry":{"type":"Polygon","coordinates":[[[130.4875,33.724999999999994],[130.475,33.725],[130.475,33.733333333333334],[130.4875,33.733333333333334],[130.4875,33.724999999999994]]]}},{"type":"Feature","id":"40223:50304379","properties":{"id":"40223:50304379","meshCode":"50304379","cityCode":"40223","city":"古賀市","lat":33.7291667,"lon":130.49375,"areaKm2":1.0706247,"populated2020":true,"population2020":450.2717,"populationNote":"収録500mメッシュ人口の合算（原典収録外は補完しない）"},"geometry":{"type":"Polygon","coordinates":[[[130.5,33.725],[130.4875,33.724999999999994],[130.4875,33.733333333333334],[130.5,33.733333333333334],[130.5,33.725]]]}},{"type":"Feature","id":"40223:50304470","properties":{"id":"40223:50304470","meshCode":"50304470","cityCode":"40223","city":"古賀市","lat":33.7291667,"lon":130.50625,"areaKm2":1.0706219,"populated2020":true,"population2020":707.6845,"populationNote":"収録500mメッシュ人口の合算（原典収録外は補完しない）"},"geometry":{"type":"Polygon","coordinates":[[[130.5125,33.724999999999994],[130.5,33.725],[130.5,33.733333333333334],[130.5125,33.733333333333334],[130.5125,33.724999999999994]]]}},{"type":"Feature","id":"40223:50304471","properties":{"id":"40223:50304471","meshCode":"50304471","cityCode":"40223","city":"古賀市","lat":33.7291667,"lon":130.51875,"areaKm2":1.0706191,"populated2020":true,"population2020":2311.2859,"populationNote":"収録500mメッシュ人口の合算（原典収録外は補完しない）"},"geometry":{"type":"Polygon","coordinates":[[[130.525,33.725],[130.5125,33.724999999999994],[130.5125,33.733333333333334],[130.525,33.73333333333333],[130.525,33.725]]]}},{"type":"Feature","id":"40223:50304472","properties":{"id":"40223:50304472","meshCode":"50304472","cityCode":"40223","city":"古賀市","lat":33.7291667,"lon":130.53125,"areaKm2":1.0706165,"populated2020":true,"population2020":48.8037,"populationNote":"収録500mメッシュ人口の合算（原典収録外は補完しない）"},"geometry":{"type":"Polygon","coordinates":[[[130.5375,33.725],[130.525,33.725],[130.525,33.73333333333333],[130.5375,33.733333333333334],[130.5375,33.725]]]}},{"type":"Feature","id":"40223:50304473","properties":{"id":"40223:50304473","meshCode":"50304473","cityCode":"40223","city":"古賀市","lat":33.7288325,"lon":130.5431787,"areaKm2":0.9506832,"populated2020":true,"population2020":12.8872,"populationNote":"収録500mメッシュ人口の合算（原典収録外は補完しない）"},"geometry":{"type":"Polygon","coordinates":[[[130.55,33.724999999999994],[130.5375,33.725],[130.5375,33.733333333333334],[130.54499766463454,33.733333333333334],[130.545629728,33.732723613000005],[130.546533891,33.732033613],[130.546988612,33.731335279],[130.547016394,33.730935279000015],[130.547177497,33.730805279],[130.547736939,33.730611667],[130.54778,33.730487495],[130.548446394,33.73013472099999],[130.548654449,33.729944441],[130.54884,33.72961166700001],[130.549333333,33.729444162],[130.55,33.729421532],[130.55,33.724999999999994]]]}},{"type":"Feature","id":"40223:50304474","properties":{"id":"40223:50304474","meshCode":"50304474","cityCode":"40223","city":"古賀市","lat":33.7266729,"lon":130.5522171,"areaKm2":0.1691953,"populated2020":false,"population2020":null,"populationNote":"境界またぎ・収録外等のため人口未集計"},"geometry":{"type":"Polygon","coordinates":[[[130.550943606,33.72895277500001],[130.551387782,33.728690279000006],[130.552638612,33.728350559],[130.552921946,33.728140559],[130.553666939,33.72803222500001],[130.553855837,33.727517225],[130.554317224,33.726971667],[130.554450272,33.72659444100001],[130.554694994,33.726256387],[130.555326939,33.725657225],[130.555904163,33.725352224999995],[130.556178366,33.725],[130.55,33.724999999999994],[130.55,33.729421532],[130.550431388,33.729438054],[130.550544721,33.729382495],[130.550943606,33.72895277500001]]]}},{"type":"Feature","id":"40223:50304386","properties":{"id":"40223:50304386","meshCode":"50304386","cityCode":"40223","city":"古賀市","lat":33.7364529,"lon":130.4602041,"areaKm2":0.3263355,"populated2020":true,"population2020":1032.3221,"populationNote":"収録500mメッシュ人口の合算（原典収録外は補完しない）"},"geometry":{"type":"Polygon","coordinates":[[[130.455831388,33.733367667],[130.457295447,33.73508553199999],[130.457088392,33.736383613],[130.457210363,33.736378108],[130.457379274,33.735328532],[130.45820369600003,33.73616580200001],[130.457997588,33.73654105399999],[130.457666394,33.73858210800001],[130.457793087,33.73866805400001],[130.45795795100003,33.738589333],[130.457995383,33.737817613000004],[130.458678171,33.737909225],[130.459311699,33.738196640000005],[130.459926783,33.738813441],[130.460278249,33.739369414],[130.460462088,33.73986313500001],[130.460471025,33.740331225],[130.45962917,33.74044205399999],[130.459559883,33.74050602700001],[130.459596693,33.740627829],[130.459776226,33.740689387],[130.460858275,33.740429586],[130.461065473,33.74050205399999],[130.461016939,33.74063377499999],[130.461159883,33.74050491900001],[130.461216835,33.74078658599999],[130.461150195,33.740846135],[130.461304578,33.74089044099999],[130.46176966285284,33.74166666666666],[130.4625,33.74166666666666],[130.4625,33.73333333333334],[130.455831388,33.733367667]]]}},{"type":"Feature","id":"40223:50304387","properties":{"id":"40223:50304387","meshCode":"50304387","cityCode":"40223","city":"古賀市","lat":33.7375,"lon":130.46875,"areaKm2":1.0705286,"populated2020":true,"population2020":5245.9516,"populationNote":"収録500mメッシュ人口の合算（原典収録外は補完しない）"},"geometry":{"type":"Polygon","coordinates":[[[130.475,33.733333333333334],[130.4625,33.73333333333334],[130.4625,33.74166666666666],[130.475,33.74166666666667],[130.475,33.733333333333334]]]}},{"type":"Feature","id":"40223:50304388","properties":{"id":"40223:50304388","meshCode":"50304388","cityCode":"40223","city":"古賀市","lat":33.7375,"lon":130.48125,"areaKm2":1.0705256,"populated2020":true,"population2020":3145.3383,"populationNote":"収録500mメッシュ人口の合算（原典収録外は補完しない）"},"geometry":{"type":"Polygon","coordinates":[[[130.4875,33.733333333333334],[130.475,33.733333333333334],[130.475,33.74166666666667],[130.4875,33.74166666666666],[130.4875,33.733333333333334]]]}},{"type":"Feature","id":"40223:50304389","properties":{"id":"40223:50304389","meshCode":"50304389","cityCode":"40223","city":"古賀市","lat":33.7375,"lon":130.49375,"areaKm2":1.0705227,"populated2020":true,"population2020":892.1941,"populationNote":"収録500mメッシュ人口の合算（原典収録外は補完しない）"},"geometry":{"type":"Polygon","coordinates":[[[130.5,33.733333333333334],[130.4875,33.733333333333334],[130.4875,33.74166666666666],[130.5,33.74166666666666],[130.5,33.733333333333334]]]}},{"type":"Feature","id":"40223:50304480","properties":{"id":"40223:50304480","meshCode":"50304480","cityCode":"40223","city":"古賀市","lat":33.7372655,"lon":130.5059975,"areaKm2":1.0039913,"populated2020":true,"population2020":1.9856,"populationNote":"収録500mメッシュ人口の合算（原典収録外は補完しない）"},"geometry":{"type":"Polygon","coordinates":[[[130.5125,33.733333333333334],[130.5,33.733333333333334],[130.5,33.74166666666666],[130.50664880730764,33.74166666666666],[130.507092503,33.741318613],[130.508263891,33.740685829],[130.509186939,33.74034472099999],[130.510997224,33.740141667],[130.511450558,33.740194162],[130.5125,33.74063016727291],[130.5125,33.733333333333334]]]}},{"type":"Feature","id":"40223:50304481","properties":{"id":"40223:50304481","meshCode":"50304481","cityCode":"40223","city":"古賀市","lat":33.7367761,"lon":130.5185791,"areaKm2":0.8824468,"populated2020":true,"population2020":null,"populationNote":"境界またぎ・収録外等のため人口未集計"},"geometry":{"type":"Polygon","coordinates":[[[130.525,33.73333333333333],[130.5125,33.733333333333334],[130.5125,33.74063016727291],[130.513287782,33.740773892],[130.515285551,33.740593612999994],[130.516005837,33.74028555899999],[130.516376394,33.74021],[130.5176,33.740393613],[130.521162503,33.739898333],[130.521903891,33.74008527899999],[130.522755551,33.73982],[130.523534994,33.739695279],[130.525,33.73974546800001],[130.525,33.73333333333333]]]}},{"type":"Feature","id":"40223:50304482","properties":{"id":"40223:50304482","meshCode":"50304482","cityCode":"40223","city":"古賀市","lat":33.7362869,"lon":130.5310559,"areaKm2":0.7559212,"populated2020":true,"population2020":null,"populationNote":"境界またぎ・収録外等のため人口未集計"},"geometry":{"type":"Polygon","coordinates":[[[130.5375,33.733333333333334],[130.525,33.73333333333333],[130.525,33.73974546800001],[130.526504449,33.739583892],[130.527423606,33.739573892],[130.528673891,33.739394161999996],[130.529296109,33.739459720999996],[130.52985917,33.73971555899999],[130.530404449,33.739656667],[130.530906109,33.73946],[130.531283891,33.739046946],[130.532245551,33.73882055899999],[130.53300917,33.738889162],[130.533526667,33.738816946],[130.534575551,33.73890222499999],[130.534944163,33.738755559],[130.535360272,33.73869972100001],[130.535797497,33.738808054],[130.536273061,33.739083333],[130.53647917,33.739119162],[130.537013891,33.738951946],[130.5375,33.73850842687303],[130.5375,33.733333333333334]]]}},{"type":"Feature","id":"40223:50304483","properties":{"id":"40223:50304483","meshCode":"50304483","cityCode":"40223","city":"古賀市","lat":33.7355513,"lon":130.5399845,"areaKm2":0.2455376,"populated2020":true,"population2020":11.9251,"populationNote":"収録500mメッシュ人口の合算（原典収録外は補完しない）"},"geometry":{"type":"Polygon","coordinates":[[[130.543966939,33.73393638700001],[130.544197782,33.73371333299999],[130.544843061,33.733464721],[130.54499766463454,33.733333333333334],[130.5375,33.733333333333334],[130.5375,33.73850842687303],[130.538368612,33.73830666700001],[130.539389728,33.738490279],[130.539924721,33.738257495],[130.540398885,33.738277225],[130.540901946,33.738083892],[130.541021115,33.737929721],[130.541041946,33.73741472100001],[130.541947497,33.736617775],[130.54227444900002,33.736144162],[130.542375837,33.735455559],[130.542228885,33.734916667000014],[130.542424721,33.734369162],[130.54261,33.734198613],[130.54326749700002,33.73424777499999],[130.543966939,33.73393638700001]]]}},{"type":"Feature","id":"40223:50304396","properties":{"id":"40223:50304396","meshCode":"50304396","cityCode":"40223","city":"古賀市","lat":33.7421666,"lon":130.4622264,"areaKm2":0.0062699,"populated2020":false,"population2020":null,"populationNote":"境界またぎ・収録外等のため人口未集計"},"geometry":{"type":"Polygon","coordinates":[[[130.461769663,33.741666667000004],[130.461844812,33.741866495],[130.461802996,33.74201174800001],[130.4625,33.74305242051986],[130.4625,33.74166666666666],[130.461769663,33.741666667000004]]]}},{"type":"Feature","id":"40223:50304397","properties":{"id":"40223:50304397","meshCode":"50304397","cityCode":"40223","city":"古賀市","lat":33.7455836,"lon":130.4694625,"areaKm2":0.9382127,"populated2020":true,"population2020":6089.5711,"populationNote":"収録500mメッシュ人口の合算（原典収録外は補完しない）"},"geometry":{"type":"Polygon","coordinates":[[[130.4625,33.74305242051986],[130.46316594,33.744084081],[130.464244112,33.746380919],[130.464490026,33.746702892000016],[130.466031245,33.750000000000014],[130.475,33.75],[130.475,33.74166666666667],[130.4625,33.74166666666666],[130.4625,33.74305242051986]]]}},{"type":"Feature","id":"40223:50304398","properties":{"id":"40223:50304398","meshCode":"50304398","cityCode":"40223","city":"古賀市","lat":33.7457408,"lon":130.4811203,"areaKm2":1.043462,"populated2020":true,"population2020":6153.5433,"populationNote":"収録500mメッシュ人口の合算（原典収録外は補完しない）"},"geometry":{"type":"Polygon","coordinates":[[[130.4875,33.74166666666666],[130.475,33.74166666666667],[130.475,33.75],[130.483807134,33.75000000000001],[130.485642776,33.749102224999994],[130.486183606,33.749726667],[130.487114163,33.749341387],[130.486449442,33.748595],[130.4875,33.74811116979688],[130.4875,33.74166666666666]]]}},{"type":"Feature","id":"40223:50304399","properties":{"id":"40223:50304399","meshCode":"50304399","cityCode":"40223","city":"古賀市","lat":33.7443346,"lon":130.4930183,"areaKm2":0.6533773,"populated2020":true,"population2020":null,"populationNote":"境界またぎ・収録外等のため人口未集計"},"geometry":{"type":"Polygon","coordinates":[[[130.495490272,33.746223108],[130.497148755,33.745467802],[130.497659442,33.745582495],[130.5,33.74463135999999],[130.5,33.74166666666666],[130.4875,33.74166666666666],[130.4875,33.74811116979688],[130.489248249,33.747342440999994],[130.489468885,33.747382225],[130.489700441,33.74766586500001],[130.490206939,33.747445000000006],[130.490494994,33.747798892000006],[130.491193606,33.748381387],[130.491426939,33.748473333],[130.491580558,33.74844027899999],[130.49232083,33.747959162],[130.493656329,33.74678664],[130.494246667,33.746825559],[130.494560272,33.746749162000015],[130.495490272,33.746223108]]]}},{"type":"Feature","id":"40223:50304490","properties":{"id":"40223:50304490","meshCode":"50304490","cityCode":"40223","city":"古賀市","lat":33.742656,"lon":130.5021737,"areaKm2":0.0991981,"populated2020":false,"population2020":null,"populationNote":"境界またぎ・収録外等のため人口未集計"},"geometry":{"type":"Polygon","coordinates":[[[130.506118612,33.74201249499999],[130.50664880730764,33.74166666666666],[130.5,33.74166666666666],[130.5,33.74463135999999],[130.502590272,33.743492495],[130.504557782,33.742401667],[130.505398612,33.742133892000005],[130.506118612,33.74201249499999]]]}},{"type":"Feature","id":"40223:50305307","properties":{"id":"40223:50305307","meshCode":"50305307","cityCode":"40223","city":"古賀市","lat":33.7514105,"lon":130.4703446,"areaKm2":0.2404942,"populated2020":true,"population2020":null,"populationNote":"境界またぎ・収録外等のため人口未集計"},"geometry":{"type":"Polygon","coordinates":[[[130.469137497,33.753313892],[130.472082218,33.75240472099999],[130.473415837,33.752238613],[130.473584994,33.752039441],[130.475,33.752015027],[130.475,33.75],[130.466031245,33.750000000000014],[130.467409053,33.75375257700001],[130.469137497,33.753313892]]]}},{"type":"Feature","id":"40223:50305308","properties":{"id":"40223:50305308","meshCode":"50305308","cityCode":"40223","city":"古賀市","lat":33.7508567,"lon":130.4788559,"areaKm2":0.1391995,"populated2020":true,"population2020":null,"populationNote":"境界またぎ・収録外等のため人口未集計"},"geometry":{"type":"Polygon","coordinates":[[[130.480781388,33.751956946],[130.481604994,33.751573613],[130.481741388,33.751794720999996],[130.483007497,33.751199162000006],[130.482586939,33.750575],[130.483807134,33.75000000000001],[130.475,33.75],[130.475,33.752015027],[130.475419442,33.752122775],[130.475626394,33.752143333],[130.47692917,33.751674441],[130.477768327,33.75145555900001],[130.478315837,33.751459441],[130.479981115,33.751667495],[130.480149728,33.751939162],[130.480781388,33.751956946]]]}}]}