{"type":"FeatureCollection","metadata":{"cityCode":"40227","city":"嘉麻市","resolution":1000,"boundaryDate":"2026-01-01","populationLabel":"2020年基準人口（国交省調整値）","method":"標準地域メッシュを行政界で切抜き。中心が区域外のとき区域内代表点を判定点にする。人口不明をゼロにしない。"},"features":[{"type":"Feature","id":"40227:50301663","properties":{"id":"40227:50301663","meshCode":"50301663","cityCode":"40227","city":"嘉麻市","lat":33.4735183,"lon":130.7948487,"areaKm2":0.3117644,"populated2020":false,"population2020":null,"populationNote":"境界またぎ・収録外等のため人口未集計"},"geometry":{"type":"Polygon","coordinates":[[[130.793424994,33.472246108],[130.79179917,33.471420828999996],[130.791228885,33.470991108],[130.790744721,33.47223166700001],[130.789897782,33.473078613000006],[130.789762776,33.473634721],[130.789453891,33.474263892],[130.789424137,33.47500000000001],[130.8,33.47500000000001],[130.8,33.472126027],[130.799410558,33.47208499999999],[130.798985551,33.47181305400001],[130.79830027200003,33.471660279000005],[130.797783333,33.471785279],[130.797095279,33.47216694600001],[130.79658444900002,33.472243892],[130.795881946,33.47248333300001],[130.794834994,33.472397775],[130.793882776,33.472413613],[130.793424994,33.472246108]]]}},{"type":"Feature","id":"40227:50301664","properties":{"id":"40227:50301664","meshCode":"50301664","cityCode":"40227","city":"嘉麻市","lat":33.4736161,"lon":130.8039683,"areaKm2":0.2329121,"populated2020":false,"population2020":null,"populationNote":"境界またぎ・収録外等のため人口未集計"},"geometry":{"type":"Polygon","coordinates":[[[130.80583166,33.471778332999996],[130.805196667,33.471720559000005],[130.804860558,33.47196361299999],[130.804342218,33.472092495],[130.80408083,33.472294721000004],[130.803421388,33.47242582900001],[130.803237782,33.47239694600001],[130.802752503,33.471966108],[130.802228327,33.472251387],[130.801785837,33.472162225000005],[130.8,33.472126027],[130.8,33.47500000000001],[130.80897869,33.47500000000001],[130.808545837,33.474644721],[130.808429442,33.474253892],[130.808156667,33.47403722499998],[130.807682503,33.473243054],[130.807323606,33.473019162],[130.807184163,33.472796387],[130.806352503,33.47204194600001],[130.80583166,33.471778332999996]]]}},{"type":"Feature","id":"40227:50301672","properties":{"id":"40227:50301672","meshCode":"50301672","cityCode":"40227","city":"嘉麻市","lat":33.4822369,"lon":130.7836378,"areaKm2":0.1873339,"populated2020":false,"population2020":null,"populationNote":"境界またぎ・収録外等のため人口未集計"},"geometry":{"type":"Polygon","coordinates":[[[130.7875,33.47915898638166],[130.78716166,33.479683333000004],[130.78643917000002,33.479939721],[130.786340272,33.480306667],[130.786094449,33.480714721],[130.78577,33.48103],[130.785414163,33.481231946],[130.784947224,33.48137500000001],[130.784318327,33.481377495],[130.784082776,33.481519441],[130.783788327,33.481867225],[130.783446394,33.48196582900001],[130.782686667,33.48162777499999],[130.781694449,33.48167],[130.781243333,33.481559162],[130.779920558,33.481589162000006],[130.779463891,33.481897495],[130.778959728,33.482442225],[130.777824163,33.482871945999996],[130.7773043836271,33.483333333333334],[130.7875,33.48333333333334],[130.7875,33.47915898638166]]]}},{"type":"Feature","id":"40227:50301673","properties":{"id":"40227:50301673","meshCode":"50301673","cityCode":"40227","city":"嘉麻市","lat":33.4792836,"lon":130.793986,"areaKm2":1.0299946,"populated2020":false,"population2020":null,"populationNote":"境界またぎ・収録外等のため人口未集計"},"geometry":{"type":"Polygon","coordinates":[[[130.789424137,33.47500000000001],[130.788925279,33.475970278999995],[130.788686939,33.47677610800001],[130.788777497,33.477415279],[130.788103891,33.477743892],[130.787974721,33.477943612999994],[130.787912776,33.478327495],[130.787592503,33.47877638700001],[130.78753083,33.478996108],[130.7875,33.48333333333334],[130.8,33.483333333333334],[130.8,33.47500000000001],[130.789424137,33.47500000000001]]]}},{"type":"Feature","id":"40227:50301674","properties":{"id":"40227:50301674","meshCode":"50301674","cityCode":"40227","city":"嘉麻市","lat":33.4790994,"lon":130.8046773,"areaKm2":0.8019775,"populated2020":true,"population2020":null,"populationNote":"境界またぎ・収録外等のため人口未集計"},"geometry":{"type":"Polygon","coordinates":[[[130.809538054,33.479148613],[130.809615551,33.478332775000005],[130.809833891,33.477947775],[130.809684449,33.476982775],[130.809872503,33.47644249499999],[130.80980083,33.476310279],[130.809371388,33.476140559],[130.809269442,33.47557861300001],[130.80897869,33.47500000000001],[130.8,33.47500000000001],[130.8,33.483333333333334],[130.80827428010232,33.48333333333333],[130.808266939,33.483137495],[130.808421946,33.482882225],[130.809062503,33.48237],[130.808903061,33.481885],[130.809282218,33.48050833300001],[130.809621115,33.479983892],[130.80967,33.479683054],[130.809538054,33.479148613]]]}},{"type":"Feature","id":"40227:50301587","properties":{"id":"40227:50301587","meshCode":"50301587","cityCode":"40227","city":"嘉麻市","lat":33.4885643,"lon":130.7197063,"areaKm2":0.7423096,"populated2020":false,"population2020":null,"populationNote":"境界またぎ・収録外等のため人口未集計"},"geometry":{"type":"Polygon","coordinates":[[[130.723645551,33.484141667],[130.722082218,33.484643333],[130.721192776,33.485023054],[130.720627497,33.485085279],[130.719296939,33.484975559000006],[130.719142218,33.48517333299999],[130.717740558,33.485599441],[130.716884721,33.485955279],[130.716281946,33.486578333],[130.71601166,33.487005279],[130.71584166000002,33.487485559],[130.715668885,33.487569721],[130.715057497,33.487598892],[130.714795279,33.487689161999995],[130.714416667,33.488304721000006],[130.714059728,33.488571387],[130.713586667,33.48880389200001],[130.713152218,33.488876946],[130.712890272,33.488808054],[130.712726939,33.488584441],[130.7125,33.48856629185],[130.7125,33.49166666666667],[130.725,33.491666666666674],[130.725,33.48384536],[130.723645551,33.484141667]]]}},{"type":"Feature","id":"40227:50301588","properties":{"id":"40227:50301588","meshCode":"50301588","cityCode":"40227","city":"嘉麻市","lat":33.4882386,"lon":130.7306483,"areaKm2":0.8574888,"populated2020":false,"population2020":null,"populationNote":"境界またぎ・収録外等のため人口未集計"},"geometry":{"type":"Polygon","coordinates":[[[130.730669442,33.484484721],[130.730324994,33.484429721],[130.729544163,33.48447972100001],[130.728218612,33.48386194599999],[130.727766939,33.483806108],[130.727098327,33.483582225],[130.726313606,33.483733054],[130.725,33.48384536],[130.725,33.491666666666674],[130.7375,33.491666666666674],[130.7375,33.48717544839779],[130.736783606,33.486982225],[130.735382218,33.486762774999995],[130.734951388,33.486620559],[130.734816109,33.48640194600001],[130.734760272,33.485842775],[130.734215279,33.485466108],[130.73372083,33.485327774999995],[130.732915551,33.485358054],[130.731625837,33.484977225],[130.730669442,33.484484721]]]}},{"type":"Feature","id":"40227:50301589","properties":{"id":"40227:50301589","meshCode":"50301589","cityCode":"40227","city":"嘉麻市","lat":33.4891463,"lon":130.7443934,"areaKm2":0.6187657,"populated2020":false,"population2020":null,"populationNote":"境界またぎ・収録外等のため人口未集計"},"geometry":{"type":"Polygon","coordinates":[[[130.749187497,33.485571387],[130.748834449,33.484967225000005],[130.748593061,33.484919162000004],[130.748274163,33.48390138700001],[130.748188054,33.48395444100001],[130.747806109,33.48512138699999],[130.747207224,33.48585444100001],[130.746264163,33.48617361299999],[130.745704994,33.486688613],[130.744965551,33.487075829],[130.744545279,33.487211667],[130.743688885,33.487303892],[130.74313083,33.487630829000004],[130.741794163,33.48806555900001],[130.740652776,33.488031108],[130.74036917,33.487734441],[130.739840272,33.487446108],[130.739483333,33.487441946],[130.738691115,33.487633333],[130.7375,33.48717544839779],[130.7375,33.491666666666674],[130.75,33.49166666666667],[130.75,33.486410306],[130.749187497,33.485571387]]]}},{"type":"Feature","id":"40227:50301680","properties":{"id":"40227:50301680","meshCode":"50301680","cityCode":"40227","city":"嘉麻市","lat":33.4896454,"lon":130.7556915,"areaKm2":0.5076936,"populated2020":false,"population2020":null,"populationNote":"境界またぎ・収録外等のため人口未集計"},"geometry":{"type":"Polygon","coordinates":[[[130.754171115,33.487357225000004],[130.752896939,33.487269441],[130.751633333,33.486766387],[130.751071946,33.48666889200001],[130.750678327,33.486469162],[130.750483061,33.486445],[130.750207224,33.48655110799999],[130.75,33.486410306],[130.75,33.49166666666667],[130.7625,33.49166666666667],[130.7625,33.48834803901266],[130.762171388,33.48845361299999],[130.761551388,33.488362225],[130.758717497,33.488310279000004],[130.75739083,33.488146667],[130.756217224,33.487813333],[130.754904994,33.48772444099999],[130.754171115,33.487357225000004]]]}},{"type":"Feature","id":"40227:50301681","properties":{"id":"40227:50301681","meshCode":"50301681","cityCode":"40227","city":"嘉麻市","lat":33.488726,"lon":130.7697012,"areaKm2":0.7069895,"populated2020":false,"population2020":null,"populationNote":"境界またぎ・収録外等のため人口未集計"},"geometry":{"type":"Polygon","coordinates":[[[130.774397224,33.483651667000004],[130.774049728,33.48369722499999],[130.773201115,33.484454162],[130.772311946,33.484948613],[130.771466109,33.48516638700001],[130.770424994,33.48558610799999],[130.769642218,33.485690829],[130.768183061,33.486181946],[130.767768054,33.486640279],[130.76677,33.487014721],[130.766433891,33.487736386999984],[130.766235837,33.487875829],[130.765665551,33.487961387],[130.764016939,33.487800279],[130.7625,33.48834803901266],[130.7625,33.49166666666667],[130.775,33.491666666666674],[130.775,33.483740721000004],[130.774397224,33.483651667000004]]]}},{"type":"Feature","id":"40227:50301682","properties":{"id":"40227:50301682","meshCode":"50301682","cityCode":"40227","city":"嘉麻市","lat":33.487533,"lon":130.7812952,"areaKm2":1.0645982,"populated2020":false,"population2020":null,"populationNote":"境界またぎ・収録外等のため人口未集計"},"geometry":{"type":"Polygon","coordinates":[[[130.7773043836271,33.483333333333334],[130.776353333,33.483639721],[130.775807497,33.483913892],[130.775412503,33.483934162],[130.775,33.483740721000004],[130.775,33.491666666666674],[130.7875,33.49166666666667],[130.7875,33.48333333333334],[130.7773043836271,33.483333333333334]]]}},{"type":"Feature","id":"40227:50301683","properties":{"id":"40227:50301683","meshCode":"50301683","cityCode":"40227","city":"嘉麻市","lat":33.4875,"lon":130.79375,"areaKm2":1.0735257,"populated2020":false,"population2020":null,"populationNote":"境界またぎ・収録外等のため人口未集計"},"geometry":{"type":"Polygon","coordinates":[[[130.8,33.483333333333334],[130.7875,33.48333333333334],[130.7875,33.49166666666667],[130.8,33.49166666666667],[130.8,33.483333333333334]]]}},{"type":"Feature","id":"40227:50301684","properties":{"id":"40227:50301684","meshCode":"50301684","cityCode":"40227","city":"嘉麻市","lat":33.4877438,"lon":130.8058088,"areaKm2":0.9847527,"populated2020":true,"population2020":14.8944,"populationNote":"収録500mメッシュ人口の合算（原典収録外は補完しない）"},"geometry":{"type":"Polygon","coordinates":[[[130.8125,33.4874959363028],[130.811717782,33.48730222500001],[130.811556939,33.487208333],[130.811259728,33.48677861300001],[130.811160558,33.486385],[130.81140917,33.48574861299999],[130.811183606,33.485362495],[130.810446939,33.484973892],[130.809927224,33.484954441],[130.809398612,33.48506777499999],[130.809454721,33.484563333],[130.809326939,33.48411472099998],[130.808997782,33.48383416200001],[130.808521115,33.48368500000001],[130.80827428010232,33.48333333333333],[130.8,33.483333333333334],[130.8,33.49166666666667],[130.8125,33.49166666666667],[130.8125,33.4874959363028]]]}},{"type":"Feature","id":"40227:50301685","properties":{"id":"40227:50301685","meshCode":"50301685","cityCode":"40227","city":"嘉麻市","lat":33.4898276,"lon":130.8147394,"areaKm2":0.1751227,"populated2020":true,"population2020":null,"populationNote":"境界またぎ・収録外等のため人口未集計"},"geometry":{"type":"Polygon","coordinates":[[[130.8125,33.487500000000004],[130.8125,33.49166666666667],[130.81677847015715,33.491666666666674],[130.816903606,33.49129555900001],[130.817266939,33.491015559],[130.817295837,33.490883053999994],[130.817324449,33.490028892],[130.817124721,33.489577495],[130.817232503,33.489015559],[130.817376109,33.4889],[130.817626109,33.48884472100001],[130.817343061,33.488701387000006],[130.817096109,33.488458613000006],[130.8159,33.488344162],[130.815033891,33.48803249499999],[130.814534163,33.488218054],[130.814189442,33.488213054000006],[130.814016939,33.4881],[130.813874721,33.48773305400001],[130.813668054,33.487545279],[130.812876939,33.487604162000004],[130.8125,33.487500000000004]]]}},{"type":"Feature","id":"40227:50301584","properties":{"id":"40227:50301584","meshCode":"50301584","cityCode":"40227","city":"嘉麻市","lat":33.4915154,"lon":130.6858774,"areaKm2":0.0068578,"populated2020":false,"population2020":null,"populationNote":"境界またぎ・収録外等のため人口未集計"},"geometry":{"type":"MultiPolygon","coordinates":[[[[130.687157782,33.49120582900001],[130.686037782,33.491445279],[130.68543041591448,33.491666666666674],[130.6874731128164,33.49166666666667],[130.687157782,33.49120582900001]]],[[[130.682458612,33.491428892000016],[130.68225705607017,33.49166666666666],[130.68310072536622,33.491666666666674],[130.682664994,33.491437495],[130.682458612,33.491428892000016]]]]}},{"type":"Feature","id":"40227:50301585","properties":{"id":"40227:50301585","meshCode":"50301585","cityCode":"40227","city":"嘉麻市","lat":33.4913566,"lon":130.6967635,"areaKm2":0.0096819,"populated2020":false,"population2020":null,"populationNote":"境界またぎ・収録外等のため人口未集計"},"geometry":{"type":"Polygon","coordinates":[[[130.697412218,33.491364162],[130.697144163,33.490988892],[130.696718327,33.49089861299999],[130.696122776,33.491169721],[130.69593557709348,33.491666666666674],[130.6977990005738,33.49166666666667],[130.697412218,33.491364162]]]}},{"type":"Feature","id":"40227:50301586","properties":{"id":"40227:50301586","meshCode":"50301586","cityCode":"40227","city":"嘉麻市","lat":33.489946,"lon":130.712108,"areaKm2":0.0659442,"populated2020":false,"population2020":null,"populationNote":"境界またぎ・収録外等のため人口未集計"},"geometry":{"type":"Polygon","coordinates":[[[130.7125,33.48856629185],[130.711903061,33.488588613],[130.711731115,33.488769440999995],[130.711769728,33.489698613],[130.711565279,33.490615],[130.711578054,33.490881945999995],[130.711118054,33.49089055899999],[130.710395551,33.491251946000006],[130.70993527900004,33.491144441],[130.70909083,33.490460279],[130.708845551,33.490340559],[130.708566109,33.490279441000006],[130.708002776,33.490361387],[130.707914163,33.490416946],[130.707568327,33.491251667],[130.706974994,33.491406667],[130.70653477400526,33.491666666666674],[130.7125,33.49166666666667],[130.7125,33.48856629185]]]}},{"type":"Feature","id":"40227:50301594","properties":{"id":"40227:50301594","meshCode":"50301594","cityCode":"40227","city":"嘉麻市","lat":33.4966679,"lon":130.6826177,"areaKm2":0.741593,"populated2020":false,"population2020":null,"populationNote":"境界またぎ・収録外等のため人口未集計"},"geometry":{"type":"Polygon","coordinates":[[[130.68543041591448,33.491666666666674],[130.684486394,33.491988054],[130.683888327,33.49202249500001],[130.68310072536622,33.491666666666674],[130.68225705607017,33.49166666666666],[130.682172503,33.493309441],[130.68193166,33.49378277499999],[130.681726394,33.494474441],[130.681584449,33.494608613],[130.681043333,33.494764162],[130.680634163,33.495410559],[130.680505837,33.495508613000005],[130.679671388,33.495624721000006],[130.679243333,33.495848613000014],[130.678624163,33.495900279000004],[130.677807224,33.496162775],[130.677623891,33.496768613],[130.677398612,33.496984721],[130.676508612,33.49712166700001],[130.675912503,33.497449721],[130.675104449,33.49766472100001],[130.675,33.497861775],[130.675,33.5],[130.6875,33.5],[130.6875,33.49171549485625],[130.6874731128164,33.49166666666667],[130.68543041591448,33.491666666666674]]]}},{"type":"Feature","id":"40227:50301595","properties":{"id":"40227:50301595","meshCode":"50301595","cityCode":"40227","city":"嘉麻市","lat":33.4963165,"lon":130.6939891,"areaKm2":0.9385789,"populated2020":false,"population2020":null,"populationNote":"境界またぎ・収録外等のため人口未集計"},"geometry":{"type":"Polygon","coordinates":[[[130.699778054,33.492189441],[130.699038327,33.492555279],[130.6977990005738,33.49166666666667],[130.69593557709348,33.491666666666674],[130.695796109,33.492783333000006],[130.695666939,33.492835],[130.695331946,33.492727495],[130.695116667,33.492757495],[130.694908612,33.49304027899999],[130.694616109,33.493191946],[130.694216109,33.493110279],[130.692300272,33.492288333],[130.692051115,33.492413054000004],[130.691668327,33.493036946],[130.691148054,33.493084441],[130.690687782,33.493002495],[130.690436109,33.493032495],[130.690315551,33.493118613],[130.690302776,33.493488613],[130.690504721,33.49426722500001],[130.690251115,33.494413613000006],[130.689816667,33.494357775],[130.689115837,33.494103892],[130.687815279,33.49228805400001],[130.6875,33.49171549485625],[130.6875,33.5],[130.7,33.5],[130.7,33.492169495000006],[130.699778054,33.492189441]]]}},{"type":"Feature","id":"40227:50301596","properties":{"id":"40227:50301596","meshCode":"50301596","cityCode":"40227","city":"嘉麻市","lat":33.4959066,"lon":130.7063277,"areaKm2":1.0538889,"populated2020":false,"population2020":null,"populationNote":"境界またぎ・収録外等のため人口未集計"},"geometry":{"type":"Polygon","coordinates":[[[130.706086667,33.491815279],[130.704702218,33.491742225],[130.702599442,33.49197333299999],[130.70122083,33.492357225],[130.700633891,33.49220666699999],[130.7,33.492169495000006],[130.7,33.5],[130.7125,33.5],[130.7125,33.49166666666667],[130.70653477400526,33.491666666666674],[130.706086667,33.491815279]]]}},{"type":"Feature","id":"40227:50301597","properties":{"id":"40227:50301597","meshCode":"50301597","cityCode":"40227","city":"嘉麻市","lat":33.4958333,"lon":130.71875,"areaKm2":1.0734326,"populated2020":true,"population2020":2.9696,"populationNote":"収録500mメッシュ人口の合算（原典収録外は補完しない）"},"geometry":{"type":"Polygon","coordinates":[[[130.725,33.491666666666674],[130.7125,33.49166666666667],[130.7125,33.5],[130.725,33.49999999999999],[130.725,33.491666666666674]]]}},{"type":"Feature","id":"40227:50301598","properties":{"id":"40227:50301598","meshCode":"50301598","cityCode":"40227","city":"嘉麻市","lat":33.4958333,"lon":130.73125,"areaKm2":1.073431,"populated2020":true,"population2020":13.8412,"populationNote":"収録500mメッシュ人口の合算（原典収録外は補完しない）"},"geometry":{"type":"Polygon","coordinates":[[[130.7375,33.491666666666674],[130.725,33.491666666666674],[130.725,33.49999999999999],[130.7375,33.50000000000001],[130.7375,33.491666666666674]]]}},{"type":"Feature","id":"40227:50301599","properties":{"id":"40227:50301599","meshCode":"50301599","cityCode":"40227","city":"嘉麻市","lat":33.4958333,"lon":130.74375,"areaKm2":1.0734295,"populated2020":false,"population2020":null,"populationNote":"境界またぎ・収録外等のため人口未集計"},"geometry":{"type":"Polygon","coordinates":[[[130.75,33.49166666666667],[130.7375,33.491666666666674],[130.7375,33.50000000000001],[130.75,33.50000000000001],[130.75,33.49166666666667]]]}},{"type":"Feature","id":"40227:50301690","properties":{"id":"40227:50301690","meshCode":"50301690","cityCode":"40227","city":"嘉麻市","lat":33.4958333,"lon":130.75625,"areaKm2":1.0734282,"populated2020":false,"population2020":null,"populationNote":"境界またぎ・収録外等のため人口未集計"},"geometry":{"type":"Polygon","coordinates":[[[130.7625,33.49166666666667],[130.75,33.49166666666667],[130.75,33.50000000000001],[130.7625,33.49999999999999],[130.7625,33.49166666666667]]]}},{"type":"Feature","id":"40227:50301691","properties":{"id":"40227:50301691","meshCode":"50301691","cityCode":"40227","city":"嘉麻市","lat":33.4958333,"lon":130.76875,"areaKm2":1.0734267,"populated2020":false,"population2020":null,"populationNote":"境界またぎ・収録外等のため人口未集計"},"geometry":{"type":"Polygon","coordinates":[[[130.775,33.491666666666674],[130.7625,33.49166666666667],[130.7625,33.49999999999999],[130.775,33.5],[130.775,33.491666666666674]]]}},{"type":"Feature","id":"40227:50301692","properties":{"id":"40227:50301692","meshCode":"50301692","cityCode":"40227","city":"嘉麻市","lat":33.4958333,"lon":130.78125,"areaKm2":1.0734255,"populated2020":true,"population2020":17.9282,"populationNote":"収録500mメッシュ人口の合算（原典収録外は補完しない）"},"geometry":{"type":"Polygon","coordinates":[[[130.7875,33.49166666666667],[130.775,33.491666666666674],[130.775,33.5],[130.7875,33.49999999999999],[130.7875,33.49166666666667]]]}},{"type":"Feature","id":"40227:50301693","properties":{"id":"40227:50301693","meshCode":"50301693","cityCode":"40227","city":"嘉麻市","lat":33.4958333,"lon":130.79375,"areaKm2":1.0734243,"populated2020":true,"population2020":30.7573,"populationNote":"収録500mメッシュ人口の合算（原典収録外は補完しない）"},"geometry":{"type":"Polygon","coordinates":[[[130.8,33.49166666666667],[130.7875,33.49166666666667],[130.7875,33.49999999999999],[130.8,33.49999999999999],[130.8,33.49166666666667]]]}},{"type":"Feature","id":"40227:50301694","properties":{"id":"40227:50301694","meshCode":"50301694","cityCode":"40227","city":"嘉麻市","lat":33.4958236,"lon":130.8062341,"areaKm2":1.0706283,"populated2020":false,"population2020":null,"populationNote":"境界またぎ・収録外等のため人口未集計"},"geometry":{"type":"Polygon","coordinates":[[[130.8125,33.49166666666667],[130.8,33.49166666666667],[130.8,33.49999999999999],[130.812015227,33.49999999999999],[130.812294449,33.499623054],[130.812183891,33.499193333],[130.8125,33.499046895948055],[130.8125,33.49166666666667]]]}},{"type":"Feature","id":"40227:50301695","properties":{"id":"40227:50301695","meshCode":"50301695","cityCode":"40227","city":"嘉麻市","lat":33.4946525,"lon":130.8137193,"areaKm2":0.1524318,"populated2020":false,"population2020":null,"populationNote":"境界またぎ・収録外等のため人口未集計"},"geometry":{"type":"Polygon","coordinates":[[[130.815257082,33.495682225],[130.814852218,33.495356387],[130.814770272,33.495193892],[130.814584994,33.494642775],[130.814646109,33.494296667],[130.814585837,33.493942775],[130.81409166,33.493271387],[130.814028612,33.493062225],[130.814176394,33.49296972100001],[130.814644721,33.492904721],[130.81489166,33.492745829],[130.815329728,33.492195829],[130.816212776,33.49213194599999],[130.81649416300002,33.491975559],[130.81677847015715,33.491666666666674],[130.8125,33.49166666666667],[130.8125,33.499046895948055],[130.812834994,33.498978613],[130.813032503,33.498493054],[130.813230558,33.498299162],[130.813234994,33.497803612999995],[130.813624163,33.49753166699999],[130.813837497,33.49711610800001],[130.814173606,33.497026946],[130.814647497,33.497012495],[130.815032503,33.496581667],[130.815354163,33.496381946],[130.81535,33.495899441000006],[130.815257082,33.495682225]]]}},{"type":"Feature","id":"40227:50301593","properties":{"id":"40227:50301593","meshCode":"50301593","cityCode":"40227","city":"嘉麻市","lat":33.4993737,"lon":130.6714285,"areaKm2":0.0774081,"populated2020":false,"population2020":null,"populationNote":"境界またぎ・収録外等のため人口未集計"},"geometry":{"type":"Polygon","coordinates":[[[130.675,33.497861775],[130.674745837,33.498314721],[130.674288327,33.498500559],[130.674204994,33.498598892],[130.674157782,33.49893027900001],[130.673966394,33.49927444099999],[130.673678327,33.499386387],[130.672744994,33.499425279],[130.672104163,33.499291667],[130.670867782,33.498758054],[130.669801115,33.49865027900001],[130.668676394,33.498091108000004],[130.668742503,33.498598054],[130.668594994,33.499042495],[130.668280558,33.49957610800001],[130.668063333,33.499842495],[130.667478275,33.5],[130.675,33.5],[130.675,33.497861775]]]}},{"type":"Feature","id":"40227:50302502","properties":{"id":"40227:50302502","meshCode":"50302502","cityCode":"40227","city":"嘉麻市","lat":33.5037958,"lon":130.6624616,"areaKm2":7.54e-05,"populated2020":true,"population2020":null,"populationNote":"境界またぎ・収録外等のため人口未集計"},"geometry":{"type":"Polygon","coordinates":[[[130.662384721,33.503817225],[130.6625,33.503848528022985],[130.6625,33.5037216070819],[130.662384721,33.503817225]]]}},{"type":"Feature","id":"40227:50302503","properties":{"id":"40227:50302503","meshCode":"50302503","cityCode":"40227","city":"嘉麻市","lat":33.5042655,"lon":130.6698125,"areaKm2":0.8780868,"populated2020":false,"population2020":null,"populationNote":"境界またぎ・収録外等のため人口未集計"},"geometry":{"type":"Polygon","coordinates":[[[130.667306394,33.50019972100001],[130.667375279,33.500741946],[130.667274994,33.500784721],[130.66667166,33.500689162],[130.666339442,33.500748054000006],[130.665683606,33.501518333],[130.665050558,33.502041108],[130.664566109,33.50232277500001],[130.66433,33.502898054],[130.663874721,33.503303613],[130.663064721,33.503428054],[130.6625,33.5037216070819],[130.6625,33.503848528022985],[130.66265194600004,33.503890000000006],[130.66332083,33.504529441],[130.66377166,33.505253613],[130.66420138800004,33.505673613],[130.664399728,33.505806108],[130.664709442,33.505771667000005],[130.664947782,33.505873613],[130.665156109,33.506780559],[130.664995279,33.507361387],[130.665003333,33.507728054],[130.665401115,33.508115279],[130.6654052789679,33.50833333333334],[130.675,33.50833333333333],[130.675,33.5],[130.667478275,33.5],[130.667396667,33.500015279],[130.667306394,33.50019972100001]]]}},{"type":"Feature","id":"40227:50302504","properties":{"id":"40227:50302504","meshCode":"50302504","cityCode":"40227","city":"嘉麻市","lat":33.5041667,"lon":130.68125,"areaKm2":1.0733363,"populated2020":true,"population2020":1.9699,"populationNote":"収録500mメッシュ人口の合算（原典収録外は補完しない）"},"geometry":{"type":"Polygon","coordinates":[[[130.6875,33.5],[130.675,33.5],[130.675,33.50833333333333],[130.6875,33.50833333333334],[130.6875,33.5]]]}},{"type":"Feature","id":"40227:50302505","properties":{"id":"40227:50302505","meshCode":"50302505","cityCode":"40227","city":"嘉麻市","lat":33.5041667,"lon":130.69375,"areaKm2":1.0733346,"populated2020":false,"population2020":null,"populationNote":"境界またぎ・収録外等のため人口未集計"},"geometry":{"type":"Polygon","coordinates":[[[130.7,33.5],[130.6875,33.5],[130.6875,33.50833333333334],[130.7,33.50833333333333],[130.7,33.5]]]}},{"type":"Feature","id":"40227:50302506","properties":{"id":"40227:50302506","meshCode":"50302506","cityCode":"40227","city":"嘉麻市","lat":33.5041667,"lon":130.70625,"areaKm2":1.0733329,"populated2020":false,"population2020":null,"populationNote":"境界またぎ・収録外等のため人口未集計"},"geometry":{"type":"Polygon","coordinates":[[[130.7125,33.5],[130.7,33.5],[130.7,33.50833333333333],[130.7125,33.50833333333333],[130.7125,33.5]]]}},{"type":"Feature","id":"40227:50302507","properties":{"id":"40227:50302507","meshCode":"50302507","cityCode":"40227","city":"嘉麻市","lat":33.5041667,"lon":130.71875,"areaKm2":1.0733312,"populated2020":true,"population2020":8.9643,"populationNote":"収録500mメッシュ人口の合算（原典収録外は補完しない）"},"geometry":{"type":"Polygon","coordinates":[[[130.725,33.49999999999999],[130.7125,33.5],[130.7125,33.50833333333333],[130.725,33.50833333333334],[130.725,33.49999999999999]]]}},{"type":"Feature","id":"40227:50302508","properties":{"id":"40227:50302508","meshCode":"50302508","cityCode":"40227","city":"嘉麻市","lat":33.5041667,"lon":130.73125,"areaKm2":1.0733297,"populated2020":true,"population2020":8.898,"populationNote":"収録500mメッシュ人口の合算（原典収録外は補完しない）"},"geometry":{"type":"Polygon","coordinates":[[[130.7375,33.50000000000001],[130.725,33.49999999999999],[130.725,33.50833333333334],[130.7375,33.50833333333333],[130.7375,33.50000000000001]]]}},{"type":"Feature","id":"40227:50302509","properties":{"id":"40227:50302509","meshCode":"50302509","cityCode":"40227","city":"嘉麻市","lat":33.5041667,"lon":130.74375,"areaKm2":1.0733282,"populated2020":false,"population2020":null,"populationNote":"境界またぎ・収録外等のため人口未集計"},"geometry":{"type":"Polygon","coordinates":[[[130.75,33.50000000000001],[130.7375,33.50000000000001],[130.7375,33.50833333333333],[130.75,33.50833333333334],[130.75,33.50000000000001]]]}},{"type":"Feature","id":"40227:50302600","properties":{"id":"40227:50302600","meshCode":"50302600","cityCode":"40227","city":"嘉麻市","lat":33.5041667,"lon":130.75625,"areaKm2":1.0733267,"populated2020":true,"population2020":32.7611,"populationNote":"収録500mメッシュ人口の合算（原典収録外は補完しない）"},"geometry":{"type":"Polygon","coordinates":[[[130.7625,33.49999999999999],[130.75,33.50000000000001],[130.75,33.50833333333334],[130.7625,33.50833333333334],[130.7625,33.49999999999999]]]}},{"type":"Feature","id":"40227:50302601","properties":{"id":"40227:50302601","meshCode":"50302601","cityCode":"40227","city":"嘉麻市","lat":33.5041667,"lon":130.76875,"areaKm2":1.0733254,"populated2020":true,"population2020":9.9209,"populationNote":"収録500mメッシュ人口の合算（原典収録外は補完しない）"},"geometry":{"type":"Polygon","coordinates":[[[130.775,33.5],[130.7625,33.49999999999999],[130.7625,33.50833333333334],[130.775,33.50833333333334],[130.775,33.5]]]}},{"type":"Feature","id":"40227:50302602","properties":{"id":"40227:50302602","meshCode":"50302602","cityCode":"40227","city":"嘉麻市","lat":33.5041667,"lon":130.78125,"areaKm2":1.0733241,"populated2020":true,"population2020":76.273,"populationNote":"収録500mメッシュ人口の合算（原典収録外は補完しない）"},"geometry":{"type":"Polygon","coordinates":[[[130.7875,33.49999999999999],[130.775,33.5],[130.775,33.50833333333334],[130.7875,33.50833333333334],[130.7875,33.49999999999999]]]}},{"type":"Feature","id":"40227:50302603","properties":{"id":"40227:50302603","meshCode":"50302603","cityCode":"40227","city":"嘉麻市","lat":33.5041667,"lon":130.79375,"areaKm2":1.0733229,"populated2020":true,"population2020":33.6357,"populationNote":"収録500mメッシュ人口の合算（原典収録外は補完しない）"},"geometry":{"type":"Polygon","coordinates":[[[130.8,33.49999999999999],[130.7875,33.49999999999999],[130.7875,33.50833333333334],[130.8,33.50833333333333],[130.8,33.49999999999999]]]}},{"type":"Feature","id":"40227:50302604","properties":{"id":"40227:50302604","meshCode":"50302604","cityCode":"40227","city":"嘉麻市","lat":33.5040894,"lon":130.80537,"areaKm2":0.9207365,"populated2020":false,"population2020":null,"populationNote":"境界またぎ・収録外等のため人口未集計"},"geometry":{"type":"Polygon","coordinates":[[[130.810415837,33.504335],[130.81056221800003,33.50383082900001],[130.810644721,33.50321000000001],[130.81062000000003,33.502550279],[130.810718327,33.502262225],[130.811520272,33.500709441],[130.812015227,33.49999999999999],[130.8,33.49999999999999],[130.8,33.50833333333333],[130.81080011697452,33.50833333333334],[130.810793891,33.50820222499999],[130.810377497,33.507766387000004],[130.810284163,33.50750166700001],[130.810375551,33.50704333299999],[130.810376667,33.506094162],[130.810576667,33.504900829],[130.810543061,33.504584441],[130.810415837,33.504335]]]}},{"type":"Feature","id":"40227:50302513","properties":{"id":"40227:50302513","meshCode":"50302513","cityCode":"40227","city":"嘉麻市","lat":33.5124912,"lon":130.6701121,"areaKm2":0.8388139,"populated2020":true,"population2020":2.9686,"populationNote":"収録500mメッシュ人口の合算（原典収録外は補完しない）"},"geometry":{"type":"Polygon","coordinates":[[[130.6654052789679,33.50833333333334],[130.66554333300002,33.509513054],[130.665125837,33.510185559],[130.665048327,33.510646108],[130.6648,33.511004721000006],[130.664889442,33.511477495],[130.66501,33.511656946],[130.664885837,33.512981667],[130.664967224,33.513372775],[130.665587782,33.513727495],[130.665624449,33.513843613000006],[130.665417782,33.515007225],[130.665204994,33.515447495000004],[130.665364721,33.516450279],[130.66547736666476,33.516666666666666],[130.675,33.516666666666666],[130.675,33.50833333333333],[130.6654052789679,33.50833333333334]]]}},{"type":"Feature","id":"40227:50302514","properties":{"id":"40227:50302514","meshCode":"50302514","cityCode":"40227","city":"嘉麻市","lat":33.5125,"lon":130.68125,"areaKm2":1.073235,"populated2020":true,"population2020":4.9681,"populationNote":"収録500mメッシュ人口の合算（原典収録外は補完しない）"},"geometry":{"type":"Polygon","coordinates":[[[130.6875,33.50833333333334],[130.675,33.50833333333333],[130.675,33.516666666666666],[130.6875,33.516666666666666],[130.6875,33.50833333333334]]]}},{"type":"Feature","id":"40227:50302515","properties":{"id":"40227:50302515","meshCode":"50302515","cityCode":"40227","city":"嘉麻市","lat":33.5125,"lon":130.69375,"areaKm2":1.0732331,"populated2020":true,"population2020":16.8258,"populationNote":"収録500mメッシュ人口の合算（原典収録外は補完しない）"},"geometry":{"type":"Polygon","coordinates":[[[130.7,33.50833333333333],[130.6875,33.50833333333334],[130.6875,33.516666666666666],[130.7,33.516666666666666],[130.7,33.50833333333333]]]}},{"type":"Feature","id":"40227:50302516","properties":{"id":"40227:50302516","meshCode":"50302516","cityCode":"40227","city":"嘉麻市","lat":33.5125,"lon":130.70625,"areaKm2":1.0732314,"populated2020":true,"population2020":29.888,"populationNote":"収録500mメッシュ人口の合算（原典収録外は補完しない）"},"geometry":{"type":"Polygon","coordinates":[[[130.7125,33.50833333333333],[130.7,33.50833333333333],[130.7,33.516666666666666],[130.7125,33.51666666666666],[130.7125,33.50833333333333]]]}},{"type":"Feature","id":"40227:50302517","properties":{"id":"40227:50302517","meshCode":"50302517","cityCode":"40227","city":"嘉麻市","lat":33.5125,"lon":130.71875,"areaKm2":1.0732298,"populated2020":false,"population2020":null,"populationNote":"境界またぎ・収録外等のため人口未集計"},"geometry":{"type":"Polygon","coordinates":[[[130.725,33.50833333333334],[130.7125,33.50833333333333],[130.7125,33.51666666666666],[130.725,33.516666666666666],[130.725,33.50833333333334]]]}},{"type":"Feature","id":"40227:50302518","properties":{"id":"40227:50302518","meshCode":"50302518","cityCode":"40227","city":"嘉麻市","lat":33.5125,"lon":130.73125,"areaKm2":1.0732282,"populated2020":false,"population2020":null,"populationNote":"境界またぎ・収録外等のため人口未集計"},"geometry":{"type":"Polygon","coordinates":[[[130.7375,33.50833333333333],[130.725,33.50833333333334],[130.725,33.516666666666666],[130.7375,33.51666666666667],[130.7375,33.50833333333333]]]}},{"type":"Feature","id":"40227:50302519","properties":{"id":"40227:50302519","meshCode":"50302519","cityCode":"40227","city":"嘉麻市","lat":33.5125,"lon":130.74375,"areaKm2":1.0732266,"populated2020":true,"population2020":34.7209,"populationNote":"収録500mメッシュ人口の合算（原典収録外は補完しない）"},"geometry":{"type":"Polygon","coordinates":[[[130.75,33.50833333333334],[130.7375,33.50833333333333],[130.7375,33.51666666666667],[130.75,33.516666666666666],[130.75,33.50833333333334]]]}},{"type":"Feature","id":"40227:50302610","properties":{"id":"40227:50302610","meshCode":"50302610","cityCode":"40227","city":"嘉麻市","lat":33.5125,"lon":130.75625,"areaKm2":1.0732253,"populated2020":true,"population2020":110.9834,"populationNote":"収録500mメッシュ人口の合算（原典収録外は補完しない）"},"geometry":{"type":"Polygon","coordinates":[[[130.7625,33.50833333333334],[130.75,33.50833333333334],[130.75,33.516666666666666],[130.7625,33.516666666666666],[130.7625,33.50833333333334]]]}},{"type":"Feature","id":"40227:50302611","properties":{"id":"40227:50302611","meshCode":"50302611","cityCode":"40227","city":"嘉麻市","lat":33.5125,"lon":130.76875,"areaKm2":1.0732239,"populated2020":true,"population2020":83.2764,"populationNote":"収録500mメッシュ人口の合算（原典収録外は補完しない）"},"geometry":{"type":"Polygon","coordinates":[[[130.775,33.50833333333334],[130.7625,33.50833333333334],[130.7625,33.516666666666666],[130.775,33.51666666666667],[130.775,33.50833333333334]]]}},{"type":"Feature","id":"40227:50302612","properties":{"id":"40227:50302612","meshCode":"50302612","cityCode":"40227","city":"嘉麻市","lat":33.5125,"lon":130.78125,"areaKm2":1.0732226,"populated2020":true,"population2020":107.0335,"populationNote":"収録500mメッシュ人口の合算（原典収録外は補完しない）"},"geometry":{"type":"Polygon","coordinates":[[[130.7875,33.50833333333334],[130.775,33.50833333333334],[130.775,33.51666666666667],[130.7875,33.51666666666667],[130.7875,33.50833333333334]]]}},{"type":"Feature","id":"40227:50302613","properties":{"id":"40227:50302613","meshCode":"50302613","cityCode":"40227","city":"嘉麻市","lat":33.5125,"lon":130.79375,"areaKm2":1.0732214,"populated2020":false,"population2020":null,"populationNote":"境界またぎ・収録外等のため人口未集計"},"geometry":{"type":"Polygon","coordinates":[[[130.8,33.50833333333333],[130.7875,33.50833333333334],[130.7875,33.51666666666667],[130.8,33.51666666666667],[130.8,33.50833333333333]]]}},{"type":"Feature","id":"40227:50302614","properties":{"id":"40227:50302614","meshCode":"50302614","cityCode":"40227","city":"嘉麻市","lat":33.5115669,"lon":130.8037971,"areaKm2":0.5428821,"populated2020":false,"population2020":null,"populationNote":"境界またぎ・収録外等のため人口未集計"},"geometry":{"type":"Polygon","coordinates":[[[130.806504994,33.51177110799999],[130.808311388,33.511642495],[130.808862503,33.511369441],[130.809136667,33.510861387],[130.810335279,33.509671387000004],[130.810184994,33.50934444100001],[130.81019083,33.50883389199999],[130.810647782,33.508622225],[130.81080011697452,33.50833333333334],[130.8,33.50833333333333],[130.8,33.51666666666667],[130.8042410510697,33.516666666666666],[130.804262776,33.516045829],[130.803646109,33.515302775],[130.803598054,33.515145],[130.803633606,33.51494916200001],[130.804285837,33.51407638700001],[130.804293606,33.512851108],[130.80404917,33.511227775],[130.805709728,33.511543333000006],[130.806504994,33.51177110799999]]]}},{"type":"Feature","id":"40227:50302523","properties":{"id":"40227:50302523","meshCode":"50302523","cityCode":"40227","city":"嘉麻市","lat":33.5208904,"lon":130.6698037,"areaKm2":0.887507,"populated2020":false,"population2020":null,"populationNote":"境界またぎ・収録外等のため人口未集計"},"geometry":{"type":"Polygon","coordinates":[[[130.665799442,33.516853892],[130.665893333,33.51708416200001],[130.665693606,33.51739194599999],[130.665745551,33.51783],[130.665393061,33.518098892000005],[130.664699442,33.518339441],[130.664634163,33.518494162],[130.664644449,33.518636945999994],[130.664932776,33.519115829],[130.664091388,33.520562495],[130.663744994,33.52080110800001],[130.663764449,33.52100277500001],[130.664037497,33.52135944100001],[130.664048612,33.521585829],[130.663456667,33.522623333],[130.663466939,33.52272916199999],[130.663772503,33.522786387],[130.663839728,33.522965559],[130.664317224,33.523441946],[130.664437224,33.523692775],[130.66463083,33.523825279],[130.664899728,33.523876107999996],[130.665515551,33.524269440999994],[130.665781245,33.525],[130.675,33.525000000000006],[130.675,33.516666666666666],[130.66547736666476,33.516666666666666],[130.665799442,33.516853892]]]}},{"type":"Feature","id":"40227:50302524","properties":{"id":"40227:50302524","meshCode":"50302524","cityCode":"40227","city":"嘉麻市","lat":33.5208333,"lon":130.68125,"areaKm2":1.0731334,"populated2020":true,"population2020":28.7964,"populationNote":"収録500mメッシュ人口の合算（原典収録外は補完しない）"},"geometry":{"type":"Polygon","coordinates":[[[130.6875,33.516666666666666],[130.675,33.516666666666666],[130.675,33.525000000000006],[130.6875,33.525],[130.6875,33.516666666666666]]]}},{"type":"Feature","id":"40227:50302525","properties":{"id":"40227:50302525","meshCode":"50302525","cityCode":"40227","city":"嘉麻市","lat":33.5208333,"lon":130.69375,"areaKm2":1.0731318,"populated2020":false,"population2020":null,"populationNote":"境界またぎ・収録外等のため人口未集計"},"geometry":{"type":"Polygon","coordinates":[[[130.7,33.516666666666666],[130.6875,33.516666666666666],[130.6875,33.525],[130.7,33.525000000000006],[130.7,33.516666666666666]]]}},{"type":"Feature","id":"40227:50302526","properties":{"id":"40227:50302526","meshCode":"50302526","cityCode":"40227","city":"嘉麻市","lat":33.5208333,"lon":130.70625,"areaKm2":1.0731299,"populated2020":true,"population2020":87.4227,"populationNote":"収録500mメッシュ人口の合算（原典収録外は補完しない）"},"geometry":{"type":"Polygon","coordinates":[[[130.7125,33.51666666666666],[130.7,33.516666666666666],[130.7,33.525000000000006],[130.7125,33.525000000000006],[130.7125,33.51666666666666]]]}},{"type":"Feature","id":"40227:50302527","properties":{"id":"40227:50302527","meshCode":"50302527","cityCode":"40227","city":"嘉麻市","lat":33.5208333,"lon":130.71875,"areaKm2":1.0731282,"populated2020":true,"population2020":97.4803,"populationNote":"収録500mメッシュ人口の合算（原典収録外は補完しない）"},"geometry":{"type":"Polygon","coordinates":[[[130.725,33.516666666666666],[130.7125,33.51666666666666],[130.7125,33.525000000000006],[130.725,33.525000000000006],[130.725,33.516666666666666]]]}},{"type":"Feature","id":"40227:50302528","properties":{"id":"40227:50302528","meshCode":"50302528","cityCode":"40227","city":"嘉麻市","lat":33.5208333,"lon":130.73125,"areaKm2":1.0731267,"populated2020":false,"population2020":null,"populationNote":"境界またぎ・収録外等のため人口未集計"},"geometry":{"type":"Polygon","coordinates":[[[130.7375,33.51666666666667],[130.725,33.516666666666666],[130.725,33.525000000000006],[130.7375,33.525000000000006],[130.7375,33.51666666666667]]]}},{"type":"Feature","id":"40227:50302529","properties":{"id":"40227:50302529","meshCode":"50302529","cityCode":"40227","city":"嘉麻市","lat":33.5208333,"lon":130.74375,"areaKm2":1.0731253,"populated2020":true,"population2020":66.3861,"populationNote":"収録500mメッシュ人口の合算（原典収録外は補完しない）"},"geometry":{"type":"Polygon","coordinates":[[[130.75,33.516666666666666],[130.7375,33.51666666666667],[130.7375,33.525000000000006],[130.75,33.525],[130.75,33.516666666666666]]]}},{"type":"Feature","id":"40227:50302620","properties":{"id":"40227:50302620","meshCode":"50302620","cityCode":"40227","city":"嘉麻市","lat":33.5208333,"lon":130.75625,"areaKm2":1.0731238,"populated2020":true,"population2020":147.6113,"populationNote":"収録500mメッシュ人口の合算（原典収録外は補完しない）"},"geometry":{"type":"Polygon","coordinates":[[[130.7625,33.516666666666666],[130.75,33.516666666666666],[130.75,33.525],[130.7625,33.525],[130.7625,33.516666666666666]]]}},{"type":"Feature","id":"40227:50302621","properties":{"id":"40227:50302621","meshCode":"50302621","cityCode":"40227","city":"嘉麻市","lat":33.5208333,"lon":130.76875,"areaKm2":1.0731225,"populated2020":true,"population2020":146.6312,"populationNote":"収録500mメッシュ人口の合算（原典収録外は補完しない）"},"geometry":{"type":"Polygon","coordinates":[[[130.775,33.51666666666667],[130.7625,33.516666666666666],[130.7625,33.525],[130.775,33.525],[130.775,33.51666666666667]]]}},{"type":"Feature","id":"40227:50302622","properties":{"id":"40227:50302622","meshCode":"50302622","cityCode":"40227","city":"嘉麻市","lat":33.5208333,"lon":130.78125,"areaKm2":1.0731212,"populated2020":true,"population2020":19.8468,"populationNote":"収録500mメッシュ人口の合算（原典収録外は補完しない）"},"geometry":{"type":"Polygon","coordinates":[[[130.7875,33.51666666666667],[130.775,33.51666666666667],[130.775,33.525],[130.7875,33.525],[130.7875,33.51666666666667]]]}},{"type":"Feature","id":"40227:50302623","properties":{"id":"40227:50302623","meshCode":"50302623","cityCode":"40227","city":"嘉麻市","lat":33.5208333,"lon":130.79375,"areaKm2":1.07312,"populated2020":false,"population2020":null,"populationNote":"境界またぎ・収録外等のため人口未集計"},"geometry":{"type":"Polygon","coordinates":[[[130.8,33.51666666666667],[130.7875,33.51666666666667],[130.7875,33.525],[130.8,33.525000000000006],[130.8,33.51666666666667]]]}},{"type":"Feature","id":"40227:50302624","properties":{"id":"40227:50302624","meshCode":"50302624","cityCode":"40227","city":"嘉麻市","lat":33.5208803,"lon":130.8020862,"areaKm2":0.3572054,"populated2020":false,"population2020":null,"populationNote":"境界またぎ・収録外等のため人口未集計"},"geometry":{"type":"Polygon","coordinates":[[[130.803790558,33.520512225],[130.803860558,33.520200559],[130.804458054,33.51961833300001],[130.804373333,33.518502495],[130.803645279,33.51747722499999],[130.803774163,33.517253892],[130.804102218,33.517001667],[130.8042410510697,33.516666666666666],[130.8,33.51666666666667],[130.8,33.525000000000006],[130.80457,33.525],[130.804306939,33.524331108000005],[130.804211946,33.52278916200001],[130.804055837,33.522135279],[130.804268612,33.521640279],[130.803790558,33.520512225]]]}},{"type":"Feature","id":"40227:50302533","properties":{"id":"40227:50302533","meshCode":"50302533","cityCode":"40227","city":"嘉麻市","lat":33.5273944,"lon":130.6710386,"areaKm2":0.414564,"populated2020":true,"population2020":null,"populationNote":"境界またぎ・収録外等のため人口未集計"},"geometry":{"type":"Polygon","coordinates":[[[130.665774994,33.525545558999994],[130.666528054,33.526004721],[130.666997782,33.526744441000005],[130.66689583700003,33.52695027899999],[130.666485279,33.52703805400001],[130.666316394,33.527325559],[130.666408054,33.52762722500001],[130.66673083,33.528093891999994],[130.666858054,33.528564721],[130.667088054,33.528701108],[130.667427224,33.529098892],[130.668156667,33.529400559],[130.668964449,33.529422775],[130.669478885,33.529787495],[130.669603061,33.529767225],[130.669758054,33.529463613],[130.669935279,33.52934333300001],[130.670748885,33.529879441],[130.671436667,33.52961249500001],[130.672222776,33.52907638700001],[130.672467224,33.529100829],[130.673003061,33.529459720999995],[130.673179442,33.529687775],[130.673146667,33.530164721],[130.673017497,33.530340279],[130.673339442,33.53086610799999],[130.673588612,33.531053332999996],[130.673802503,33.531104162],[130.674156939,33.531118613000004],[130.674378885,33.531018892],[130.674688612,33.531002495],[130.675,33.53116180200001],[130.675,33.525000000000006],[130.665781245,33.525],[130.665774994,33.525545558999994]]]}},{"type":"Feature","id":"40227:50302534","properties":{"id":"40227:50302534","meshCode":"50302534","cityCode":"40227","city":"嘉麻市","lat":33.5289862,"lon":130.6815357,"areaKm2":1.0142509,"populated2020":true,"population2020":41.6081,"populationNote":"収録500mメッシュ人口の合算（原典収録外は補完しない）"},"geometry":{"type":"Polygon","coordinates":[[[130.6875,33.525],[130.675,33.525000000000006],[130.675,33.53116180200001],[130.675095279,33.531210559],[130.675688054,33.53111055899999],[130.676316667,33.53117166700001],[130.676732218,33.531061666999996],[130.677056109,33.531086108],[130.677293333,33.531218892000005],[130.677523606,33.531516667],[130.677544994,33.531901387000005],[130.677305837,33.532584162],[130.677424163,33.532775829],[130.678000558,33.53300000000001],[130.6784211151381,33.53333333333334],[130.6875,33.53333333333334],[130.6875,33.525]]]}},{"type":"Feature","id":"40227:50302535","properties":{"id":"40227:50302535","meshCode":"50302535","cityCode":"40227","city":"嘉麻市","lat":33.5291667,"lon":130.69375,"areaKm2":1.0730302,"populated2020":true,"population2020":29.7328,"populationNote":"収録500mメッシュ人口の合算（原典収録外は補完しない）"},"geometry":{"type":"Polygon","coordinates":[[[130.7,33.525000000000006],[130.6875,33.525],[130.6875,33.53333333333334],[130.7,33.53333333333333],[130.7,33.525000000000006]]]}},{"type":"Feature","id":"40227:50302536","properties":{"id":"40227:50302536","meshCode":"50302536","cityCode":"40227","city":"嘉麻市","lat":33.5291667,"lon":130.70625,"areaKm2":1.0730286,"populated2020":true,"population2020":137.7535,"populationNote":"収録500mメッシュ人口の合算（原典収録外は補完しない）"},"geometry":{"type":"Polygon","coordinates":[[[130.7125,33.525000000000006],[130.7,33.525000000000006],[130.7,33.53333333333333],[130.7125,33.53333333333333],[130.7125,33.525000000000006]]]}},{"type":"Feature","id":"40227:50302537","properties":{"id":"40227:50302537","meshCode":"50302537","cityCode":"40227","city":"嘉麻市","lat":33.5291667,"lon":130.71875,"areaKm2":1.073027,"populated2020":true,"population2020":130.962,"populationNote":"収録500mメッシュ人口の合算（原典収録外は補完しない）"},"geometry":{"type":"Polygon","coordinates":[[[130.725,33.525000000000006],[130.7125,33.525000000000006],[130.7125,33.53333333333333],[130.725,33.53333333333333],[130.725,33.525000000000006]]]}},{"type":"Feature","id":"40227:50302538","properties":{"id":"40227:50302538","meshCode":"50302538","cityCode":"40227","city":"嘉麻市","lat":33.5291667,"lon":130.73125,"areaKm2":1.0730254,"populated2020":true,"population2020":9.8793,"populationNote":"収録500mメッシュ人口の合算（原典収録外は補完しない）"},"geometry":{"type":"Polygon","coordinates":[[[130.7375,33.525000000000006],[130.725,33.525000000000006],[130.725,33.53333333333333],[130.7375,33.53333333333333],[130.7375,33.525000000000006]]]}},{"type":"Feature","id":"40227:50302539","properties":{"id":"40227:50302539","meshCode":"50302539","cityCode":"40227","city":"嘉麻市","lat":33.5291667,"lon":130.74375,"areaKm2":1.0730238,"populated2020":true,"population2020":140.0602,"populationNote":"収録500mメッシュ人口の合算（原典収録外は補完しない）"},"geometry":{"type":"Polygon","coordinates":[[[130.75,33.525],[130.7375,33.525000000000006],[130.7375,33.53333333333333],[130.75,33.53333333333333],[130.75,33.525]]]}},{"type":"Feature","id":"40227:50302630","properties":{"id":"40227:50302630","meshCode":"50302630","cityCode":"40227","city":"嘉麻市","lat":33.5291667,"lon":130.75625,"areaKm2":1.0730223,"populated2020":true,"population2020":271.8445,"populationNote":"収録500mメッシュ人口の合算（原典収録外は補完しない）"},"geometry":{"type":"Polygon","coordinates":[[[130.7625,33.525],[130.75,33.525],[130.75,33.53333333333333],[130.7625,33.533333333333324],[130.7625,33.525]]]}},{"type":"Feature","id":"40227:50302631","properties":{"id":"40227:50302631","meshCode":"50302631","cityCode":"40227","city":"嘉麻市","lat":33.5291667,"lon":130.76875,"areaKm2":1.073021,"populated2020":true,"population2020":139.9044,"populationNote":"収録500mメッシュ人口の合算（原典収録外は補完しない）"},"geometry":{"type":"Polygon","coordinates":[[[130.775,33.525],[130.7625,33.525],[130.7625,33.533333333333324],[130.775,33.533333333333324],[130.775,33.525]]]}},{"type":"Feature","id":"40227:50302632","properties":{"id":"40227:50302632","meshCode":"50302632","cityCode":"40227","city":"嘉麻市","lat":33.5291667,"lon":130.78125,"areaKm2":1.0730198,"populated2020":true,"population2020":52.4931,"populationNote":"収録500mメッシュ人口の合算（原典収録外は補完しない）"},"geometry":{"type":"Polygon","coordinates":[[[130.7875,33.525],[130.775,33.525],[130.775,33.533333333333324],[130.7875,33.53333333333333],[130.7875,33.525]]]}},{"type":"Feature","id":"40227:50302633","properties":{"id":"40227:50302633","meshCode":"50302633","cityCode":"40227","city":"嘉麻市","lat":33.5291667,"lon":130.79375,"areaKm2":1.0730185,"populated2020":false,"population2020":null,"populationNote":"境界またぎ・収録外等のため人口未集計"},"geometry":{"type":"Polygon","coordinates":[[[130.8,33.525000000000006],[130.7875,33.525],[130.7875,33.53333333333333],[130.8,33.53333333333333],[130.8,33.525000000000006]]]}},{"type":"Feature","id":"40227:50302634","properties":{"id":"40227:50302634","meshCode":"50302634","cityCode":"40227","city":"嘉麻市","lat":33.529302,"lon":130.802698,"areaKm2":0.4588724,"populated2020":false,"population2020":null,"populationNote":"境界またぎ・収録外等のため人口未集計"},"geometry":{"type":"Polygon","coordinates":[[[130.805544994,33.528705829],[130.80517083,33.528197774999995],[130.804691946,33.52644055900001],[130.804828327,33.525666108],[130.80457,33.525],[130.8,33.525000000000006],[130.8,33.53333333333333],[130.8050866669923,33.53333333333334],[130.805228612,33.531996387],[130.805314163,33.531847495],[130.805444994,33.53174277499999],[130.80615,33.53159055900001],[130.806476109,33.531219441],[130.806422218,33.53109222500001],[130.806126939,33.53094000000001],[130.806014163,33.530686387],[130.805943333,33.529947494999995],[130.805544994,33.528705829]]]}},{"type":"Feature","id":"40227:50302544","properties":{"id":"40227:50302544","meshCode":"50302544","cityCode":"40227","city":"嘉麻市","lat":33.5372619,"lon":130.6836654,"areaKm2":0.6495535,"populated2020":true,"population2020":null,"populationNote":"境界またぎ・収録外等のため人口未集計"},"geometry":{"type":"Polygon","coordinates":[[[130.678487497,33.533856946],[130.67857917,33.53404444099999],[130.679295551,33.53440305400001],[130.679486667,33.534655829],[130.679407224,33.53489],[130.67874444900002,33.53537527899999],[130.678728054,33.535562775],[130.678953061,33.53580138699999],[130.679582503,33.535833892],[130.679757497,33.535974441],[130.679862503,33.536386387],[130.680458327,33.53709610800001],[130.680703891,33.537566667],[130.680681388,33.53784],[130.680520558,33.537933333],[130.679974449,33.53798249500001],[130.679719728,33.537858054],[130.679411115,33.537843892],[130.679183061,33.537886667],[130.67905861200003,33.538139441000006],[130.679134163,33.538298333],[130.67985083,33.53884500000001],[130.680350558,33.539045829],[130.680750272,33.54046222499999],[130.681464449,33.541342775],[130.68135786019127,33.541666666666664],[130.6875,33.54166666666667],[130.6875,33.53333333333334],[130.6784211151381,33.53333333333334],[130.678523333,33.533622225],[130.678487497,33.533856946]]]}},{"type":"Feature","id":"40227:50302545","properties":{"id":"40227:50302545","meshCode":"50302545","cityCode":"40227","city":"嘉麻市","lat":33.5375,"lon":130.69375,"areaKm2":1.0729286,"populated2020":true,"population2020":68.4729,"populationNote":"収録500mメッシュ人口の合算（原典収録外は補完しない）"},"geometry":{"type":"Polygon","coordinates":[[[130.7,33.53333333333333],[130.6875,33.53333333333334],[130.6875,33.54166666666667],[130.7,33.541666666666664],[130.7,33.53333333333333]]]}},{"type":"Feature","id":"40227:50302546","properties":{"id":"40227:50302546","meshCode":"50302546","cityCode":"40227","city":"嘉麻市","lat":33.5375,"lon":130.70625,"areaKm2":1.072927,"populated2020":true,"population2020":139.6709,"populationNote":"収録500mメッシュ人口の合算（原典収録外は補完しない）"},"geometry":{"type":"Polygon","coordinates":[[[130.7125,33.53333333333333],[130.7,33.53333333333333],[130.7,33.541666666666664],[130.7125,33.541666666666664],[130.7125,33.53333333333333]]]}},{"type":"Feature","id":"40227:50302547","properties":{"id":"40227:50302547","meshCode":"50302547","cityCode":"40227","city":"嘉麻市","lat":33.5375,"lon":130.71875,"areaKm2":1.0729254,"populated2020":true,"population2020":128.031,"populationNote":"収録500mメッシュ人口の合算（原典収録外は補完しない）"},"geometry":{"type":"Polygon","coordinates":[[[130.725,33.53333333333333],[130.7125,33.53333333333333],[130.7125,33.541666666666664],[130.725,33.541666666666664],[130.725,33.53333333333333]]]}},{"type":"Feature","id":"40227:50302548","properties":{"id":"40227:50302548","meshCode":"50302548","cityCode":"40227","city":"嘉麻市","lat":33.5375,"lon":130.73125,"areaKm2":1.0729238,"populated2020":true,"population2020":12.896,"populationNote":"収録500mメッシュ人口の合算（原典収録外は補完しない）"},"geometry":{"type":"Polygon","coordinates":[[[130.7375,33.53333333333333],[130.725,33.53333333333333],[130.725,33.541666666666664],[130.7375,33.54166666666667],[130.7375,33.53333333333333]]]}},{"type":"Feature","id":"40227:50302549","properties":{"id":"40227:50302549","meshCode":"50302549","cityCode":"40227","city":"嘉麻市","lat":33.5375,"lon":130.74375,"areaKm2":1.0729222,"populated2020":true,"population2020":227.9914,"populationNote":"収録500mメッシュ人口の合算（原典収録外は補完しない）"},"geometry":{"type":"Polygon","coordinates":[[[130.75,33.53333333333333],[130.7375,33.53333333333333],[130.7375,33.54166666666667],[130.75,33.541666666666664],[130.75,33.53333333333333]]]}},{"type":"Feature","id":"40227:50302640","properties":{"id":"40227:50302640","meshCode":"50302640","cityCode":"40227","city":"嘉麻市","lat":33.5375,"lon":130.75625,"areaKm2":1.0729209,"populated2020":true,"population2020":288.3673,"populationNote":"収録500mメッシュ人口の合算（原典収録外は補完しない）"},"geometry":{"type":"Polygon","coordinates":[[[130.7625,33.533333333333324],[130.75,33.53333333333333],[130.75,33.541666666666664],[130.7625,33.541666666666664],[130.7625,33.533333333333324]]]}},{"type":"Feature","id":"40227:50302641","properties":{"id":"40227:50302641","meshCode":"50302641","cityCode":"40227","city":"嘉麻市","lat":33.5375,"lon":130.76875,"areaKm2":1.0729195,"populated2020":true,"population2020":23.7421,"populationNote":"収録500mメッシュ人口の合算（原典収録外は補完しない）"},"geometry":{"type":"Polygon","coordinates":[[[130.775,33.533333333333324],[130.7625,33.533333333333324],[130.7625,33.541666666666664],[130.775,33.54166666666666],[130.775,33.533333333333324]]]}},{"type":"Feature","id":"40227:50302642","properties":{"id":"40227:50302642","meshCode":"50302642","cityCode":"40227","city":"嘉麻市","lat":33.5375,"lon":130.78125,"areaKm2":1.0729182,"populated2020":true,"population2020":120.0088,"populationNote":"収録500mメッシュ人口の合算（原典収録外は補完しない）"},"geometry":{"type":"Polygon","coordinates":[[[130.7875,33.53333333333333],[130.775,33.533333333333324],[130.775,33.54166666666666],[130.7875,33.54166666666666],[130.7875,33.53333333333333]]]}},{"type":"Feature","id":"40227:50302643","properties":{"id":"40227:50302643","meshCode":"50302643","cityCode":"40227","city":"嘉麻市","lat":33.5375,"lon":130.79375,"areaKm2":1.072917,"populated2020":true,"population2020":83.1564,"populationNote":"収録500mメッシュ人口の合算（原典収録外は補完しない）"},"geometry":{"type":"Polygon","coordinates":[[[130.8,33.53333333333333],[130.7875,33.53333333333333],[130.7875,33.54166666666666],[130.8,33.541666666666664],[130.8,33.53333333333333]]]}},{"type":"Feature","id":"40227:50302644","properties":{"id":"40227:50302644","meshCode":"50302644","cityCode":"40227","city":"嘉麻市","lat":33.536956,"lon":130.802607,"areaKm2":0.4155082,"populated2020":false,"population2020":null,"populationNote":"境界またぎ・収録外等のため人口未集計"},"geometry":{"type":"Polygon","coordinates":[[[130.80521861200003,33.537341108],[130.806252776,33.537111946],[130.806678885,33.536843892],[130.806714449,33.536491946],[130.806532776,33.536089999999994],[130.806339442,33.534895829],[130.806188327,33.534653612999996],[130.805229442,33.533892495],[130.8050866669923,33.53333333333334],[130.8,33.53333333333333],[130.8,33.541666666666664],[130.8030937739431,33.54166666666667],[130.803114994,33.54109082899999],[130.803443061,33.540515000000006],[130.80351527900004,33.539760559],[130.803444994,33.539281667],[130.803613333,33.538491666999995],[130.80521861200003,33.537341108]]]}},{"type":"Feature","id":"40227:50302554","properties":{"id":"40227:50302554","meshCode":"50302554","cityCode":"40227","city":"嘉麻市","lat":33.5455135,"lon":130.6860317,"areaKm2":0.2201197,"populated2020":true,"population2020":null,"populationNote":"境界またぎ・収録外等のため人口未集計"},"geometry":{"type":"Polygon","coordinates":[[[130.681341115,33.541695829],[130.681414449,33.54195666700001],[130.681644721,33.542078892],[130.682957497,33.542346386999995],[130.684662776,33.54171000000001],[130.684925837,33.541812225],[130.685048054,33.542226108],[130.684813891,33.542792495],[130.68467,33.543495279],[130.685162776,33.54385444100001],[130.685232218,33.544044162],[130.685181115,33.54432361300001],[130.684961388,33.544658613],[130.68514,33.545204162000005],[130.684933061,33.54583916200001],[130.685163606,33.546155558999985],[130.685475837,33.546363891999995],[130.685596394,33.546586387],[130.685729728,33.547196666999994],[130.685951115,33.547590829],[130.685975551,33.547868333],[130.685910272,33.548146108],[130.685738054,33.548317775],[130.684702218,33.54854444099999],[130.684463333,33.548808054],[130.684344994,33.549151108000004],[130.684717782,33.549726667],[130.685011725,33.55],[130.6875,33.54999999999999],[130.6875,33.54166666666667],[130.681341115,33.541695829]]]}},{"type":"Feature","id":"40227:50302555","properties":{"id":"40227:50302555","meshCode":"50302555","cityCode":"40227","city":"嘉麻市","lat":33.5458333,"lon":130.69375,"areaKm2":1.0728272,"populated2020":true,"population2020":25.8036,"populationNote":"収録500mメッシュ人口の合算（原典収録外は補完しない）"},"geometry":{"type":"Polygon","coordinates":[[[130.7,33.541666666666664],[130.6875,33.54166666666667],[130.6875,33.54999999999999],[130.7,33.55],[130.7,33.541666666666664]]]}},{"type":"Feature","id":"40227:50302556","properties":{"id":"40227:50302556","meshCode":"50302556","cityCode":"40227","city":"嘉麻市","lat":33.5458333,"lon":130.70625,"areaKm2":1.0728254,"populated2020":true,"population2020":200.186,"populationNote":"収録500mメッシュ人口の合算（原典収録外は補完しない）"},"geometry":{"type":"Polygon","coordinates":[[[130.7125,33.541666666666664],[130.7,33.541666666666664],[130.7,33.55],[130.7125,33.54999999999999],[130.7125,33.541666666666664]]]}},{"type":"Feature","id":"40227:50302557","properties":{"id":"40227:50302557","meshCode":"50302557","cityCode":"40227","city":"嘉麻市","lat":33.5458333,"lon":130.71875,"areaKm2":1.0728238,"populated2020":true,"population2020":138.019,"populationNote":"収録500mメッシュ人口の合算（原典収録外は補完しない）"},"geometry":{"type":"Polygon","coordinates":[[[130.725,33.541666666666664],[130.7125,33.541666666666664],[130.7125,33.54999999999999],[130.725,33.55],[130.725,33.541666666666664]]]}},{"type":"Feature","id":"40227:50302558","properties":{"id":"40227:50302558","meshCode":"50302558","cityCode":"40227","city":"嘉麻市","lat":33.5458333,"lon":130.73125,"areaKm2":1.0728222,"populated2020":true,"population2020":300.4404,"populationNote":"収録500mメッシュ人口の合算（原典収録外は補完しない）"},"geometry":{"type":"Polygon","coordinates":[[[130.7375,33.54166666666667],[130.725,33.541666666666664],[130.725,33.55],[130.7375,33.55],[130.7375,33.54166666666667]]]}},{"type":"Feature","id":"40227:50302559","properties":{"id":"40227:50302559","meshCode":"50302559","cityCode":"40227","city":"嘉麻市","lat":33.5458333,"lon":130.74375,"areaKm2":1.0728207,"populated2020":true,"population2020":619.9887,"populationNote":"収録500mメッシュ人口の合算（原典収録外は補完しない）"},"geometry":{"type":"Polygon","coordinates":[[[130.75,33.541666666666664],[130.7375,33.54166666666667],[130.7375,33.55],[130.75,33.55],[130.75,33.541666666666664]]]}},{"type":"Feature","id":"40227:50302650","properties":{"id":"40227:50302650","meshCode":"50302650","cityCode":"40227","city":"嘉麻市","lat":33.5458333,"lon":130.75625,"areaKm2":1.0728194,"populated2020":true,"population2020":72.4187,"populationNote":"収録500mメッシュ人口の合算（原典収録外は補完しない）"},"geometry":{"type":"Polygon","coordinates":[[[130.7625,33.541666666666664],[130.75,33.541666666666664],[130.75,33.55],[130.7625,33.55],[130.7625,33.541666666666664]]]}},{"type":"Feature","id":"40227:50302651","properties":{"id":"40227:50302651","meshCode":"50302651","cityCode":"40227","city":"嘉麻市","lat":33.5458333,"lon":130.76875,"areaKm2":1.072818,"populated2020":true,"population2020":240.9014,"populationNote":"収録500mメッシュ人口の合算（原典収録外は補完しない）"},"geometry":{"type":"Polygon","coordinates":[[[130.775,33.54166666666666],[130.7625,33.541666666666664],[130.7625,33.55],[130.775,33.55],[130.775,33.54166666666666]]]}},{"type":"Feature","id":"40227:50302652","properties":{"id":"40227:50302652","meshCode":"50302652","cityCode":"40227","city":"嘉麻市","lat":33.5458333,"lon":130.78125,"areaKm2":1.0728167,"populated2020":true,"population2020":134.7586,"populationNote":"収録500mメッシュ人口の合算（原典収録外は補完しない）"},"geometry":{"type":"Polygon","coordinates":[[[130.7875,33.54166666666666],[130.775,33.54166666666666],[130.775,33.55],[130.7875,33.55],[130.7875,33.54166666666666]]]}},{"type":"Feature","id":"40227:50302653","properties":{"id":"40227:50302653","meshCode":"50302653","cityCode":"40227","city":"嘉麻市","lat":33.5458274,"lon":130.7937408,"areaKm2":1.0711969,"populated2020":true,"population2020":57.4874,"populationNote":"収録500mメッシュ人口の合算（原典収録外は補完しない）"},"geometry":{"type":"Polygon","coordinates":[[[130.8,33.541666666666664],[130.7875,33.54166666666666],[130.7875,33.55],[130.79957808,33.55],[130.8,33.549220279000004],[130.8,33.541666666666664]]]}},{"type":"Feature","id":"40227:50302654","properties":{"id":"40227:50302654","meshCode":"50302654","cityCode":"40227","city":"嘉麻市","lat":33.5447831,"lon":130.8014887,"areaKm2":0.206108,"populated2020":false,"population2020":null,"populationNote":"境界またぎ・収録外等のため人口未集計"},"geometry":{"type":"Polygon","coordinates":[[[130.803063061,33.545197225],[130.803475551,33.543917775],[130.803721946,33.543425],[130.803293891,33.54258527900001],[130.8030937739431,33.54166666666667],[130.8,33.541666666666664],[130.8,33.549220279000004],[130.800186667,33.54902],[130.800683061,33.548873333],[130.80137083,33.548123892],[130.802117224,33.547553892],[130.802668612,33.547234162],[130.802540558,33.54641055900001],[130.803063061,33.545197225]]]}},{"type":"Feature","id":"40227:50302564","properties":{"id":"40227:50302564","meshCode":"50302564","cityCode":"40227","city":"嘉麻市","lat":33.5502645,"lon":130.6864149,"areaKm2":0.0119004,"populated2020":false,"population2020":null,"populationNote":"境界またぎ・収録外等のため人口未集計"},"geometry":{"type":"Polygon","coordinates":[[[130.685042776,33.550028892],[130.685593333,33.550404441],[130.686510558,33.550686387],[130.686798327,33.550650559000005],[130.6875,33.550346558809714],[130.6875,33.54999999999999],[130.685042776,33.550028892]]]}},{"type":"Feature","id":"40227:50302565","properties":{"id":"40227:50302565","meshCode":"50302565","cityCode":"40227","city":"嘉麻市","lat":33.5538592,"lon":130.6959789,"areaKm2":0.6746468,"populated2020":true,"population2020":47.464,"populationNote":"収録500mメッシュ人口の合算（原典収録外は補完しない）"},"geometry":{"type":"Polygon","coordinates":[[[130.688206109,33.550253333],[130.689851115,33.550339441],[130.690849728,33.550621108],[130.691563891,33.551196946],[130.691935551,33.551678892000005],[130.692137497,33.55208749500001],[130.691754721,33.552311387],[130.69161360600003,33.552622495],[130.692075551,33.554293892],[130.692788327,33.555589721000004],[130.69292166,33.55597333299999],[130.69303499400002,33.556990829],[130.69359917,33.55746110799999],[130.69361141399054,33.55833333333334],[130.7,33.558333333333344],[130.7,33.55],[130.6875,33.54999999999999],[130.6875,33.550346558809714],[130.688206109,33.550253333]]]}},{"type":"Feature","id":"40227:50302566","properties":{"id":"40227:50302566","meshCode":"50302566","cityCode":"40227","city":"嘉麻市","lat":33.5541667,"lon":130.70625,"areaKm2":1.0727238,"populated2020":true,"population2020":764.9726,"populationNote":"収録500mメッシュ人口の合算（原典収録外は補完しない）"},"geometry":{"type":"Polygon","coordinates":[[[130.7125,33.54999999999999],[130.7,33.55],[130.7,33.558333333333344],[130.7125,33.55833333333334],[130.7125,33.54999999999999]]]}},{"type":"Feature","id":"40227:50302567","properties":{"id":"40227:50302567","meshCode":"50302567","cityCode":"40227","city":"嘉麻市","lat":33.5541667,"lon":130.71875,"areaKm2":1.0727222,"populated2020":true,"population2020":126.9923,"populationNote":"収録500mメッシュ人口の合算（原典収録外は補完しない）"},"geometry":{"type":"Polygon","coordinates":[[[130.725,33.55],[130.7125,33.54999999999999],[130.7125,33.55833333333334],[130.725,33.558333333333344],[130.725,33.55]]]}},{"type":"Feature","id":"40227:50302568","properties":{"id":"40227:50302568","meshCode":"50302568","cityCode":"40227","city":"嘉麻市","lat":33.5541667,"lon":130.73125,"areaKm2":1.0727206,"populated2020":true,"population2020":258.9393,"populationNote":"収録500mメッシュ人口の合算（原典収録外は補完しない）"},"geometry":{"type":"Polygon","coordinates":[[[130.7375,33.55],[130.725,33.55],[130.725,33.558333333333344],[130.7375,33.558333333333344],[130.7375,33.55]]]}},{"type":"Feature","id":"40227:50302569","properties":{"id":"40227:50302569","meshCode":"50302569","cityCode":"40227","city":"嘉麻市","lat":33.5541667,"lon":130.74375,"areaKm2":1.0727193,"populated2020":true,"population2020":447.4406,"populationNote":"収録500mメッシュ人口の合算（原典収録外は補完しない）"},"geometry":{"type":"Polygon","coordinates":[[[130.75,33.55],[130.7375,33.55],[130.7375,33.558333333333344],[130.75,33.55833333333334],[130.75,33.55]]]}},{"type":"Feature","id":"40227:50302660","properties":{"id":"40227:50302660","meshCode":"50302660","cityCode":"40227","city":"嘉麻市","lat":33.5541667,"lon":130.75625,"areaKm2":1.0727178,"populated2020":true,"population2020":262.4249,"populationNote":"収録500mメッシュ人口の合算（原典収録外は補完しない）"},"geometry":{"type":"Polygon","coordinates":[[[130.7625,33.55],[130.75,33.55],[130.75,33.55833333333334],[130.7625,33.55833333333334],[130.7625,33.55]]]}},{"type":"Feature","id":"40227:50302661","properties":{"id":"40227:50302661","meshCode":"50302661","cityCode":"40227","city":"嘉麻市","lat":33.5541667,"lon":130.76875,"areaKm2":1.0727164,"populated2020":true,"population2020":851.5286,"populationNote":"収録500mメッシュ人口の合算（原典収録外は補完しない）"},"geometry":{"type":"Polygon","coordinates":[[[130.775,33.55],[130.7625,33.55],[130.7625,33.55833333333334],[130.775,33.558333333333344],[130.775,33.55]]]}},{"type":"Feature","id":"40227:50302662","properties":{"id":"40227:50302662","meshCode":"50302662","cityCode":"40227","city":"嘉麻市","lat":33.5541667,"lon":130.78125,"areaKm2":1.0727152,"populated2020":true,"population2020":199.4117,"populationNote":"収録500mメッシュ人口の合算（原典収録外は補完しない）"},"geometry":{"type":"Polygon","coordinates":[[[130.7875,33.55],[130.775,33.55],[130.775,33.558333333333344],[130.7875,33.55833333333334],[130.7875,33.55]]]}},{"type":"Feature","id":"40227:50302663","properties":{"id":"40227:50302663","meshCode":"50302663","cityCode":"40227","city":"嘉麻市","lat":33.5533702,"lon":130.7916883,"areaKm2":0.6446899,"populated2020":false,"population2020":null,"populationNote":"境界またぎ・収録外等のため人口未集計"},"geometry":{"type":"Polygon","coordinates":[[[130.795408612,33.554461946],[130.795817782,33.553536667],[130.79598972800002,33.55336194600001],[130.797177497,33.552881667],[130.797317224,33.552415278999995],[130.797688327,33.551985279],[130.79780083,33.550781387],[130.798163606,33.550428054],[130.798533891,33.55019889199999],[130.799456394,33.55007249500001],[130.79957808,33.55],[130.7875,33.55],[130.7875,33.55833333333334],[130.79159263306616,33.55833333333334],[130.791624449,33.557236667],[130.791543606,33.55607222500001],[130.792909728,33.555957775],[130.79385805400003,33.555171946],[130.79476917,33.554810559],[130.795408612,33.554461946]]]}},{"type":"Feature","id":"40227:50302575","properties":{"id":"40227:50302575","meshCode":"50302575","cityCode":"40227","city":"嘉麻市","lat":33.5626661,"lon":130.6965963,"areaKm2":0.5810495,"populated2020":true,"population2020":null,"populationNote":"境界またぎ・収録外等のため人口未集計"},"geometry":{"type":"Polygon","coordinates":[[[130.693971388,33.558773333],[130.693992503,33.560051387],[130.69386166,33.56035],[130.693595279,33.560564162],[130.693143333,33.561480559],[130.693213061,33.562857775000005],[130.693017224,33.563626946],[130.692968885,33.56424055899999],[130.69262,33.565213892],[130.692628054,33.565581107999996],[130.692256667,33.56609416199999],[130.692654163,33.566344721],[130.69289019475562,33.56666666666668],[130.7,33.56666666666668],[130.7,33.558333333333344],[130.69361141399054,33.55833333333334],[130.693971388,33.558773333]]]}},{"type":"Feature","id":"40227:50302576","properties":{"id":"40227:50302576","meshCode":"50302576","cityCode":"40227","city":"嘉麻市","lat":33.5625,"lon":130.70625,"areaKm2":1.0726222,"populated2020":true,"population2020":704.4637,"populationNote":"収録500mメッシュ人口の合算（原典収録外は補完しない）"},"geometry":{"type":"Polygon","coordinates":[[[130.7125,33.55833333333334],[130.7,33.558333333333344],[130.7,33.56666666666668],[130.7125,33.56666666666668],[130.7125,33.55833333333334]]]}},{"type":"Feature","id":"40227:50302577","properties":{"id":"40227:50302577","meshCode":"50302577","cityCode":"40227","city":"嘉麻市","lat":33.5625,"lon":130.71875,"areaKm2":1.0726206,"populated2020":true,"population2020":644.4138,"populationNote":"収録500mメッシュ人口の合算（原典収録外は補完しない）"},"geometry":{"type":"Polygon","coordinates":[[[130.725,33.558333333333344],[130.7125,33.55833333333334],[130.7125,33.56666666666668],[130.725,33.56666666666668],[130.725,33.558333333333344]]]}},{"type":"Feature","id":"40227:50302578","properties":{"id":"40227:50302578","meshCode":"50302578","cityCode":"40227","city":"嘉麻市","lat":33.5625,"lon":130.73125,"areaKm2":1.072619,"populated2020":true,"population2020":435.9986,"populationNote":"収録500mメッシュ人口の合算（原典収録外は補完しない）"},"geometry":{"type":"Polygon","coordinates":[[[130.7375,33.558333333333344],[130.725,33.558333333333344],[130.725,33.56666666666668],[130.7375,33.56666666666668],[130.7375,33.558333333333344]]]}},{"type":"Feature","id":"40227:50302579","properties":{"id":"40227:50302579","meshCode":"50302579","cityCode":"40227","city":"嘉麻市","lat":33.5625,"lon":130.74375,"areaKm2":1.0726178,"populated2020":true,"population2020":29.8206,"populationNote":"収録500mメッシュ人口の合算（原典収録外は補完しない）"},"geometry":{"type":"Polygon","coordinates":[[[130.75,33.55833333333334],[130.7375,33.558333333333344],[130.7375,33.56666666666668],[130.75,33.56666666666668],[130.75,33.55833333333334]]]}},{"type":"Feature","id":"40227:50302670","properties":{"id":"40227:50302670","meshCode":"50302670","cityCode":"40227","city":"嘉麻市","lat":33.5625,"lon":130.75625,"areaKm2":1.0726162,"populated2020":true,"population2020":532.7174,"populationNote":"収録500mメッシュ人口の合算（原典収録外は補完しない）"},"geometry":{"type":"Polygon","coordinates":[[[130.7625,33.55833333333334],[130.75,33.55833333333334],[130.75,33.56666666666668],[130.7625,33.56666666666668],[130.7625,33.55833333333334]]]}},{"type":"Feature","id":"40227:50302671","properties":{"id":"40227:50302671","meshCode":"50302671","cityCode":"40227","city":"嘉麻市","lat":33.5625,"lon":130.76875,"areaKm2":1.072615,"populated2020":true,"population2020":2287.5465,"populationNote":"収録500mメッシュ人口の合算（原典収録外は補完しない）"},"geometry":{"type":"Polygon","coordinates":[[[130.775,33.558333333333344],[130.7625,33.55833333333334],[130.7625,33.56666666666668],[130.775,33.56666666666668],[130.775,33.558333333333344]]]}},{"type":"Feature","id":"40227:50302672","properties":{"id":"40227:50302672","meshCode":"50302672","cityCode":"40227","city":"嘉麻市","lat":33.5624954,"lon":130.7812432,"areaKm2":1.0714038,"populated2020":true,"population2020":339.2771,"populationNote":"収録500mメッシュ人口の合算（原典収録外は補完しない）"},"geometry":{"type":"Polygon","coordinates":[[[130.7875,33.55833333333334],[130.775,33.558333333333344],[130.775,33.56666666666668],[130.7869142542636,33.56666666666668],[130.787370558,33.566398891999995],[130.7875,33.566262478145205],[130.7875,33.55833333333334]]]}},{"type":"Feature","id":"40227:50302673","properties":{"id":"40227:50302673","meshCode":"50302673","cityCode":"40227","city":"嘉麻市","lat":33.5610871,"lon":130.7892668,"areaKm2":0.2168883,"populated2020":true,"population2020":null,"populationNote":"境界またぎ・収録外等のため人口未集計"},"geometry":{"type":"Polygon","coordinates":[[[130.789316667,33.56260110800001],[130.78945888500002,33.56195694600001],[130.789578327,33.561892775000004],[130.790727951,33.561864332999995],[130.791001946,33.561398333],[130.791703061,33.561312225],[130.791843333,33.56121222499999],[130.791925279,33.56076861299999],[130.792313891,33.560306667],[130.79159263306616,33.55833333333334],[130.7875,33.55833333333334],[130.7875,33.566262478145205],[130.787728327,33.566250829000005],[130.787866939,33.56615416199999],[130.788021946,33.565833054],[130.788697224,33.565262775],[130.788888612,33.564998054],[130.789045279,33.564495],[130.789039728,33.563978054],[130.788792503,33.562975559],[130.788965551,33.562712775],[130.789316667,33.56260110800001]]]}},{"type":"Feature","id":"40227:50302585","properties":{"id":"40227:50302585","meshCode":"50302585","cityCode":"40227","city":"嘉麻市","lat":33.5685382,"lon":130.6978306,"areaKm2":0.1669608,"populated2020":true,"population2020":null,"populationNote":"境界またぎ・収録外等のため人口未集計"},"geometry":{"type":"MultiPolygon","coordinates":[[[[130.692976939,33.566785],[130.693697224,33.567015000000005],[130.693891115,33.56730972100001],[130.694193606,33.567366387],[130.69552166,33.568198054],[130.695693061,33.568137495],[130.696048054,33.568412225],[130.696524163,33.569130829],[130.696757497,33.56923027900001],[130.697314449,33.569238333],[130.697679728,33.56942805400001],[130.69842055800004,33.56949666700001],[130.698690558,33.56963],[130.7,33.572217694],[130.7,33.56666666666668],[130.69289019475562,33.56666666666668],[130.692976939,33.566785]]],[[[130.699376394,33.573631946000006],[130.699265279,33.574972495],[130.7,33.57498664],[130.7,33.57355238700001],[130.699376394,33.573631946000006]]]]}},{"type":"Feature","id":"40227:50302586","properties":{"id":"40227:50302586","meshCode":"50302586","cityCode":"40227","city":"嘉麻市","lat":33.5708241,"lon":130.7062755,"areaKm2":1.0680308,"populated2020":true,"population2020":904.6716,"populationNote":"収録500mメッシュ人口の合算（原典収録外は補完しない）"},"geometry":{"type":"Polygon","coordinates":[[[130.7125,33.56666666666668],[130.7,33.56666666666668],[130.7,33.572217694],[130.700486109,33.573006108],[130.700356939,33.573506946],[130.7,33.57355238700001],[130.7,33.57498664],[130.7125,33.574999999999996],[130.7125,33.56666666666668]]]}},{"type":"Feature","id":"40227:50302587","properties":{"id":"40227:50302587","meshCode":"50302587","cityCode":"40227","city":"嘉麻市","lat":33.5708333,"lon":130.71875,"areaKm2":1.072519,"populated2020":true,"population2020":814.7798,"populationNote":"収録500mメッシュ人口の合算（原典収録外は補完しない）"},"geometry":{"type":"Polygon","coordinates":[[[130.725,33.56666666666668],[130.7125,33.56666666666668],[130.7125,33.574999999999996],[130.725,33.575],[130.725,33.56666666666668]]]}},{"type":"Feature","id":"40227:50302588","properties":{"id":"40227:50302588","meshCode":"50302588","cityCode":"40227","city":"嘉麻市","lat":33.5708333,"lon":130.73125,"areaKm2":1.0725174,"populated2020":true,"population2020":861.8663,"populationNote":"収録500mメッシュ人口の合算（原典収録外は補完しない）"},"geometry":{"type":"Polygon","coordinates":[[[130.7375,33.56666666666668],[130.725,33.56666666666668],[130.725,33.575],[130.7375,33.574999999999996],[130.7375,33.56666666666668]]]}},{"type":"Feature","id":"40227:50302589","properties":{"id":"40227:50302589","meshCode":"50302589","cityCode":"40227","city":"嘉麻市","lat":33.5708333,"lon":130.74375,"areaKm2":1.0725162,"populated2020":true,"population2020":144.8179,"populationNote":"収録500mメッシュ人口の合算（原典収録外は補完しない）"},"geometry":{"type":"Polygon","coordinates":[[[130.75,33.56666666666668],[130.7375,33.56666666666668],[130.7375,33.574999999999996],[130.75,33.575],[130.75,33.56666666666668]]]}},{"type":"Feature","id":"40227:50302680","properties":{"id":"40227:50302680","meshCode":"50302680","cityCode":"40227","city":"嘉麻市","lat":33.5708333,"lon":130.75625,"areaKm2":1.0725146,"populated2020":true,"population2020":1456.0405,"populationNote":"収録500mメッシュ人口の合算（原典収録外は補完しない）"},"geometry":{"type":"Polygon","coordinates":[[[130.7625,33.56666666666668],[130.75,33.56666666666668],[130.75,33.575],[130.7625,33.575],[130.7625,33.56666666666668]]]}},{"type":"Feature","id":"40227:50302681","properties":{"id":"40227:50302681","meshCode":"50302681","cityCode":"40227","city":"嘉麻市","lat":33.5708207,"lon":130.7685295,"areaKm2":1.0290644,"populated2020":true,"population2020":null,"populationNote":"境界またぎ・収録外等のため人口未集計"},"geometry":{"type":"Polygon","coordinates":[[[130.772875837,33.570782775],[130.773836394,33.570463054],[130.77434832700004,33.569908892],[130.775,33.56955349500001],[130.775,33.56666666666668],[130.7625,33.56666666666668],[130.7625,33.575],[130.775,33.57500000000001],[130.775,33.572516441],[130.774207782,33.57194916200001],[130.772311946,33.57180027900001],[130.772352503,33.571326667],[130.772875837,33.570782775]]]}},{"type":"Feature","id":"40227:50302682","properties":{"id":"40227:50302682","meshCode":"50302682","cityCode":"40227","city":"嘉麻市","lat":33.5681021,"lon":130.7830557,"areaKm2":0.2128753,"populated2020":false,"population2020":null,"populationNote":"境界またぎ・収録外等のため人口未集計"},"geometry":{"type":"MultiPolygon","coordinates":[[[[130.781822218,33.568123613],[130.78514444900003,33.568310279],[130.78529861200002,33.568207225],[130.785843891,33.567386667],[130.786778054,33.566838613],[130.7869142542636,33.56666666666668],[130.775,33.56666666666668],[130.775,33.56955349500001],[130.775666109,33.569240829],[130.776492503,33.56912749499999],[130.776681946,33.568830279000004],[130.776989728,33.568638613],[130.778914449,33.568665279],[130.779103891,33.56751472100001],[130.779241388,33.567265829],[130.779414721,33.567186946],[130.779852503,33.567298892],[130.78043917,33.56788194600001],[130.780821115,33.568149721000005],[130.781822218,33.568123613]]],[[[130.775304449,33.574775279],[130.775615837,33.57451472100001],[130.77678083,33.574248054],[130.776006667,33.57323916199999],[130.775,33.572516441],[130.775,33.57500000000001],[130.775255551,33.575],[130.775304449,33.574775279]]]]}},{"type":"Feature","id":"40227:50302596","properties":{"id":"40227:50302596","meshCode":"50302596","cityCode":"40227","city":"嘉麻市","lat":33.5789488,"lon":130.7070841,"areaKm2":0.9186315,"populated2020":true,"population2020":null,"populationNote":"境界またぎ・収録外等のため人口未集計"},"geometry":{"type":"Polygon","coordinates":[[[130.700604994,33.575307775000006],[130.700665551,33.575485559],[130.700762503,33.575533892],[130.70062917,33.575901667000004],[130.700673606,33.576208613],[130.701321115,33.577048612999995],[130.701514449,33.579701946],[130.701512503,33.58150277499998],[130.704089442,33.581963054],[130.70421085598545,33.58333333333334],[130.7125,33.583333333333336],[130.7125,33.574999999999996],[130.70032489,33.575],[130.700604994,33.575307775000006]]]}},{"type":"Feature","id":"40227:50302597","properties":{"id":"40227:50302597","meshCode":"50302597","cityCode":"40227","city":"嘉麻市","lat":33.5791667,"lon":130.71875,"areaKm2":1.0724174,"populated2020":true,"population2020":531.6282,"populationNote":"収録500mメッシュ人口の合算（原典収録外は補完しない）"},"geometry":{"type":"Polygon","coordinates":[[[130.725,33.575],[130.7125,33.574999999999996],[130.7125,33.583333333333336],[130.725,33.583333333333336],[130.725,33.575]]]}},{"type":"Feature","id":"40227:50302598","properties":{"id":"40227:50302598","meshCode":"50302598","cityCode":"40227","city":"嘉麻市","lat":33.5791667,"lon":130.73125,"areaKm2":1.0724158,"populated2020":true,"population2020":826.35,"populationNote":"収録500mメッシュ人口の合算（原典収録外は補完しない）"},"geometry":{"type":"Polygon","coordinates":[[[130.7375,33.574999999999996],[130.725,33.575],[130.725,33.583333333333336],[130.7375,33.583333333333336],[130.7375,33.574999999999996]]]}},{"type":"Feature","id":"40227:50302599","properties":{"id":"40227:50302599","meshCode":"50302599","cityCode":"40227","city":"嘉麻市","lat":33.5791667,"lon":130.74375,"areaKm2":1.0724146,"populated2020":true,"population2020":182.4109,"populationNote":"収録500mメッシュ人口の合算（原典収録外は補完しない）"},"geometry":{"type":"Polygon","coordinates":[[[130.75,33.575],[130.7375,33.574999999999996],[130.7375,33.583333333333336],[130.75,33.583333333333336],[130.75,33.575]]]}},{"type":"Feature","id":"40227:50302690","properties":{"id":"40227:50302690","meshCode":"50302690","cityCode":"40227","city":"嘉麻市","lat":33.5791667,"lon":130.75625,"areaKm2":1.072413,"populated2020":true,"population2020":315.9392,"populationNote":"収録500mメッシュ人口の合算（原典収録外は補完しない）"},"geometry":{"type":"Polygon","coordinates":[[[130.7625,33.575],[130.75,33.575],[130.75,33.583333333333336],[130.7625,33.583333333333336],[130.7625,33.575]]]}},{"type":"Feature","id":"40227:50302691","properties":{"id":"40227:50302691","meshCode":"50302691","cityCode":"40227","city":"嘉麻市","lat":33.5777986,"lon":130.7669976,"areaKm2":0.568401,"populated2020":false,"population2020":null,"populationNote":"境界またぎ・収録外等のため人口未集計"},"geometry":{"type":"Polygon","coordinates":[[[130.770017782,33.578963613],[130.770531388,33.577615828999996],[130.771343061,33.57678500000001],[130.771842218,33.575940558999996],[130.773025551,33.576557225],[130.773431388,33.577263892],[130.773564163,33.577855],[130.773970272,33.577887225000005],[130.774557782,33.57779777500001],[130.775,33.575883721000004],[130.775,33.57500000000001],[130.7625,33.575],[130.7625,33.583333333333336],[130.7640197799703,33.583333333333336],[130.7641,33.582704162],[130.76437083,33.58213916199999],[130.766532503,33.58037666700001],[130.767028885,33.579859721],[130.769595551,33.579296108],[130.770017782,33.578963613]]]}},{"type":"Feature","id":"40227:50302692","properties":{"id":"40227:50302692","meshCode":"50302692","cityCode":"40227","city":"嘉麻市","lat":33.5752776,"lon":130.775081,"areaKm2":0.001038,"populated2020":true,"population2020":null,"populationNote":"境界またぎ・収録外等のため人口未集計"},"geometry":{"type":"Polygon","coordinates":[[[130.775,33.575883721000004],[130.775255551,33.575],[130.775,33.57500000000001],[130.775,33.575883721000004]]]}},{"type":"Feature","id":"40227:50303506","properties":{"id":"40227:50303506","meshCode":"50303506","cityCode":"40227","city":"嘉麻市","lat":33.5874071,"lon":130.7084532,"areaKm2":0.6923992,"populated2020":true,"population2020":null,"populationNote":"境界またぎ・収録外等のため人口未集計"},"geometry":{"type":"Polygon","coordinates":[[[130.704268885,33.58422861300001],[130.704048612,33.58543222499999],[130.70417166,33.586090279],[130.70409083,33.586401108000004],[130.703834994,33.586629441],[130.703712776,33.586965],[130.703918054,33.587464721],[130.704856939,33.588672225],[130.704961946,33.588906667],[130.704868054,33.589869721],[130.705163891,33.590517225],[130.705088054,33.590881387],[130.70452358016473,33.59166666666667],[130.7125,33.591666666666676],[130.7125,33.583333333333336],[130.70421085598545,33.58333333333334],[130.704268885,33.58422861300001]]]}},{"type":"Feature","id":"40227:50303507","properties":{"id":"40227:50303507","meshCode":"50303507","cityCode":"40227","city":"嘉麻市","lat":33.5875,"lon":130.71875,"areaKm2":1.0723158,"populated2020":true,"population2020":1020.6393,"populationNote":"収録500mメッシュ人口の合算（原典収録外は補完しない）"},"geometry":{"type":"Polygon","coordinates":[[[130.725,33.583333333333336],[130.7125,33.583333333333336],[130.7125,33.591666666666676],[130.725,33.591666666666676],[130.725,33.583333333333336]]]}},{"type":"Feature","id":"40227:50303508","properties":{"id":"40227:50303508","meshCode":"50303508","cityCode":"40227","city":"嘉麻市","lat":33.5875,"lon":130.73125,"areaKm2":1.0723142,"populated2020":true,"population2020":315.6136,"populationNote":"収録500mメッシュ人口の合算（原典収録外は補完しない）"},"geometry":{"type":"Polygon","coordinates":[[[130.7375,33.583333333333336],[130.725,33.583333333333336],[130.725,33.591666666666676],[130.7375,33.591666666666676],[130.7375,33.583333333333336]]]}},{"type":"Feature","id":"40227:50303509","properties":{"id":"40227:50303509","meshCode":"50303509","cityCode":"40227","city":"嘉麻市","lat":33.5874685,"lon":130.7437032,"areaKm2":1.0635599,"populated2020":true,"population2020":257.7441,"populationNote":"収録500mメッシュ人口の合算（原典収録外は補完しない）"},"geometry":{"type":"Polygon","coordinates":[[[130.75,33.583333333333336],[130.7375,33.583333333333336],[130.7375,33.591666666666676],[130.7484594940831,33.591666666666676],[130.748520558,33.591549441000005],[130.749283606,33.59099277499999],[130.75,33.590789252],[130.75,33.583333333333336]]]}},{"type":"Feature","id":"40227:50303600","properties":{"id":"40227:50303600","meshCode":"50303600","cityCode":"40227","city":"嘉麻市","lat":33.5854954,"lon":130.7552015,"areaKm2":0.5078555,"populated2020":false,"population2020":null,"populationNote":"境界またぎ・収録外等のため人口未集計"},"geometry":{"type":"Polygon","coordinates":[[[130.756443606,33.587175829],[130.757100272,33.587118613],[130.75728917,33.586872495],[130.758904994,33.586630829],[130.758614994,33.586609441],[130.758618612,33.586481946000006],[130.759461388,33.585834721],[130.760358885,33.585874162],[130.761491946,33.585696946],[130.76166917,33.58585],[130.761748885,33.586311387],[130.762097224,33.586287225],[130.7625,33.585917953955274],[130.7625,33.583333333333336],[130.75,33.583333333333336],[130.75,33.590789252],[130.750307497,33.59069555899999],[130.75064,33.589786108],[130.750689442,33.58943000000001],[130.751364994,33.588652775],[130.751831388,33.588553333],[130.752246394,33.588252775],[130.752640558,33.58820000000001],[130.752891388,33.587941946],[130.753185279,33.58782305399999],[130.753921388,33.58792082899999],[130.754083606,33.587549162],[130.755482776,33.58745166700001],[130.755687224,33.587402775],[130.755963061,33.587101387],[130.756443606,33.587175829]]]}},{"type":"Feature","id":"40227:50303601","properties":{"id":"40227:50303601","meshCode":"50303601","cityCode":"40227","city":"嘉麻市","lat":33.5842363,"lon":130.7631181,"areaKm2":0.0254349,"populated2020":false,"population2020":null,"populationNote":"境界またぎ・収録外等のため人口未集計"},"geometry":{"type":"Polygon","coordinates":[[[130.762521388,33.585893332999994],[130.763036667,33.585294162],[130.763553333,33.584475559],[130.764152503,33.584178613],[130.763993891,33.583973054],[130.7640197799703,33.583333333333336],[130.7625,33.583333333333336],[130.762521388,33.585893332999994]]]}},{"type":"Feature","id":"40227:50303516","properties":{"id":"40227:50303516","meshCode":"50303516","cityCode":"40227","city":"嘉麻市","lat":33.5961279,"lon":130.7072684,"areaKm2":0.8808387,"populated2020":true,"population2020":486.4289,"populationNote":"収録500mメッシュ人口の合算（原典収録外は補完しない）"},"geometry":{"type":"Polygon","coordinates":[[[130.70452358016473,33.59166666666667],[130.704074163,33.592373892000005],[130.703515279,33.59262472100001],[130.703104994,33.592954721],[130.702651115,33.593798054000004],[130.703118054,33.595204162],[130.70314944200004,33.59623194600001],[130.703054449,33.596686946],[130.702933061,33.596885],[130.702032218,33.597259441],[130.70155,33.597146387],[130.700939442,33.597445828999994],[130.700324721,33.597474441],[130.700257497,33.597668892],[130.700379728,33.59796805399999],[130.700432218,33.598475828999995],[130.7,33.6],[130.7125,33.6],[130.7125,33.591666666666676],[130.70452358016473,33.59166666666667]]]}},{"type":"Feature","id":"40227:50303517","properties":{"id":"40227:50303517","meshCode":"50303517","cityCode":"40227","city":"嘉麻市","lat":33.5958333,"lon":130.71875,"areaKm2":1.0722142,"populated2020":true,"population2020":923.4057,"populationNote":"収録500mメッシュ人口の合算（原典収録外は補完しない）"},"geometry":{"type":"Polygon","coordinates":[[[130.725,33.591666666666676],[130.7125,33.591666666666676],[130.7125,33.6],[130.725,33.6],[130.725,33.591666666666676]]]}},{"type":"Feature","id":"40227:50303518","properties":{"id":"40227:50303518","meshCode":"50303518","cityCode":"40227","city":"嘉麻市","lat":33.5958333,"lon":130.73125,"areaKm2":1.0722126,"populated2020":true,"population2020":1209.486,"populationNote":"収録500mメッシュ人口の合算（原典収録外は補完しない）"},"geometry":{"type":"Polygon","coordinates":[[[130.7375,33.591666666666676],[130.725,33.591666666666676],[130.725,33.6],[130.7375,33.6],[130.7375,33.591666666666676]]]}},{"type":"Feature","id":"40227:50303519","properties":{"id":"40227:50303519","meshCode":"50303519","cityCode":"40227","city":"嘉麻市","lat":33.5951199,"lon":130.7415739,"areaKm2":0.6390913,"populated2020":true,"population2020":608.8086,"populationNote":"収録500mメッシュ人口の合算（原典収録外は補完しない）"},"geometry":{"type":"Polygon","coordinates":[[[130.74422,33.59577000000001],[130.744532503,33.59562472099999],[130.745023333,33.594821946],[130.745414721,33.594579721],[130.74566749700003,33.59450944100001],[130.746357224,33.59465055900001],[130.746628327,33.5946],[130.747104163,33.594333612999996],[130.747211946,33.593846108],[130.747374994,33.593630279],[130.747939442,33.593358892],[130.748159728,33.593084999999995],[130.7484594940831,33.591666666666676],[130.7375,33.591666666666676],[130.7375,33.6],[130.741778366,33.6],[130.742148054,33.599346108000006],[130.742644163,33.599073892],[130.742715551,33.598926667],[130.742693606,33.598365828999995],[130.742793333,33.598151945999994],[130.743206667,33.597793054],[130.743319728,33.597535],[130.743231946,33.597062775],[130.743312776,33.59672389199999],[130.743799442,33.596391108],[130.743900272,33.596106667],[130.74422,33.59577000000001]]]}},{"type":"Feature","id":"40227:50303515","properties":{"id":"40227:50303515","meshCode":"50303515","cityCode":"40227","city":"嘉麻市","lat":33.5999448,"lon":130.6999682,"areaKm2":8.11e-05,"populated2020":false,"population2020":null,"populationNote":"境界またぎ・収録外等のため人口未集計"},"geometry":{"type":"Polygon","coordinates":[[[130.699922776,33.599972494999996],[130.7,33.6],[130.7,33.59983219800001],[130.699922776,33.599972494999996]]]}},{"type":"Feature","id":"40227:50303525","properties":{"id":"40227:50303525","meshCode":"50303525","cityCode":"40227","city":"嘉麻市","lat":33.6042853,"lon":130.6991331,"areaKm2":0.1324556,"populated2020":true,"population2020":null,"populationNote":"境界またぎ・収録外等のため人口未集計"},"geometry":{"type":"Polygon","coordinates":[[[130.69968,33.60024333300001],[130.698832503,33.60073889200001],[130.698646394,33.600961387],[130.698277782,33.601632775000006],[130.698265551,33.601908054],[130.698092776,33.602284162000004],[130.698547224,33.60268249500001],[130.698643333,33.602896946],[130.698652218,33.603582495],[130.698405551,33.604005],[130.697311388,33.604593613],[130.697268885,33.604686667],[130.69768,33.605308054],[130.69814,33.605777495000005],[130.69922688712504,33.608333333333334],[130.7,33.60833333333333],[130.7,33.6],[130.699898106,33.6],[130.69968,33.60024333300001]]]}},{"type":"Feature","id":"40227:50303526","properties":{"id":"40227:50303526","meshCode":"50303526","cityCode":"40227","city":"嘉麻市","lat":33.6041667,"lon":130.70625,"areaKm2":1.0721142,"populated2020":true,"population2020":1416.2329,"populationNote":"収録500mメッシュ人口の合算（原典収録外は補完しない）"},"geometry":{"type":"Polygon","coordinates":[[[130.7125,33.6],[130.7,33.6],[130.7,33.60833333333333],[130.7125,33.608333333333334],[130.7125,33.6]]]}},{"type":"Feature","id":"40227:50303527","properties":{"id":"40227:50303527","meshCode":"50303527","cityCode":"40227","city":"嘉麻市","lat":33.6041667,"lon":130.71875,"areaKm2":1.0721126,"populated2020":true,"population2020":780.5714,"populationNote":"収録500mメッシュ人口の合算（原典収録外は補完しない）"},"geometry":{"type":"Polygon","coordinates":[[[130.725,33.6],[130.7125,33.6],[130.7125,33.608333333333334],[130.725,33.60833333333333],[130.725,33.6]]]}},{"type":"Feature","id":"40227:50303528","properties":{"id":"40227:50303528","meshCode":"50303528","cityCode":"40227","city":"嘉麻市","lat":33.6041667,"lon":130.73125,"areaKm2":1.072111,"populated2020":true,"population2020":2231.2502,"populationNote":"収録500mメッシュ人口の合算（原典収録外は補完しない）"},"geometry":{"type":"Polygon","coordinates":[[[130.7375,33.6],[130.725,33.6],[130.725,33.60833333333333],[130.7375,33.608333333333334],[130.7375,33.6]]]}},{"type":"Feature","id":"40227:50303529","properties":{"id":"40227:50303529","meshCode":"50303529","cityCode":"40227","city":"嘉麻市","lat":33.6030857,"lon":130.7388639,"areaKm2":0.1892084,"populated2020":true,"population2020":1.9797,"populationNote":"収録500mメッシュ人口の合算（原典収録外は補完しない）"},"geometry":{"type":"Polygon","coordinates":[[[130.738894994,33.603815829],[130.739121946,33.603690829],[130.739815551,33.603727225],[130.740358885,33.603638333000006],[130.740683606,33.603341946],[130.740565551,33.60256694600001],[130.740864721,33.601899721],[130.740938612,33.600806387],[130.741025279,33.600653054],[130.741318612,33.600489721],[130.741778366,33.6],[130.7375,33.6],[130.7375,33.608333333333334],[130.73884727615712,33.60833333333333],[130.738583891,33.607944162],[130.738526394,33.607042775],[130.738844163,33.606197775],[130.738894994,33.603815829]]]}},{"type":"Feature","id":"40227:50303535","properties":{"id":"40227:50303535","meshCode":"50303535","cityCode":"40227","city":"嘉麻市","lat":33.6160292,"lon":130.6997136,"areaKm2":0.0148722,"populated2020":true,"population2020":null,"populationNote":"境界またぎ・収録外等のため人口未集計"},"geometry":{"type":"MultiPolygon","coordinates":[[[[130.69922688712504,33.608333333333334],[130.7,33.610436973],[130.7,33.60833333333333],[130.69922688712504,33.608333333333334]]],[[[130.7,33.615501198],[130.699303891,33.61612722499999],[130.6989287552318,33.61666666666667],[130.7,33.61666666666667],[130.7,33.615501198]]]]}},{"type":"Feature","id":"40227:50303536","properties":{"id":"40227:50303536","meshCode":"50303536","cityCode":"40227","city":"嘉麻市","lat":33.6124822,"lon":130.7063404,"areaKm2":1.0562148,"populated2020":true,"population2020":1543.8043,"populationNote":"収録500mメッシュ人口の合算（原典収録外は補完しない）"},"geometry":{"type":"Polygon","coordinates":[[[130.700167224,33.611296945999996],[130.700212503,33.61272638700001],[130.700437782,33.613532775],[130.700594449,33.61508582900001],[130.700533606,33.615221387],[130.7,33.615501198],[130.7,33.61666666666667],[130.7125,33.61666666666667],[130.7125,33.608333333333334],[130.7,33.60833333333333],[130.7,33.610436973],[130.700167224,33.611296945999996]]]}},{"type":"Feature","id":"40227:50303537","properties":{"id":"40227:50303537","meshCode":"50303537","cityCode":"40227","city":"嘉麻市","lat":33.6124633,"lon":130.7187772,"areaKm2":1.0622676,"populated2020":true,"population2020":1127.7288,"populationNote":"収録500mメッシュ人口の合算（原典収録外は補完しない）"},"geometry":{"type":"Polygon","coordinates":[[[130.725,33.60833333333333],[130.7125,33.608333333333334],[130.7125,33.61666666666667],[130.7143084703071,33.61666666666667],[130.714827782,33.616146667],[130.715716109,33.616343333],[130.717064994,33.616466387],[130.7178752522207,33.61666666666667],[130.725,33.61666666666667],[130.725,33.60833333333333]]]}},{"type":"Feature","id":"40227:50303538","properties":{"id":"40227:50303538","meshCode":"50303538","cityCode":"40227","city":"嘉麻市","lat":33.6114475,"lon":130.7306983,"areaKm2":0.7756052,"populated2020":true,"population2020":null,"populationNote":"境界またぎ・収録外等のため人口未集計"},"geometry":{"type":"Polygon","coordinates":[[[130.7375,33.608333333333334],[130.725,33.60833333333333],[130.725,33.61666666666667],[130.726175837,33.61665889199999],[130.726391388,33.616465279],[130.726646394,33.615525559],[130.727279442,33.615394162],[130.72858166,33.614928054],[130.731001946,33.613768613000005],[130.731761115,33.613603333],[130.732383891,33.613181667000006],[130.732574163,33.613129162],[130.733841388,33.613340828999995],[130.735718327,33.614063054],[130.736004721,33.614111387],[130.736746667,33.61404277500001],[130.73689000000002,33.612966108],[130.7375,33.61286555284395],[130.7375,33.608333333333334]]]}},{"type":"Feature","id":"40227:50303539","properties":{"id":"40227:50303539","meshCode":"50303539","cityCode":"40227","city":"嘉麻市","lat":33.6107857,"lon":130.7384371,"areaKm2":0.0824454,"populated2020":true,"population2020":null,"populationNote":"境界またぎ・収録外等のため人口未集計"},"geometry":{"type":"Polygon","coordinates":[[[130.739884163,33.612591108000004],[130.739375279,33.610727495],[130.739254994,33.609833892000005],[130.738775279,33.609521387],[130.738652218,33.609319721000006],[130.738852776,33.608916108],[130.73884727615712,33.60833333333333],[130.7375,33.608333333333334],[130.7375,33.61286555284395],[130.739884163,33.612591108000004]]]}},{"type":"Feature","id":"40227:50303545","properties":{"id":"40227:50303545","meshCode":"50303545","cityCode":"40227","city":"嘉麻市","lat":33.6187386,"lon":130.6992736,"areaKm2":0.0634209,"populated2020":true,"population2020":null,"populationNote":"境界またぎ・収録外等のため人口未集計"},"geometry":{"type":"Polygon","coordinates":[[[130.6989287552318,33.61666666666667],[130.69798444900002,33.618078612999994],[130.698077224,33.618816667],[130.698278054,33.618833054],[130.698497224,33.618964162000005],[130.698928327,33.619396667000004],[130.699482503,33.620173613],[130.698995837,33.620858053999996],[130.69894055800003,33.62130500000001],[130.7,33.621564225],[130.7,33.61666666666667],[130.6989287552318,33.61666666666667]]]}},{"type":"Feature","id":"40227:50303546","properties":{"id":"40227:50303546","meshCode":"50303546","cityCode":"40227","city":"嘉麻市","lat":33.6196505,"lon":130.7055476,"areaKm2":0.7130156,"populated2020":true,"population2020":null,"populationNote":"境界またぎ・収録外等のため人口未集計"},"geometry":{"type":"Polygon","coordinates":[[[130.70870917,33.621247775],[130.71128,33.619968892],[130.7125,33.61909490513932],[130.7125,33.61666666666667],[130.7,33.61666666666667],[130.7,33.621564225],[130.700912218,33.621780829],[130.701064721,33.622370559],[130.701169442,33.622495559],[130.702600558,33.623170279],[130.702823606,33.623344441],[130.70282166,33.62343666700001],[130.70207083,33.62414999999999],[130.702050272,33.624348892],[130.704407224,33.623823892],[130.70518083000002,33.623920279000004],[130.705967224,33.62370916199999],[130.706677224,33.623266387],[130.708112218,33.621752225],[130.70870917,33.621247775]]]}},{"type":"Feature","id":"40227:50303547","properties":{"id":"40227:50303547","meshCode":"50303547","cityCode":"40227","city":"嘉麻市","lat":33.617646,"lon":130.722149,"areaKm2":0.0977222,"populated2020":true,"population2020":null,"populationNote":"境界またぎ・収録外等のため人口未集計"},"geometry":{"type":"MultiPolygon","coordinates":[[[[130.7178752522207,33.61666666666667],[130.7203,33.61751999999999],[130.720619442,33.618655829000005],[130.722310558,33.61854305399999],[130.723076394,33.617960000000004],[130.723837224,33.61776638700001],[130.724366667,33.617155],[130.725,33.616977973],[130.725,33.61666666666667],[130.7178752522207,33.61666666666667]]],[[[130.7125,33.61909490513932],[130.713483333,33.61741333300001],[130.7143084703071,33.61666666666667],[130.7125,33.61666666666667],[130.7125,33.61909490513932]]]]}},{"type":"Feature","id":"40227:50303548","properties":{"id":"40227:50303548","meshCode":"50303548","cityCode":"40227","city":"嘉麻市","lat":33.6167857,"lon":130.7254171,"areaKm2":0.0022824,"populated2020":true,"population2020":null,"populationNote":"境界またぎ・収録外等のため人口未集計"},"geometry":{"type":"Polygon","coordinates":[[[130.725,33.616977973],[130.725718885,33.616838333],[130.72615605784802,33.61666666666667],[130.725,33.61666666666667],[130.725,33.616977973]]]}}]}