{"type":"FeatureCollection","metadata":{"cityCode":"40225","city":"うきは市","resolution":1000,"boundaryDate":"2026-01-01","populationLabel":"2020年基準人口（国交省調整値）","method":"標準地域メッシュを行政界で切抜き。中心が区域外のとき区域内代表点を判定点にする。人口不明をゼロにしない。"},"features":[{"type":"Feature","id":"40225:49307605","properties":{"id":"40225:49307605","meshCode":"49307605","cityCode":"40225","city":"うきは市","lat":33.2566563,"lon":130.8210496,"areaKm2":0.2583132,"populated2020":false,"population2020":null,"populationNote":"境界またぎ・収録外等のため人口未集計"},"geometry":{"type":"Polygon","coordinates":[[[130.824980908,33.253695883000006],[130.824851466,33.253421712000005],[130.823952853,33.253423378],[130.822637289,33.253944766],[130.822068949,33.25473003599999],[130.821519235,33.255118919],[130.821118392,33.25554141399999],[130.821098677,33.256192243],[130.820880895,33.25657252300001],[130.81947144,33.25799556799999],[130.817338651,33.25779917100001],[130.816863658,33.25768250499999],[130.816643372,33.257490838],[130.816471984,33.25688945900001],[130.816137263,33.256613341999994],[130.81593476,33.256558342],[130.81540559,33.256582793],[130.815031984,33.25649084700001],[130.814705032,33.256545847],[130.814448093,33.256730009],[130.813918638,33.25764417100001],[130.813685032,33.257717775],[130.813054475,33.25774222500001],[130.8125,33.258132695971426],[130.8125,33.25833333333334],[130.825,33.25833333333333],[130.824980908,33.253695883000006]]]}},{"type":"Feature","id":"40225:49307606","properties":{"id":"40225:49307606","meshCode":"49307606","cityCode":"40225","city":"うきは市","lat":33.2560095,"lon":130.8260562,"areaKm2":0.154845,"populated2020":false,"population2020":null,"populationNote":"境界またぎ・収録外等のため人口未集計"},"geometry":{"type":"MultiPolygon","coordinates":[[[[130.8257562,33.254212541],[130.825,33.253713901000005],[130.825,33.25833333333333],[130.83250687422125,33.25833333333333],[130.83216179,33.257897252],[130.831307341,33.257920865],[130.830372607,33.257654477],[130.829627056,33.257756414000006],[130.828702879,33.25745864000001],[130.828136213,33.256949476999985],[130.827609261,33.256675315],[130.827301206,33.256338369000005],[130.826700363,33.25506643200001],[130.826452036,33.254808098999995],[130.8257562,33.254212541]]],[[[130.8375,33.258163642901664],[130.835925136,33.257498369],[130.835279027,33.257052261],[130.834752075,33.257506422999995],[130.83349299545392,33.25833333333334],[130.8375,33.25833333333333],[130.8375,33.258163642901664]]]]}},{"type":"Feature","id":"40225:49307604","properties":{"id":"40225:49307604","meshCode":"49307604","cityCode":"40225","city":"うきは市","lat":33.2582654,"lon":130.8124294,"areaKm2":0.0002231,"populated2020":false,"population2020":null,"populationNote":"境界またぎ・収録外等のため人口未集計"},"geometry":{"type":"Polygon","coordinates":[[[130.8125,33.258132695971426],[130.81229325569333,33.25833333333333],[130.8125,33.25833333333334],[130.8125,33.258132695971426]]]}},{"type":"Feature","id":"40225:49307607","properties":{"id":"40225:49307607","meshCode":"49307607","cityCode":"40225","city":"うきは市","lat":33.2578663,"lon":130.842348,"areaKm2":0.0711796,"populated2020":false,"population2020":null,"populationNote":"境界またぎ・収録外等のため人口未集計"},"geometry":{"type":"Polygon","coordinates":[[[130.844528781,33.257350333000005],[130.842013774,33.257154216],[130.840562659,33.25746755000001],[130.839647925,33.257459766000004],[130.839280156,33.257585045],[130.838962101,33.257937541],[130.838683761,33.258070315],[130.838122088,33.258242810999995],[130.8375,33.258163642901664],[130.8375,33.25833333333333],[130.84650930069824,33.25833333333333],[130.84526406,33.257507009],[130.844528781,33.257350333000005]]]}},{"type":"Feature","id":"40225:49307614","properties":{"id":"40225:49307614","meshCode":"49307614","cityCode":"40225","city":"うきは市","lat":33.2637879,"lon":130.8072636,"areaKm2":0.6878376,"populated2020":false,"population2020":null,"populationNote":"境界またぎ・収録外等のため人口未集計"},"geometry":{"type":"Polygon","coordinates":[[[130.81229325569333,33.25833333333333],[130.811758067,33.25875055],[130.811130013,33.25893971200001],[130.810808067,33.259449991],[130.809889728,33.25992220700001],[130.809251401,33.260412766000016],[130.80830917,33.260731928000006],[130.807764163,33.261099982],[130.805752763,33.261263027],[130.805262763,33.261434973],[130.804998042,33.261624973],[130.804631933,33.26194997300001],[130.804149429,33.26256329700001],[130.803775538,33.26274746800001],[130.803098314,33.262753577],[130.802537756,33.262974405],[130.801611362,33.262980514],[130.80075496800004,33.26353273000001],[130.8,33.263622018],[130.8,33.26666666666667],[130.8125,33.266666666666666],[130.8125,33.25833333333334],[130.81229325569333,33.25833333333333]]]}},{"type":"Feature","id":"40225:49307615","properties":{"id":"40225:49307615","meshCode":"49307615","cityCode":"40225","city":"うきは市","lat":33.2625,"lon":130.81875,"areaKm2":1.0762522,"populated2020":false,"population2020":null,"populationNote":"境界またぎ・収録外等のため人口未集計"},"geometry":{"type":"Polygon","coordinates":[[[130.825,33.25833333333333],[130.8125,33.25833333333334],[130.8125,33.266666666666666],[130.825,33.26666666666668],[130.825,33.25833333333333]]]}},{"type":"Feature","id":"40225:49307616","properties":{"id":"40225:49307616","meshCode":"49307616","cityCode":"40225","city":"うきは市","lat":33.2625072,"lon":130.831247,"areaKm2":1.0743353,"populated2020":false,"population2020":null,"populationNote":"境界またぎ・収録外等のため人口未集計"},"geometry":{"type":"Polygon","coordinates":[[[130.8375,33.25833333333333],[130.83349299545392,33.25833333333334],[130.832877626,33.258641694],[130.832698729,33.258571135],[130.83250687422125,33.25833333333333],[130.825,33.25833333333333],[130.825,33.26666666666668],[130.8375,33.266666666666666],[130.8375,33.25833333333333]]]}},{"type":"Feature","id":"40225:49307617","properties":{"id":"40225:49307617","meshCode":"49307617","cityCode":"40225","city":"うきは市","lat":33.2626736,"lon":130.8434657,"areaKm2":1.0189928,"populated2020":true,"population2020":11.2723,"populationNote":"収録500mメッシュ人口の合算（原典収録外は補完しない）"},"geometry":{"type":"Polygon","coordinates":[[[130.85,33.26057893699999],[130.848927964,33.261021153],[130.848739079,33.261029207],[130.847417121,33.258969225],[130.847049339,33.258632279000004],[130.84650930069824,33.25833333333333],[130.8375,33.25833333333333],[130.8375,33.266666666666666],[130.85,33.266666666666666],[130.85,33.26057893699999]]]}},{"type":"Feature","id":"40225:49307618","properties":{"id":"40225:49307618","meshCode":"49307618","cityCode":"40225","city":"うきは市","lat":33.2641342,"lon":130.8560671,"areaKm2":0.6447363,"populated2020":false,"population2020":null,"populationNote":"境界またぎ・収録外等のため人口未集計"},"geometry":{"type":"Polygon","coordinates":[[[130.854319948,33.26228642299999],[130.853783268,33.262333369000004],[130.853276329,33.262090315],[130.852978262,33.261800595000004],[130.85261048,33.261056432],[130.851427419,33.260406441],[130.851129092,33.26046144099999],[130.850731868,33.260696432],[130.85,33.26057893699999],[130.85,33.266666666666666],[130.8625,33.26666666666667],[130.8625,33.261378658000005],[130.861917471,33.261480604],[130.861410246,33.26183282],[130.86115192,33.261911153],[130.860436083,33.261801432],[130.859571349,33.261816991],[130.85893524,33.261644766],[130.858097173,33.261894486],[130.857143281,33.261863378],[130.856546615,33.261941703],[130.855781064,33.262223649],[130.855244669,33.262607532],[130.854856887,33.262591703000005],[130.854319948,33.26228642299999]]]}},{"type":"Feature","id":"40225:49307619","properties":{"id":"40225:49307619","meshCode":"49307619","cityCode":"40225","city":"うきは市","lat":33.2642788,"lon":130.8650163,"areaKm2":0.2615978,"populated2020":false,"population2020":null,"populationNote":"境界またぎ・収録外等のため人口未集計"},"geometry":{"type":"Polygon","coordinates":[[[130.867798898,33.263373919],[130.866118885,33.261971703],[130.864657769,33.261995315],[130.864303048,33.261738937],[130.863905266,33.261166991],[130.863806096,33.261127829],[130.863149702,33.261355045],[130.8625,33.261378658000005],[130.8625,33.26666666666667],[130.86787643296847,33.26666666666668],[130.86774917,33.265989739],[130.86801751,33.264509468],[130.867987782,33.263687252],[130.867798898,33.263373919]]]}},{"type":"Feature","id":"40225:49307613","properties":{"id":"40225:49307613","meshCode":"49307613","cityCode":"40225","city":"うきは市","lat":33.2651819,"lon":130.7960044,"areaKm2":0.2514871,"populated2020":false,"population2020":null,"populationNote":"境界またぎ・収録外等のため人口未集計"},"geometry":{"type":"Polygon","coordinates":[[[130.8,33.263622018],[130.798603009,33.263715234],[130.797676615,33.263574117000005],[130.795730493,33.263610505],[130.794645214,33.263394117],[130.794076874,33.263541333000006],[130.793046031,33.263499117],[130.792913813,33.263601613000006],[130.792581868,33.264351054],[130.79251965,33.264841882999995],[130.792075759,33.26517938700001],[130.79163214,33.265712991],[130.7913599090263,33.26666666666668],[130.8,33.26666666666667],[130.8,33.263622018]]]}},{"type":"Feature","id":"40225:49307622","properties":{"id":"40225:49307622","meshCode":"49307622","cityCode":"40225","city":"うきは市","lat":33.272588,"lon":130.7822511,"areaKm2":0.5250254,"populated2020":true,"population2020":null,"populationNote":"境界またぎ・収録外等のため人口未集計"},"geometry":{"type":"Polygon","coordinates":[[[130.787153528,33.270713523000005],[130.785822412,33.27071936],[130.78558102500003,33.270596864999995],[130.78533214,33.27020436000001],[130.784958249,33.270063252],[130.782825473,33.270191865],[130.782537406,33.269363811],[130.782235746,33.268974649],[130.781782127,33.268732144],[130.7812038,33.268656595],[130.78063546,33.269380477],[130.779903528,33.269736314999996],[130.77959214,33.270380198],[130.77913297,33.270822144],[130.778844916,33.271036865],[130.778159909,33.271312703],[130.77717131,33.272374081],[130.776875201,33.272852414000006],[130.776464643,33.274105467999995],[130.776012983,33.274755748000004],[130.77595323,33.27500000000001],[130.7875,33.275],[130.7875,33.27036319433303],[130.787153528,33.270713523000005]]]}},{"type":"Feature","id":"40225:49307623","properties":{"id":"40225:49307623","meshCode":"49307623","cityCode":"40225","city":"うきは市","lat":33.2712317,"lon":130.7944044,"areaKm2":0.9262627,"populated2020":false,"population2020":null,"populationNote":"境界またぎ・収録外等のため人口未集計"},"geometry":{"type":"Polygon","coordinates":[[[130.79135965,33.266669928000006],[130.791569922,33.267013261],[130.791686044,33.26765409000001],[130.792020765,33.268672423000005],[130.792581051,33.269580198],[130.792098275,33.269653811000005],[130.791685772,33.26989297299999],[130.791136316,33.26985436],[130.79038882,33.27000158599999],[130.78911214,33.27006908100001],[130.788489092,33.270050748],[130.787889637,33.269646027],[130.787780752,33.269682694],[130.7875,33.27036319433303],[130.7875,33.275],[130.8,33.275],[130.8,33.26666666666667],[130.79135965,33.266669928000006]]]}},{"type":"Feature","id":"40225:49307624","properties":{"id":"40225:49307624","meshCode":"49307624","cityCode":"40225","city":"うきは市","lat":33.2708333,"lon":130.80625,"areaKm2":1.0761524,"populated2020":true,"population2020":3.0646,"populationNote":"収録500mメッシュ人口の合算（原典収録外は補完しない）"},"geometry":{"type":"Polygon","coordinates":[[[130.8125,33.266666666666666],[130.8,33.26666666666667],[130.8,33.275],[130.8125,33.275],[130.8125,33.266666666666666]]]}},{"type":"Feature","id":"40225:49307625","properties":{"id":"40225:49307625","meshCode":"49307625","cityCode":"40225","city":"うきは市","lat":33.2708333,"lon":130.81875,"areaKm2":1.0761514,"populated2020":false,"population2020":null,"populationNote":"境界またぎ・収録外等のため人口未集計"},"geometry":{"type":"Polygon","coordinates":[[[130.825,33.26666666666668],[130.8125,33.266666666666666],[130.8125,33.275],[130.825,33.275000000000006],[130.825,33.26666666666668]]]}},{"type":"Feature","id":"40225:49307626","properties":{"id":"40225:49307626","meshCode":"49307626","cityCode":"40225","city":"うきは市","lat":33.2708333,"lon":130.83125,"areaKm2":1.0761502,"populated2020":true,"population2020":10.2465,"populationNote":"収録500mメッシュ人口の合算（原典収録外は補完しない）"},"geometry":{"type":"Polygon","coordinates":[[[130.8375,33.266666666666666],[130.825,33.26666666666668],[130.825,33.275000000000006],[130.8375,33.275000000000006],[130.8375,33.266666666666666]]]}},{"type":"Feature","id":"40225:49307627","properties":{"id":"40225:49307627","meshCode":"49307627","cityCode":"40225","city":"うきは市","lat":33.2708333,"lon":130.84375,"areaKm2":1.0761494,"populated2020":true,"population2020":50.2172,"populationNote":"収録500mメッシュ人口の合算（原典収録外は補完しない）"},"geometry":{"type":"Polygon","coordinates":[[[130.85,33.266666666666666],[130.8375,33.266666666666666],[130.8375,33.275000000000006],[130.85,33.275000000000006],[130.85,33.266666666666666]]]}},{"type":"Feature","id":"40225:49307628","properties":{"id":"40225:49307628","meshCode":"49307628","cityCode":"40225","city":"うきは市","lat":33.2704559,"lon":130.854231,"areaKm2":0.7050643,"populated2020":false,"population2020":null,"populationNote":"境界またぎ・収録外等のため人口未集計"},"geometry":{"type":"Polygon","coordinates":[[[130.857588301,33.27135387399999],[130.857339689,33.270554712],[130.857508573,33.27024915300001],[130.858483022,33.269207775],[130.859056913,33.26844444100001],[130.859832192,33.268091946],[130.860160246,33.267606396000005],[130.860627471,33.267160008999994],[130.860617471,33.26677612600001],[130.860836355,33.266776125999996],[130.8625,33.26753213752896],[130.8625,33.26666666666667],[130.85,33.266666666666666],[130.85,33.275000000000006],[130.85665655,33.275],[130.856933294,33.274294694],[130.856993022,33.273534973],[130.857140791,33.27300636],[130.857568301,33.271815811],[130.857588301,33.27135387399999]]]}},{"type":"Feature","id":"40225:49307629","properties":{"id":"40225:49307629","meshCode":"49307629","cityCode":"40225","city":"うきは市","lat":33.2671993,"lon":130.8653732,"areaKm2":0.0577716,"populated2020":false,"population2020":null,"populationNote":"境界またぎ・収録外等のため人口未集計"},"geometry":{"type":"Polygon","coordinates":[[[130.8625,33.26753213752896],[130.863952205,33.267527784],[130.864568327,33.26771583800001],[130.86557249,33.26760611700001],[130.86614917,33.267825558999995],[130.867471115,33.268045],[130.867669728,33.26786472100001],[130.86777917,33.26758278399999],[130.86787643296847,33.26666666666668],[130.8625,33.26666666666667],[130.8625,33.26753213752896]]]}},{"type":"Feature","id":"40225:49307631","properties":{"id":"40225:49307631","meshCode":"49307631","cityCode":"40225","city":"うきは市","lat":33.2804645,"lon":130.7714223,"areaKm2":0.4511015,"populated2020":true,"population2020":null,"populationNote":"境界またぎ・収録外等のため人口未集計"},"geometry":{"type":"Polygon","coordinates":[[[130.774666316,33.275712414],[130.773363541,33.27538769400001],[130.772922425,33.275473252000005],[130.772284099,33.275970198],[130.772112711,33.276270748],[130.772218547,33.27695297300001],[130.772109663,33.27727825200001],[130.771502438,33.27794074799999],[130.770062166,33.278707423],[130.769929663,33.279234919],[130.769112166,33.28006936900002],[130.768979948,33.280461865],[130.768966615,33.281174919],[130.76868634200002,33.281610476999994],[130.768390506,33.281849649],[130.767347173,33.282395757],[130.766711064,33.282622153000005],[130.76625744500004,33.282690207],[130.764723839,33.282506053999995],[130.763856329,33.282266892],[130.76335022,33.281996892],[130.762968833,33.282039946],[130.762657445,33.282187171],[130.7625,33.28238769712898],[130.7625,33.282803119764594],[130.76267287904295,33.28333333333333],[130.775,33.28333333333333],[130.775,33.275712405],[130.774666316,33.275712414]]]}},{"type":"Feature","id":"40225:49307632","properties":{"id":"40225:49307632","meshCode":"49307632","cityCode":"40225","city":"うきは市","lat":33.2791896,"lon":130.7812848,"areaKm2":1.0696354,"populated2020":true,"population2020":2.0278,"populationNote":"収録500mメッシュ人口の合算（原典収録外は補完しない）"},"geometry":{"type":"Polygon","coordinates":[[[130.77595323,33.27500000000001],[130.77591965,33.27559018899999],[130.77584965,33.27563296400001],[130.775,33.275712405],[130.775,33.28333333333333],[130.7875,33.28333333333333],[130.7875,33.275],[130.77595323,33.27500000000001]]]}},{"type":"Feature","id":"40225:49307633","properties":{"id":"40225:49307633","meshCode":"49307633","cityCode":"40225","city":"うきは市","lat":33.2791667,"lon":130.79375,"areaKm2":1.0760528,"populated2020":true,"population2020":16.4113,"populationNote":"収録500mメッシュ人口の合算（原典収録外は補完しない）"},"geometry":{"type":"Polygon","coordinates":[[[130.8,33.275],[130.7875,33.275],[130.7875,33.28333333333333],[130.8,33.28333333333333],[130.8,33.275]]]}},{"type":"Feature","id":"40225:49307634","properties":{"id":"40225:49307634","meshCode":"49307634","cityCode":"40225","city":"うきは市","lat":33.2791667,"lon":130.80625,"areaKm2":1.0760516,"populated2020":true,"population2020":3.0686,"populationNote":"収録500mメッシュ人口の合算（原典収録外は補完しない）"},"geometry":{"type":"Polygon","coordinates":[[[130.8125,33.275],[130.8,33.275],[130.8,33.28333333333333],[130.8125,33.28333333333333],[130.8125,33.275]]]}},{"type":"Feature","id":"40225:49307635","properties":{"id":"40225:49307635","meshCode":"49307635","cityCode":"40225","city":"うきは市","lat":33.2791667,"lon":130.81875,"areaKm2":1.0760506,"populated2020":true,"population2020":12.2745,"populationNote":"収録500mメッシュ人口の合算（原典収録外は補完しない）"},"geometry":{"type":"Polygon","coordinates":[[[130.825,33.275000000000006],[130.8125,33.275],[130.8125,33.28333333333333],[130.825,33.28333333333333],[130.825,33.275000000000006]]]}},{"type":"Feature","id":"40225:49307636","properties":{"id":"40225:49307636","meshCode":"49307636","cityCode":"40225","city":"うきは市","lat":33.2791667,"lon":130.83125,"areaKm2":1.0760494,"populated2020":true,"population2020":26.6446,"populationNote":"収録500mメッシュ人口の合算（原典収録外は補完しない）"},"geometry":{"type":"Polygon","coordinates":[[[130.8375,33.275000000000006],[130.825,33.275000000000006],[130.825,33.28333333333333],[130.8375,33.28333333333333],[130.8375,33.275000000000006]]]}},{"type":"Feature","id":"40225:49307637","properties":{"id":"40225:49307637","meshCode":"49307637","cityCode":"40225","city":"うきは市","lat":33.2791667,"lon":130.84375,"areaKm2":1.0760486,"populated2020":true,"population2020":3.0515,"populationNote":"収録500mメッシュ人口の合算（原典収録外は補完しない）"},"geometry":{"type":"Polygon","coordinates":[[[130.85,33.275000000000006],[130.8375,33.275000000000006],[130.8375,33.28333333333333],[130.85,33.28333333333333],[130.85,33.275000000000006]]]}},{"type":"Feature","id":"40225:49307638","properties":{"id":"40225:49307638","meshCode":"49307638","cityCode":"40225","city":"うきは市","lat":33.2794009,"lon":130.8520702,"areaKm2":0.3256554,"populated2020":false,"population2020":null,"populationNote":"境界またぎ・収録外等のため人口未集計"},"geometry":{"type":"Polygon","coordinates":[[[130.856399961,33.275404964],[130.85665655,33.275],[130.85,33.275000000000006],[130.85,33.28333333333333],[130.85563800324405,33.28333333333333],[130.855063852,33.282532703],[130.854646628,33.281546045],[130.854071907,33.280947432],[130.853624682,33.280289378],[130.853008573,33.279780216000006],[130.852670506,33.278722721],[130.852074125,33.277469667000005],[130.852282737,33.277281613],[130.8529769,33.27691106300001],[130.853274955,33.276503559],[130.853732451,33.276080504999996],[130.855153852,33.275367739],[130.855740233,33.275219126],[130.856399961,33.275404964]]]}},{"type":"Feature","id":"40225:49307539","properties":{"id":"40225:49307539","meshCode":"49307539","cityCode":"40225","city":"うきは市","lat":33.2819532,"lon":130.7459038,"areaKm2":0.2353023,"populated2020":false,"population2020":null,"populationNote":"境界またぎ・収録外等のため人口未集計"},"geometry":{"type":"Polygon","coordinates":[[[130.749829987,33.281361071999996],[130.748849157,33.280747459],[130.747844721,33.280465243],[130.747255824,33.280019685],[130.746862503,33.280090243],[130.746189728,33.27995524300001],[130.744999455,33.279982748],[130.744163619,33.280324973],[130.743668898,33.280673027000006],[130.743325006,33.28072469399999],[130.743361673,33.281195802],[130.74283640700003,33.28183441400001],[130.742629455,33.28194636],[130.742223904,33.281973865000005],[130.741140298,33.282524134999996],[130.740973359,33.282848027],[130.74020219151254,33.28333333333333],[130.75,33.28333333333333],[130.75,33.28139070300001],[130.749829987,33.281361071999996]]]}},{"type":"Feature","id":"40225:49307630","properties":{"id":"40225:49307630","meshCode":"49307630","cityCode":"40225","city":"うきは市","lat":33.2826624,"lon":130.7550956,"areaKm2":0.1250352,"populated2020":true,"population2020":null,"populationNote":"境界またぎ・収録外等のため人口未集計"},"geometry":{"type":"MultiPolygon","coordinates":[[[[130.755968573,33.28143856799999],[130.754793022,33.282364955],[130.753983307,33.28231578399999],[130.753061089,33.282820234],[130.752348314,33.282935514],[130.751896641,33.282726901000004],[130.751643865,33.282305793],[130.751317198,33.28206662200001],[130.750912205,33.281618568],[130.75048415,33.281428568],[130.75,33.28139070300001],[130.75,33.28333333333333],[130.76236989648845,33.28333333333333],[130.761995499,33.283186892],[130.759465512,33.282916892],[130.758959403,33.28270828800001],[130.758585798,33.282236063000006],[130.758235512,33.28205800900001],[130.757050519,33.281628568],[130.756279961,33.28144495499999],[130.755968573,33.28143856799999]]],[[[130.762447173,33.282585505000014],[130.7625,33.282803119764594],[130.7625,33.28238769712898],[130.762447173,33.282585505000014]]]]}},{"type":"Feature","id":"40225:49307548","properties":{"id":"40225:49307548","meshCode":"49307548","cityCode":"40225","city":"うきは市","lat":33.2888341,"lon":130.7341179,"areaKm2":0.4201795,"populated2020":false,"population2020":null,"populationNote":"境界またぎ・収録外等のため人口未集計"},"geometry":{"type":"Polygon","coordinates":[[[130.737027263,33.28506191900001],[130.735509209,33.285118586],[130.735022815,33.285387757],[130.734551712,33.286185251999996],[130.734146991,33.286547198],[130.73387144,33.28671330600001],[130.733519209,33.286756368999995],[130.733279494,33.28687664],[130.731873658,33.286315261000006],[130.731670882,33.286327197999995],[130.730821725,33.28726886499999],[130.730049507,33.287699982],[130.729985888,33.28782914400001],[130.730110895,33.288274423],[130.730001167,33.288643306],[130.730061725,33.288829973],[130.730278949,33.288896919],[130.730303385,33.289589973],[130.730020337,33.290951359999994],[130.730291725,33.291535252],[130.73028316501578,33.291666666666664],[130.7375,33.29166666666667],[130.7375,33.28489957574723],[130.737027263,33.28506191900001]]]}},{"type":"Feature","id":"40225:49307549","properties":{"id":"40225:49307549","meshCode":"49307549","cityCode":"40225","city":"うきは市","lat":33.2875931,"lon":130.7438883,"areaKm2":1.0484661,"populated2020":false,"population2020":null,"populationNote":"境界またぎ・収録外等のため人口未集計"},"geometry":{"type":"Polygon","coordinates":[[[130.74020219151254,33.28333333333333],[130.739225305,33.28412302700001],[130.738821699,33.284575252],[130.73852559,33.284715252],[130.737711427,33.284795252],[130.7375,33.28489957574723],[130.7375,33.29166666666667],[130.75,33.29166666666666],[130.75,33.28333333333333],[130.74020219151254,33.28333333333333]]]}},{"type":"Feature","id":"40225:49307640","properties":{"id":"40225:49307640","meshCode":"49307640","cityCode":"40225","city":"うきは市","lat":33.2875002,"lon":130.7562497,"areaKm2":1.0759047,"populated2020":false,"population2020":null,"populationNote":"境界またぎ・収録外等のため人口未集計"},"geometry":{"type":"Polygon","coordinates":[[[130.7625,33.28340707708188],[130.76236989648845,33.28333333333333],[130.75,33.28333333333333],[130.75,33.29166666666666],[130.7625,33.291666666666664],[130.7625,33.28340707708188]]]}},{"type":"Feature","id":"40225:49307641","properties":{"id":"40225:49307641","meshCode":"49307641","cityCode":"40225","city":"うきは市","lat":33.2875006,"lon":130.7687509,"areaKm2":1.0758055,"populated2020":false,"population2020":null,"populationNote":"境界またぎ・収録外等のため人口未集計"},"geometry":{"type":"Polygon","coordinates":[[[130.762666057,33.283388559],[130.7625,33.28340707708188],[130.7625,33.291666666666664],[130.775,33.29166666666667],[130.775,33.28333333333333],[130.76267287904295,33.28333333333333],[130.762666057,33.283388559]]]}},{"type":"Feature","id":"40225:49307642","properties":{"id":"40225:49307642","meshCode":"49307642","cityCode":"40225","city":"うきは市","lat":33.2875,"lon":130.78125,"areaKm2":1.0759532,"populated2020":false,"population2020":null,"populationNote":"境界またぎ・収録外等のため人口未集計"},"geometry":{"type":"Polygon","coordinates":[[[130.7875,33.28333333333333],[130.775,33.28333333333333],[130.775,33.29166666666667],[130.7875,33.291666666666664],[130.7875,33.28333333333333]]]}},{"type":"Feature","id":"40225:49307643","properties":{"id":"40225:49307643","meshCode":"49307643","cityCode":"40225","city":"うきは市","lat":33.2875,"lon":130.79375,"areaKm2":1.075952,"populated2020":true,"population2020":5.1312,"populationNote":"収録500mメッシュ人口の合算（原典収録外は補完しない）"},"geometry":{"type":"Polygon","coordinates":[[[130.8,33.28333333333333],[130.7875,33.28333333333333],[130.7875,33.291666666666664],[130.8,33.291666666666664],[130.8,33.28333333333333]]]}},{"type":"Feature","id":"40225:49307644","properties":{"id":"40225:49307644","meshCode":"49307644","cityCode":"40225","city":"うきは市","lat":33.2875,"lon":130.80625,"areaKm2":1.0759508,"populated2020":false,"population2020":null,"populationNote":"境界またぎ・収録外等のため人口未集計"},"geometry":{"type":"Polygon","coordinates":[[[130.8125,33.28333333333333],[130.8,33.28333333333333],[130.8,33.291666666666664],[130.8125,33.29166666666667],[130.8125,33.28333333333333]]]}},{"type":"Feature","id":"40225:49307645","properties":{"id":"40225:49307645","meshCode":"49307645","cityCode":"40225","city":"うきは市","lat":33.2875,"lon":130.81875,"areaKm2":1.0759498,"populated2020":true,"population2020":16.3294,"populationNote":"収録500mメッシュ人口の合算（原典収録外は補完しない）"},"geometry":{"type":"Polygon","coordinates":[[[130.825,33.28333333333333],[130.8125,33.28333333333333],[130.8125,33.29166666666667],[130.825,33.291666666666664],[130.825,33.28333333333333]]]}},{"type":"Feature","id":"40225:49307646","properties":{"id":"40225:49307646","meshCode":"49307646","cityCode":"40225","city":"うきは市","lat":33.2875,"lon":130.83125,"areaKm2":1.0759486,"populated2020":false,"population2020":null,"populationNote":"境界またぎ・収録外等のため人口未集計"},"geometry":{"type":"Polygon","coordinates":[[[130.8375,33.28333333333333],[130.825,33.28333333333333],[130.825,33.291666666666664],[130.8375,33.291666666666664],[130.8375,33.28333333333333]]]}},{"type":"Feature","id":"40225:49307647","properties":{"id":"40225:49307647","meshCode":"49307647","cityCode":"40225","city":"うきは市","lat":33.2875,"lon":130.84375,"areaKm2":1.0759478,"populated2020":false,"population2020":null,"populationNote":"境界またぎ・収録外等のため人口未集計"},"geometry":{"type":"Polygon","coordinates":[[[130.85,33.28333333333333],[130.8375,33.28333333333333],[130.8375,33.291666666666664],[130.85,33.291666666666664],[130.85,33.28333333333333]]]}},{"type":"Feature","id":"40225:49307648","properties":{"id":"40225:49307648","meshCode":"49307648","cityCode":"40225","city":"うきは市","lat":33.2880446,"lon":130.8554093,"areaKm2":0.8805478,"populated2020":false,"population2020":null,"populationNote":"境界またぎ・収録外等のため人口未集計"},"geometry":{"type":"Polygon","coordinates":[[[130.856445512,33.284397144],[130.85563800324405,33.28333333333333],[130.85,33.28333333333333],[130.85,33.291666666666664],[130.8625,33.291666666666664],[130.8625,33.28854646902174],[130.86202441,33.288054649],[130.861411907,33.287895198],[130.860229131,33.286641874],[130.859632737,33.286430477],[130.858976628,33.285921315],[130.858290519,33.28563131500001],[130.857127743,33.284973261],[130.856445512,33.284397144]]]}},{"type":"Feature","id":"40225:49307649","properties":{"id":"40225:49307649","meshCode":"49307649","cityCode":"40225","city":"うきは市","lat":33.290462,"lon":130.8637658,"areaKm2":0.0703036,"populated2020":true,"population2020":3.0513,"populationNote":"収録500mメッシュ人口の合算（原典収録外は補完しない）"},"geometry":{"type":"Polygon","coordinates":[[[130.8660895847933,33.291666666666664],[130.864837484,33.29036546799999],[130.864688314,33.289958252],[130.864201362,33.28949602699999],[130.86397275,33.289166865],[130.863038301,33.288618532],[130.862640519,33.288649928000005],[130.8625,33.28854646902174],[130.8625,33.291666666666664],[130.8660895847933,33.291666666666664]]]}},{"type":"Feature","id":"40225:49307558","properties":{"id":"40225:49307558","meshCode":"49307558","cityCode":"40225","city":"うきは市","lat":33.2962018,"lon":130.7318121,"areaKm2":0.9504214,"populated2020":false,"population2020":null,"populationNote":"境界またぎ・収録外等のため人口未集計"},"geometry":{"type":"Polygon","coordinates":[[[130.73028144,33.291702748],[130.730270052,33.292145523],[130.730795058,33.29255191],[130.730251167,33.292453027],[130.729819507,33.292499973],[130.729291997,33.29283246800001],[130.728968392,33.293153026999995],[130.727203126,33.29424218900001],[130.726725344,33.29429664],[130.726450623,33.294429414],[130.726193398,33.294759414],[130.725775629,33.295015523],[130.72509035,33.295969973],[130.725,33.296149432],[130.725,33.296632622],[130.72515118,33.29701746800001],[130.725007847,33.29748191000001],[130.725,33.300000000000004],[130.7375,33.300000000000004],[130.7375,33.29166666666667],[130.73028144,33.291702748]]]}},{"type":"Feature","id":"40225:49307559","properties":{"id":"40225:49307559","meshCode":"49307559","cityCode":"40225","city":"うきは市","lat":33.2958333,"lon":130.74375,"areaKm2":1.0758564,"populated2020":true,"population2020":11.2558,"populationNote":"収録500mメッシュ人口の合算（原典収録外は補完しない）"},"geometry":{"type":"Polygon","coordinates":[[[130.75,33.29166666666666],[130.7375,33.29166666666667],[130.7375,33.300000000000004],[130.75,33.300000000000004],[130.75,33.29166666666666]]]}},{"type":"Feature","id":"40225:49307650","properties":{"id":"40225:49307650","meshCode":"49307650","cityCode":"40225","city":"うきは市","lat":33.2958333,"lon":130.75625,"areaKm2":1.075855,"populated2020":true,"population2020":89.0883,"populationNote":"収録500mメッシュ人口の合算（原典収録外は補完しない）"},"geometry":{"type":"Polygon","coordinates":[[[130.7625,33.291666666666664],[130.75,33.29166666666666],[130.75,33.300000000000004],[130.7625,33.300000000000004],[130.7625,33.291666666666664]]]}},{"type":"Feature","id":"40225:49307651","properties":{"id":"40225:49307651","meshCode":"49307651","cityCode":"40225","city":"うきは市","lat":33.2958333,"lon":130.76875,"areaKm2":1.0758536,"populated2020":false,"population2020":null,"populationNote":"境界またぎ・収録外等のため人口未集計"},"geometry":{"type":"Polygon","coordinates":[[[130.775,33.29166666666667],[130.7625,33.291666666666664],[130.7625,33.300000000000004],[130.775,33.300000000000004],[130.775,33.29166666666667]]]}},{"type":"Feature","id":"40225:49307652","properties":{"id":"40225:49307652","meshCode":"49307652","cityCode":"40225","city":"うきは市","lat":33.2958333,"lon":130.78125,"areaKm2":1.0758524,"populated2020":true,"population2020":11.3251,"populationNote":"収録500mメッシュ人口の合算（原典収録外は補完しない）"},"geometry":{"type":"Polygon","coordinates":[[[130.7875,33.291666666666664],[130.775,33.29166666666667],[130.775,33.300000000000004],[130.7875,33.300000000000004],[130.7875,33.291666666666664]]]}},{"type":"Feature","id":"40225:49307653","properties":{"id":"40225:49307653","meshCode":"49307653","cityCode":"40225","city":"うきは市","lat":33.2958333,"lon":130.79375,"areaKm2":1.0758512,"populated2020":true,"population2020":37.7451,"populationNote":"収録500mメッシュ人口の合算（原典収録外は補完しない）"},"geometry":{"type":"Polygon","coordinates":[[[130.8,33.291666666666664],[130.7875,33.291666666666664],[130.7875,33.300000000000004],[130.8,33.300000000000004],[130.8,33.291666666666664]]]}},{"type":"Feature","id":"40225:49307654","properties":{"id":"40225:49307654","meshCode":"49307654","cityCode":"40225","city":"うきは市","lat":33.2958333,"lon":130.80625,"areaKm2":1.07585,"populated2020":true,"population2020":94.454,"populationNote":"収録500mメッシュ人口の合算（原典収録外は補完しない）"},"geometry":{"type":"Polygon","coordinates":[[[130.8125,33.29166666666667],[130.8,33.291666666666664],[130.8,33.300000000000004],[130.8125,33.3],[130.8125,33.29166666666667]]]}},{"type":"Feature","id":"40225:49307655","properties":{"id":"40225:49307655","meshCode":"49307655","cityCode":"40225","city":"うきは市","lat":33.2958333,"lon":130.81875,"areaKm2":1.075849,"populated2020":true,"population2020":10.2634,"populationNote":"収録500mメッシュ人口の合算（原典収録外は補完しない）"},"geometry":{"type":"Polygon","coordinates":[[[130.825,33.291666666666664],[130.8125,33.29166666666667],[130.8125,33.3],[130.825,33.3],[130.825,33.291666666666664]]]}},{"type":"Feature","id":"40225:49307656","properties":{"id":"40225:49307656","meshCode":"49307656","cityCode":"40225","city":"うきは市","lat":33.2958333,"lon":130.83125,"areaKm2":1.0758478,"populated2020":true,"population2020":13.2606,"populationNote":"収録500mメッシュ人口の合算（原典収録外は補完しない）"},"geometry":{"type":"Polygon","coordinates":[[[130.8375,33.291666666666664],[130.825,33.291666666666664],[130.825,33.3],[130.8375,33.300000000000004],[130.8375,33.291666666666664]]]}},{"type":"Feature","id":"40225:49307657","properties":{"id":"40225:49307657","meshCode":"49307657","cityCode":"40225","city":"うきは市","lat":33.2958333,"lon":130.84375,"areaKm2":1.075847,"populated2020":true,"population2020":6.1281,"populationNote":"収録500mメッシュ人口の合算（原典収録外は補完しない）"},"geometry":{"type":"Polygon","coordinates":[[[130.85,33.291666666666664],[130.8375,33.291666666666664],[130.8375,33.300000000000004],[130.85,33.3],[130.85,33.291666666666664]]]}},{"type":"Feature","id":"40225:49307658","properties":{"id":"40225:49307658","meshCode":"49307658","cityCode":"40225","city":"うきは市","lat":33.2958333,"lon":130.85625,"areaKm2":1.0758462,"populated2020":true,"population2020":6.1652,"populationNote":"収録500mメッシュ人口の合算（原典収録外は補完しない）"},"geometry":{"type":"Polygon","coordinates":[[[130.8625,33.291666666666664],[130.85,33.291666666666664],[130.85,33.3],[130.8625,33.3],[130.8625,33.291666666666664]]]}},{"type":"Feature","id":"40225:49307659","properties":{"id":"40225:49307659","meshCode":"49307659","cityCode":"40225","city":"うきは市","lat":33.2948411,"lon":130.8639947,"areaKm2":0.2159643,"populated2020":true,"population2020":27.7072,"populationNote":"収録500mメッシュ人口の合算（原典収録外は補完しない）"},"geometry":{"type":"Polygon","coordinates":[[[130.865126083,33.29557573],[130.865265525,33.294729901],[130.865464137,33.294299072],[130.865563593,33.294126847],[130.866110259,33.293774342000006],[130.866299144,33.293570739],[130.866418599,33.29325712599999],[130.866139429,33.292809351],[130.866348314,33.292112126],[130.8660895847933,33.291666666666664],[130.8625,33.291666666666664],[130.8625,33.3],[130.863457185,33.298768505],[130.864003852,33.298439342],[130.864163022,33.298267117],[130.865275253,33.296742955000006],[130.865304968,33.296476568],[130.865126083,33.29557573]]]}},{"type":"Feature","id":"40225:49307557","properties":{"id":"40225:49307557","meshCode":"49307557","cityCode":"40225","city":"うきは市","lat":33.2991332,"lon":130.7249417,"areaKm2":0.0017987,"populated2020":false,"population2020":null,"populationNote":"境界またぎ・収録外等のため人口未集計"},"geometry":{"type":"MultiPolygon","coordinates":[[[[130.725,33.296149432],[130.724950623,33.296506910000005],[130.725,33.296632622],[130.725,33.296149432]]],[[[130.725,33.298211324],[130.724845071,33.299776351],[130.724745681,33.300000000000004],[130.725,33.300000000000004],[130.725,33.298211324]]]]}},{"type":"Feature","id":"40225:49307567","properties":{"id":"40225:49307567","meshCode":"49307567","cityCode":"40225","city":"うきは市","lat":33.3011876,"lon":130.7245999,"areaKm2":0.0152561,"populated2020":false,"population2020":null,"populationNote":"境界またぎ・収録外等のため人口未集計"},"geometry":{"type":"Polygon","coordinates":[[[130.724037017,33.302136350999994],[130.725,33.30195173],[130.725,33.300000000000004],[130.724745681,33.300000000000004],[130.724252023,33.300764405],[130.724237575,33.30119245899999],[130.724042023,33.301690243],[130.724037017,33.302136350999994]]]}},{"type":"Feature","id":"40225:49307568","properties":{"id":"40225:49307568","meshCode":"49307568","cityCode":"40225","city":"うきは市","lat":33.3039554,"lon":130.7323318,"areaKm2":0.874187,"populated2020":false,"population2020":null,"populationNote":"境界またぎ・収録外等のため人口未集計"},"geometry":{"type":"Polygon","coordinates":[[[130.725564799,33.30186135100001],[130.726734514,33.302119126],[130.728074228,33.30265051399999],[130.728741167,33.302658847],[130.72759466893137,33.30833333333333],[130.7375,33.30833333333333],[130.7375,33.300000000000004],[130.725,33.300000000000004],[130.725,33.30195173],[130.725564799,33.30186135100001]]]}},{"type":"Feature","id":"40225:49307569","properties":{"id":"40225:49307569","meshCode":"49307569","cityCode":"40225","city":"うきは市","lat":33.3041667,"lon":130.74375,"areaKm2":1.0757556,"populated2020":false,"population2020":null,"populationNote":"境界またぎ・収録外等のため人口未集計"},"geometry":{"type":"Polygon","coordinates":[[[130.75,33.300000000000004],[130.7375,33.300000000000004],[130.7375,33.30833333333333],[130.75,33.30833333333334],[130.75,33.300000000000004]]]}},{"type":"Feature","id":"40225:49307660","properties":{"id":"40225:49307660","meshCode":"49307660","cityCode":"40225","city":"うきは市","lat":33.3041667,"lon":130.75625,"areaKm2":1.0757541,"populated2020":true,"population2020":73.8247,"populationNote":"収録500mメッシュ人口の合算（原典収録外は補完しない）"},"geometry":{"type":"Polygon","coordinates":[[[130.7625,33.300000000000004],[130.75,33.300000000000004],[130.75,33.30833333333334],[130.7625,33.30833333333333],[130.7625,33.300000000000004]]]}},{"type":"Feature","id":"40225:49307661","properties":{"id":"40225:49307661","meshCode":"49307661","cityCode":"40225","city":"うきは市","lat":33.3041667,"lon":130.76875,"areaKm2":1.0757528,"populated2020":true,"population2020":38.0561,"populationNote":"収録500mメッシュ人口の合算（原典収録外は補完しない）"},"geometry":{"type":"Polygon","coordinates":[[[130.775,33.300000000000004],[130.7625,33.300000000000004],[130.7625,33.30833333333333],[130.775,33.30833333333333],[130.775,33.300000000000004]]]}},{"type":"Feature","id":"40225:49307662","properties":{"id":"40225:49307662","meshCode":"49307662","cityCode":"40225","city":"うきは市","lat":33.3041667,"lon":130.78125,"areaKm2":1.0757515,"populated2020":true,"population2020":48.3225,"populationNote":"収録500mメッシュ人口の合算（原典収録外は補完しない）"},"geometry":{"type":"Polygon","coordinates":[[[130.7875,33.300000000000004],[130.775,33.300000000000004],[130.775,33.30833333333333],[130.7875,33.30833333333333],[130.7875,33.300000000000004]]]}},{"type":"Feature","id":"40225:49307663","properties":{"id":"40225:49307663","meshCode":"49307663","cityCode":"40225","city":"うきは市","lat":33.3041667,"lon":130.79375,"areaKm2":1.0757502,"populated2020":true,"population2020":2.053,"populationNote":"収録500mメッシュ人口の合算（原典収録外は補完しない）"},"geometry":{"type":"Polygon","coordinates":[[[130.8,33.300000000000004],[130.7875,33.300000000000004],[130.7875,33.30833333333333],[130.8,33.30833333333333],[130.8,33.300000000000004]]]}},{"type":"Feature","id":"40225:49307664","properties":{"id":"40225:49307664","meshCode":"49307664","cityCode":"40225","city":"うきは市","lat":33.3041667,"lon":130.80625,"areaKm2":1.0757491,"populated2020":false,"population2020":null,"populationNote":"境界またぎ・収録外等のため人口未集計"},"geometry":{"type":"Polygon","coordinates":[[[130.8125,33.3],[130.8,33.300000000000004],[130.8,33.30833333333333],[130.8125,33.30833333333333],[130.8125,33.3]]]}},{"type":"Feature","id":"40225:49307665","properties":{"id":"40225:49307665","meshCode":"49307665","cityCode":"40225","city":"うきは市","lat":33.3041667,"lon":130.81875,"areaKm2":1.075748,"populated2020":true,"population2020":8.1604,"populationNote":"収録500mメッシュ人口の合算（原典収録外は補完しない）"},"geometry":{"type":"Polygon","coordinates":[[[130.825,33.3],[130.8125,33.3],[130.8125,33.30833333333333],[130.825,33.30833333333333],[130.825,33.3]]]}},{"type":"Feature","id":"40225:49307666","properties":{"id":"40225:49307666","meshCode":"49307666","cityCode":"40225","city":"うきは市","lat":33.3041667,"lon":130.83125,"areaKm2":1.075747,"populated2020":true,"population2020":6.1593,"populationNote":"収録500mメッシュ人口の合算（原典収録外は補完しない）"},"geometry":{"type":"Polygon","coordinates":[[[130.8375,33.300000000000004],[130.825,33.3],[130.825,33.30833333333333],[130.8375,33.30833333333333],[130.8375,33.300000000000004]]]}},{"type":"Feature","id":"40225:49307667","properties":{"id":"40225:49307667","meshCode":"49307667","cityCode":"40225","city":"うきは市","lat":33.3041667,"lon":130.84375,"areaKm2":1.0757462,"populated2020":true,"population2020":42.8766,"populationNote":"収録500mメッシュ人口の合算（原典収録外は補完しない）"},"geometry":{"type":"Polygon","coordinates":[[[130.85,33.3],[130.8375,33.300000000000004],[130.8375,33.30833333333333],[130.85,33.30833333333333],[130.85,33.3]]]}},{"type":"Feature","id":"40225:49307668","properties":{"id":"40225:49307668","meshCode":"49307668","cityCode":"40225","city":"うきは市","lat":33.304185,"lon":130.8560938,"areaKm2":1.0478948,"populated2020":true,"population2020":45.0875,"populationNote":"収録500mメッシュ人口の合算（原典収録外は補完しない）"},"geometry":{"type":"Polygon","coordinates":[[[130.8625,33.30382390750443],[130.861579676,33.30318961300001],[130.86146939,33.302810441],[130.861490233,33.302046],[130.8625,33.300644717461786],[130.8625,33.3],[130.85,33.3],[130.85,33.30833333333333],[130.86205265893994,33.30833333333333],[130.862145772,33.308009324],[130.862195499,33.30706126999999],[130.8625,33.30621158225943],[130.8625,33.30382390750443]]]}},{"type":"Feature","id":"40225:49307669","properties":{"id":"40225:49307669","meshCode":"49307669","cityCode":"40225","city":"うきは市","lat":33.3048163,"lon":130.8626984,"areaKm2":0.0080791,"populated2020":false,"population2020":null,"populationNote":"境界またぎ・収録外等のため人口未集計"},"geometry":{"type":"MultiPolygon","coordinates":[[[[130.8625,33.300644717461786],[130.862545551,33.3],[130.8625,33.3],[130.8625,33.300644717461786]]],[[[130.8625,33.30382390750443],[130.8625,33.30621158225943],[130.862881336,33.305439883],[130.863050778,33.304850161999994],[130.862772166,33.304215721],[130.8625,33.30382390750443]]]]}},{"type":"Feature","id":"40225:49307578","properties":{"id":"40225:49307578","meshCode":"49307578","cityCode":"40225","city":"うきは市","lat":33.3126063,"lon":130.7321267,"areaKm2":0.9229689,"populated2020":false,"population2020":null,"populationNote":"境界またぎ・収録外等のため人口未集計"},"geometry":{"type":"Polygon","coordinates":[[[130.72759466893137,33.30833333333333],[130.72594840506147,33.31666666666667],[130.7375,33.31666666666667],[130.7375,33.30833333333333],[130.72759466893137,33.30833333333333]]]}},{"type":"Feature","id":"40225:49307579","properties":{"id":"40225:49307579","meshCode":"49307579","cityCode":"40225","city":"うきは市","lat":33.3125,"lon":130.74375,"areaKm2":1.0756548,"populated2020":true,"population2020":3.0568,"populationNote":"収録500mメッシュ人口の合算（原典収録外は補完しない）"},"geometry":{"type":"Polygon","coordinates":[[[130.75,33.30833333333334],[130.7375,33.30833333333333],[130.7375,33.31666666666667],[130.75,33.31666666666666],[130.75,33.30833333333334]]]}},{"type":"Feature","id":"40225:49307670","properties":{"id":"40225:49307670","meshCode":"49307670","cityCode":"40225","city":"うきは市","lat":33.3125,"lon":130.75625,"areaKm2":1.0756532,"populated2020":true,"population2020":5.1387,"populationNote":"収録500mメッシュ人口の合算（原典収録外は補完しない）"},"geometry":{"type":"Polygon","coordinates":[[[130.7625,33.30833333333333],[130.75,33.30833333333334],[130.75,33.31666666666666],[130.7625,33.31666666666666],[130.7625,33.30833333333333]]]}},{"type":"Feature","id":"40225:49307671","properties":{"id":"40225:49307671","meshCode":"49307671","cityCode":"40225","city":"うきは市","lat":33.3125,"lon":130.76875,"areaKm2":1.075652,"populated2020":true,"population2020":58.3521,"populationNote":"収録500mメッシュ人口の合算（原典収録外は補完しない）"},"geometry":{"type":"Polygon","coordinates":[[[130.775,33.30833333333333],[130.7625,33.30833333333333],[130.7625,33.31666666666666],[130.775,33.31666666666667],[130.775,33.30833333333333]]]}},{"type":"Feature","id":"40225:49307672","properties":{"id":"40225:49307672","meshCode":"49307672","cityCode":"40225","city":"うきは市","lat":33.3125,"lon":130.78125,"areaKm2":1.0756506,"populated2020":false,"population2020":null,"populationNote":"境界またぎ・収録外等のため人口未集計"},"geometry":{"type":"Polygon","coordinates":[[[130.7875,33.30833333333333],[130.775,33.30833333333333],[130.775,33.31666666666667],[130.7875,33.31666666666668],[130.7875,33.30833333333333]]]}},{"type":"Feature","id":"40225:49307673","properties":{"id":"40225:49307673","meshCode":"49307673","cityCode":"40225","city":"うきは市","lat":33.3125,"lon":130.79375,"areaKm2":1.0756494,"populated2020":true,"population2020":3.0755,"populationNote":"収録500mメッシュ人口の合算（原典収録外は補完しない）"},"geometry":{"type":"Polygon","coordinates":[[[130.8,33.30833333333333],[130.7875,33.30833333333333],[130.7875,33.31666666666668],[130.8,33.31666666666667],[130.8,33.30833333333333]]]}},{"type":"Feature","id":"40225:49307674","properties":{"id":"40225:49307674","meshCode":"49307674","cityCode":"40225","city":"うきは市","lat":33.3125,"lon":130.80625,"areaKm2":1.0756482,"populated2020":true,"population2020":4.0766,"populationNote":"収録500mメッシュ人口の合算（原典収録外は補完しない）"},"geometry":{"type":"Polygon","coordinates":[[[130.8125,33.30833333333333],[130.8,33.30833333333333],[130.8,33.31666666666667],[130.8125,33.31666666666667],[130.8125,33.30833333333333]]]}},{"type":"Feature","id":"40225:49307675","properties":{"id":"40225:49307675","meshCode":"49307675","cityCode":"40225","city":"うきは市","lat":33.3125,"lon":130.81875,"areaKm2":1.0756472,"populated2020":true,"population2020":27.7099,"populationNote":"収録500mメッシュ人口の合算（原典収録外は補完しない）"},"geometry":{"type":"Polygon","coordinates":[[[130.825,33.30833333333333],[130.8125,33.30833333333333],[130.8125,33.31666666666667],[130.825,33.31666666666667],[130.825,33.30833333333333]]]}},{"type":"Feature","id":"40225:49307676","properties":{"id":"40225:49307676","meshCode":"49307676","cityCode":"40225","city":"うきは市","lat":33.3125,"lon":130.83125,"areaKm2":1.0756462,"populated2020":true,"population2020":127.384,"populationNote":"収録500mメッシュ人口の合算（原典収録外は補完しない）"},"geometry":{"type":"Polygon","coordinates":[[[130.8375,33.30833333333333],[130.825,33.30833333333333],[130.825,33.31666666666667],[130.8375,33.31666666666667],[130.8375,33.30833333333333]]]}},{"type":"Feature","id":"40225:49307677","properties":{"id":"40225:49307677","meshCode":"49307677","cityCode":"40225","city":"うきは市","lat":33.3125,"lon":130.84375,"areaKm2":1.0756453,"populated2020":true,"population2020":141.7518,"populationNote":"収録500mメッシュ人口の合算（原典収録外は補完しない）"},"geometry":{"type":"Polygon","coordinates":[[[130.85,33.30833333333333],[130.8375,33.30833333333333],[130.8375,33.31666666666667],[130.85,33.31666666666666],[130.85,33.30833333333333]]]}},{"type":"Feature","id":"40225:49307678","properties":{"id":"40225:49307678","meshCode":"49307678","cityCode":"40225","city":"うきは市","lat":33.3121432,"lon":130.8548767,"areaKm2":0.8203605,"populated2020":false,"population2020":null,"populationNote":"境界またぎ・収録外等のため人口未集計"},"geometry":{"type":"Polygon","coordinates":[[[130.859126887,33.313062919],[130.860180493,33.310924595],[130.86039939,33.31007070300001],[130.86076716,33.309843486000005],[130.862148833,33.309569324],[130.86189716,33.30899432399999],[130.86205265893994,33.30833333333333],[130.85,33.30833333333333],[130.85,33.31666666666666],[130.85715049330574,33.31666666666666],[130.857379948,33.31634597299998],[130.858241881,33.31436319800001],[130.858987717,33.314590423],[130.859126887,33.313062919]]]}},{"type":"Feature","id":"40225:49307588","properties":{"id":"40225:49307588","meshCode":"49307588","cityCode":"40225","city":"うきは市","lat":33.3207902,"lon":130.7316465,"areaKm2":1.0054819,"populated2020":true,"population2020":2.0386,"populationNote":"収録500mメッシュ人口の合算（原典収録外は補完しない）"},"geometry":{"type":"Polygon","coordinates":[[[130.72594840506147,33.31666666666667],[130.725143684,33.321181324],[130.726394799,33.322428261],[130.726666459,33.323476315],[130.726543398,33.324014649],[130.726277017,33.324434098999994],[130.725729235,33.32470464899999],[130.725,33.324724071999995],[130.725,33.324999999999996],[130.7375,33.324999999999996],[130.7375,33.31666666666667],[130.72594840506147,33.31666666666667]]]}},{"type":"Feature","id":"40225:49307589","properties":{"id":"40225:49307589","meshCode":"49307589","cityCode":"40225","city":"うきは市","lat":33.3208333,"lon":130.74375,"areaKm2":1.0755539,"populated2020":true,"population2020":4.093,"populationNote":"収録500mメッシュ人口の合算（原典収録外は補完しない）"},"geometry":{"type":"Polygon","coordinates":[[[130.75,33.31666666666666],[130.7375,33.31666666666667],[130.7375,33.324999999999996],[130.75,33.325],[130.75,33.31666666666666]]]}},{"type":"Feature","id":"40225:49307680","properties":{"id":"40225:49307680","meshCode":"49307680","cityCode":"40225","city":"うきは市","lat":33.3208333,"lon":130.75625,"areaKm2":1.0755524,"populated2020":false,"population2020":null,"populationNote":"境界またぎ・収録外等のため人口未集計"},"geometry":{"type":"Polygon","coordinates":[[[130.7625,33.31666666666666],[130.75,33.31666666666666],[130.75,33.325],[130.7625,33.324999999999996],[130.7625,33.31666666666666]]]}},{"type":"Feature","id":"40225:49307681","properties":{"id":"40225:49307681","meshCode":"49307681","cityCode":"40225","city":"うきは市","lat":33.3208333,"lon":130.76875,"areaKm2":1.075551,"populated2020":true,"population2020":2.0486,"populationNote":"収録500mメッシュ人口の合算（原典収録外は補完しない）"},"geometry":{"type":"Polygon","coordinates":[[[130.775,33.31666666666667],[130.7625,33.31666666666666],[130.7625,33.324999999999996],[130.775,33.32500000000001],[130.775,33.31666666666667]]]}},{"type":"Feature","id":"40225:49307682","properties":{"id":"40225:49307682","meshCode":"49307682","cityCode":"40225","city":"うきは市","lat":33.3208333,"lon":130.78125,"areaKm2":1.0755497,"populated2020":true,"population2020":4.1085,"populationNote":"収録500mメッシュ人口の合算（原典収録外は補完しない）"},"geometry":{"type":"Polygon","coordinates":[[[130.7875,33.31666666666668],[130.775,33.31666666666667],[130.775,33.32500000000001],[130.7875,33.325],[130.7875,33.31666666666668]]]}},{"type":"Feature","id":"40225:49307683","properties":{"id":"40225:49307683","meshCode":"49307683","cityCode":"40225","city":"うきは市","lat":33.3208333,"lon":130.79375,"areaKm2":1.0755485,"populated2020":true,"population2020":114.8426,"populationNote":"収録500mメッシュ人口の合算（原典収録外は補完しない）"},"geometry":{"type":"Polygon","coordinates":[[[130.8,33.31666666666667],[130.7875,33.31666666666668],[130.7875,33.325],[130.8,33.325],[130.8,33.31666666666667]]]}},{"type":"Feature","id":"40225:49307684","properties":{"id":"40225:49307684","meshCode":"49307684","cityCode":"40225","city":"うきは市","lat":33.3208333,"lon":130.80625,"areaKm2":1.0755474,"populated2020":true,"population2020":213.3523,"populationNote":"収録500mメッシュ人口の合算（原典収録外は補完しない）"},"geometry":{"type":"Polygon","coordinates":[[[130.8125,33.31666666666667],[130.8,33.31666666666667],[130.8,33.325],[130.8125,33.324999999999996],[130.8125,33.31666666666667]]]}},{"type":"Feature","id":"40225:49307685","properties":{"id":"40225:49307685","meshCode":"49307685","cityCode":"40225","city":"うきは市","lat":33.3208333,"lon":130.81875,"areaKm2":1.0755462,"populated2020":true,"population2020":18.3548,"populationNote":"収録500mメッシュ人口の合算（原典収録外は補完しない）"},"geometry":{"type":"Polygon","coordinates":[[[130.825,33.31666666666667],[130.8125,33.31666666666667],[130.8125,33.324999999999996],[130.825,33.325],[130.825,33.31666666666667]]]}},{"type":"Feature","id":"40225:49307686","properties":{"id":"40225:49307686","meshCode":"49307686","cityCode":"40225","city":"うきは市","lat":33.3208333,"lon":130.83125,"areaKm2":1.0755453,"populated2020":true,"population2020":17.3781,"populationNote":"収録500mメッシュ人口の合算（原典収録外は補完しない）"},"geometry":{"type":"Polygon","coordinates":[[[130.8375,33.31666666666667],[130.825,33.31666666666667],[130.825,33.325],[130.8375,33.325],[130.8375,33.31666666666667]]]}},{"type":"Feature","id":"40225:49307687","properties":{"id":"40225:49307687","meshCode":"49307687","cityCode":"40225","city":"うきは市","lat":33.3208333,"lon":130.84375,"areaKm2":1.0755442,"populated2020":true,"population2020":14.3035,"populationNote":"収録500mメッシュ人口の合算（原典収録外は補完しない）"},"geometry":{"type":"Polygon","coordinates":[[[130.85,33.31666666666666],[130.8375,33.31666666666667],[130.8375,33.325],[130.85,33.324999999999996],[130.85,33.31666666666666]]]}},{"type":"Feature","id":"40225:49307688","properties":{"id":"40225:49307688","meshCode":"49307688","cityCode":"40225","city":"うきは市","lat":33.3204387,"lon":130.8528508,"areaKm2":0.4771326,"populated2020":true,"population2020":12.2531,"populationNote":"収録500mメッシュ人口の合算（原典収録外は補完しない）"},"geometry":{"type":"Polygon","coordinates":[[[130.856425512,33.318366793],[130.856554669,33.318233739],[130.85674355400002,33.31775596400001],[130.856783281,33.317223188999996],[130.85715049330574,33.31666666666666],[130.85,33.31666666666666],[130.85,33.324999999999996],[130.854781414,33.324999999999996],[130.854377756,33.32466205400001],[130.854248586,33.324337324],[130.854188859,33.323953441],[130.854288301,33.32338955],[130.855083294,33.321979838000004],[130.855311907,33.32116511700001],[130.856117185,33.320372063],[130.8561669,33.319009288],[130.856425512,33.318366793]]]}},{"type":"Feature","id":"40225:49307587","properties":{"id":"40225:49307587","meshCode":"49307587","cityCode":"40225","city":"うきは市","lat":33.3248556,"lon":130.7241772,"areaKm2":0.0048656,"populated2020":false,"population2020":null,"populationNote":"境界またぎ・収録外等のため人口未集計"},"geometry":{"type":"Polygon","coordinates":[[[130.724999792,33.324724063],[130.723569248,33.32470048599999],[130.723395357,33.32476743200001],[130.723360519,33.324999999999996],[130.725,33.324999999999996],[130.724999792,33.324724063]]]}},{"type":"Feature","id":"40225:49307597","properties":{"id":"40225:49307597","meshCode":"49307597","cityCode":"40225","city":"うきは市","lat":33.3285055,"lon":130.7243522,"areaKm2":0.1020704,"populated2020":true,"population2020":null,"populationNote":"境界またぎ・収録外等のため人口未集計"},"geometry":{"type":"Polygon","coordinates":[[[130.723360519,33.324999999999996],[130.723292853,33.326579649],[130.723615357,33.328535757000004],[130.723932853,33.328559928],[130.724283969,33.33127409],[130.724003411,33.331346306],[130.7241907260272,33.333333333333336],[130.725,33.33333333333333],[130.725,33.324999999999996],[130.723360519,33.324999999999996]]]}},{"type":"Feature","id":"40225:49307598","properties":{"id":"40225:49307598","meshCode":"49307598","cityCode":"40225","city":"うきは市","lat":33.3291667,"lon":130.73125,"areaKm2":1.0754544,"populated2020":true,"population2020":557.4629,"populationNote":"収録500mメッシュ人口の合算（原典収録外は補完しない）"},"geometry":{"type":"Polygon","coordinates":[[[130.7375,33.324999999999996],[130.725,33.324999999999996],[130.725,33.33333333333333],[130.7375,33.333333333333336],[130.7375,33.324999999999996]]]}},{"type":"Feature","id":"40225:49307599","properties":{"id":"40225:49307599","meshCode":"49307599","cityCode":"40225","city":"うきは市","lat":33.3291667,"lon":130.74375,"areaKm2":1.0754528,"populated2020":true,"population2020":574.422,"populationNote":"収録500mメッシュ人口の合算（原典収録外は補完しない）"},"geometry":{"type":"Polygon","coordinates":[[[130.75,33.325],[130.7375,33.324999999999996],[130.7375,33.333333333333336],[130.75,33.333333333333336],[130.75,33.325]]]}},{"type":"Feature","id":"40225:49307690","properties":{"id":"40225:49307690","meshCode":"49307690","cityCode":"40225","city":"うきは市","lat":33.3291667,"lon":130.75625,"areaKm2":1.0754515,"populated2020":true,"population2020":567.8311,"populationNote":"収録500mメッシュ人口の合算（原典収録外は補完しない）"},"geometry":{"type":"Polygon","coordinates":[[[130.7625,33.324999999999996],[130.75,33.325],[130.75,33.333333333333336],[130.7625,33.33333333333333],[130.7625,33.324999999999996]]]}},{"type":"Feature","id":"40225:49307691","properties":{"id":"40225:49307691","meshCode":"49307691","cityCode":"40225","city":"うきは市","lat":33.3291667,"lon":130.76875,"areaKm2":1.07545,"populated2020":true,"population2020":490.4983,"populationNote":"収録500mメッシュ人口の合算（原典収録外は補完しない）"},"geometry":{"type":"Polygon","coordinates":[[[130.775,33.32500000000001],[130.7625,33.324999999999996],[130.7625,33.33333333333333],[130.775,33.333333333333336],[130.775,33.32500000000001]]]}},{"type":"Feature","id":"40225:49307692","properties":{"id":"40225:49307692","meshCode":"49307692","cityCode":"40225","city":"うきは市","lat":33.3291667,"lon":130.78125,"areaKm2":1.0754488,"populated2020":true,"population2020":681.0885,"populationNote":"収録500mメッシュ人口の合算（原典収録外は補完しない）"},"geometry":{"type":"Polygon","coordinates":[[[130.7875,33.325],[130.775,33.32500000000001],[130.775,33.333333333333336],[130.7875,33.333333333333336],[130.7875,33.325]]]}},{"type":"Feature","id":"40225:49307693","properties":{"id":"40225:49307693","meshCode":"49307693","cityCode":"40225","city":"うきは市","lat":33.3291667,"lon":130.79375,"areaKm2":1.0754476,"populated2020":true,"population2020":1228.2115,"populationNote":"収録500mメッシュ人口の合算（原典収録外は補完しない）"},"geometry":{"type":"Polygon","coordinates":[[[130.8,33.325],[130.7875,33.325],[130.7875,33.333333333333336],[130.8,33.333333333333336],[130.8,33.325]]]}},{"type":"Feature","id":"40225:49307694","properties":{"id":"40225:49307694","meshCode":"49307694","cityCode":"40225","city":"うきは市","lat":33.3291667,"lon":130.80625,"areaKm2":1.0754464,"populated2020":true,"population2020":776.0014,"populationNote":"収録500mメッシュ人口の合算（原典収録外は補完しない）"},"geometry":{"type":"Polygon","coordinates":[[[130.8125,33.324999999999996],[130.8,33.325],[130.8,33.333333333333336],[130.8125,33.333333333333336],[130.8125,33.324999999999996]]]}},{"type":"Feature","id":"40225:49307695","properties":{"id":"40225:49307695","meshCode":"49307695","cityCode":"40225","city":"うきは市","lat":33.3291667,"lon":130.81875,"areaKm2":1.0754454,"populated2020":true,"population2020":165.7278,"populationNote":"収録500mメッシュ人口の合算（原典収録外は補完しない）"},"geometry":{"type":"Polygon","coordinates":[[[130.825,33.325],[130.8125,33.324999999999996],[130.8125,33.333333333333336],[130.825,33.333333333333336],[130.825,33.325]]]}},{"type":"Feature","id":"40225:49307696","properties":{"id":"40225:49307696","meshCode":"49307696","cityCode":"40225","city":"うきは市","lat":33.3291667,"lon":130.83125,"areaKm2":1.0754443,"populated2020":true,"population2020":23.5739,"populationNote":"収録500mメッシュ人口の合算（原典収録外は補完しない）"},"geometry":{"type":"Polygon","coordinates":[[[130.8375,33.325],[130.825,33.325],[130.825,33.333333333333336],[130.8375,33.333333333333336],[130.8375,33.325]]]}},{"type":"Feature","id":"40225:49307697","properties":{"id":"40225:49307697","meshCode":"49307697","cityCode":"40225","city":"うきは市","lat":33.3291667,"lon":130.84375,"areaKm2":1.0754434,"populated2020":true,"population2020":3.0463,"populationNote":"収録500mメッシュ人口の合算（原典収録外は補完しない）"},"geometry":{"type":"Polygon","coordinates":[[[130.85,33.324999999999996],[130.8375,33.325],[130.8375,33.333333333333336],[130.85,33.333333333333336],[130.85,33.324999999999996]]]}},{"type":"Feature","id":"40225:49307698","properties":{"id":"40225:49307698","meshCode":"49307698","cityCode":"40225","city":"うきは市","lat":33.3285799,"lon":130.852646,"areaKm2":0.4229151,"populated2020":true,"population2020":18.3786,"populationNote":"収録500mメッシュ人口の合算（原典収録外は補完しない）"},"geometry":{"type":"Polygon","coordinates":[[[130.857298599,33.326901766000006],[130.856936096,33.32656399099999],[130.856813035,33.32621288299999],[130.856614423,33.32603288300001],[130.855570532,33.32553927],[130.854781414,33.324999999999996],[130.85,33.324999999999996],[130.85,33.333333333333336],[130.85281986981792,33.33333333333333],[130.85341441,33.332106495],[130.853891634,33.33059455],[130.854398586,33.32961537799999],[130.855144137,33.328785378],[130.857298599,33.326901766000006]]]}},{"type":"Feature","id":"40225:50300507","properties":{"id":"40225:50300507","meshCode":"50300507","cityCode":"40225","city":"うきは市","lat":33.3358628,"lon":130.7245071,"areaKm2":0.0434579,"populated2020":true,"population2020":null,"populationNote":"境界またぎ・収録外等のため人口未集計"},"geometry":{"type":"Polygon","coordinates":[[[130.7241907260272,33.333333333333336],[130.72425118,33.333853532],[130.72443952,33.333901586],[130.724497017,33.333989360000004],[130.724016744,33.335599640000005],[130.72400952,33.336289919],[130.723846459,33.336655468],[130.723701738,33.337724081],[130.725,33.337869261],[130.725,33.33333333333333],[130.7241907260272,33.333333333333336]]]}},{"type":"Feature","id":"40225:50300508","properties":{"id":"40225:50300508","meshCode":"50300508","cityCode":"40225","city":"うきは市","lat":33.3371055,"lon":130.7317522,"areaKm2":0.9486657,"populated2020":true,"population2020":141.0193,"populationNote":"収録500mメッシュ人口の合算（原典収録外は補完しない）"},"geometry":{"type":"Polygon","coordinates":[[[130.7375,33.333333333333336],[130.725,33.33333333333333],[130.725,33.337869261],[130.726340908,33.33797768499999],[130.726355357,33.340188514000005],[130.731125655,33.340128495],[130.73114683501095,33.34166666666666],[130.7375,33.34166666666667],[130.7375,33.333333333333336]]]}},{"type":"Feature","id":"40225:50300509","properties":{"id":"40225:50300509","meshCode":"50300509","cityCode":"40225","city":"うきは市","lat":33.3375,"lon":130.74375,"areaKm2":1.075352,"populated2020":true,"population2020":831.1301,"populationNote":"収録500mメッシュ人口の合算（原典収録外は補完しない）"},"geometry":{"type":"Polygon","coordinates":[[[130.75,33.333333333333336],[130.7375,33.333333333333336],[130.7375,33.34166666666667],[130.75,33.34166666666667],[130.75,33.333333333333336]]]}},{"type":"Feature","id":"40225:50300600","properties":{"id":"40225:50300600","meshCode":"50300600","cityCode":"40225","city":"うきは市","lat":33.3375,"lon":130.75625,"areaKm2":1.0753504,"populated2020":true,"population2020":1586.2263,"populationNote":"収録500mメッシュ人口の合算（原典収録外は補完しない）"},"geometry":{"type":"Polygon","coordinates":[[[130.7625,33.33333333333333],[130.75,33.333333333333336],[130.75,33.34166666666667],[130.7625,33.34166666666666],[130.7625,33.33333333333333]]]}},{"type":"Feature","id":"40225:50300601","properties":{"id":"40225:50300601","meshCode":"50300601","cityCode":"40225","city":"うきは市","lat":33.3375,"lon":130.76875,"areaKm2":1.0753492,"populated2020":true,"population2020":920.8683,"populationNote":"収録500mメッシュ人口の合算（原典収録外は補完しない）"},"geometry":{"type":"Polygon","coordinates":[[[130.775,33.333333333333336],[130.7625,33.33333333333333],[130.7625,33.34166666666666],[130.775,33.34166666666667],[130.775,33.333333333333336]]]}},{"type":"Feature","id":"40225:50300602","properties":{"id":"40225:50300602","meshCode":"50300602","cityCode":"40225","city":"うきは市","lat":33.3375,"lon":130.78125,"areaKm2":1.0753478,"populated2020":true,"population2020":856.829,"populationNote":"収録500mメッシュ人口の合算（原典収録外は補完しない）"},"geometry":{"type":"Polygon","coordinates":[[[130.7875,33.333333333333336],[130.775,33.333333333333336],[130.775,33.34166666666667],[130.7875,33.34166666666667],[130.7875,33.333333333333336]]]}},{"type":"Feature","id":"40225:50300603","properties":{"id":"40225:50300603","meshCode":"50300603","cityCode":"40225","city":"うきは市","lat":33.3375,"lon":130.79375,"areaKm2":1.0753466,"populated2020":true,"population2020":1827.8559,"populationNote":"収録500mメッシュ人口の合算（原典収録外は補完しない）"},"geometry":{"type":"Polygon","coordinates":[[[130.8,33.333333333333336],[130.7875,33.333333333333336],[130.7875,33.34166666666667],[130.8,33.34166666666667],[130.8,33.333333333333336]]]}},{"type":"Feature","id":"40225:50300604","properties":{"id":"40225:50300604","meshCode":"50300604","cityCode":"40225","city":"うきは市","lat":33.3375,"lon":130.80625,"areaKm2":1.0753454,"populated2020":true,"population2020":888.8271,"populationNote":"収録500mメッシュ人口の合算（原典収録外は補完しない）"},"geometry":{"type":"Polygon","coordinates":[[[130.8125,33.333333333333336],[130.8,33.333333333333336],[130.8,33.34166666666667],[130.8125,33.341666666666676],[130.8125,33.333333333333336]]]}},{"type":"Feature","id":"40225:50300605","properties":{"id":"40225:50300605","meshCode":"50300605","cityCode":"40225","city":"うきは市","lat":33.3375,"lon":130.81875,"areaKm2":1.0753444,"populated2020":true,"population2020":247.8037,"populationNote":"収録500mメッシュ人口の合算（原典収録外は補完しない）"},"geometry":{"type":"Polygon","coordinates":[[[130.825,33.333333333333336],[130.8125,33.333333333333336],[130.8125,33.341666666666676],[130.825,33.34166666666666],[130.825,33.333333333333336]]]}},{"type":"Feature","id":"40225:50300606","properties":{"id":"40225:50300606","meshCode":"50300606","cityCode":"40225","city":"うきは市","lat":33.3374649,"lon":130.8311915,"areaKm2":1.0647697,"populated2020":true,"population2020":328.0678,"populationNote":"収録500mメッシュ人口の合算（原典収録外は補完しない）"},"geometry":{"type":"Polygon","coordinates":[[[130.8375,33.333333333333336],[130.825,33.333333333333336],[130.825,33.34166666666666],[130.83643626519745,33.34166666666666],[130.837082412,33.340445387],[130.8375,33.339898052259315],[130.8375,33.333333333333336]]]}},{"type":"Feature","id":"40225:50300607","properties":{"id":"40225:50300607","meshCode":"50300607","cityCode":"40225","city":"うきは市","lat":33.3366227,"lon":130.8469539,"areaKm2":0.5307357,"populated2020":true,"population2020":124.2683,"populationNote":"収録500mメッシュ人口の合算（原典収録外は補完しない）"},"geometry":{"type":"Polygon","coordinates":[[[130.841282983,33.337304829],[130.842085486,33.336658721],[130.84228965,33.33600010799999],[130.842655772,33.335503162],[130.842691881,33.334869559000005],[130.843268275,33.33397538700001],[130.843982711,33.333454829000004],[130.844186887,33.333379279000006],[130.844625214,33.333369829],[130.845369663,33.333582613],[130.845651608,33.333999],[130.845771608,33.334410667],[130.845699663,33.334864829],[130.845219663,33.335650108],[130.844492996,33.336255666999996],[130.843910765,33.336586775],[130.843887717,33.336941775],[130.84401799,33.33736455],[130.844930778,33.33861455000001],[130.84536022,33.338765667],[130.846426615,33.338711216000014],[130.847416329,33.338493721],[130.84887773,33.33792177499999],[130.849238288,33.337752604],[130.85,33.337183486],[130.85,33.333333333333336],[130.8375,33.333333333333336],[130.8375,33.339898052259315],[130.837695201,33.339692892],[130.838638807,33.339131225],[130.83968965,33.338750946000005],[130.840102153,33.33852316200001],[130.840899935,33.337816775],[130.841282983,33.337304829]]]}},{"type":"Feature","id":"40225:50300608","properties":{"id":"40225:50300608","meshCode":"50300608","cityCode":"40225","city":"うきは市","lat":33.3347133,"lon":130.8509834,"areaKm2":0.0629142,"populated2020":true,"population2020":5.1448,"populationNote":"収録500mメッシュ人口の合算（原典収録外は補完しない）"},"geometry":{"type":"Polygon","coordinates":[[[130.85,33.337183486],[130.850601064,33.336658991],[130.851199961,33.335932324],[130.85281986981792,33.33333333333333],[130.85,33.333333333333336],[130.85,33.337183486]]]}},{"type":"Feature","id":"40225:50300518","properties":{"id":"40225:50300518","meshCode":"50300518","cityCode":"40225","city":"うきは市","lat":33.346464,"lon":130.7329288,"areaKm2":0.7178538,"populated2020":true,"population2020":null,"populationNote":"境界またぎ・収録外等のため人口未集計"},"geometry":{"type":"Polygon","coordinates":[[[130.73114683501095,33.34166666666666],[130.730906213,33.34712375699999],[130.730330104,33.347123766],[130.729332594,33.34696655],[130.727881751,33.347039054],[130.726844799,33.347171838],[130.726196459,33.347147676],[130.726164241,33.347776009],[130.725969792,33.34773962200001],[130.725933684,33.348114342],[130.725037289,33.348452676],[130.725685071,33.349648505000005],[130.725436744,33.34980573],[130.725439922,33.35],[130.7375,33.349999999999994],[130.7375,33.34166666666667],[130.73114683501095,33.34166666666666]]]}},{"type":"Feature","id":"40225:50300519","properties":{"id":"40225:50300519","meshCode":"50300519","cityCode":"40225","city":"うきは市","lat":33.3458333,"lon":130.74375,"areaKm2":1.0752509,"populated2020":true,"population2020":1518.6858,"populationNote":"収録500mメッシュ人口の合算（原典収録外は補完しない）"},"geometry":{"type":"Polygon","coordinates":[[[130.75,33.34166666666667],[130.7375,33.34166666666667],[130.7375,33.349999999999994],[130.75,33.35],[130.75,33.34166666666667]]]}},{"type":"Feature","id":"40225:50300610","properties":{"id":"40225:50300610","meshCode":"50300610","cityCode":"40225","city":"うきは市","lat":33.3458333,"lon":130.75625,"areaKm2":1.0752496,"populated2020":true,"population2020":2462.6824,"populationNote":"収録500mメッシュ人口の合算（原典収録外は補完しない）"},"geometry":{"type":"Polygon","coordinates":[[[130.7625,33.34166666666666],[130.75,33.34166666666667],[130.75,33.35],[130.7625,33.349999999999994],[130.7625,33.34166666666666]]]}},{"type":"Feature","id":"40225:50300611","properties":{"id":"40225:50300611","meshCode":"50300611","cityCode":"40225","city":"うきは市","lat":33.3458333,"lon":130.76875,"areaKm2":1.0752481,"populated2020":true,"population2020":1803.0895,"populationNote":"収録500mメッシュ人口の合算（原典収録外は補完しない）"},"geometry":{"type":"Polygon","coordinates":[[[130.775,33.34166666666667],[130.7625,33.34166666666666],[130.7625,33.349999999999994],[130.775,33.35000000000001],[130.775,33.34166666666667]]]}},{"type":"Feature","id":"40225:50300612","properties":{"id":"40225:50300612","meshCode":"50300612","cityCode":"40225","city":"うきは市","lat":33.3455119,"lon":130.7809544,"areaKm2":0.9845901,"populated2020":true,"population2020":471.1464,"populationNote":"収録500mメッシュ人口の合算（原典収録外は補完しない）"},"geometry":{"type":"Polygon","coordinates":[[[130.7875,33.34166666666667],[130.775,33.34166666666667],[130.775,33.35000000000001],[130.780155409,33.35],[130.781886485,33.349021072],[130.782449818,33.348818018],[130.783223424,33.348668018000005],[130.785409818,33.348419955000004],[130.786378158,33.348486342],[130.7875,33.348698389327424],[130.7875,33.34166666666667]]]}},{"type":"Feature","id":"40225:50300613","properties":{"id":"40225:50300613","meshCode":"50300613","cityCode":"40225","city":"うきは市","lat":33.345765,"lon":130.7938495,"areaKm2":1.0556733,"populated2020":true,"population2020":599.158,"populationNote":"収録500mメッシュ人口の合算（原典収録外は補完しない）"},"geometry":{"type":"Polygon","coordinates":[[[130.8,33.34166666666667],[130.7875,33.34166666666667],[130.7875,33.348698389327424],[130.788612322,33.34908023399999],[130.789972516,33.35],[130.8,33.349999999999994],[130.8,33.34166666666667]]]}},{"type":"Feature","id":"40225:50300614","properties":{"id":"40225:50300614","meshCode":"50300614","cityCode":"40225","city":"うきは市","lat":33.3458333,"lon":130.80625,"areaKm2":1.0752445,"populated2020":true,"population2020":564.3575,"populationNote":"収録500mメッシュ人口の合算（原典収録外は補完しない）"},"geometry":{"type":"Polygon","coordinates":[[[130.8125,33.341666666666676],[130.8,33.34166666666667],[130.8,33.349999999999994],[130.8125,33.349999999999994],[130.8125,33.341666666666676]]]}},{"type":"Feature","id":"40225:50300615","properties":{"id":"40225:50300615","meshCode":"50300615","cityCode":"40225","city":"うきは市","lat":33.3458333,"lon":130.81875,"areaKm2":1.0752434,"populated2020":true,"population2020":859.5816,"populationNote":"収録500mメッシュ人口の合算（原典収録外は補完しない）"},"geometry":{"type":"Polygon","coordinates":[[[130.825,33.34166666666666],[130.8125,33.341666666666676],[130.8125,33.349999999999994],[130.825,33.349999999999994],[130.825,33.34166666666666]]]}},{"type":"Feature","id":"40225:50300616","properties":{"id":"40225:50300616","meshCode":"50300616","cityCode":"40225","city":"うきは市","lat":33.3451985,"lon":130.8293696,"areaKm2":0.7026157,"populated2020":true,"population2020":null,"populationNote":"境界またぎ・収録外等のため人口未集計"},"geometry":{"type":"Polygon","coordinates":[[[130.831168521,33.348077612999994],[130.83546214,33.34342094600001],[130.83643626519745,33.34166666666666],[130.825,33.34166666666666],[130.825,33.349999999999994],[130.829214384,33.35],[130.831168521,33.348077612999994]]]}},{"type":"Feature","id":"40225:50300527","properties":{"id":"40225:50300527","meshCode":"50300527","cityCode":"40225","city":"うきは市","lat":33.3544429,"lon":130.7223231,"areaKm2":0.3334343,"populated2020":true,"population2020":null,"populationNote":"境界またぎ・収録外等のため人口未集計"},"geometry":{"type":"Polygon","coordinates":[[[130.724680623,33.351086288],[130.724378405,33.35086878399999],[130.723787847,33.35071184699999],[130.723766187,33.350965179999996],[130.722639235,33.351400180000006],[130.722668132,33.351774901],[130.721436459,33.35227017100001],[130.720597575,33.352463234000005],[130.720417575,33.352620449999996],[130.71862786,33.352874062999994],[130.718418975,33.352946559],[130.718350636,33.353091559],[130.718915642,33.35593073],[130.720327302,33.355918784],[130.720345084,33.35659545],[130.720604527,33.356933784],[130.722635071,33.356982117],[130.722667575,33.357803784],[130.725,33.357786793],[130.725,33.351058703],[130.724925344,33.350989622],[130.724680623,33.351086288]]]}},{"type":"Feature","id":"40225:50300528","properties":{"id":"40225:50300528","meshCode":"50300528","cityCode":"40225","city":"うきは市","lat":33.3535607,"lon":130.7320508,"areaKm2":0.7987719,"populated2020":true,"population2020":null,"populationNote":"境界またぎ・収録外等のため人口未集計"},"geometry":{"type":"Polygon","coordinates":[[[130.725439922,33.35],[130.72547285300004,33.351013784],[130.725134241,33.351182955],[130.725,33.351058703],[130.725,33.357786793],[130.72581784700003,33.35773154999999],[130.726084527,33.356885721000005],[130.726131466,33.355906829],[130.727020921,33.35589488299999],[130.726876744,33.355109883],[130.727456472,33.353853216],[130.727650921,33.353611550000004],[130.727197302,33.35351488300001],[130.7277662,33.35281432400001],[130.729851206,33.35346681099999],[130.73117594,33.35323708100001],[130.731269546,33.35393790999999],[130.73186732800002,33.353950135],[130.731827613,33.354687072],[130.731553995,33.35468708100001],[130.731571777,33.355834856],[130.731766226,33.355810684999994],[130.731766226,33.35833333333334],[130.7375,33.358333333333334],[130.7375,33.349999999999994],[130.725439922,33.35]]]}},{"type":"Feature","id":"40225:50300529","properties":{"id":"40225:50300529","meshCode":"50300529","cityCode":"40225","city":"うきは市","lat":33.3541667,"lon":130.74375,"areaKm2":1.07515,"populated2020":true,"population2020":536.2737,"populationNote":"収録500mメッシュ人口の合算（原典収録外は補完しない）"},"geometry":{"type":"Polygon","coordinates":[[[130.75,33.35],[130.7375,33.349999999999994],[130.7375,33.358333333333334],[130.75,33.358333333333334],[130.75,33.35]]]}},{"type":"Feature","id":"40225:50300620","properties":{"id":"40225:50300620","meshCode":"50300620","cityCode":"40225","city":"うきは市","lat":33.3541667,"lon":130.75625,"areaKm2":1.0751485,"populated2020":true,"population2020":551.5761,"populationNote":"収録500mメッシュ人口の合算（原典収録外は補完しない）"},"geometry":{"type":"Polygon","coordinates":[[[130.7625,33.349999999999994],[130.75,33.35],[130.75,33.358333333333334],[130.7625,33.358333333333334],[130.7625,33.349999999999994]]]}},{"type":"Feature","id":"40225:50300621","properties":{"id":"40225:50300621","meshCode":"50300621","cityCode":"40225","city":"うきは市","lat":33.3541652,"lon":130.7687478,"areaKm2":1.0747573,"populated2020":true,"population2020":648.8485,"populationNote":"収録500mメッシュ人口の合算（原典収録外は補完しない）"},"geometry":{"type":"Polygon","coordinates":[[[130.775,33.35000000000001],[130.7625,33.349999999999994],[130.7625,33.358333333333334],[130.77481492884257,33.35833333333334],[130.775,33.357908505],[130.775,33.35000000000001]]]}},{"type":"Feature","id":"40225:50300622","properties":{"id":"40225:50300622","meshCode":"50300622","cityCode":"40225","city":"うきは市","lat":33.3523785,"lon":130.7764195,"areaKm2":0.1547463,"populated2020":true,"population2020":null,"populationNote":"境界またぎ・収録外等のため人口未集計"},"geometry":{"type":"Polygon","coordinates":[[[130.776906757,33.353420523000004],[130.777802879,33.351995243000005],[130.77862648500002,33.35101690999999],[130.780155409,33.35],[130.775,33.35000000000001],[130.775,33.357908505],[130.775572607,33.356408576999996],[130.776906757,33.353420523000004]]]}},{"type":"Feature","id":"40225:50300623","properties":{"id":"40225:50300623","meshCode":"50300623","cityCode":"40225","city":"うきは市","lat":33.3525278,"lon":130.7965156,"areaKm2":0.4065707,"populated2020":true,"population2020":null,"populationNote":"境界またぎ・収録外等のため人口未集計"},"geometry":{"type":"Polygon","coordinates":[[[130.789972516,33.35],[130.791247601,33.350936622],[130.793152607,33.35260856800001],[130.795241505,33.35471773900001],[130.796988444,33.35561218],[130.8,33.356791099],[130.8,33.349999999999994],[130.789972516,33.35]]]}},{"type":"Feature","id":"40225:50300624","properties":{"id":"40225:50300624","meshCode":"50300624","cityCode":"40225","city":"うきは市","lat":33.3540594,"lon":130.806397,"areaKm2":1.0443675,"populated2020":true,"population2020":757.1009,"populationNote":"収録500mメッシュ人口の合算（原典収録外は補完しない）"},"geometry":{"type":"Polygon","coordinates":[[[130.8125,33.349999999999994],[130.8,33.349999999999994],[130.8,33.356791099],[130.80371721177823,33.35833333333334],[130.8125,33.358333333333334],[130.8125,33.349999999999994]]]}},{"type":"Feature","id":"40225:50300625","properties":{"id":"40225:50300625","meshCode":"50300625","cityCode":"40225","city":"うきは市","lat":33.3532354,"lon":130.8175492,"areaKm2":0.7490202,"populated2020":true,"population2020":null,"populationNote":"境界またぎ・収録外等のため人口未集計"},"geometry":{"type":"Polygon","coordinates":[[[130.821081284,33.354291225],[130.825,33.352793874],[130.825,33.349999999999994],[130.8125,33.349999999999994],[130.8125,33.358333333333334],[130.81555215262972,33.358333333333334],[130.818014332,33.355981784],[130.818549053,33.35556844999999],[130.821081284,33.354291225]]]}},{"type":"Feature","id":"40225:50300626","properties":{"id":"40225:50300626","meshCode":"50300626","cityCode":"40225","city":"うきは市","lat":33.351009,"lon":130.8264912,"areaKm2":0.0696957,"populated2020":true,"population2020":null,"populationNote":"境界またぎ・収録外等のため人口未集計"},"geometry":{"type":"Polygon","coordinates":[[[130.825,33.352793874],[130.826312399,33.35220733300001],[130.827322672,33.351556505],[130.829214384,33.35],[130.825,33.349999999999994],[130.825,33.352793874]]]}},{"type":"Feature","id":"40225:50300537","properties":{"id":"40225:50300537","meshCode":"50300537","cityCode":"40225","city":"うきは市","lat":33.3632574,"lon":130.7238653,"areaKm2":0.1587059,"populated2020":true,"population2020":null,"populationNote":"境界またぎ・収録外等のため人口未集計"},"geometry":{"type":"Polygon","coordinates":[[[130.725,33.359876080999996],[130.722663684,33.35991794600001],[130.72278442299034,33.36666666666667],[130.725,33.36666666666667],[130.725,33.359876080999996]]]}},{"type":"Feature","id":"40225:50300538","properties":{"id":"40225:50300538","meshCode":"50300538","cityCode":"40225","city":"うきは市","lat":33.3628943,"lon":130.7316836,"areaKm2":0.9525472,"populated2020":true,"population2020":308.3595,"populationNote":"収録500mメッシュ人口の合算（原典収録外は補完しない）"},"geometry":{"type":"Polygon","coordinates":[[[130.731766226,33.359048459],[130.729713709,33.35909680200001],[130.729738988,33.360039306],[130.728496757,33.360027089999996],[130.728388703,33.361259586],[130.727193139,33.361247369000004],[130.726725084,33.360957378],[130.726685357,33.360582937],[130.726008405,33.360558775],[130.725972581,33.359833775000006],[130.725,33.359876080999996],[130.725,33.36666666666667],[130.73718193328048,33.36666666666667],[130.7375,33.3662886690149],[130.7375,33.358333333333334],[130.731766226,33.35833333333334],[130.731766226,33.359048459]]]}},{"type":"Feature","id":"40225:50300539","properties":{"id":"40225:50300539","meshCode":"50300539","cityCode":"40225","city":"うきは市","lat":33.3608249,"lon":130.7435999,"areaKm2":0.563656,"populated2020":true,"population2020":null,"populationNote":"境界またぎ・収録外等のため人口未集計"},"geometry":{"type":"Polygon","coordinates":[[[130.73954489,33.362834242999995],[130.743559598,33.36119118900001],[130.746515435,33.360490631000005],[130.747170999,33.363112288],[130.747770441,33.36298478399999],[130.74827489,33.364887009],[130.75,33.36454706300001],[130.75,33.358333333333334],[130.7375,33.358333333333334],[130.7375,33.3662886690149],[130.738403502,33.365214523],[130.738572672,33.36479145900001],[130.738565447,33.364489523],[130.738785162,33.364199523],[130.739469326,33.363897577],[130.739346835,33.36365591],[130.739872659,33.363378135000005],[130.73954489,33.362834242999995]]]}},{"type":"Feature","id":"40225:50300630","properties":{"id":"40225:50300630","meshCode":"50300630","cityCode":"40225","city":"うきは市","lat":33.3612169,"lon":130.7562028,"areaKm2":0.7415277,"populated2020":true,"population2020":null,"populationNote":"境界またぎ・収録外等のため人口未集計"},"geometry":{"type":"Polygon","coordinates":[[[130.7625,33.358333333333334],[130.75,33.358333333333334],[130.75,33.36454706300001],[130.752579598,33.364009541],[130.753515422,33.363884279],[130.754570973,33.36385291],[130.756144306,33.363957378],[130.757659857,33.36422323400001],[130.759253178,33.36464130600001],[130.759869844,33.364477990999994],[130.760115953,33.364144937],[130.761218171,33.364003837999995],[130.76132428,33.36396717099999],[130.76133345,33.363757170999996],[130.762330661,33.36359246800001],[130.762187613,33.362634964],[130.7625,33.362584852654116],[130.7625,33.358333333333334]]]}},{"type":"Feature","id":"40225:50300631","properties":{"id":"40225:50300631","meshCode":"50300631","cityCode":"40225","city":"うきは市","lat":33.3600659,"lon":130.7682549,"areaKm2":0.3937035,"populated2020":true,"population2020":null,"populationNote":"境界またぎ・収録外等のため人口未集計"},"geometry":{"type":"Polygon","coordinates":[[[130.763098444,33.361313577],[130.764004267,33.361204134999994],[130.763937328,33.360911081],[130.764073995,33.360863297],[130.766288988,33.360893577],[130.766470376,33.360976081],[130.766556213,33.361547468000005],[130.767682879,33.361427189],[130.76809343700003,33.363591359999994],[130.769687886,33.362486909999994],[130.77143010400002,33.361708577],[130.772948158,33.36086691],[130.77343511,33.36039329700001],[130.77481492884257,33.35833333333334],[130.7625,33.358333333333334],[130.7625,33.362584852654116],[130.763303165,33.36250136],[130.763098444,33.361313577]]]}},{"type":"Feature","id":"40225:50300634","properties":{"id":"40225:50300634","meshCode":"50300634","cityCode":"40225","city":"うきは市","lat":33.3592305,"lon":130.809165,"areaKm2":0.1344819,"populated2020":true,"population2020":null,"populationNote":"境界またぎ・収録外等のため人口未集計"},"geometry":{"type":"Polygon","coordinates":[[[130.80371721177823,33.35833333333334],[130.808856252,33.360426288],[130.810603476,33.360448775],[130.8125,33.36022061980941],[130.8125,33.358333333333334],[130.80371721177823,33.35833333333334]]]}},{"type":"Feature","id":"40225:50300635","properties":{"id":"40225:50300635","meshCode":"50300635","cityCode":"40225","city":"うきは市","lat":33.3590588,"lon":130.8136218,"areaKm2":0.0374239,"populated2020":true,"population2020":null,"populationNote":"境界またぎ・収録外等のため人口未集計"},"geometry":{"type":"Polygon","coordinates":[[[130.8125,33.36022061980941],[130.813670986,33.359863198],[130.814034047,33.35966791],[130.81457821,33.359269856],[130.81555215262972,33.358333333333334],[130.8125,33.358333333333334],[130.8125,33.36022061980941]]]}},{"type":"Feature","id":"40225:50300547","properties":{"id":"40225:50300547","meshCode":"50300547","cityCode":"40225","city":"うきは市","lat":33.3671366,"lon":130.7240284,"areaKm2":0.0205224,"populated2020":true,"population2020":null,"populationNote":"境界またぎ・収録外等のため人口未集計"},"geometry":{"type":"Polygon","coordinates":[[[130.722784423,33.366666667],[130.722801453,33.367255432],[130.724908119,33.367847658],[130.725,33.36808790100001],[130.725,33.36666666666667],[130.722784423,33.366666667]]]}},{"type":"Feature","id":"40225:50300548","properties":{"id":"40225:50300548","meshCode":"50300548","cityCode":"40225","city":"うきは市","lat":33.3694032,"lon":130.7302785,"areaKm2":0.5779754,"populated2020":true,"population2020":null,"populationNote":"境界またぎ・収録外等のため人口未集計"},"geometry":{"type":"Polygon","coordinates":[[[130.725,33.36808790100001],[130.72683786,33.372717081],[130.728738988,33.37278984700001],[130.728775097,33.373236514000006],[130.730744838,33.373115937],[130.73186096,33.373176766],[130.73718193328048,33.36666666666667],[130.725,33.36666666666667],[130.725,33.36808790100001]]]}}]}