{"type":"FeatureCollection","metadata":{"cityCode":"40231","city":"那珂川市","resolution":1000,"boundaryDate":"2026-01-01","populationLabel":"2020年基準人口（国交省調整値）","method":"標準地域メッシュを行政界で切抜き。中心が区域外のとき区域内代表点を判定点にする。人口不明をゼロにしない。"},"features":[{"type":"Feature","id":"40231:50300372","properties":{"id":"40231:50300372","meshCode":"50300372","cityCode":"40231","city":"那珂川市","lat":33.3980712,"lon":130.4104578,"areaKm2":0.1787168,"populated2020":false,"population2020":null,"populationNote":"境界またぎ・収録外等のため人口未集計"},"geometry":{"type":"Polygon","coordinates":[[[130.412097497,33.395512225],[130.411664163,33.395347775],[130.411435279,33.39509972100001],[130.41097083,33.39504027900001],[130.410945837,33.395449162],[130.410477497,33.39607472099999],[130.409511388,33.396616108],[130.40768306100003,33.398604162],[130.407533061,33.399341387],[130.407633671,33.400000000000006],[130.4125,33.39999999999999],[130.4125,33.3955632629415],[130.412097497,33.395512225]]]}},{"type":"Feature","id":"40231:50300373","properties":{"id":"40231:50300373","meshCode":"50300373","cityCode":"40231","city":"那珂川市","lat":33.3991515,"lon":130.4230217,"areaKm2":0.1500181,"populated2020":false,"population2020":null,"populationNote":"境界またぎ・収録外等のため人口未集計"},"geometry":{"type":"MultiPolygon","coordinates":[[[[130.4125,33.3955632629415],[130.4125,33.39999999999999],[130.416865383,33.4],[130.41631166,33.399355559],[130.415966109,33.399114441000016],[130.415422503,33.39898527900001],[130.414473333,33.398981667],[130.413914994,33.398569441],[130.413748612,33.398335278999994],[130.413646394,33.397615829],[130.413758885,33.397413054],[130.413979728,33.397294162],[130.414038054,33.397039162],[130.413356939,33.396011667],[130.413036667,33.39576361299999],[130.4125,33.3955632629415]]],[[[130.423568054,33.398286946000006],[130.422839442,33.398465],[130.421875551,33.3985],[130.421386109,33.39897500000001],[130.420567782,33.39942222500001],[130.420339948,33.4],[130.425,33.4],[130.425,33.398001054],[130.424511388,33.39828000000001],[130.423568054,33.398286946000006]]]]}},{"type":"Feature","id":"40231:50300374","properties":{"id":"40231:50300374","meshCode":"50300374","cityCode":"40231","city":"那珂川市","lat":33.3989255,"lon":130.4300482,"areaKm2":0.2374675,"populated2020":false,"population2020":null,"populationNote":"境界またぎ・収録外等のため人口未集計"},"geometry":{"type":"Polygon","coordinates":[[[130.430712503,33.397885558999995],[130.430112776,33.397365],[130.429850272,33.397253054],[130.429248885,33.397120279],[130.428757224,33.39687582900001],[130.428471946,33.396879162],[130.42801805400003,33.396997774999996],[130.427668054,33.39735416199999],[130.426999728,33.39778749500001],[130.426224994,33.397885279],[130.425721388,33.397843333],[130.425007224,33.397996946],[130.425,33.4],[130.4375,33.4],[130.4375,33.3997097740979],[130.437244449,33.39952777500001],[130.436586394,33.399454162],[130.435838885,33.398860559000006],[130.434273061,33.398539162],[130.433154721,33.39872055899999],[130.432517497,33.398671666999995],[130.432242776,33.398608613],[130.431553606,33.398203333000005],[130.430712503,33.397885558999995]]]}},{"type":"Feature","id":"40231:50300375","properties":{"id":"40231:50300375","meshCode":"50300375","cityCode":"40231","city":"那珂川市","lat":33.3999074,"lon":130.4376707,"areaKm2":0.0007336,"populated2020":false,"population2020":null,"populationNote":"境界またぎ・収録外等のため人口未集計"},"geometry":{"type":"Polygon","coordinates":[[[130.438017756,33.4],[130.4375,33.3997097740979],[130.4375,33.4],[130.438017756,33.4]]]}},{"type":"Feature","id":"40231:50300382","properties":{"id":"40231:50300382","meshCode":"50300382","cityCode":"40231","city":"那珂川市","lat":33.4019677,"lon":130.4105227,"areaKm2":0.1776532,"populated2020":false,"population2020":null,"populationNote":"境界またぎ・収録外等のため人口未集計"},"geometry":{"type":"Polygon","coordinates":[[[130.407605837,33.400522495],[130.407768327,33.40145527899999],[130.407703891,33.402056108],[130.409188327,33.402807495],[130.40971917,33.402971667],[130.40991083,33.403090559000006],[130.410233333,33.403569162],[130.410947782,33.40373],[130.411403606,33.404701108000005],[130.411801388,33.405068054000004],[130.41199917,33.405459441],[130.4125,33.40607550588153],[130.4125,33.39999999999999],[130.407633671,33.400000000000006],[130.407605837,33.400522495]]]}},{"type":"Feature","id":"40231:50300383","properties":{"id":"40231:50300383","meshCode":"50300383","cityCode":"40231","city":"那珂川市","lat":33.4041719,"lon":130.418867,"areaKm2":1.0303941,"populated2020":false,"population2020":null,"populationNote":"境界またぎ・収録外等のため人口未集計"},"geometry":{"type":"Polygon","coordinates":[[[130.418298054,33.400728892000004],[130.416865383,33.4],[130.4125,33.39999999999999],[130.4125,33.40607550588153],[130.412656939,33.406350559],[130.412631946,33.40653555899999],[130.413154721,33.407216946],[130.413712776,33.407335559],[130.413901946,33.407482495000004],[130.414264449,33.407831946],[130.41458739311506,33.408333333333324],[130.425,33.408333333333324],[130.425,33.4],[130.420339948,33.4],[130.420155279,33.400337775000004],[130.419284994,33.401005],[130.419005837,33.401120279],[130.418697782,33.40107472100001],[130.418298054,33.400728892000004]]]}},{"type":"Feature","id":"40231:50300384","properties":{"id":"40231:50300384","meshCode":"50300384","cityCode":"40231","city":"那珂川市","lat":33.4041658,"lon":130.4312205,"areaKm2":1.0694149,"populated2020":false,"population2020":null,"populationNote":"境界またぎ・収録外等のため人口未集計"},"geometry":{"type":"Polygon","coordinates":[[[130.437263061,33.403817775],[130.4375,33.403251541002746],[130.4375,33.4],[130.425,33.4],[130.425,33.408333333333324],[130.4375,33.408333333333324],[130.4375,33.40503024144354],[130.437035837,33.40485222499999],[130.437263061,33.403817775]]]}},{"type":"Feature","id":"40231:50300385","properties":{"id":"40231:50300385","meshCode":"50300385","cityCode":"40231","city":"那珂川市","lat":33.4056825,"lon":130.4382971,"areaKm2":0.0751635,"populated2020":false,"population2020":null,"populationNote":"境界またぎ・収録外等のため人口未集計"},"geometry":{"type":"MultiPolygon","coordinates":[[[[130.4375,33.403251541002746],[130.437889728,33.402514721],[130.438,33.401484162],[130.43835,33.40033833299999],[130.438017756,33.4],[130.4375,33.4],[130.4375,33.403251541002746]]],[[[130.43999927420032,33.40833333333333],[130.439388885,33.407056667],[130.439359728,33.406543054],[130.439128612,33.406075],[130.438599442,33.40549833299999],[130.438212218,33.40527138699999],[130.4375,33.40503024144354],[130.4375,33.408333333333324],[130.43999927420032,33.40833333333333]]]]}},{"type":"Feature","id":"40231:50300392","properties":{"id":"40231:50300392","meshCode":"50300392","cityCode":"40231","city":"那珂川市","lat":33.4149898,"lon":130.4098034,"areaKm2":0.2075096,"populated2020":false,"population2020":null,"populationNote":"境界またぎ・収録外等のため人口未集計"},"geometry":{"type":"Polygon","coordinates":[[[130.411815837,33.412153892],[130.410938054,33.412733613],[130.410378885,33.413247225],[130.410044721,33.413374721],[130.409320272,33.41330666699999],[130.407554449,33.41424472100001],[130.407339728,33.41454],[130.407458612,33.415493892],[130.40703693900002,33.415651108000006],[130.405457497,33.415996666999995],[130.40476610900004,33.416241387],[130.40444364523404,33.416666666666664],[130.4125,33.416666666666664],[130.4125,33.41182973255248],[130.411815837,33.412153892]]]}},{"type":"Feature","id":"40231:50300393","properties":{"id":"40231:50300393","meshCode":"50300393","cityCode":"40231","city":"那珂川市","lat":33.4127253,"lon":130.4191731,"areaKm2":0.9881231,"populated2020":false,"population2020":null,"populationNote":"境界またぎ・収録外等のため人口未集計"},"geometry":{"type":"Polygon","coordinates":[[[130.41458739311506,33.408333333333324],[130.415193061,33.409355279],[130.415534721,33.409484721],[130.415193061,33.41007499999999],[130.415338885,33.410347494999996],[130.415680272,33.410392775000005],[130.416542218,33.410239161999996],[130.416796394,33.410309162],[130.416808885,33.410448892000005],[130.415257497,33.41096249500001],[130.414154163,33.410983333],[130.413854163,33.41110222500001],[130.413512776,33.41146527899999],[130.4125,33.41182973255248],[130.4125,33.416666666666664],[130.425,33.416666666666664],[130.425,33.408333333333324],[130.41458739311506,33.408333333333324]]]}},{"type":"Feature","id":"40231:50300394","properties":{"id":"40231:50300394","meshCode":"50300394","cityCode":"40231","city":"那珂川市","lat":33.4125,"lon":130.43125,"areaKm2":1.0745014,"populated2020":false,"population2020":null,"populationNote":"境界またぎ・収録外等のため人口未集計"},"geometry":{"type":"Polygon","coordinates":[[[130.4375,33.408333333333324],[130.425,33.408333333333324],[130.425,33.416666666666664],[130.4375,33.416666666666664],[130.4375,33.408333333333324]]]}},{"type":"Feature","id":"40231:50300395","properties":{"id":"40231:50300395","meshCode":"50300395","cityCode":"40231","city":"那珂川市","lat":33.4130472,"lon":130.4395274,"areaKm2":0.3240873,"populated2020":false,"population2020":null,"populationNote":"境界またぎ・収録外等のため人口未集計"},"geometry":{"type":"Polygon","coordinates":[[[130.441119961,33.41224386500001],[130.439786109,33.41119666699999],[130.440058885,33.410840559],[130.44122917,33.410201108],[130.441295837,33.410085559],[130.441187497,33.409792225],[130.44084166,33.409701387],[130.44056083,33.40944305399999],[130.440200558,33.40890833299999],[130.43999927420032,33.40833333333333],[130.4375,33.408333333333324],[130.4375,33.416666666666664],[130.44429985669584,33.416666666666664],[130.444023061,33.416304441],[130.443635837,33.41624500000001],[130.442902776,33.415818892],[130.442213891,33.415633613],[130.441153891,33.414222225],[130.441391388,33.41386610799999],[130.44156,33.413170559],[130.441476667,33.412880558999994],[130.441174994,33.412517495],[130.441119961,33.41224386500001]]]}},{"type":"Feature","id":"40231:50301302","properties":{"id":"40231:50301302","meshCode":"50301302","cityCode":"40231","city":"那珂川市","lat":33.4211789,"lon":130.4070118,"areaKm2":0.9226084,"populated2020":false,"population2020":null,"populationNote":"境界またぎ・収録外等のため人口未集計"},"geometry":{"type":"Polygon","coordinates":[[[130.404145551,33.417053892],[130.403430558,33.417626667],[130.403414994,33.41786582900001],[130.403687497,33.418538613],[130.403654163,33.418866946],[130.403502218,33.419041667],[130.403025551,33.419331666999994],[130.402768327,33.41997444100001],[130.402521388,33.42034082899999],[130.402101946,33.42062],[130.401257497,33.42083194599999],[130.401185551,33.420940279],[130.401133891,33.42161861300001],[130.401030558,33.42170527900001],[130.400634163,33.421806387],[130.4,33.421708279],[130.4,33.425],[130.4125,33.425],[130.4125,33.416666666666664],[130.40444364523404,33.416666666666664],[130.404145551,33.417053892]]]}},{"type":"Feature","id":"40231:50301303","properties":{"id":"40231:50301303","meshCode":"50301303","cityCode":"40231","city":"那珂川市","lat":33.4208333,"lon":130.41875,"areaKm2":1.0744035,"populated2020":false,"population2020":null,"populationNote":"境界またぎ・収録外等のため人口未集計"},"geometry":{"type":"Polygon","coordinates":[[[130.425,33.416666666666664],[130.4125,33.416666666666664],[130.4125,33.425],[130.425,33.425],[130.425,33.416666666666664]]]}},{"type":"Feature","id":"40231:50301304","properties":{"id":"40231:50301304","meshCode":"50301304","cityCode":"40231","city":"那珂川市","lat":33.4208333,"lon":130.43125,"areaKm2":1.0744002,"populated2020":false,"population2020":null,"populationNote":"境界またぎ・収録外等のため人口未集計"},"geometry":{"type":"Polygon","coordinates":[[[130.4375,33.416666666666664],[130.425,33.416666666666664],[130.425,33.425],[130.4375,33.425],[130.4375,33.416666666666664]]]}},{"type":"Feature","id":"40231:50301305","properties":{"id":"40231:50301305","meshCode":"50301305","cityCode":"40231","city":"那珂川市","lat":33.4211673,"lon":130.4433307,"areaKm2":0.9717212,"populated2020":false,"population2020":null,"populationNote":"境界またぎ・収録外等のため人口未集計"},"geometry":{"type":"Polygon","coordinates":[[[130.45,33.418777721],[130.449596939,33.418820000000004],[130.448830558,33.419071387],[130.448395551,33.419085559],[130.447158885,33.418767495],[130.44640083,33.418414441],[130.445347224,33.417670559],[130.444408054,33.416849721],[130.44429985669584,33.416666666666664],[130.4375,33.416666666666664],[130.4375,33.425],[130.45,33.425],[130.45,33.418777721]]]}},{"type":"Feature","id":"40231:50301306","properties":{"id":"40231:50301306","meshCode":"50301306","cityCode":"40231","city":"那珂川市","lat":33.4222374,"lon":130.4540628,"areaKm2":0.4697921,"populated2020":false,"population2020":null,"populationNote":"境界またぎ・収録外等のため人口未集計"},"geometry":{"type":"Polygon","coordinates":[[[130.456054449,33.419456108],[130.454436394,33.41959582900001],[130.453401388,33.419840559],[130.452512503,33.41978082899999],[130.451371388,33.419263892000004],[130.45109,33.418970559],[130.450848612,33.418848054],[130.450544449,33.418774721],[130.45,33.418777721],[130.45,33.425],[130.458011219,33.425],[130.458279442,33.423932225],[130.458618612,33.423060829],[130.458176109,33.42218],[130.45826083,33.419975279],[130.458080558,33.419781387],[130.457297497,33.419519441],[130.456054449,33.419456108]]]}},{"type":"Feature","id":"40231:50301301","properties":{"id":"40231:50301301","meshCode":"50301301","cityCode":"40231","city":"那珂川市","lat":33.423176,"lon":130.3991986,"areaKm2":0.0523292,"populated2020":false,"population2020":null,"populationNote":"境界またぎ・収録外等のため人口未集計"},"geometry":{"type":"Polygon","coordinates":[[[130.4,33.421708279],[130.399045837,33.421587225],[130.398683891,33.421799162],[130.398290272,33.422360000000005],[130.398043333,33.422928054],[130.39801166,33.423209162],[130.398149728,33.42354610799999],[130.399094721,33.424491946],[130.399152218,33.424665278999996],[130.399064228,33.425],[130.4,33.425],[130.4,33.421708279]]]}},{"type":"Feature","id":"40231:50301311","properties":{"id":"40231:50301311","meshCode":"50301311","cityCode":"40231","city":"那珂川市","lat":33.4294384,"lon":130.3984719,"areaKm2":0.2446665,"populated2020":false,"population2020":null,"populationNote":"境界またぎ・収録外等のため人口未集計"},"geometry":{"type":"Polygon","coordinates":[[[130.398864994,33.425165829],[130.398126667,33.425456946],[130.398106667,33.426287225],[130.397951388,33.426585829],[130.397029442,33.427098054],[130.39671917,33.427430279],[130.396483606,33.427550559000004],[130.396334449,33.427560279],[130.396163606,33.427405559],[130.39595166,33.427423613],[130.395796667,33.427582495],[130.395819728,33.427851946000004],[130.395934449,33.428025279],[130.39606083,33.428111945999994],[130.39658333300002,33.428193892],[130.39665805400003,33.428280559],[130.397594449,33.430292225],[130.397597497,33.430747225],[130.397384721,33.43081444100001],[130.396884994,33.430761667],[130.39656917,33.430876946],[130.395925551,33.43191666700001],[130.395994449,33.43205610799999],[130.396870558,33.432304162],[130.397741115,33.432754162],[130.397775551,33.432802225],[130.39724739266867,33.43333333333332],[130.4,33.43333333333333],[130.4,33.425],[130.399064228,33.425],[130.398864994,33.425165829]]]}},{"type":"Feature","id":"40231:50301312","properties":{"id":"40231:50301312","meshCode":"50301312","cityCode":"40231","city":"那珂川市","lat":33.4291667,"lon":130.40625,"areaKm2":1.0743057,"populated2020":false,"population2020":null,"populationNote":"境界またぎ・収録外等のため人口未集計"},"geometry":{"type":"Polygon","coordinates":[[[130.4125,33.425],[130.4,33.425],[130.4,33.43333333333333],[130.4125,33.43333333333333],[130.4125,33.425]]]}},{"type":"Feature","id":"40231:50301313","properties":{"id":"40231:50301313","meshCode":"50301313","cityCode":"40231","city":"那珂川市","lat":33.4291667,"lon":130.41875,"areaKm2":1.0743023,"populated2020":false,"population2020":null,"populationNote":"境界またぎ・収録外等のため人口未集計"},"geometry":{"type":"Polygon","coordinates":[[[130.425,33.425],[130.4125,33.425],[130.4125,33.43333333333333],[130.425,33.43333333333333],[130.425,33.425]]]}},{"type":"Feature","id":"40231:50301314","properties":{"id":"40231:50301314","meshCode":"50301314","cityCode":"40231","city":"那珂川市","lat":33.4291667,"lon":130.43125,"areaKm2":1.074299,"populated2020":false,"population2020":null,"populationNote":"境界またぎ・収録外等のため人口未集計"},"geometry":{"type":"Polygon","coordinates":[[[130.4375,33.425],[130.425,33.425],[130.425,33.43333333333333],[130.4375,33.43333333333333],[130.4375,33.425]]]}},{"type":"Feature","id":"40231:50301315","properties":{"id":"40231:50301315","meshCode":"50301315","cityCode":"40231","city":"那珂川市","lat":33.4291667,"lon":130.44375,"areaKm2":1.0742958,"populated2020":true,"population2020":5.0044,"populationNote":"収録500mメッシュ人口の合算（原典収録外は補完しない）"},"geometry":{"type":"Polygon","coordinates":[[[130.45,33.425],[130.4375,33.425],[130.4375,33.43333333333333],[130.45,33.43333333333334],[130.45,33.425]]]}},{"type":"Feature","id":"40231:50301316","properties":{"id":"40231:50301316","meshCode":"50301316","cityCode":"40231","city":"那珂川市","lat":33.4289117,"lon":130.4544212,"areaKm2":0.7343675,"populated2020":true,"population2020":0.9904,"populationNote":"収録500mメッシュ人口の合算（原典収録外は補完しない）"},"geometry":{"type":"Polygon","coordinates":[[[130.456787691,33.429037919],[130.456978054,33.428939721],[130.457653061,33.429053054],[130.458388327,33.42883166699999],[130.45904917,33.428783333],[130.460706394,33.429300829],[130.461413333,33.42823722499999],[130.46095083,33.427729441],[130.45986499400001,33.427098892],[130.45910083,33.425698333],[130.458824994,33.425544441],[130.458273891,33.42540972100001],[130.458011219,33.425],[130.45,33.425],[130.45,33.43333333333334],[130.45679661494057,33.43333333333334],[130.457216109,33.43250416200001],[130.457626939,33.431938333],[130.457894449,33.430800000000005],[130.457811115,33.430658054],[130.456584449,33.429851946],[130.456787691,33.429037919]]]}},{"type":"Feature","id":"40231:50301321","properties":{"id":"40231:50301321","meshCode":"50301321","cityCode":"40231","city":"那珂川市","lat":33.4366147,"lon":130.3979291,"areaKm2":0.2476659,"populated2020":false,"population2020":null,"populationNote":"境界またぎ・収録外等のため人口未集計"},"geometry":{"type":"Polygon","coordinates":[[[130.39724739266867,33.43333333333332],[130.396227224,33.434623892],[130.396247224,33.435583892000004],[130.395816394,33.437172225],[130.395819442,33.43820944099999],[130.395983061,33.439083054],[130.396026109,33.440298333],[130.396974163,33.44027416200001],[130.397548327,33.440158892],[130.398596667,33.438871108],[130.398901388,33.438770279],[130.399406939,33.438823333],[130.4,33.438602108],[130.4,33.43333333333333],[130.39724739266867,33.43333333333332]]]}},{"type":"Feature","id":"40231:50301322","properties":{"id":"40231:50301322","meshCode":"50301322","cityCode":"40231","city":"那珂川市","lat":33.4371246,"lon":130.4069412,"areaKm2":0.9208285,"populated2020":false,"population2020":null,"populationNote":"境界またぎ・収録外等のため人口未集計"},"geometry":{"type":"Polygon","coordinates":[[[130.402922218,33.437042495],[130.403106109,33.43708110800001],[130.403005551,33.437506666999994],[130.403117497,33.438081946000004],[130.404211946,33.438897775],[130.404579442,33.440004720999994],[130.404381388,33.440604162],[130.403298612,33.441222495],[130.4028488593375,33.44166666666667],[130.4125,33.44166666666667],[130.4125,33.43333333333333],[130.4,33.43333333333333],[130.4,33.438602108],[130.401460272,33.43807472100001],[130.402922218,33.437042495]]]}},{"type":"Feature","id":"40231:50301323","properties":{"id":"40231:50301323","meshCode":"50301323","cityCode":"40231","city":"那珂川市","lat":33.4375,"lon":130.41875,"areaKm2":1.074201,"populated2020":false,"population2020":null,"populationNote":"境界またぎ・収録外等のため人口未集計"},"geometry":{"type":"Polygon","coordinates":[[[130.425,33.43333333333333],[130.4125,33.43333333333333],[130.4125,33.44166666666667],[130.425,33.44166666666667],[130.425,33.43333333333333]]]}},{"type":"Feature","id":"40231:50301324","properties":{"id":"40231:50301324","meshCode":"50301324","cityCode":"40231","city":"那珂川市","lat":33.4375,"lon":130.43125,"areaKm2":1.0741978,"populated2020":false,"population2020":null,"populationNote":"境界またぎ・収録外等のため人口未集計"},"geometry":{"type":"Polygon","coordinates":[[[130.4375,33.43333333333333],[130.425,33.43333333333333],[130.425,33.44166666666667],[130.4375,33.44166666666666],[130.4375,33.43333333333333]]]}},{"type":"Feature","id":"40231:50301325","properties":{"id":"40231:50301325","meshCode":"50301325","cityCode":"40231","city":"那珂川市","lat":33.4375,"lon":130.44375,"areaKm2":1.0741946,"populated2020":true,"population2020":12.0033,"populationNote":"収録500mメッシュ人口の合算（原典収録外は補完しない）"},"geometry":{"type":"Polygon","coordinates":[[[130.45,33.43333333333334],[130.4375,33.43333333333333],[130.4375,33.44166666666666],[130.45,33.44166666666666],[130.45,33.43333333333334]]]}},{"type":"Feature","id":"40231:50301326","properties":{"id":"40231:50301326","meshCode":"50301326","cityCode":"40231","city":"那珂川市","lat":33.4374785,"lon":130.4528534,"areaKm2":0.469122,"populated2020":true,"population2020":null,"populationNote":"境界またぎ・収録外等のため人口未集計"},"geometry":{"type":"Polygon","coordinates":[[[130.456328612,33.434364161999994],[130.456437782,33.434075559],[130.45675083000003,33.433673613],[130.45679661494057,33.43333333333334],[130.45,33.43333333333334],[130.45,33.44166666666666],[130.4567846689518,33.44166666666666],[130.45667,33.44127361300001],[130.456334163,33.440674441],[130.45524,33.438929441000006],[130.45502166,33.438722495],[130.454205837,33.43834222500001],[130.453771946,33.437925829],[130.453685837,33.43768500000001],[130.453691946,33.436111387],[130.45393888500004,33.436019721],[130.454834994,33.436034162],[130.455504163,33.436209999999996],[130.456044163,33.43606555899999],[130.456394721,33.434746946],[130.456328612,33.434364161999994]]]}},{"type":"Feature","id":"40231:50301331","properties":{"id":"40231:50301331","meshCode":"50301331","cityCode":"40231","city":"那珂川市","lat":33.4469336,"lon":130.3994552,"areaKm2":0.0627235,"populated2020":false,"population2020":null,"populationNote":"境界またぎ・収録外等のため人口未集計"},"geometry":{"type":"Polygon","coordinates":[[[130.399676667,33.443347225],[130.399202776,33.444124720999994],[130.398869728,33.445279721000006],[130.398958612,33.445903054000006],[130.399202503,33.446632225],[130.399314721,33.447491108],[130.39948972800002,33.447825829],[130.399354721,33.44879082899999],[130.398915551,33.449312775],[130.398128612,33.449750828999996],[130.396956783,33.45],[130.4,33.45],[130.4,33.442978],[130.399676667,33.443347225]]]}},{"type":"Feature","id":"40231:50301332","properties":{"id":"40231:50301332","meshCode":"50301332","cityCode":"40231","city":"那珂川市","lat":33.4459516,"lon":130.4064164,"areaKm2":1.0389803,"populated2020":false,"population2020":null,"populationNote":"境界またぎ・収録外等のため人口未集計"},"geometry":{"type":"Polygon","coordinates":[[[130.402577497,33.44197555899999],[130.402364994,33.44316472100001],[130.402296109,33.443226945999996],[130.40204888500003,33.443250829],[130.400615837,33.442835],[130.400403333,33.442834999999995],[130.4,33.442978],[130.4,33.45],[130.4125,33.45],[130.4125,33.44166666666667],[130.4028488593375,33.44166666666667],[130.402577497,33.44197555899999]]]}},{"type":"Feature","id":"40231:50301333","properties":{"id":"40231:50301333","meshCode":"50301333","cityCode":"40231","city":"那珂川市","lat":33.4458333,"lon":130.41875,"areaKm2":1.0740998,"populated2020":true,"population2020":8.0314,"populationNote":"収録500mメッシュ人口の合算（原典収録外は補完しない）"},"geometry":{"type":"Polygon","coordinates":[[[130.425,33.44166666666667],[130.4125,33.44166666666667],[130.4125,33.45],[130.425,33.45000000000001],[130.425,33.44166666666667]]]}},{"type":"Feature","id":"40231:50301334","properties":{"id":"40231:50301334","meshCode":"50301334","cityCode":"40231","city":"那珂川市","lat":33.4458333,"lon":130.43125,"areaKm2":1.0740966,"populated2020":true,"population2020":124.1023,"populationNote":"収録500mメッシュ人口の合算（原典収録外は補完しない）"},"geometry":{"type":"Polygon","coordinates":[[[130.4375,33.44166666666666],[130.425,33.44166666666667],[130.425,33.45000000000001],[130.4375,33.45],[130.4375,33.44166666666666]]]}},{"type":"Feature","id":"40231:50301335","properties":{"id":"40231:50301335","meshCode":"50301335","cityCode":"40231","city":"那珂川市","lat":33.4458333,"lon":130.44375,"areaKm2":1.0740934,"populated2020":true,"population2020":27.0793,"populationNote":"収録500mメッシュ人口の合算（原典収録外は補完しない）"},"geometry":{"type":"Polygon","coordinates":[[[130.45,33.44166666666666],[130.4375,33.44166666666666],[130.4375,33.45],[130.45,33.45000000000001],[130.45,33.44166666666666]]]}},{"type":"Feature","id":"40231:50301336","properties":{"id":"40231:50301336","meshCode":"50301336","cityCode":"40231","city":"那珂川市","lat":33.4459972,"lon":130.4550721,"areaKm2":0.8605225,"populated2020":false,"population2020":null,"populationNote":"境界またぎ・収録外等のため人口未集計"},"geometry":{"type":"Polygon","coordinates":[[[130.461337497,33.44552138700001],[130.461176667,33.444977495],[130.459812503,33.444243333],[130.459591115,33.44337444100001],[130.459487782,33.44325416200001],[130.458485279,33.44278],[130.458266939,33.442558613],[130.458016939,33.44206555900001],[130.457913891,33.442022225],[130.457707224,33.442055829],[130.457379728,33.442238613],[130.457287782,33.442219162],[130.45685111500003,33.441968892000006],[130.4567846689518,33.44166666666666],[130.45,33.44166666666666],[130.45,33.45000000000001],[130.460449468,33.45],[130.460159442,33.449660559],[130.460182503,33.44932833299999],[130.46042083,33.448642775],[130.46036083,33.448183054000005],[130.46005917,33.447603054],[130.460070558,33.447468332999996],[130.460636394,33.446820828999996],[130.461185279,33.446481667],[130.4613,33.446289162],[130.461337497,33.44552138700001]]]}},{"type":"Feature","id":"40231:50301341","properties":{"id":"40231:50301341","meshCode":"50301341","cityCode":"40231","city":"那珂川市","lat":33.4548383,"lon":130.3945969,"areaKm2":0.8502931,"populated2020":false,"population2020":null,"populationNote":"境界またぎ・収録外等のため人口未集計"},"geometry":{"type":"Polygon","coordinates":[[[130.39652,33.450521108],[130.395957224,33.45070389199999],[130.395075279,33.450745],[130.394498054,33.45114166700001],[130.393848885,33.451185],[130.393406394,33.451310279],[130.391821115,33.45249916200001],[130.391441946,33.452581108],[130.390993891,33.452575829000004],[130.390554163,33.452780559],[130.389621115,33.453500279],[130.389172776,33.453991108000004],[130.387963606,33.454797225],[130.38782,33.454960829],[130.3875,33.45583532049961],[130.3875,33.456261063209325],[130.387618885,33.456674441000004],[130.3875,33.45714167012112],[130.3875,33.45833333333334],[130.4,33.458333333333336],[130.4,33.45],[130.396956783,33.45],[130.39652,33.450521108]]]}},{"type":"Feature","id":"40231:50301342","properties":{"id":"40231:50301342","meshCode":"50301342","cityCode":"40231","city":"那珂川市","lat":33.4541667,"lon":130.40625,"areaKm2":1.0740018,"populated2020":false,"population2020":null,"populationNote":"境界またぎ・収録外等のため人口未集計"},"geometry":{"type":"Polygon","coordinates":[[[130.4125,33.45],[130.4,33.45],[130.4,33.458333333333336],[130.4125,33.458333333333336],[130.4125,33.45]]]}},{"type":"Feature","id":"40231:50301343","properties":{"id":"40231:50301343","meshCode":"50301343","cityCode":"40231","city":"那珂川市","lat":33.4541667,"lon":130.41875,"areaKm2":1.0739986,"populated2020":true,"population2020":20.0605,"populationNote":"収録500mメッシュ人口の合算（原典収録外は補完しない）"},"geometry":{"type":"Polygon","coordinates":[[[130.425,33.45000000000001],[130.4125,33.45],[130.4125,33.458333333333336],[130.425,33.458333333333336],[130.425,33.45000000000001]]]}},{"type":"Feature","id":"40231:50301344","properties":{"id":"40231:50301344","meshCode":"50301344","cityCode":"40231","city":"那珂川市","lat":33.4541667,"lon":130.43125,"areaKm2":1.0739952,"populated2020":true,"population2020":175.3317,"populationNote":"収録500mメッシュ人口の合算（原典収録外は補完しない）"},"geometry":{"type":"Polygon","coordinates":[[[130.4375,33.45],[130.425,33.45000000000001],[130.425,33.458333333333336],[130.4375,33.45833333333334],[130.4375,33.45]]]}},{"type":"Feature","id":"40231:50301345","properties":{"id":"40231:50301345","meshCode":"50301345","cityCode":"40231","city":"那珂川市","lat":33.4541667,"lon":130.44375,"areaKm2":1.073992,"populated2020":true,"population2020":4.9688,"populationNote":"収録500mメッシュ人口の合算（原典収録外は補完しない）"},"geometry":{"type":"Polygon","coordinates":[[[130.45,33.45000000000001],[130.4375,33.45],[130.4375,33.45833333333334],[130.45,33.45833333333334],[130.45,33.45000000000001]]]}},{"type":"Feature","id":"40231:50301346","properties":{"id":"40231:50301346","meshCode":"50301346","cityCode":"40231","city":"那珂川市","lat":33.454076,"lon":130.4542995,"areaKm2":0.733301,"populated2020":false,"population2020":null,"populationNote":"境界またぎ・収録外等のため人口未集計"},"geometry":{"type":"Polygon","coordinates":[[[130.458180272,33.454129720999994],[130.458274994,33.453626667],[130.457907497,33.452668892],[130.45813166,33.452259721],[130.458134449,33.451612225],[130.458444721,33.451299440999996],[130.459096667,33.451008333],[130.459389442,33.450714721000004],[130.460449442,33.450365829],[130.460518327,33.450240559],[130.460449468,33.45],[130.45,33.45000000000001],[130.45,33.45833333333334],[130.4589342286734,33.458333333333336],[130.457924721,33.45783361299999],[130.457479728,33.457455559],[130.457936394,33.456923613],[130.458318054,33.455987495],[130.458456109,33.455857495000004],[130.45936083,33.455624441000005],[130.459527497,33.45539805399999],[130.459538885,33.455003333],[130.459464163,33.454868612999995],[130.459263061,33.454738613],[130.458530558,33.454534162],[130.458329728,33.45438972099999],[130.458180272,33.454129720999994]]]}},{"type":"Feature","id":"40231:50301340","properties":{"id":"40231:50301340","meshCode":"50301340","cityCode":"40231","city":"那珂川市","lat":33.4579315,"lon":130.3871586,"areaKm2":0.0059179,"populated2020":false,"population2020":null,"populationNote":"境界またぎ・収録外等のため人口未集計"},"geometry":{"type":"MultiPolygon","coordinates":[[[[130.38746083,33.455921108],[130.3875,33.456261063209325],[130.3875,33.45583532049961],[130.38746083,33.455921108]]],[[[130.387173606,33.457639441],[130.386420078,33.458333333],[130.386420077638,33.458333333333336],[130.3875,33.45833333333334],[130.3875,33.45714167012112],[130.387173606,33.457639441]]]]}},{"type":"Feature","id":"40231:50301350","properties":{"id":"40231:50301350","meshCode":"50301350","cityCode":"40231","city":"那珂川市","lat":33.4615818,"lon":130.3868763,"areaKm2":0.0794867,"populated2020":false,"population2020":null,"populationNote":"境界またぎ・収録外等のため人口未集計"},"geometry":{"type":"Polygon","coordinates":[[[130.386010558,33.458782495],[130.386068054,33.459162495000015],[130.386719728,33.460021667],[130.386918054,33.46062582900001],[130.386883606,33.460813613000006],[130.386728327,33.460972495],[130.38602472100004,33.461393333],[130.385812218,33.461836108],[130.385812218,33.462101108000006],[130.386771388,33.46460389199999],[130.387133333,33.465070829],[130.3875,33.46530742964534],[130.3875,33.45833333333334],[130.386420077638,33.458333333333336],[130.386010558,33.458782495]]]}},{"type":"Feature","id":"40231:50301351","properties":{"id":"40231:50301351","meshCode":"50301351","cityCode":"40231","city":"那珂川市","lat":33.4624768,"lon":130.3937893,"areaKm2":1.0668912,"populated2020":false,"population2020":null,"populationNote":"境界またぎ・収録外等のため人口未集計"},"geometry":{"type":"Polygon","coordinates":[[[130.4,33.458333333333336],[130.3875,33.45833333333334],[130.3875,33.46530742964534],[130.387837224,33.465429441000005],[130.388066939,33.465698892],[130.388095837,33.46609361299999],[130.38790894917764,33.46666666666667],[130.4,33.46666666666667],[130.4,33.458333333333336]]]}},{"type":"Feature","id":"40231:50301352","properties":{"id":"40231:50301352","meshCode":"50301352","cityCode":"40231","city":"那珂川市","lat":33.4625,"lon":130.40625,"areaKm2":1.0739006,"populated2020":true,"population2020":4.9889,"populationNote":"収録500mメッシュ人口の合算（原典収録外は補完しない）"},"geometry":{"type":"Polygon","coordinates":[[[130.4125,33.458333333333336],[130.4,33.458333333333336],[130.4,33.46666666666667],[130.4125,33.466666666666676],[130.4125,33.458333333333336]]]}},{"type":"Feature","id":"40231:50301353","properties":{"id":"40231:50301353","meshCode":"50301353","cityCode":"40231","city":"那珂川市","lat":33.4625,"lon":130.41875,"areaKm2":1.0738972,"populated2020":true,"population2020":140.048,"populationNote":"収録500mメッシュ人口の合算（原典収録外は補完しない）"},"geometry":{"type":"Polygon","coordinates":[[[130.425,33.458333333333336],[130.4125,33.458333333333336],[130.4125,33.466666666666676],[130.425,33.46666666666667],[130.425,33.458333333333336]]]}},{"type":"Feature","id":"40231:50301354","properties":{"id":"40231:50301354","meshCode":"50301354","cityCode":"40231","city":"那珂川市","lat":33.4625,"lon":130.43125,"areaKm2":1.0738939,"populated2020":true,"population2020":405.1524,"populationNote":"収録500mメッシュ人口の合算（原典収録外は補完しない）"},"geometry":{"type":"Polygon","coordinates":[[[130.4375,33.45833333333334],[130.425,33.458333333333336],[130.425,33.46666666666667],[130.4375,33.46666666666667],[130.4375,33.45833333333334]]]}},{"type":"Feature","id":"40231:50301355","properties":{"id":"40231:50301355","meshCode":"50301355","cityCode":"40231","city":"那珂川市","lat":33.4625,"lon":130.44375,"areaKm2":1.0738906,"populated2020":true,"population2020":4.0549,"populationNote":"収録500mメッシュ人口の合算（原典収録外は補完しない）"},"geometry":{"type":"Polygon","coordinates":[[[130.45,33.45833333333334],[130.4375,33.45833333333334],[130.4375,33.46666666666667],[130.45,33.46666666666667],[130.45,33.45833333333334]]]}},{"type":"Feature","id":"40231:50301356","properties":{"id":"40231:50301356","meshCode":"50301356","cityCode":"40231","city":"那珂川市","lat":33.4627047,"lon":130.4558885,"areaKm2":1.0021405,"populated2020":false,"population2020":null,"populationNote":"境界またぎ・収録外等のため人口未集計"},"geometry":{"type":"Polygon","coordinates":[[[130.4625,33.461659419073925],[130.461041388,33.461008054],[130.460713891,33.460613333000005],[130.460532776,33.460192225],[130.459972776,33.459804721000005],[130.45977444900004,33.458882775000006],[130.45957917,33.45869027900001],[130.4589342286734,33.458333333333336],[130.45,33.45833333333334],[130.45,33.46666666666667],[130.4625,33.46666666666668],[130.4625,33.461659419073925]]]}},{"type":"Feature","id":"40231:50301357","properties":{"id":"40231:50301357","meshCode":"50301357","cityCode":"40231","city":"那珂川市","lat":33.4646212,"lon":130.463763,"areaKm2":0.1142584,"populated2020":false,"population2020":null,"populationNote":"境界またぎ・収録外等のため人口未集計"},"geometry":{"type":"Polygon","coordinates":[[[130.46443917,33.462267225],[130.464232218,33.462065],[130.46362083,33.46200972100001],[130.4625,33.461659419073925],[130.4625,33.46666666666668],[130.4654807003104,33.466666666666676],[130.466257497,33.466351386999996],[130.46609083,33.465985559],[130.465619728,33.465383892],[130.464754994,33.46520833299999],[130.464358612,33.464948054000004],[130.464281115,33.46441166700001],[130.464531115,33.463590829],[130.464275551,33.462823054000005],[130.46443917,33.462267225]]]}},{"type":"Feature","id":"40231:50301360","properties":{"id":"40231:50301360","meshCode":"50301360","cityCode":"40231","city":"那珂川市","lat":33.4720627,"lon":130.3861913,"areaKm2":0.1770626,"populated2020":false,"population2020":null,"populationNote":"境界またぎ・収録外等のため人口未集計"},"geometry":{"type":"Polygon","coordinates":[[[130.386981115,33.467470000000006],[130.385952776,33.468837225],[130.385946939,33.47021361299999],[130.384789728,33.471915],[130.384703606,33.472218333],[130.384350272,33.47261527900001],[130.384327224,33.473568333],[130.384083061,33.474552775],[130.383398054,33.47500000000001],[130.3875,33.47500000000001],[130.3875,33.46705476478858],[130.386981115,33.467470000000006]]]}},{"type":"Feature","id":"40231:50301361","properties":{"id":"40231:50301361","meshCode":"50301361","cityCode":"40231","city":"那珂川市","lat":33.4708369,"lon":130.3937554,"areaKm2":1.0728504,"populated2020":true,"population2020":27.02,"populationNote":"収録500mメッシュ人口の合算（原典収録外は補完しない）"},"geometry":{"type":"Polygon","coordinates":[[[130.38790894917764,33.46666666666667],[130.3875,33.46705476478858],[130.3875,33.47500000000001],[130.4,33.475],[130.4,33.46666666666667],[130.38790894917764,33.46666666666667]]]}},{"type":"Feature","id":"40231:50301362","properties":{"id":"40231:50301362","meshCode":"50301362","cityCode":"40231","city":"那珂川市","lat":33.4708333,"lon":130.40625,"areaKm2":1.0737993,"populated2020":true,"population2020":136.1046,"populationNote":"収録500mメッシュ人口の合算（原典収録外は補完しない）"},"geometry":{"type":"Polygon","coordinates":[[[130.4125,33.466666666666676],[130.4,33.46666666666667],[130.4,33.475],[130.4125,33.47500000000001],[130.4125,33.466666666666676]]]}},{"type":"Feature","id":"40231:50301363","properties":{"id":"40231:50301363","meshCode":"50301363","cityCode":"40231","city":"那珂川市","lat":33.4708333,"lon":130.41875,"areaKm2":1.0737958,"populated2020":true,"population2020":447.3734,"populationNote":"収録500mメッシュ人口の合算（原典収録外は補完しない）"},"geometry":{"type":"Polygon","coordinates":[[[130.425,33.46666666666667],[130.4125,33.466666666666676],[130.4125,33.47500000000001],[130.425,33.47500000000001],[130.425,33.46666666666667]]]}},{"type":"Feature","id":"40231:50301364","properties":{"id":"40231:50301364","meshCode":"50301364","cityCode":"40231","city":"那珂川市","lat":33.4708333,"lon":130.43125,"areaKm2":1.0737926,"populated2020":true,"population2020":109.4016,"populationNote":"収録500mメッシュ人口の合算（原典収録外は補完しない）"},"geometry":{"type":"Polygon","coordinates":[[[130.4375,33.46666666666667],[130.425,33.46666666666667],[130.425,33.47500000000001],[130.4375,33.475],[130.4375,33.46666666666667]]]}},{"type":"Feature","id":"40231:50301365","properties":{"id":"40231:50301365","meshCode":"50301365","cityCode":"40231","city":"那珂川市","lat":33.4708333,"lon":130.44375,"areaKm2":1.0737894,"populated2020":false,"population2020":null,"populationNote":"境界またぎ・収録外等のため人口未集計"},"geometry":{"type":"Polygon","coordinates":[[[130.45,33.46666666666667],[130.4375,33.46666666666667],[130.4375,33.475],[130.45,33.47500000000001],[130.45,33.46666666666667]]]}},{"type":"Feature","id":"40231:50301366","properties":{"id":"40231:50301366","meshCode":"50301366","cityCode":"40231","city":"那珂川市","lat":33.4698988,"lon":130.4550952,"areaKm2":0.7361588,"populated2020":false,"population2020":null,"populationNote":"境界またぎ・収録外等のため人口未集計"},"geometry":{"type":"Polygon","coordinates":[[[130.455828327,33.470549999999996],[130.456443061,33.470444441],[130.457468327,33.47056694599999],[130.45810333300003,33.47041555900001],[130.458657224,33.470995559],[130.459093891,33.47114472100001],[130.460989728,33.470697225],[130.461704721,33.470271387],[130.46218166,33.47018500000001],[130.462325279,33.470030829],[130.462374163,33.46959055899999],[130.4625,33.46941148359098],[130.4625,33.46666666666668],[130.45,33.46666666666667],[130.45,33.47500000000001],[130.454973502,33.47500000000001],[130.454156667,33.474655829],[130.45409917,33.474525829],[130.454581946,33.474126108],[130.454596109,33.473180279],[130.45521083,33.472905829],[130.45561,33.472249162],[130.45554083,33.471748613],[130.45532,33.471274441],[130.455586939,33.47072805399999],[130.455828327,33.470549999999996]]]}},{"type":"Feature","id":"40231:50301367","properties":{"id":"40231:50301367","meshCode":"50301367","cityCode":"40231","city":"那珂川市","lat":33.4680299,"lon":130.4640784,"areaKm2":0.0799032,"populated2020":false,"population2020":null,"populationNote":"境界またぎ・収録外等のため人口未集計"},"geometry":{"type":"Polygon","coordinates":[[[130.4625,33.46941148359098],[130.463008885,33.46898638700001],[130.463416939,33.468933333],[130.464838612,33.469518613],[130.465364163,33.469650828999995],[130.465490558,33.46961722499999],[130.465619728,33.469494441],[130.465803606,33.469032495],[130.465763333,33.468286387],[130.46528083,33.467978054],[130.465154449,33.467795279],[130.465269442,33.467039441],[130.4654807003104,33.466666666666676],[130.4625,33.46666666666668],[130.4625,33.46941148359098]]]}},{"type":"Feature","id":"40231:50301370","properties":{"id":"40231:50301370","meshCode":"50301370","cityCode":"40231","city":"那珂川市","lat":33.4794564,"lon":130.3847596,"areaKm2":0.4627024,"populated2020":false,"population2020":null,"populationNote":"境界またぎ・収録外等のため人口未集計"},"geometry":{"type":"Polygon","coordinates":[[[130.383398054,33.47500000000001],[130.383034721,33.47523861300001],[130.382893891,33.475462495],[130.382813333,33.475847495],[130.382824994,33.476001667000006],[130.383129442,33.476343333],[130.383152503,33.47653555899999],[130.383048885,33.47681],[130.38260083,33.47733000000001],[130.382646939,33.477541667000004],[130.382899728,33.477859441],[130.382422776,33.478278054],[130.382457224,33.479058054],[130.382376667,33.47920249500001],[130.381710272,33.479385279],[130.381268054,33.48038138700001],[130.38141166,33.48256194599999],[130.38164710810176,33.483333333333334],[130.3875,33.483333333333334],[130.3875,33.47500000000001],[130.383398054,33.47500000000001]]]}},{"type":"Feature","id":"40231:50301371","properties":{"id":"40231:50301371","meshCode":"50301371","cityCode":"40231","city":"那珂川市","lat":33.4791667,"lon":130.39375,"areaKm2":1.0737013,"populated2020":true,"population2020":47.9819,"populationNote":"収録500mメッシュ人口の合算（原典収録外は補完しない）"},"geometry":{"type":"Polygon","coordinates":[[[130.4,33.475],[130.3875,33.47500000000001],[130.3875,33.483333333333334],[130.4,33.483333333333334],[130.4,33.475]]]}},{"type":"Feature","id":"40231:50301372","properties":{"id":"40231:50301372","meshCode":"50301372","cityCode":"40231","city":"那珂川市","lat":33.4791667,"lon":130.40625,"areaKm2":1.0736978,"populated2020":true,"population2020":404.203,"populationNote":"収録500mメッシュ人口の合算（原典収録外は補完しない）"},"geometry":{"type":"Polygon","coordinates":[[[130.4125,33.47500000000001],[130.4,33.475],[130.4,33.483333333333334],[130.4125,33.48333333333334],[130.4125,33.47500000000001]]]}},{"type":"Feature","id":"40231:50301373","properties":{"id":"40231:50301373","meshCode":"50301373","cityCode":"40231","city":"那珂川市","lat":33.4791667,"lon":130.41875,"areaKm2":1.0736946,"populated2020":true,"population2020":183.0623,"populationNote":"収録500mメッシュ人口の合算（原典収録外は補完しない）"},"geometry":{"type":"Polygon","coordinates":[[[130.425,33.47500000000001],[130.4125,33.47500000000001],[130.4125,33.48333333333334],[130.425,33.48333333333334],[130.425,33.47500000000001]]]}},{"type":"Feature","id":"40231:50301374","properties":{"id":"40231:50301374","meshCode":"50301374","cityCode":"40231","city":"那珂川市","lat":33.4791667,"lon":130.43125,"areaKm2":1.0736912,"populated2020":false,"population2020":null,"populationNote":"境界またぎ・収録外等のため人口未集計"},"geometry":{"type":"Polygon","coordinates":[[[130.4375,33.475],[130.425,33.47500000000001],[130.425,33.48333333333334],[130.4375,33.483333333333334],[130.4375,33.475]]]}},{"type":"Feature","id":"40231:50301375","properties":{"id":"40231:50301375","meshCode":"50301375","cityCode":"40231","city":"那珂川市","lat":33.4791667,"lon":130.44375,"areaKm2":1.073688,"populated2020":false,"population2020":null,"populationNote":"境界またぎ・収録外等のため人口未集計"},"geometry":{"type":"Polygon","coordinates":[[[130.45,33.47500000000001],[130.4375,33.475],[130.4375,33.483333333333334],[130.45,33.483333333333334],[130.45,33.47500000000001]]]}},{"type":"Feature","id":"40231:50301376","properties":{"id":"40231:50301376","meshCode":"50301376","cityCode":"40231","city":"那珂川市","lat":33.4785747,"lon":130.4524141,"areaKm2":0.3877195,"populated2020":false,"population2020":null,"populationNote":"境界またぎ・収録外等のため人口未集計"},"geometry":{"type":"Polygon","coordinates":[[[130.45407917,33.479341108],[130.45529138800003,33.478287225],[130.455458054,33.478061108000006],[130.455724994,33.477355829000004],[130.456144449,33.477],[130.456127224,33.475825279],[130.455417782,33.475149162],[130.454973502,33.47500000000001],[130.45,33.47500000000001],[130.45,33.483333333333334],[130.45338732787943,33.483333333333334],[130.453438885,33.48311249499999],[130.453004994,33.48232527900001],[130.45297917,33.481740559],[130.453493333,33.480915],[130.453628327,33.480007775],[130.45407917,33.479341108]]]}},{"type":"Feature","id":"40231:50301380","properties":{"id":"40231:50301380","meshCode":"50301380","cityCode":"40231","city":"那珂川市","lat":33.4877163,"lon":130.3842184,"areaKm2":0.5586683,"populated2020":true,"population2020":15.1209,"populationNote":"収録500mメッシュ人口の合算（原典収録外は補完しない）"},"geometry":{"type":"Polygon","coordinates":[[[130.38125,33.48564326267244],[130.38141778200003,33.48712027900001],[130.380929442,33.488106946],[130.381078612,33.488819162],[130.380303061,33.489844441],[130.379883606,33.491023892],[130.3797840600516,33.49166666666667],[130.3875,33.491666666666674],[130.3875,33.483333333333334],[130.38164710810176,33.483333333333334],[130.381853891,33.484010829],[130.38125,33.48564326267244]]]}},{"type":"Feature","id":"40231:50301381","properties":{"id":"40231:50301381","meshCode":"50301381","cityCode":"40231","city":"那珂川市","lat":33.4875,"lon":130.39375,"areaKm2":1.0735999,"populated2020":true,"population2020":206.2492,"populationNote":"収録500mメッシュ人口の合算（原典収録外は補完しない）"},"geometry":{"type":"Polygon","coordinates":[[[130.4,33.483333333333334],[130.3875,33.483333333333334],[130.3875,33.491666666666674],[130.4,33.491666666666674],[130.4,33.483333333333334]]]}},{"type":"Feature","id":"40231:50301382","properties":{"id":"40231:50301382","meshCode":"50301382","cityCode":"40231","city":"那珂川市","lat":33.4875,"lon":130.40625,"areaKm2":1.0735965,"populated2020":true,"population2020":137.0329,"populationNote":"収録500mメッシュ人口の合算（原典収録外は補完しない）"},"geometry":{"type":"Polygon","coordinates":[[[130.4125,33.48333333333334],[130.4,33.483333333333334],[130.4,33.491666666666674],[130.4125,33.491666666666674],[130.4125,33.48333333333334]]]}},{"type":"Feature","id":"40231:50301383","properties":{"id":"40231:50301383","meshCode":"50301383","cityCode":"40231","city":"那珂川市","lat":33.4875,"lon":130.41875,"areaKm2":1.0735931,"populated2020":true,"population2020":1261.6327,"populationNote":"収録500mメッシュ人口の合算（原典収録外は補完しない）"},"geometry":{"type":"Polygon","coordinates":[[[130.425,33.48333333333334],[130.4125,33.48333333333334],[130.4125,33.491666666666674],[130.425,33.49166666666667],[130.425,33.48333333333334]]]}},{"type":"Feature","id":"40231:50301384","properties":{"id":"40231:50301384","meshCode":"50301384","cityCode":"40231","city":"那珂川市","lat":33.4875,"lon":130.43125,"areaKm2":1.0735898,"populated2020":true,"population2020":101.2377,"populationNote":"収録500mメッシュ人口の合算（原典収録外は補完しない）"},"geometry":{"type":"Polygon","coordinates":[[[130.4375,33.483333333333334],[130.425,33.48333333333334],[130.425,33.49166666666667],[130.4375,33.49166666666667],[130.4375,33.483333333333334]]]}},{"type":"Feature","id":"40231:50301385","properties":{"id":"40231:50301385","meshCode":"50301385","cityCode":"40231","city":"那珂川市","lat":33.4875,"lon":130.44375,"areaKm2":1.0735866,"populated2020":true,"population2020":202.5671,"populationNote":"収録500mメッシュ人口の合算（原典収録外は補完しない）"},"geometry":{"type":"Polygon","coordinates":[[[130.45,33.483333333333334],[130.4375,33.483333333333334],[130.4375,33.49166666666667],[130.45,33.491666666666674],[130.45,33.483333333333334]]]}},{"type":"Feature","id":"40231:50301386","properties":{"id":"40231:50301386","meshCode":"50301386","cityCode":"40231","city":"那珂川市","lat":33.4873814,"lon":130.4514539,"areaKm2":0.2406841,"populated2020":false,"population2020":null,"populationNote":"境界またぎ・収録外等のため人口未集計"},"geometry":{"type":"Polygon","coordinates":[[[130.452416394,33.486832775],[130.452195279,33.486016946],[130.452201115,33.485660559],[130.452338885,33.48545361299999],[130.452789728,33.485350559],[130.452984994,33.485177225],[130.452984994,33.484662225],[130.45338732787943,33.483333333333334],[130.45,33.483333333333334],[130.45,33.491666666666674],[130.45153791200548,33.49166666666667],[130.451635279,33.491005559],[130.451853606,33.49089],[130.452462503,33.49091916199999],[130.452634721,33.490861387],[130.452904721,33.490250278999994],[130.45322917,33.4898],[130.453444449,33.48896527899999],[130.45341,33.48846444099999],[130.453073891,33.487754441],[130.452416394,33.486832775]]]}},{"type":"Feature","id":"40231:50301390","properties":{"id":"40231:50301390","meshCode":"50301390","cityCode":"40231","city":"那珂川市","lat":33.4960581,"lon":130.3829505,"areaKm2":0.7718692,"populated2020":false,"population2020":null,"populationNote":"境界またぎ・収録外等のため人口未集計"},"geometry":{"type":"Polygon","coordinates":[[[130.379648327,33.492116387],[130.37872333300004,33.493006667],[130.378619728,33.493199162],[130.378700272,33.493574721],[130.379165551,33.494080278999995],[130.379326394,33.494571108],[130.379332218,33.495529162000004],[130.379113891,33.496193333],[130.378522218,33.496939162],[130.378378612,33.497492775],[130.378114449,33.497868333],[130.37760888500003,33.49840722500001],[130.376396667,33.49943222499999],[130.376085357,33.49999999999999],[130.3875,33.50000000000001],[130.3875,33.491666666666674],[130.3797840600516,33.49166666666667],[130.379648327,33.492116387]]]}},{"type":"Feature","id":"40231:50301391","properties":{"id":"40231:50301391","meshCode":"50301391","cityCode":"40231","city":"那珂川市","lat":33.4958333,"lon":130.39375,"areaKm2":1.0734986,"populated2020":true,"population2020":36.0172,"populationNote":"収録500mメッシュ人口の合算（原典収録外は補完しない）"},"geometry":{"type":"Polygon","coordinates":[[[130.4,33.491666666666674],[130.3875,33.491666666666674],[130.3875,33.50000000000001],[130.4,33.5],[130.4,33.491666666666674]]]}},{"type":"Feature","id":"40231:50301392","properties":{"id":"40231:50301392","meshCode":"50301392","cityCode":"40231","city":"那珂川市","lat":33.4958333,"lon":130.40625,"areaKm2":1.073495,"populated2020":true,"population2020":37.1079,"populationNote":"収録500mメッシュ人口の合算（原典収録外は補完しない）"},"geometry":{"type":"Polygon","coordinates":[[[130.4125,33.491666666666674],[130.4,33.491666666666674],[130.4,33.5],[130.4125,33.5],[130.4125,33.491666666666674]]]}},{"type":"Feature","id":"40231:50301393","properties":{"id":"40231:50301393","meshCode":"50301393","cityCode":"40231","city":"那珂川市","lat":33.4958333,"lon":130.41875,"areaKm2":1.0734918,"populated2020":true,"population2020":687.9521,"populationNote":"収録500mメッシュ人口の合算（原典収録外は補完しない）"},"geometry":{"type":"Polygon","coordinates":[[[130.425,33.49166666666667],[130.4125,33.491666666666674],[130.4125,33.5],[130.425,33.5],[130.425,33.49166666666667]]]}},{"type":"Feature","id":"40231:50301394","properties":{"id":"40231:50301394","meshCode":"50301394","cityCode":"40231","city":"那珂川市","lat":33.4958333,"lon":130.43125,"areaKm2":1.0734885,"populated2020":true,"population2020":1647.7987,"populationNote":"収録500mメッシュ人口の合算（原典収録外は補完しない）"},"geometry":{"type":"Polygon","coordinates":[[[130.4375,33.49166666666667],[130.425,33.49166666666667],[130.425,33.5],[130.4375,33.49999999999999],[130.4375,33.49166666666667]]]}},{"type":"Feature","id":"40231:50301395","properties":{"id":"40231:50301395","meshCode":"50301395","cityCode":"40231","city":"那珂川市","lat":33.4957568,"lon":130.4436371,"areaKm2":1.0512803,"populated2020":true,"population2020":471.4023,"populationNote":"収録500mメッシュ人口の合算（原典収録外は補完しない）"},"geometry":{"type":"Polygon","coordinates":[[[130.45,33.491666666666674],[130.4375,33.49166666666667],[130.4375,33.49999999999999],[130.447723333,33.49999999999999],[130.448088054,33.49944777500001],[130.448906667,33.498896667],[130.449578612,33.498694441],[130.45,33.49871530600001],[130.45,33.491666666666674]]]}},{"type":"Feature","id":"40231:50301396","properties":{"id":"40231:50301396","meshCode":"50301396","cityCode":"40231","city":"那珂川市","lat":33.4950211,"lon":130.4506103,"areaKm2":0.0839385,"populated2020":true,"population2020":null,"populationNote":"境界またぎ・収録外等のため人口未集計"},"geometry":{"type":"Polygon","coordinates":[[[130.450894449,33.495424162],[130.45075083,33.49510666700001],[130.451267497,33.494235279],[130.451290558,33.49399472100001],[130.451109442,33.49322694599999],[130.45110083,33.49257000000001],[130.45151166,33.492004441],[130.45153791200548,33.49166666666667],[130.45,33.491666666666674],[130.45,33.49871530600001],[130.450336939,33.498802775],[130.450822503,33.498208613],[130.450882776,33.49772],[130.451439728,33.496916108],[130.451629442,33.49650222500001],[130.451500272,33.495999441],[130.450894449,33.495424162]]]}},{"type":"Feature","id":"40231:50302209","properties":{"id":"40231:50302209","meshCode":"50302209","cityCode":"40231","city":"那珂川市","lat":33.5040725,"lon":130.3736488,"areaKm2":0.1209,"populated2020":false,"population2020":null,"populationNote":"境界またぎ・収録外等のため人口未集計"},"geometry":{"type":"Polygon","coordinates":[[[130.374684721,33.501348054],[130.373478612,33.501964441],[130.373334994,33.502479162000014],[130.372675837,33.503298613],[130.37230166,33.50356527900001],[130.37135,33.504049720999994],[130.371218054,33.504245829],[130.371181388,33.504497225],[130.371232776,33.504774999999995],[130.37295083,33.505642775],[130.373481115,33.50607361300001],[130.375,33.506490225],[130.375,33.500842586],[130.374684721,33.501348054]]]}},{"type":"Feature","id":"40231:50302300","properties":{"id":"40231:50302300","meshCode":"50302300","cityCode":"40231","city":"那珂川市","lat":33.5035594,"lon":130.3811213,"areaKm2":0.8952596,"populated2020":true,"population2020":34.1058,"populationNote":"収録500mメッシュ人口の合算（原典収録外は補完しない）"},"geometry":{"type":"Polygon","coordinates":[[[130.375873891,33.50042889200001],[130.375276394,33.50060194600001],[130.375,33.500842586],[130.375,33.506490225],[130.375551946,33.506763333],[130.37701166,33.50817833300001],[130.37750805400003,33.508161108],[130.37883166,33.50787472100001],[130.379295551,33.507656946000004],[130.37976,33.50756222500001],[130.380171388,33.50732861299999],[130.380723891,33.507220829],[130.380876109,33.507139162],[130.381016939,33.506346946],[130.382062218,33.505529721],[130.382319728,33.505543054],[130.382736394,33.50570722500001],[130.384066939,33.506692225],[130.385375279,33.506778892],[130.385989728,33.507126108],[130.386844163,33.507002775],[130.387334163,33.507169440999995],[130.3875,33.507157863112496],[130.3875,33.50000000000001],[130.376085357,33.49999999999999],[130.375873891,33.50042889200001]]]}},{"type":"Feature","id":"40231:50302301","properties":{"id":"40231:50302301","meshCode":"50302301","cityCode":"40231","city":"那珂川市","lat":33.5038747,"lon":130.3938506,"areaKm2":0.9891223,"populated2020":false,"population2020":null,"populationNote":"境界またぎ・収録外等のため人口未集計"},"geometry":{"type":"Polygon","coordinates":[[[130.4,33.5],[130.3875,33.50000000000001],[130.3875,33.507157863112496],[130.388007497,33.50701],[130.388739728,33.507055829],[130.389128327,33.506968333],[130.389283606,33.507091667000005],[130.389375837,33.507371946],[130.389445551,33.508026667],[130.389738327,33.508243054],[130.390022503,33.508314441],[130.390257224,33.508191108],[130.39056041534192,33.50833333333334],[130.39156846963647,33.50833333333333],[130.392282776,33.50806305399999],[130.39313083,33.507513054],[130.393447782,33.507180000000005],[130.393693891,33.506217775],[130.394168054,33.506187495],[130.394508612,33.506496387000006],[130.395536394,33.506800559],[130.396159442,33.507100558999994],[130.396167497,33.507852225],[130.39628741902848,33.50833333333334],[130.4,33.50833333333334],[130.4,33.5]]]}},{"type":"Feature","id":"40231:50302302","properties":{"id":"40231:50302302","meshCode":"50302302","cityCode":"40231","city":"那珂川市","lat":33.5041667,"lon":130.40625,"areaKm2":1.0733937,"populated2020":true,"population2020":39.0416,"populationNote":"収録500mメッシュ人口の合算（原典収録外は補完しない）"},"geometry":{"type":"Polygon","coordinates":[[[130.4125,33.5],[130.4,33.5],[130.4,33.50833333333334],[130.4125,33.50833333333334],[130.4125,33.5]]]}},{"type":"Feature","id":"40231:50302303","properties":{"id":"40231:50302303","meshCode":"50302303","cityCode":"40231","city":"那珂川市","lat":33.5041667,"lon":130.41875,"areaKm2":1.0733902,"populated2020":true,"population2020":2270.1339,"populationNote":"収録500mメッシュ人口の合算（原典収録外は補完しない）"},"geometry":{"type":"Polygon","coordinates":[[[130.425,33.5],[130.4125,33.5],[130.4125,33.50833333333334],[130.425,33.50833333333333],[130.425,33.5]]]}},{"type":"Feature","id":"40231:50302304","properties":{"id":"40231:50302304","meshCode":"50302304","cityCode":"40231","city":"那珂川市","lat":33.5041667,"lon":130.43125,"areaKm2":1.073387,"populated2020":true,"population2020":3797.2337,"populationNote":"収録500mメッシュ人口の合算（原典収録外は補完しない）"},"geometry":{"type":"Polygon","coordinates":[[[130.4375,33.49999999999999],[130.425,33.5],[130.425,33.50833333333333],[130.4375,33.50833333333333],[130.4375,33.49999999999999]]]}},{"type":"Feature","id":"40231:50302305","properties":{"id":"40231:50302305","meshCode":"50302305","cityCode":"40231","city":"那珂川市","lat":33.5042606,"lon":130.4424219,"areaKm2":0.837986,"populated2020":true,"population2020":2512.7054,"populationNote":"収録500mメッシュ人口の合算（原典収録外は補完しない）"},"geometry":{"type":"Polygon","coordinates":[[[130.446364449,33.503970559],[130.446001946,33.503526667],[130.445587497,33.503327225],[130.445408327,33.50305055900001],[130.445916939,33.502311666999994],[130.446088885,33.502181667],[130.44718917,33.502006108],[130.447395837,33.501861667],[130.447683061,33.501264721000005],[130.447648612,33.50043666700001],[130.447723333,33.49999999999999],[130.4375,33.49999999999999],[130.4375,33.50833333333333],[130.44822586312318,33.50833333333334],[130.447990558,33.507953891999996],[130.448243061,33.506845829],[130.448157224,33.505953054],[130.448027497,33.50575944100001],[130.447483606,33.505381667],[130.447168327,33.504675],[130.446511115,33.504500279000005],[130.446364449,33.503970559]]]}},{"type":"Feature","id":"40231:50302311","properties":{"id":"40231:50302311","meshCode":"50302311","cityCode":"40231","city":"那珂川市","lat":33.510382,"lon":130.3984061,"areaKm2":0.1370371,"populated2020":false,"population2020":null,"populationNote":"境界またぎ・収録外等のため人口未集計"},"geometry":{"type":"MultiPolygon","coordinates":[[[[130.39056041534192,33.50833333333334],[130.391073061,33.508631387],[130.39123,33.508625828999996],[130.39156846963647,33.50833333333333],[130.39056041534192,33.50833333333334]]],[[[130.39628741902848,33.50833333333334],[130.396246667,33.50896889199999],[130.396337224,33.509133891999994],[130.396754994,33.509418613],[130.396913061,33.509658333],[130.39745166,33.510077775],[130.397106939,33.51152833300001],[130.397249442,33.511833892],[130.397788054,33.512234721000006],[130.398077782,33.51273],[130.398101946,33.513014721],[130.398435551,33.513069721],[130.399622503,33.512872225],[130.4,33.512354802],[130.4,33.50833333333334],[130.39628741902848,33.50833333333334]]]]}},{"type":"Feature","id":"40231:50302312","properties":{"id":"40231:50302312","meshCode":"50302312","cityCode":"40231","city":"那珂川市","lat":33.5121155,"lon":130.4069551,"areaKm2":0.9233908,"populated2020":true,"population2020":241.2886,"populationNote":"収録500mメッシュ人口の合算（原典収録外は補完しない）"},"geometry":{"type":"Polygon","coordinates":[[[130.400209728,33.512003892],[130.400408885,33.512062775000004],[130.40071917,33.512450829],[130.401288612,33.51279027900001],[130.401368054,33.512896667],[130.401392218,33.51335305400001],[130.401515279,33.513535278999996],[130.402924449,33.513465],[130.403435551,33.51356194600001],[130.403765837,33.513495279000004],[130.404204449,33.513816108],[130.404275837,33.51394333299999],[130.404027224,33.514450829],[130.403998054,33.514874162],[130.404143606,33.515455279],[130.4042080030345,33.51666666666667],[130.4125,33.51666666666667],[130.4125,33.50833333333334],[130.4,33.50833333333334],[130.4,33.512354802],[130.400209728,33.512003892]]]}},{"type":"Feature","id":"40231:50302313","properties":{"id":"40231:50302313","meshCode":"50302313","cityCode":"40231","city":"那珂川市","lat":33.5125,"lon":130.41875,"areaKm2":1.073289,"populated2020":true,"population2020":6368.2509,"populationNote":"収録500mメッシュ人口の合算（原典収録外は補完しない）"},"geometry":{"type":"Polygon","coordinates":[[[130.425,33.50833333333333],[130.4125,33.50833333333334],[130.4125,33.51666666666667],[130.425,33.516666666666666],[130.425,33.50833333333333]]]}},{"type":"Feature","id":"40231:50302314","properties":{"id":"40231:50302314","meshCode":"50302314","cityCode":"40231","city":"那珂川市","lat":33.512494,"lon":130.4312412,"areaKm2":1.0716973,"populated2020":true,"population2020":8892.352,"populationNote":"収録500mメッシュ人口の合算（原典収録外は補完しない）"},"geometry":{"type":"Polygon","coordinates":[[[130.4375,33.50833333333333],[130.425,33.50833333333333],[130.425,33.516666666666666],[130.43662141442294,33.516666666666666],[130.437464449,33.51635222499999],[130.4375,33.50833333333333]]]}},{"type":"Feature","id":"40231:50302315","properties":{"id":"40231:50302315","meshCode":"50302315","cityCode":"40231","city":"那珂川市","lat":33.5106268,"lon":130.4410108,"areaKm2":0.3699699,"populated2020":true,"population2020":null,"populationNote":"境界またぎ・収録外等のため人口未集計"},"geometry":{"type":"Polygon","coordinates":[[[130.444406667,33.510550559],[130.448265837,33.50860944099999],[130.44822586312318,33.50833333333334],[130.4375,33.50833333333333],[130.4375,33.51630872141869],[130.437623891,33.515941387],[130.43788138800002,33.515905279],[130.437967224,33.515525559],[130.438434994,33.515453333],[130.438714721,33.514306387000005],[130.438928327,33.514165829],[130.438949442,33.513993054000004],[130.439593061,33.513855],[130.439804994,33.513068613],[130.440543333,33.512958613],[130.442299728,33.511616667000006],[130.443208054,33.511244441],[130.444406667,33.510550559]]]}},{"type":"Feature","id":"40231:50302322","properties":{"id":"40231:50302322","meshCode":"50302322","cityCode":"40231","city":"那珂川市","lat":33.5193213,"lon":130.4090562,"areaKm2":0.4164513,"populated2020":true,"population2020":null,"populationNote":"境界またぎ・収録外等のため人口未集計"},"geometry":{"type":"Polygon","coordinates":[[[130.404164449,33.517092225],[130.403832776,33.517926667000005],[130.403873061,33.518425559],[130.404606109,33.518894721],[130.405653891,33.519165829],[130.406027782,33.519663054],[130.406068054,33.52005666699999],[130.406361115,33.520935558999994],[130.407603333,33.521307495],[130.407917497,33.521732775000004],[130.409531115,33.522097495],[130.409467782,33.522365279],[130.410378327,33.522699162],[130.410456109,33.522604162],[130.410467497,33.52227389200001],[130.410755551,33.522262495],[130.411342503,33.522876387],[130.411501115,33.523322495],[130.4125,33.52453302324402],[130.4125,33.51666666666667],[130.4042080030345,33.51666666666667],[130.404164449,33.517092225]]]}},{"type":"Feature","id":"40231:50302323","properties":{"id":"40231:50302323","meshCode":"50302323","cityCode":"40231","city":"那珂川市","lat":33.5206867,"lon":130.4188622,"areaKm2":1.0323918,"populated2020":true,"population2020":8007.423,"populationNote":"収録500mメッシュ人口の合算（原典収録外は補完しない）"},"geometry":{"type":"Polygon","coordinates":[[[130.425,33.516666666666666],[130.4125,33.51666666666667],[130.4125,33.52453302324402],[130.413158885,33.524660559],[130.413225279,33.524544721000005],[130.413637497,33.52467],[130.414677224,33.52474027900001],[130.416576939,33.523486946],[130.416829442,33.52351166700001],[130.417249442,33.524099441000004],[130.417951946,33.52476166700001],[130.418103606,33.52477472099999],[130.418456667,33.524634441],[130.418673502,33.525000000000006],[130.425,33.525],[130.425,33.516666666666666]]]}},{"type":"Feature","id":"40231:50302324","properties":{"id":"40231:50302324","meshCode":"50302324","cityCode":"40231","city":"那珂川市","lat":33.5201071,"lon":130.4299555,"areaKm2":0.7429774,"populated2020":true,"population2020":null,"populationNote":"境界またぎ・収録外等のため人口未集計"},"geometry":{"type":"Polygon","coordinates":[[[130.434606939,33.52093722499999],[130.435422503,33.519871946],[130.435472503,33.519571667],[130.43563083,33.519285829000005],[130.435420558,33.51917194599999],[130.435799442,33.518501667],[130.436082776,33.517577225],[130.43662141442294,33.516666666666666],[130.425,33.516666666666666],[130.425,33.525],[130.427732724,33.525],[130.42718389100003,33.524446387000005],[130.427125551,33.524332495],[130.427178885,33.524045829],[130.427395837,33.523662775000005],[130.428116939,33.52313416199999],[130.428356394,33.522674720999994],[130.43021083,33.523276387],[130.430737782,33.52322472099999],[130.432551388,33.524248892],[130.433725551,33.52295222499999],[130.434045551,33.52290555900001],[130.434285279,33.522313054],[130.434746394,33.521942225],[130.434606939,33.52093722499999]]]}},{"type":"Feature","id":"40231:50302333","properties":{"id":"40231:50302333","meshCode":"50302333","cityCode":"40231","city":"那珂川市","lat":33.5266104,"lon":130.4225449,"areaKm2":0.1777262,"populated2020":true,"population2020":null,"populationNote":"境界またぎ・収録外等のため人口未集計"},"geometry":{"type":"Polygon","coordinates":[[[130.418673502,33.525000000000006],[130.41898917,33.525375279],[130.419428612,33.525581667000004],[130.420108885,33.527338054],[130.420272503,33.527543054000006],[130.420728054,33.527790829],[130.421520558,33.527904721000006],[130.42267917000004,33.528187495],[130.423417497,33.528261387],[130.42337917000003,33.52845444100001],[130.423558885,33.528501946],[130.424238612,33.528473613],[130.42444,33.528738333],[130.424558054,33.529427225000006],[130.425,33.529962999999995],[130.425,33.525],[130.418673502,33.525000000000006]]]}},{"type":"Feature","id":"40231:50302334","properties":{"id":"40231:50302334","meshCode":"50302334","cityCode":"40231","city":"那珂川市","lat":33.5273752,"lon":130.4263085,"areaKm2":0.1354434,"populated2020":true,"population2020":null,"populationNote":"境界またぎ・収録外等のため人口未集計"},"geometry":{"type":"Polygon","coordinates":[[[130.426803891,33.530389721],[130.428005551,33.526037775],[130.42795861200003,33.525416946],[130.427732724,33.525],[130.425,33.525],[130.425,33.529962999999995],[130.425297782,33.530069721],[130.425922776,33.530094441],[130.426261388,33.530262775],[130.426803891,33.530389721]]]}}]}