{"type":"FeatureCollection","metadata":{"cityCode":"40342","city":"篠栗町","resolution":500,"boundaryDate":"2026-01-01","populationLabel":"2020年基準人口（国交省調整値）","method":"標準地域メッシュを行政界で切抜き。中心が区域外のとき区域内代表点を判定点にする。人口不明をゼロにしない。"},"features":[{"type":"Feature","id":"40342:503034122","properties":{"id":"40342:503034122","meshCode":"503034122","cityCode":"40342","city":"篠栗町","lat":33.5956118,"lon":130.5366088,"areaKm2":0.006125,"populated2020":false,"population2020":null,"populationNote":"境界またぎ・原典収録外のため自治体内人口は未集計"},"geometry":{"type":"Polygon","coordinates":[[[130.5375,33.59553529103171],[130.536255279,33.595479441],[130.53556917,33.595671108],[130.53541360950078,33.59583333333334],[130.5375,33.59583333333333],[130.5375,33.59553529103171]]]}},{"type":"Feature","id":"40342:503034131","properties":{"id":"40342:503034131","meshCode":"503034131","cityCode":"40342","city":"篠栗町","lat":33.5956193,"lon":130.5381677,"areaKm2":0.0055248,"populated2020":false,"population2020":null,"populationNote":"境界またぎ・原典収録外のため自治体内人口は未集計"},"geometry":{"type":"Polygon","coordinates":[[[130.53961822163367,33.59583333333334],[130.538016939,33.595393054000006],[130.5375,33.59553529103171],[130.5375,33.59583333333333],[130.53961822163367,33.59583333333334]]]}},{"type":"Feature","id":"40342:503034124","properties":{"id":"40342:503034124","meshCode":"503034124","cityCode":"40342","city":"篠栗町","lat":33.5979167,"lon":130.534375,"areaKm2":0.1641446,"populated2020":false,"population2020":null,"populationNote":"境界またぎ・原典収録外のため自治体内人口は未集計"},"geometry":{"type":"Polygon","coordinates":[[[130.53539416300003,33.595853613],[130.534744449,33.596813613],[130.534437782,33.59750277500001],[130.534038885,33.59803222499999],[130.533518054,33.598415559],[130.533031388,33.598621108],[130.532067782,33.598871667000004],[130.531933061,33.599534999999996],[130.531615058,33.6],[130.5375,33.60000000000001],[130.5375,33.59583333333333],[130.53539416300003,33.595853613]]]}},{"type":"Feature","id":"40342:503034133","properties":{"id":"40342:503034133","meshCode":"503034133","cityCode":"40342","city":"篠栗町","lat":33.5979167,"lon":130.540625,"areaKm2":0.2444357,"populated2020":false,"population2020":null,"populationNote":"境界またぎ・原典収録外のため自治体内人口は未集計"},"geometry":{"type":"Polygon","coordinates":[[[130.543384994,33.597131387],[130.54320499400004,33.596971667],[130.541482503,33.596163612999995],[130.541010558,33.596026946],[130.53961822163367,33.59583333333334],[130.5375,33.59583333333333],[130.5375,33.60000000000001],[130.54375,33.6],[130.54375,33.59726467606699],[130.543384994,33.597131387]]]}},{"type":"Feature","id":"40342:503034134","properties":{"id":"40342:503034134","meshCode":"503034134","cityCode":"40342","city":"篠栗町","lat":33.5979167,"lon":130.546875,"areaKm2":0.1441668,"populated2020":false,"population2020":null,"populationNote":"境界またぎ・原典収録外のため自治体内人口は未集計"},"geometry":{"type":"Polygon","coordinates":[[[130.549965279,33.598531667],[130.549084163,33.598399441],[130.548699728,33.59826249500001],[130.547916667,33.597641667],[130.547571115,33.597513892],[130.546685279,33.597459162],[130.546052503,33.597582495000005],[130.545040272,33.597646387],[130.54469000000003,33.597591667],[130.544226939,33.597377775000005],[130.54375,33.59726467606699],[130.54375,33.6],[130.55,33.60000000000001],[130.549965279,33.598531667]]]}},{"type":"Feature","id":"40342:503034143","properties":{"id":"40342:503034143","meshCode":"503034143","cityCode":"40342","city":"篠栗町","lat":33.5994805,"lon":130.553125,"areaKm2":0.0833797,"populated2020":false,"population2020":null,"populationNote":"境界またぎ・原典収録外のため自治体内人口は未集計"},"geometry":{"type":"Polygon","coordinates":[[[130.55625,33.59896106883238],[130.555313891,33.59895027899999],[130.55469083,33.59884972100001],[130.553615551,33.598503054],[130.551591115,33.598671667],[130.550919728,33.598630559],[130.55057917,33.59878555900001],[130.55,33.59854797300001],[130.55,33.60000000000001],[130.55625,33.6],[130.55625,33.59896106883238]]]}},{"type":"Feature","id":"40342:503034144","properties":{"id":"40342:503034144","meshCode":"503034144","cityCode":"40342","city":"篠栗町","lat":33.5994622,"lon":130.5571484,"areaKm2":0.0210775,"populated2020":false,"population2020":null,"populationNote":"境界またぎ・原典収録外のため自治体内人口は未集計"},"geometry":{"type":"Polygon","coordinates":[[[130.560176394,33.599999999999994],[130.55969083,33.599957495000005],[130.558965551,33.599546667000006],[130.558137497,33.599493054],[130.557543891,33.599287775],[130.557130272,33.59927389199999],[130.55625,33.59896106883238],[130.55625,33.6],[130.560176394,33.599999999999994]]]}},{"type":"Feature","id":"40342:503034211","properties":{"id":"40342:503034211","meshCode":"503034211","cityCode":"40342","city":"篠栗町","lat":33.6032421,"lon":130.5175873,"areaKm2":0.0408887,"populated2020":false,"population2020":null,"populationNote":"境界またぎ・原典収録外のため自治体内人口は未集計"},"geometry":{"type":"Polygon","coordinates":[[[130.51875,33.6022121876368],[130.516563333,33.603137225],[130.51592083,33.603639162],[130.51549240535138,33.60416666666666],[130.51875,33.604166666666664],[130.51875,33.6022121876368]]]}},{"type":"Feature","id":"40342:503034212","properties":{"id":"40342:503034212","meshCode":"503034212","cityCode":"40342","city":"篠栗町","lat":33.6032281,"lon":130.521875,"areaKm2":0.1452279,"populated2020":false,"population2020":null,"populationNote":"境界またぎ・原典収録外のため自治体内人口は未集計"},"geometry":{"type":"Polygon","coordinates":[[[130.524878327,33.600587495],[130.524503606,33.60086110799999],[130.524094721,33.60154582900001],[130.523807497,33.601719161999995],[130.52301472100004,33.60196555900001],[130.521446394,33.602262225],[130.520872218,33.602289441],[130.519777224,33.60208],[130.51875,33.6022121876368],[130.51875,33.604166666666664],[130.525,33.604166666666664],[130.525,33.600581135],[130.524878327,33.600587495]]]}},{"type":"Feature","id":"40342:503034221","properties":{"id":"40342:503034221","meshCode":"503034221","cityCode":"40342","city":"篠栗町","lat":33.6020833,"lon":130.528125,"areaKm2":0.2321227,"populated2020":false,"population2020":null,"populationNote":"境界またぎ・原典収録外のため自治体内人口は未集計"},"geometry":{"type":"Polygon","coordinates":[[[130.531222503,33.600374720999994],[130.53052166,33.600662225],[130.52993778200002,33.60076694599999],[130.529689442,33.600885829],[130.529493891,33.600793333000006],[130.529177497,33.60032305400001],[130.529007224,33.600186108],[130.528764163,33.60012222500001],[130.52729917,33.600209162000006],[130.526997497,33.600752225],[130.526343061,33.600815829],[130.525983061,33.60094361299999],[130.52548166,33.60092527899999],[130.525,33.600581135],[130.525,33.604166666666664],[130.53125,33.60416666666666],[130.531222503,33.600374720999994]]]}},{"type":"Feature","id":"40342:503034222","properties":{"id":"40342:503034222","meshCode":"503034222","cityCode":"40342","city":"篠栗町","lat":33.6020833,"lon":130.534375,"areaKm2":0.2673689,"populated2020":true,"population2020":4.0602,"populationNote":"2020年基準の国交省調整値"},"geometry":{"type":"Polygon","coordinates":[[[130.531615058,33.6],[130.53125,33.60034937838242],[130.53125,33.60416666666666],[130.5375,33.604166666666664],[130.5375,33.60000000000001],[130.531615058,33.6]]]}},{"type":"Feature","id":"40342:503034231","properties":{"id":"40342:503034231","meshCode":"503034231","cityCode":"40342","city":"篠栗町","lat":33.6020833,"lon":130.540625,"areaKm2":0.268042,"populated2020":false,"population2020":null,"populationNote":"境界またぎ・原典収録外のため自治体内人口は未集計"},"geometry":{"type":"Polygon","coordinates":[[[130.5375,33.60000000000001],[130.5375,33.604166666666664],[130.54375,33.604166666666664],[130.54375,33.6],[130.5375,33.60000000000001]]]}},{"type":"Feature","id":"40342:503034232","properties":{"id":"40342:503034232","meshCode":"503034232","cityCode":"40342","city":"篠栗町","lat":33.6020833,"lon":130.546875,"areaKm2":0.2680417,"populated2020":false,"population2020":null,"populationNote":"境界またぎ・原典収録外のため自治体内人口は未集計"},"geometry":{"type":"Polygon","coordinates":[[[130.54375,33.6],[130.54375,33.604166666666664],[130.55,33.604166666666664],[130.55,33.60000000000001],[130.54375,33.6]]]}},{"type":"Feature","id":"40342:503034241","properties":{"id":"40342:503034241","meshCode":"503034241","cityCode":"40342","city":"篠栗町","lat":33.6020833,"lon":130.553125,"areaKm2":0.2680414,"populated2020":false,"population2020":null,"populationNote":"境界またぎ・原典収録外のため自治体内人口は未集計"},"geometry":{"type":"Polygon","coordinates":[[[130.55,33.60000000000001],[130.55,33.604166666666664],[130.55625,33.60416666666666],[130.55625,33.6],[130.55,33.60000000000001]]]}},{"type":"Feature","id":"40342:503034242","properties":{"id":"40342:503034242","meshCode":"503034242","cityCode":"40342","city":"篠栗町","lat":33.6020833,"lon":130.559375,"areaKm2":0.254057,"populated2020":false,"population2020":null,"populationNote":"境界またぎ・原典収録外のため自治体内人口は未集計"},"geometry":{"type":"Polygon","coordinates":[[[130.5625,33.60165959628506],[130.56211166,33.60115110800001],[130.561306109,33.600418613],[130.560834449,33.600135559],[130.560411115,33.60002582900001],[130.55625,33.6],[130.55625,33.60416666666666],[130.5625,33.604166666666664],[130.5625,33.60165959628506]]]}},{"type":"Feature","id":"40342:503034251","properties":{"id":"40342:503034251","meshCode":"503034251","cityCode":"40342","city":"篠栗町","lat":33.6029468,"lon":130.5632049,"areaKm2":0.0349117,"populated2020":false,"population2020":null,"populationNote":"境界またぎ・原典収録外のため自治体内人口は未集計"},"geometry":{"type":"Polygon","coordinates":[[[130.56573183651952,33.604166666666664],[130.564931946,33.603749441],[130.564695837,33.60338722499999],[130.564374449,33.603127225],[130.564077782,33.602981108],[130.563347782,33.602876108000004],[130.563192218,33.602789441],[130.5625,33.60165959628506],[130.5625,33.604166666666664],[130.56573183651952,33.604166666666664]]]}},{"type":"Feature","id":"40342:503034261","properties":{"id":"40342:503034261","meshCode":"503034261","cityCode":"40342","city":"篠栗町","lat":33.6034031,"lon":130.5798046,"areaKm2":0.0457845,"populated2020":true,"population2020":null,"populationNote":"境界またぎ・原典収録外のため自治体内人口は未集計"},"geometry":{"type":"Polygon","coordinates":[[[130.58079100946549,33.60416666666666],[130.58115166,33.603489721],[130.581146667,33.60325249500001],[130.580844994,33.602686387],[130.580067497,33.602672774999995],[130.579293606,33.602855279],[130.578797224,33.603261667],[130.578261946,33.60349],[130.577828612,33.60357],[130.576843891,33.603534720999995],[130.576860272,33.603910559000006],[130.57642460292985,33.604166666666664],[130.58079100946549,33.60416666666666]]]}},{"type":"Feature","id":"40342:503034262","properties":{"id":"40342:503034262","meshCode":"503034262","cityCode":"40342","city":"篠栗町","lat":33.6029074,"lon":130.5864489,"areaKm2":0.0463521,"populated2020":false,"population2020":null,"populationNote":"境界またぎ・原典収録外のため自治体内人口は未集計"},"geometry":{"type":"Polygon","coordinates":[[[130.5875,33.60294956425983],[130.586455551,33.602235559],[130.585786394,33.601634720999996],[130.585543061,33.601570829],[130.585406667,33.601685],[130.585226939,33.602366667],[130.585246394,33.602544720999994],[130.585538612,33.60308805399999],[130.58551917,33.60325249499999],[130.58512,33.603571946],[130.58477820915797,33.60416666666666],[130.5875,33.604166666666664],[130.5875,33.60294956425983]]]}},{"type":"Feature","id":"40342:503034271","properties":{"id":"40342:503034271","meshCode":"503034271","cityCode":"40342","city":"篠栗町","lat":33.6036482,"lon":130.5877968,"areaKm2":0.0060239,"populated2020":false,"population2020":null,"populationNote":"境界またぎ・原典収録外のため自治体内人口は未集計"},"geometry":{"type":"Polygon","coordinates":[[[130.5882113887173,33.604166666666664],[130.588276109,33.603951667000004],[130.588198327,33.603791946],[130.5875,33.60294956425983],[130.5875,33.604166666666664],[130.5882113887173,33.604166666666664]]]}},{"type":"Feature","id":"40342:503034204","properties":{"id":"40342:503034204","meshCode":"503034204","cityCode":"40342","city":"篠栗町","lat":33.607654,"lon":130.5122849,"areaKm2":0.008437,"populated2020":false,"population2020":null,"populationNote":"境界またぎ・原典収録外のため自治体内人口は未集計"},"geometry":{"type":"Polygon","coordinates":[[[130.512205837,33.607266108000005],[130.512050272,33.607763613],[130.511865279,33.60791416200001],[130.51077955828242,33.60833333333333],[130.5125,33.60833333333333],[130.5125,33.606976504133584],[130.512205837,33.607266108000005]]]}},{"type":"Feature","id":"40342:503034213","properties":{"id":"40342:503034213","meshCode":"503034213","cityCode":"40342","city":"篠栗町","lat":33.60625,"lon":130.515625,"areaKm2":0.2140914,"populated2020":true,"population2020":3.0507,"populationNote":"2020年基準の国交省調整値"},"geometry":{"type":"Polygon","coordinates":[[[130.51549240535138,33.60416666666666],[130.514972218,33.605146387],[130.514436939,33.605634441],[130.514193606,33.60609082900001],[130.513203606,33.606508612999995],[130.5125,33.606976504133584],[130.5125,33.60833333333333],[130.51875,33.608333333333334],[130.51875,33.604166666666664],[130.51549240535138,33.60416666666666]]]}},{"type":"Feature","id":"40342:503034214","properties":{"id":"40342:503034214","meshCode":"503034214","cityCode":"40342","city":"篠栗町","lat":33.60625,"lon":130.521875,"areaKm2":0.2680303,"populated2020":true,"population2020":5.1071,"populationNote":"2020年基準の国交省調整値"},"geometry":{"type":"Polygon","coordinates":[[[130.51875,33.604166666666664],[130.51875,33.608333333333334],[130.525,33.608333333333334],[130.525,33.604166666666664],[130.51875,33.604166666666664]]]}},{"type":"Feature","id":"40342:503034223","properties":{"id":"40342:503034223","meshCode":"503034223","cityCode":"40342","city":"篠栗町","lat":33.60625,"lon":130.528125,"areaKm2":0.2680299,"populated2020":true,"population2020":30.4933,"populationNote":"2020年基準の国交省調整値"},"geometry":{"type":"Polygon","coordinates":[[[130.525,33.604166666666664],[130.525,33.608333333333334],[130.53125,33.608333333333334],[130.53125,33.60416666666666],[130.525,33.604166666666664]]]}},{"type":"Feature","id":"40342:503034224","properties":{"id":"40342:503034224","meshCode":"503034224","cityCode":"40342","city":"篠栗町","lat":33.60625,"lon":130.534375,"areaKm2":0.2680296,"populated2020":true,"population2020":11.182,"populationNote":"2020年基準の国交省調整値"},"geometry":{"type":"Polygon","coordinates":[[[130.53125,33.60416666666666],[130.53125,33.608333333333334],[130.5375,33.60833333333333],[130.5375,33.604166666666664],[130.53125,33.60416666666666]]]}},{"type":"Feature","id":"40342:503034233","properties":{"id":"40342:503034233","meshCode":"503034233","cityCode":"40342","city":"篠栗町","lat":33.60625,"lon":130.540625,"areaKm2":0.2680293,"populated2020":false,"population2020":null,"populationNote":"境界またぎ・原典収録外のため自治体内人口は未集計"},"geometry":{"type":"Polygon","coordinates":[[[130.5375,33.604166666666664],[130.5375,33.60833333333333],[130.54375,33.608333333333334],[130.54375,33.604166666666664],[130.5375,33.604166666666664]]]}},{"type":"Feature","id":"40342:503034234","properties":{"id":"40342:503034234","meshCode":"503034234","cityCode":"40342","city":"篠栗町","lat":33.60625,"lon":130.546875,"areaKm2":0.268029,"populated2020":false,"population2020":null,"populationNote":"境界またぎ・原典収録外のため自治体内人口は未集計"},"geometry":{"type":"Polygon","coordinates":[[[130.54375,33.604166666666664],[130.54375,33.608333333333334],[130.55,33.60833333333333],[130.55,33.604166666666664],[130.54375,33.604166666666664]]]}},{"type":"Feature","id":"40342:503034243","properties":{"id":"40342:503034243","meshCode":"503034243","cityCode":"40342","city":"篠栗町","lat":33.60625,"lon":130.553125,"areaKm2":0.2680286,"populated2020":true,"population2020":8.2042,"populationNote":"2020年基準の国交省調整値"},"geometry":{"type":"Polygon","coordinates":[[[130.55,33.604166666666664],[130.55,33.60833333333333],[130.55625,33.60833333333333],[130.55625,33.60416666666666],[130.55,33.604166666666664]]]}},{"type":"Feature","id":"40342:503034244","properties":{"id":"40342:503034244","meshCode":"503034244","cityCode":"40342","city":"篠栗町","lat":33.60625,"lon":130.559375,"areaKm2":0.2680283,"populated2020":false,"population2020":null,"populationNote":"境界またぎ・原典収録外のため自治体内人口は未集計"},"geometry":{"type":"Polygon","coordinates":[[[130.55625,33.60416666666666],[130.55625,33.60833333333333],[130.5625,33.60833333333333],[130.5625,33.604166666666664],[130.55625,33.60416666666666]]]}},{"type":"Feature","id":"40342:503034253","properties":{"id":"40342:503034253","meshCode":"503034253","cityCode":"40342","city":"篠栗町","lat":33.60625,"lon":130.565625,"areaKm2":0.2162743,"populated2020":false,"population2020":null,"populationNote":"境界またぎ・原典収録外のため自治体内人口は未集計"},"geometry":{"type":"Polygon","coordinates":[[[130.56875,33.60687360881277],[130.568088327,33.60694082900001],[130.567669728,33.606795],[130.567265837,33.606347495],[130.567168612,33.60574055899999],[130.566454994,33.604648333],[130.56573183651952,33.604166666666664],[130.5625,33.604166666666664],[130.5625,33.60833333333333],[130.56875,33.608333333333334],[130.56875,33.60687360881277]]]}},{"type":"Feature","id":"40342:503034254","properties":{"id":"40342:503034254","meshCode":"503034254","cityCode":"40342","city":"篠栗町","lat":33.60625,"lon":130.571875,"areaKm2":0.1714331,"populated2020":false,"population2020":null,"populationNote":"境界またぎ・原典収録外のため自治体内人口は未集計"},"geometry":{"type":"Polygon","coordinates":[[[130.574963891,33.60456055900001],[130.573983333,33.604843054],[130.573798327,33.60509861300001],[130.573462503,33.60520833299999],[130.57285917,33.605555],[130.571438054,33.605641946000006],[130.570844449,33.60587889200001],[130.570148327,33.605970279],[130.569543333,33.60674000000001],[130.56875,33.60687360881277],[130.56875,33.608333333333334],[130.575,33.608333333333334],[130.574963891,33.60456055900001]]]}},{"type":"Feature","id":"40342:503034263","properties":{"id":"40342:503034263","meshCode":"503034263","cityCode":"40342","city":"篠栗町","lat":33.60625,"lon":130.578125,"areaKm2":0.2549466,"populated2020":true,"population2020":27.4285,"populationNote":"2020年基準の国交省調整値"},"geometry":{"type":"Polygon","coordinates":[[[130.58125000000004,33.60579016216376],[130.580941388,33.605595558999994],[130.580513891,33.604859162],[130.58050917,33.604626386999996],[130.58079100946549,33.60416666666666],[130.57642460292985,33.604166666666664],[130.576034449,33.60449666700001],[130.575,33.604554359999995],[130.575,33.608333333333334],[130.58125000000004,33.60833333333333],[130.58125000000004,33.60579016216376]]]}},{"type":"Feature","id":"40342:503034264","properties":{"id":"40342:503034264","meshCode":"503034264","cityCode":"40342","city":"篠栗町","lat":33.60625,"lon":130.584375,"areaKm2":0.1892272,"populated2020":false,"population2020":null,"populationNote":"境界またぎ・原典収録外のため自治体内人口は未集計"},"geometry":{"type":"Polygon","coordinates":[[[130.584758054,33.604203054],[130.584463606,33.604563891999994],[130.584283333,33.60527610799999],[130.584074163,33.605582225],[130.582693333,33.60699944099999],[130.582191946,33.60701333299999],[130.581666109,33.607967495],[130.581529728,33.60792166700001],[130.581491115,33.607791108],[130.581501115,33.606211667],[130.581408612,33.605937775000015],[130.58125000000004,33.60579016216376],[130.58125000000004,33.60833333333333],[130.5875,33.608333333333334],[130.5875,33.604166666666664],[130.584758054,33.604203054]]]}},{"type":"Feature","id":"40342:503034273","properties":{"id":"40342:503034273","meshCode":"503034273","cityCode":"40342","city":"篠栗町","lat":33.606284,"lon":130.5885838,"areaKm2":0.1103252,"populated2020":false,"population2020":null,"populationNote":"境界またぎ・原典収録外のため自治体内人口は未集計"},"geometry":{"type":"Polygon","coordinates":[[[130.59277725,33.60833333300001],[130.591704449,33.608133054],[130.591466109,33.607891108000004],[130.591130272,33.60669944100001],[130.59096,33.60654416199999],[130.590723891,33.606468892],[130.590227497,33.606505279],[130.589915837,33.60647333299999],[130.589750272,33.60637305400001],[130.589584994,33.606195],[130.589541115,33.60599389200001],[130.589614163,33.60577500000001],[130.589531388,33.605633613],[130.589141946,33.605478333],[130.588208054,33.604472225],[130.588144721,33.604344441],[130.5882113887173,33.604166666666664],[130.5875,33.604166666666664],[130.5875,33.608333333333334],[130.59277725,33.60833333300001]]]}},{"type":"Feature","id":"40342:503034301","properties":{"id":"40342:503034301","meshCode":"503034301","cityCode":"40342","city":"篠栗町","lat":33.6119399,"lon":130.5056198,"areaKm2":0.0170269,"populated2020":true,"population2020":null,"populationNote":"境界またぎ・原典収録外のため自治体内人口は未集計"},"geometry":{"type":"Polygon","coordinates":[[[130.50625,33.611434117999885],[130.505612503,33.611793892],[130.504658612,33.612058613],[130.503995279,33.612431946],[130.503294449,33.612454721000006],[130.501888327,33.612208054],[130.5013598859015,33.61249999999999],[130.50625,33.6125],[130.50625,33.611434117999885]]]}},{"type":"Feature","id":"40342:503034302","properties":{"id":"40342:503034302","meshCode":"503034302","cityCode":"40342","city":"篠栗町","lat":33.6104167,"lon":130.509375,"areaKm2":0.2135215,"populated2020":false,"population2020":null,"populationNote":"境界またぎ・原典収録外のため自治体内人口は未集計"},"geometry":{"type":"Polygon","coordinates":[[[130.51077955828242,33.60833333333333],[130.509814449,33.608816108],[130.508719442,33.609030559000004],[130.508116109,33.609413892],[130.507697497,33.609879441],[130.50717917,33.61028805400001],[130.506877497,33.610680559],[130.506643891,33.611195829],[130.50625,33.611434117999885],[130.50625,33.6125],[130.5125,33.6125],[130.5125,33.60833333333333],[130.51077955828242,33.60833333333333]]]}},{"type":"Feature","id":"40342:503034311","properties":{"id":"40342:503034311","meshCode":"503034311","cityCode":"40342","city":"篠栗町","lat":33.6104167,"lon":130.515625,"areaKm2":0.2680179,"populated2020":true,"population2020":54.7845,"populationNote":"2020年基準の国交省調整値"},"geometry":{"type":"Polygon","coordinates":[[[130.5125,33.60833333333333],[130.5125,33.6125],[130.51875,33.6125],[130.51875,33.608333333333334],[130.5125,33.60833333333333]]]}},{"type":"Feature","id":"40342:503034312","properties":{"id":"40342:503034312","meshCode":"503034312","cityCode":"40342","city":"篠栗町","lat":33.6104167,"lon":130.521875,"areaKm2":0.2680176,"populated2020":true,"population2020":136.9535,"populationNote":"2020年基準の国交省調整値"},"geometry":{"type":"Polygon","coordinates":[[[130.51875,33.608333333333334],[130.51875,33.6125],[130.525,33.6125],[130.525,33.608333333333334],[130.51875,33.608333333333334]]]}},{"type":"Feature","id":"40342:503034321","properties":{"id":"40342:503034321","meshCode":"503034321","cityCode":"40342","city":"篠栗町","lat":33.6104167,"lon":130.528125,"areaKm2":0.2680172,"populated2020":true,"population2020":49.6001,"populationNote":"2020年基準の国交省調整値"},"geometry":{"type":"Polygon","coordinates":[[[130.525,33.608333333333334],[130.525,33.6125],[130.53125,33.6125],[130.53125,33.608333333333334],[130.525,33.608333333333334]]]}},{"type":"Feature","id":"40342:503034322","properties":{"id":"40342:503034322","meshCode":"503034322","cityCode":"40342","city":"篠栗町","lat":33.6104167,"lon":130.534375,"areaKm2":0.2680169,"populated2020":false,"population2020":null,"populationNote":"境界またぎ・原典収録外のため自治体内人口は未集計"},"geometry":{"type":"Polygon","coordinates":[[[130.53125,33.608333333333334],[130.53125,33.6125],[130.5375,33.6125],[130.5375,33.60833333333333],[130.53125,33.608333333333334]]]}},{"type":"Feature","id":"40342:503034331","properties":{"id":"40342:503034331","meshCode":"503034331","cityCode":"40342","city":"篠栗町","lat":33.6104167,"lon":130.540625,"areaKm2":0.2680166,"populated2020":false,"population2020":null,"populationNote":"境界またぎ・原典収録外のため自治体内人口は未集計"},"geometry":{"type":"Polygon","coordinates":[[[130.5375,33.60833333333333],[130.5375,33.6125],[130.54375,33.6125],[130.54375,33.608333333333334],[130.5375,33.60833333333333]]]}},{"type":"Feature","id":"40342:503034332","properties":{"id":"40342:503034332","meshCode":"503034332","cityCode":"40342","city":"篠栗町","lat":33.6104167,"lon":130.546875,"areaKm2":0.2680162,"populated2020":true,"population2020":13.2017,"populationNote":"2020年基準の国交省調整値"},"geometry":{"type":"Polygon","coordinates":[[[130.54375,33.608333333333334],[130.54375,33.6125],[130.55,33.6125],[130.55,33.60833333333333],[130.54375,33.608333333333334]]]}},{"type":"Feature","id":"40342:503034341","properties":{"id":"40342:503034341","meshCode":"503034341","cityCode":"40342","city":"篠栗町","lat":33.6104167,"lon":130.553125,"areaKm2":0.2680159,"populated2020":true,"population2020":6.1164,"populationNote":"2020年基準の国交省調整値"},"geometry":{"type":"Polygon","coordinates":[[[130.55,33.60833333333333],[130.55,33.6125],[130.55625,33.6125],[130.55625,33.60833333333333],[130.55,33.60833333333333]]]}},{"type":"Feature","id":"40342:503034342","properties":{"id":"40342:503034342","meshCode":"503034342","cityCode":"40342","city":"篠栗町","lat":33.6104167,"lon":130.559375,"areaKm2":0.2680156,"populated2020":true,"population2020":6.1074,"populationNote":"2020年基準の国交省調整値"},"geometry":{"type":"Polygon","coordinates":[[[130.55625,33.60833333333333],[130.55625,33.6125],[130.5625,33.6125],[130.5625,33.60833333333333],[130.55625,33.60833333333333]]]}},{"type":"Feature","id":"40342:503034351","properties":{"id":"40342:503034351","meshCode":"503034351","cityCode":"40342","city":"篠栗町","lat":33.6104167,"lon":130.565625,"areaKm2":0.2680153,"populated2020":false,"population2020":null,"populationNote":"境界またぎ・原典収録外のため自治体内人口は未集計"},"geometry":{"type":"Polygon","coordinates":[[[130.5625,33.60833333333333],[130.5625,33.6125],[130.56875,33.6125],[130.56875,33.608333333333334],[130.5625,33.60833333333333]]]}},{"type":"Feature","id":"40342:503034352","properties":{"id":"40342:503034352","meshCode":"503034352","cityCode":"40342","city":"篠栗町","lat":33.6104167,"lon":130.571875,"areaKm2":0.268015,"populated2020":false,"population2020":null,"populationNote":"境界またぎ・原典収録外のため自治体内人口は未集計"},"geometry":{"type":"Polygon","coordinates":[[[130.56875,33.608333333333334],[130.56875,33.6125],[130.575,33.6125],[130.575,33.608333333333334],[130.56875,33.608333333333334]]]}},{"type":"Feature","id":"40342:503034361","properties":{"id":"40342:503034361","meshCode":"503034361","cityCode":"40342","city":"篠栗町","lat":33.6104167,"lon":130.578125,"areaKm2":0.2680147,"populated2020":true,"population2020":5.0539,"populationNote":"2020年基準の国交省調整値"},"geometry":{"type":"Polygon","coordinates":[[[130.575,33.608333333333334],[130.575,33.6125],[130.58125000000004,33.6125],[130.58125000000004,33.60833333333333],[130.575,33.608333333333334]]]}},{"type":"Feature","id":"40342:503034362","properties":{"id":"40342:503034362","meshCode":"503034362","cityCode":"40342","city":"篠栗町","lat":33.6104167,"lon":130.584375,"areaKm2":0.2680144,"populated2020":true,"population2020":20.1726,"populationNote":"2020年基準の国交省調整値"},"geometry":{"type":"Polygon","coordinates":[[[130.58125000000004,33.60833333333333],[130.58125000000004,33.6125],[130.5875,33.6125],[130.5875,33.608333333333334],[130.58125000000004,33.60833333333333]]]}},{"type":"Feature","id":"40342:503034371","properties":{"id":"40342:503034371","meshCode":"503034371","cityCode":"40342","city":"篠栗町","lat":33.6104167,"lon":130.590625,"areaKm2":0.265343,"populated2020":false,"population2020":null,"populationNote":"境界またぎ・原典収録外のため自治体内人口は未集計"},"geometry":{"type":"Polygon","coordinates":[[[130.59375,33.60914788103807],[130.59331083,33.608557495],[130.59277725145688,33.60833333333333],[130.5875,33.608333333333334],[130.5875,33.6125],[130.59375,33.6125],[130.59375,33.60914788103807]]]}},{"type":"Feature","id":"40342:503034372","properties":{"id":"40342:503034372","meshCode":"503034372","cityCode":"40342","city":"篠栗町","lat":33.6107836,"lon":130.594448,"areaKm2":0.0467766,"populated2020":false,"population2020":null,"populationNote":"境界またぎ・原典収録外のため自治体内人口は未集計"},"geometry":{"type":"Polygon","coordinates":[[[130.596584112,33.61246822500001],[130.595377224,33.611187775],[130.594758885,33.61021082900001],[130.594306667,33.60992305400001],[130.59394639400003,33.609905000000005],[130.593853891,33.609831946],[130.593844163,33.609334162],[130.59375,33.60914788103807],[130.59375,33.6125],[130.596584112,33.61246822500001]]]}},{"type":"Feature","id":"40342:503033394","properties":{"id":"40342:503033394","meshCode":"503033394","cityCode":"40342","city":"篠栗町","lat":33.6156681,"lon":130.4998153,"areaKm2":0.0069719,"populated2020":true,"population2020":null,"populationNote":"境界またぎ・原典収録外のため自治体内人口は未集計"},"geometry":{"type":"Polygon","coordinates":[[[130.5,33.614587919],[130.499525279,33.614926946],[130.499707224,33.615232495],[130.499590558,33.615881387],[130.49971282705576,33.61666666666667],[130.5,33.61666666666667],[130.5,33.614587919]]]}},{"type":"Feature","id":"40342:503034303","properties":{"id":"40342:503034303","meshCode":"503034303","cityCode":"40342","city":"篠栗町","lat":33.6145833,"lon":130.503125,"areaKm2":0.2572243,"populated2020":true,"population2020":621.2722,"populationNote":"2020年基準の国交省調整値"},"geometry":{"type":"Polygon","coordinates":[[[130.500973333,33.612760279],[130.500448054,33.613276946],[130.500297224,33.614162225],[130.5,33.614587919],[130.5,33.61666666666667],[130.50625,33.61666666666667],[130.50625,33.6125],[130.5013598859015,33.61249999999999],[130.500973333,33.612760279]]]}},{"type":"Feature","id":"40342:503034304","properties":{"id":"40342:503034304","meshCode":"503034304","cityCode":"40342","city":"篠栗町","lat":33.6145833,"lon":130.509375,"areaKm2":0.2680055,"populated2020":true,"population2020":56.7593,"populationNote":"2020年基準の国交省調整値"},"geometry":{"type":"Polygon","coordinates":[[[130.50625,33.6125],[130.50625,33.61666666666667],[130.5125,33.61666666666667],[130.5125,33.6125],[130.50625,33.6125]]]}},{"type":"Feature","id":"40342:503034313","properties":{"id":"40342:503034313","meshCode":"503034313","cityCode":"40342","city":"篠栗町","lat":33.6145833,"lon":130.515625,"areaKm2":0.2680052,"populated2020":true,"population2020":304.7025,"populationNote":"2020年基準の国交省調整値"},"geometry":{"type":"Polygon","coordinates":[[[130.5125,33.6125],[130.5125,33.61666666666667],[130.51875,33.61666666666667],[130.51875,33.6125],[130.5125,33.6125]]]}},{"type":"Feature","id":"40342:503034314","properties":{"id":"40342:503034314","meshCode":"503034314","cityCode":"40342","city":"篠栗町","lat":33.6145833,"lon":130.521875,"areaKm2":0.2680049,"populated2020":true,"population2020":689.1032,"populationNote":"2020年基準の国交省調整値"},"geometry":{"type":"Polygon","coordinates":[[[130.51875,33.6125],[130.51875,33.61666666666667],[130.525,33.61666666666667],[130.525,33.6125],[130.51875,33.6125]]]}},{"type":"Feature","id":"40342:503034323","properties":{"id":"40342:503034323","meshCode":"503034323","cityCode":"40342","city":"篠栗町","lat":33.6145833,"lon":130.528125,"areaKm2":0.2680045,"populated2020":true,"population2020":96.5091,"populationNote":"2020年基準の国交省調整値"},"geometry":{"type":"Polygon","coordinates":[[[130.525,33.6125],[130.525,33.61666666666667],[130.53125,33.61666666666667],[130.53125,33.6125],[130.525,33.6125]]]}},{"type":"Feature","id":"40342:503034324","properties":{"id":"40342:503034324","meshCode":"503034324","cityCode":"40342","city":"篠栗町","lat":33.6145833,"lon":130.534375,"areaKm2":0.2680042,"populated2020":true,"population2020":30.5893,"populationNote":"2020年基準の国交省調整値"},"geometry":{"type":"Polygon","coordinates":[[[130.53125,33.6125],[130.53125,33.61666666666667],[130.5375,33.61666666666667],[130.5375,33.6125],[130.53125,33.6125]]]}},{"type":"Feature","id":"40342:503034333","properties":{"id":"40342:503034333","meshCode":"503034333","cityCode":"40342","city":"篠栗町","lat":33.6145833,"lon":130.540625,"areaKm2":0.2680039,"populated2020":false,"population2020":null,"populationNote":"境界またぎ・原典収録外のため自治体内人口は未集計"},"geometry":{"type":"Polygon","coordinates":[[[130.5375,33.6125],[130.5375,33.61666666666667],[130.54375,33.61666666666667],[130.54375,33.6125],[130.5375,33.6125]]]}},{"type":"Feature","id":"40342:503034334","properties":{"id":"40342:503034334","meshCode":"503034334","cityCode":"40342","city":"篠栗町","lat":33.6145833,"lon":130.546875,"areaKm2":0.2680035,"populated2020":true,"population2020":54.6904,"populationNote":"2020年基準の国交省調整値"},"geometry":{"type":"Polygon","coordinates":[[[130.54375,33.6125],[130.54375,33.61666666666667],[130.55,33.61666666666667],[130.55,33.6125],[130.54375,33.6125]]]}},{"type":"Feature","id":"40342:503034343","properties":{"id":"40342:503034343","meshCode":"503034343","cityCode":"40342","city":"篠栗町","lat":33.6145833,"lon":130.553125,"areaKm2":0.2680032,"populated2020":true,"population2020":3.0194,"populationNote":"2020年基準の国交省調整値"},"geometry":{"type":"Polygon","coordinates":[[[130.55,33.6125],[130.55,33.61666666666667],[130.55625,33.61666666666667],[130.55625,33.6125],[130.55,33.6125]]]}},{"type":"Feature","id":"40342:503034344","properties":{"id":"40342:503034344","meshCode":"503034344","cityCode":"40342","city":"篠栗町","lat":33.6145833,"lon":130.559375,"areaKm2":0.2680029,"populated2020":true,"population2020":10.1578,"populationNote":"2020年基準の国交省調整値"},"geometry":{"type":"Polygon","coordinates":[[[130.55625,33.6125],[130.55625,33.61666666666667],[130.5625,33.61666666666667],[130.5625,33.6125],[130.55625,33.6125]]]}},{"type":"Feature","id":"40342:503034353","properties":{"id":"40342:503034353","meshCode":"503034353","cityCode":"40342","city":"篠栗町","lat":33.6145833,"lon":130.565625,"areaKm2":0.2680026,"populated2020":false,"population2020":null,"populationNote":"境界またぎ・原典収録外のため自治体内人口は未集計"},"geometry":{"type":"Polygon","coordinates":[[[130.5625,33.6125],[130.5625,33.61666666666667],[130.56875,33.61666666666667],[130.56875,33.6125],[130.5625,33.6125]]]}},{"type":"Feature","id":"40342:503034354","properties":{"id":"40342:503034354","meshCode":"503034354","cityCode":"40342","city":"篠栗町","lat":33.6145833,"lon":130.571875,"areaKm2":0.2680023,"populated2020":true,"population2020":2.0462,"populationNote":"2020年基準の国交省調整値"},"geometry":{"type":"Polygon","coordinates":[[[130.56875,33.6125],[130.56875,33.61666666666667],[130.575,33.61666666666667],[130.575,33.6125],[130.56875,33.6125]]]}},{"type":"Feature","id":"40342:503034363","properties":{"id":"40342:503034363","meshCode":"503034363","cityCode":"40342","city":"篠栗町","lat":33.6145833,"lon":130.578125,"areaKm2":0.268002,"populated2020":false,"population2020":null,"populationNote":"境界またぎ・原典収録外のため自治体内人口は未集計"},"geometry":{"type":"Polygon","coordinates":[[[130.575,33.6125],[130.575,33.61666666666667],[130.58125000000004,33.61666666666667],[130.58125000000004,33.6125],[130.575,33.6125]]]}},{"type":"Feature","id":"40342:503034364","properties":{"id":"40342:503034364","meshCode":"503034364","cityCode":"40342","city":"篠栗町","lat":33.6145833,"lon":130.584375,"areaKm2":0.2680017,"populated2020":true,"population2020":17.2453,"populationNote":"2020年基準の国交省調整値"},"geometry":{"type":"Polygon","coordinates":[[[130.58125000000004,33.6125],[130.58125000000004,33.61666666666667],[130.5875,33.61666666666667],[130.5875,33.6125],[130.58125000000004,33.6125]]]}},{"type":"Feature","id":"40342:503034373","properties":{"id":"40342:503034373","meshCode":"503034373","cityCode":"40342","city":"篠栗町","lat":33.6145833,"lon":130.590625,"areaKm2":0.2680014,"populated2020":true,"population2020":1.032,"populationNote":"2020年基準の国交省調整値"},"geometry":{"type":"Polygon","coordinates":[[[130.5875,33.6125],[130.5875,33.61666666666667],[130.59375,33.61666666666667],[130.59375,33.6125],[130.5875,33.6125]]]}},{"type":"Feature","id":"40342:503034374","properties":{"id":"40342:503034374","meshCode":"503034374","cityCode":"40342","city":"篠栗町","lat":33.6145833,"lon":130.596875,"areaKm2":0.1517553,"populated2020":false,"population2020":null,"populationNote":"境界またぎ・原典収録外のため自治体内人口は未集計"},"geometry":{"type":"Polygon","coordinates":[[[130.59410744529902,33.61666666666667],[130.594680272,33.61630861300001],[130.595071946,33.616211667],[130.596324994,33.61616527900001],[130.59674360600002,33.61590777499999],[130.597101946,33.615576387],[130.597502776,33.614938892],[130.597916667,33.613939721],[130.598305837,33.613638613],[130.598769442,33.61299249500001],[130.597968885,33.612704721],[130.596805837,33.612672775],[130.59661855498152,33.6125],[130.59375,33.6125],[130.59375,33.61666666666667],[130.59410744529902,33.61666666666667]]]}},{"type":"Feature","id":"40342:503033492","properties":{"id":"40342:503033492","meshCode":"503033492","cityCode":"40342","city":"篠栗町","lat":33.6185074,"lon":130.49979,"areaKm2":0.0216862,"populated2020":true,"population2020":null,"populationNote":"境界またぎ・原典収録外のため自治体内人口は未集計"},"geometry":{"type":"Polygon","coordinates":[[[130.499712827,33.61666666699999],[130.499482218,33.61976027899999],[130.49894252369623,33.62083333333334],[130.5,33.62083333333332],[130.5,33.61666666666667],[130.499712827,33.61666666699999]]]}},{"type":"Feature","id":"40342:503034401","properties":{"id":"40342:503034401","meshCode":"503034401","cityCode":"40342","city":"篠栗町","lat":33.61875,"lon":130.503125,"areaKm2":0.2679932,"populated2020":true,"population2020":1022.686,"populationNote":"2020年基準の国交省調整値"},"geometry":{"type":"Polygon","coordinates":[[[130.5,33.61666666666667],[130.5,33.62083333333332],[130.50625,33.62083333333333],[130.50625,33.61666666666667],[130.5,33.61666666666667]]]}},{"type":"Feature","id":"40342:503034402","properties":{"id":"40342:503034402","meshCode":"503034402","cityCode":"40342","city":"篠栗町","lat":33.61875,"lon":130.509375,"areaKm2":0.2679928,"populated2020":true,"population2020":684.2362,"populationNote":"2020年基準の国交省調整値"},"geometry":{"type":"Polygon","coordinates":[[[130.50625,33.61666666666667],[130.50625,33.62083333333333],[130.5125,33.62083333333332],[130.5125,33.61666666666667],[130.50625,33.61666666666667]]]}},{"type":"Feature","id":"40342:503034411","properties":{"id":"40342:503034411","meshCode":"503034411","cityCode":"40342","city":"篠栗町","lat":33.61875,"lon":130.515625,"areaKm2":0.2679925,"populated2020":true,"population2020":1588.8458,"populationNote":"2020年基準の国交省調整値"},"geometry":{"type":"Polygon","coordinates":[[[130.5125,33.61666666666667],[130.5125,33.62083333333332],[130.51875,33.62083333333333],[130.51875,33.61666666666667],[130.5125,33.61666666666667]]]}},{"type":"Feature","id":"40342:503034412","properties":{"id":"40342:503034412","meshCode":"503034412","cityCode":"40342","city":"篠栗町","lat":33.61875,"lon":130.521875,"areaKm2":0.2679921,"populated2020":true,"population2020":1741.8588,"populationNote":"2020年基準の国交省調整値"},"geometry":{"type":"Polygon","coordinates":[[[130.51875,33.61666666666667],[130.51875,33.62083333333333],[130.525,33.62083333333332],[130.525,33.61666666666667],[130.51875,33.61666666666667]]]}},{"type":"Feature","id":"40342:503034421","properties":{"id":"40342:503034421","meshCode":"503034421","cityCode":"40342","city":"篠栗町","lat":33.61875,"lon":130.528125,"areaKm2":0.2679918,"populated2020":true,"population2020":1335.8692,"populationNote":"2020年基準の国交省調整値"},"geometry":{"type":"Polygon","coordinates":[[[130.525,33.61666666666667],[130.525,33.62083333333332],[130.53125,33.62083333333333],[130.53125,33.61666666666667],[130.525,33.61666666666667]]]}},{"type":"Feature","id":"40342:503034422","properties":{"id":"40342:503034422","meshCode":"503034422","cityCode":"40342","city":"篠栗町","lat":33.61875,"lon":130.534375,"areaKm2":0.2679915,"populated2020":true,"population2020":202.1555,"populationNote":"2020年基準の国交省調整値"},"geometry":{"type":"Polygon","coordinates":[[[130.53125,33.61666666666667],[130.53125,33.62083333333333],[130.5375,33.62083333333333],[130.5375,33.61666666666667],[130.53125,33.61666666666667]]]}},{"type":"Feature","id":"40342:503034431","properties":{"id":"40342:503034431","meshCode":"503034431","cityCode":"40342","city":"篠栗町","lat":33.61875,"lon":130.540625,"areaKm2":0.2679911,"populated2020":true,"population2020":27.4681,"populationNote":"2020年基準の国交省調整値"},"geometry":{"type":"Polygon","coordinates":[[[130.5375,33.61666666666667],[130.5375,33.62083333333333],[130.54375,33.62083333333332],[130.54375,33.61666666666667],[130.5375,33.61666666666667]]]}},{"type":"Feature","id":"40342:503034432","properties":{"id":"40342:503034432","meshCode":"503034432","cityCode":"40342","city":"篠栗町","lat":33.61875,"lon":130.546875,"areaKm2":0.2679908,"populated2020":false,"population2020":null,"populationNote":"境界またぎ・原典収録外のため自治体内人口は未集計"},"geometry":{"type":"Polygon","coordinates":[[[130.54375,33.61666666666667],[130.54375,33.62083333333332],[130.55,33.62083333333333],[130.55,33.61666666666667],[130.54375,33.61666666666667]]]}},{"type":"Feature","id":"40342:503034441","properties":{"id":"40342:503034441","meshCode":"503034441","cityCode":"40342","city":"篠栗町","lat":33.61875,"lon":130.553125,"areaKm2":0.2679905,"populated2020":true,"population2020":36.5341,"populationNote":"2020年基準の国交省調整値"},"geometry":{"type":"Polygon","coordinates":[[[130.55,33.61666666666667],[130.55,33.62083333333333],[130.55625,33.62083333333333],[130.55625,33.61666666666667],[130.55,33.61666666666667]]]}},{"type":"Feature","id":"40342:503034442","properties":{"id":"40342:503034442","meshCode":"503034442","cityCode":"40342","city":"篠栗町","lat":33.61875,"lon":130.559375,"areaKm2":0.2679902,"populated2020":true,"population2020":34.4293,"populationNote":"2020年基準の国交省調整値"},"geometry":{"type":"Polygon","coordinates":[[[130.55625,33.61666666666667],[130.55625,33.62083333333333],[130.5625,33.62083333333333],[130.5625,33.61666666666667],[130.55625,33.61666666666667]]]}},{"type":"Feature","id":"40342:503034451","properties":{"id":"40342:503034451","meshCode":"503034451","cityCode":"40342","city":"篠栗町","lat":33.61875,"lon":130.565625,"areaKm2":0.2679899,"populated2020":true,"population2020":13.1725,"populationNote":"2020年基準の国交省調整値"},"geometry":{"type":"Polygon","coordinates":[[[130.5625,33.61666666666667],[130.5625,33.62083333333333],[130.56875,33.62083333333332],[130.56875,33.61666666666667],[130.5625,33.61666666666667]]]}},{"type":"Feature","id":"40342:503034452","properties":{"id":"40342:503034452","meshCode":"503034452","cityCode":"40342","city":"篠栗町","lat":33.61875,"lon":130.571875,"areaKm2":0.2679896,"populated2020":true,"population2020":27.3139,"populationNote":"2020年基準の国交省調整値"},"geometry":{"type":"Polygon","coordinates":[[[130.56875,33.61666666666667],[130.56875,33.62083333333332],[130.575,33.62083333333333],[130.575,33.61666666666667],[130.56875,33.61666666666667]]]}},{"type":"Feature","id":"40342:503034461","properties":{"id":"40342:503034461","meshCode":"503034461","cityCode":"40342","city":"篠栗町","lat":33.61875,"lon":130.578125,"areaKm2":0.2679893,"populated2020":true,"population2020":60.9548,"populationNote":"2020年基準の国交省調整値"},"geometry":{"type":"Polygon","coordinates":[[[130.575,33.61666666666667],[130.575,33.62083333333333],[130.58125000000004,33.62083333333333],[130.58125000000004,33.61666666666667],[130.575,33.61666666666667]]]}},{"type":"Feature","id":"40342:503034462","properties":{"id":"40342:503034462","meshCode":"503034462","cityCode":"40342","city":"篠栗町","lat":33.61875,"lon":130.584375,"areaKm2":0.1926531,"populated2020":true,"population2020":2.0592,"populationNote":"2020年基準の国交省調整値"},"geometry":{"type":"Polygon","coordinates":[[[130.58469639536722,33.62083333333332],[130.584155551,33.62038138700001],[130.58362,33.620065000000004],[130.583399442,33.620018613000006],[130.58447917,33.61873333300001],[130.584956394,33.618501108],[130.586000558,33.618581387],[130.587001946,33.61907500000001],[130.5875,33.61898775664306],[130.5875,33.61666666666667],[130.58125000000004,33.61666666666667],[130.58125000000004,33.62083333333333],[130.58469639536722,33.62083333333332]]]}},{"type":"Feature","id":"40342:503034471","properties":{"id":"40342:503034471","meshCode":"503034471","cityCode":"40342","city":"篠栗町","lat":33.61875,"lon":130.590625,"areaKm2":0.1187802,"populated2020":false,"population2020":null,"populationNote":"境界またぎ・原典収録外のため自治体内人口は未集計"},"geometry":{"type":"Polygon","coordinates":[[[130.5875,33.61898775664306],[130.588716667,33.618509162],[130.589013606,33.61846277499999],[130.589720272,33.618631667],[130.590094994,33.618796387],[130.590945551,33.618838613],[130.591170272,33.618948333],[130.591656394,33.618990559],[130.591984994,33.61878389200001],[130.592771946,33.617992495],[130.592875279,33.61762527900001],[130.593469442,33.61741416200001],[130.593681115,33.617203333],[130.59375,33.617111157432205],[130.59375,33.61666666666667],[130.5875,33.61666666666667],[130.5875,33.61898775664306]]]}},{"type":"Feature","id":"40342:503034472","properties":{"id":"40342:503034472","meshCode":"503034472","cityCode":"40342","city":"篠栗町","lat":33.6169736,"lon":130.5938014,"areaKm2":0.0007817,"populated2020":false,"population2020":null,"populationNote":"境界またぎ・原典収録外のため自治体内人口は未集計"},"geometry":{"type":"Polygon","coordinates":[[[130.59375,33.617111157432205],[130.59410744529902,33.61666666666667],[130.59375,33.61666666666667],[130.59375,33.617111157432205]]]}},{"type":"Feature","id":"40342:503033494","properties":{"id":"40342:503033494","meshCode":"503033494","cityCode":"40342","city":"篠栗町","lat":33.6228108,"lon":130.4996734,"areaKm2":0.0483518,"populated2020":true,"population2020":null,"populationNote":"境界またぎ・原典収録外のため自治体内人口は未集計"},"geometry":{"type":"Polygon","coordinates":[[[130.49894252369623,33.62083333333334],[130.498138327,33.621182225],[130.497899728,33.621590829],[130.49762083,33.62177389200001],[130.497598054,33.622652225],[130.49766166,33.622697225],[130.498433891,33.622576945999995],[130.499869728,33.622948892],[130.499473333,33.624149441],[130.49965583700003,33.624211945999996],[130.499559442,33.62448527899999],[130.499785058,33.62500000000001],[130.5,33.62500000000001],[130.5,33.62083333333332],[130.49894252369623,33.62083333333334]]]}},{"type":"Feature","id":"40342:503034403","properties":{"id":"40342:503034403","meshCode":"503034403","cityCode":"40342","city":"篠栗町","lat":33.6229167,"lon":130.503125,"areaKm2":0.2679805,"populated2020":true,"population2020":639.8504,"populationNote":"2020年基準の国交省調整値"},"geometry":{"type":"Polygon","coordinates":[[[130.5,33.62083333333332],[130.5,33.62500000000001],[130.50625,33.62500000000001],[130.50625,33.62083333333333],[130.5,33.62083333333332]]]}},{"type":"Feature","id":"40342:503034404","properties":{"id":"40342:503034404","meshCode":"503034404","cityCode":"40342","city":"篠栗町","lat":33.6229167,"lon":130.509375,"areaKm2":0.2679801,"populated2020":true,"population2020":987.2608,"populationNote":"2020年基準の国交省調整値"},"geometry":{"type":"Polygon","coordinates":[[[130.50625,33.62083333333333],[130.50625,33.62500000000001],[130.5125,33.62500000000001],[130.5125,33.62083333333332],[130.50625,33.62083333333333]]]}},{"type":"Feature","id":"40342:503034413","properties":{"id":"40342:503034413","meshCode":"503034413","cityCode":"40342","city":"篠栗町","lat":33.6229167,"lon":130.515625,"areaKm2":0.2679798,"populated2020":true,"population2020":2371.5898,"populationNote":"2020年基準の国交省調整値"},"geometry":{"type":"Polygon","coordinates":[[[130.5125,33.62083333333332],[130.5125,33.62500000000001],[130.51875,33.62500000000001],[130.51875,33.62083333333333],[130.5125,33.62083333333332]]]}},{"type":"Feature","id":"40342:503034414","properties":{"id":"40342:503034414","meshCode":"503034414","cityCode":"40342","city":"篠栗町","lat":33.6229167,"lon":130.521875,"areaKm2":0.2679794,"populated2020":true,"population2020":2979.7398,"populationNote":"2020年基準の国交省調整値"},"geometry":{"type":"Polygon","coordinates":[[[130.51875,33.62083333333333],[130.51875,33.62500000000001],[130.525,33.62500000000001],[130.525,33.62083333333332],[130.51875,33.62083333333333]]]}},{"type":"Feature","id":"40342:503034423","properties":{"id":"40342:503034423","meshCode":"503034423","cityCode":"40342","city":"篠栗町","lat":33.6229167,"lon":130.528125,"areaKm2":0.2679791,"populated2020":true,"population2020":1773.0727,"populationNote":"2020年基準の国交省調整値"},"geometry":{"type":"Polygon","coordinates":[[[130.525,33.62083333333332],[130.525,33.62500000000001],[130.53125,33.62500000000001],[130.53125,33.62083333333333],[130.525,33.62083333333332]]]}},{"type":"Feature","id":"40342:503034424","properties":{"id":"40342:503034424","meshCode":"503034424","cityCode":"40342","city":"篠栗町","lat":33.6229167,"lon":130.534375,"areaKm2":0.2679788,"populated2020":true,"population2020":1105.5398,"populationNote":"2020年基準の国交省調整値"},"geometry":{"type":"Polygon","coordinates":[[[130.53125,33.62083333333333],[130.53125,33.62500000000001],[130.5375,33.62500000000001],[130.5375,33.62083333333333],[130.53125,33.62083333333333]]]}},{"type":"Feature","id":"40342:503034433","properties":{"id":"40342:503034433","meshCode":"503034433","cityCode":"40342","city":"篠栗町","lat":33.6229167,"lon":130.540625,"areaKm2":0.2679784,"populated2020":true,"population2020":61.0945,"populationNote":"2020年基準の国交省調整値"},"geometry":{"type":"Polygon","coordinates":[[[130.5375,33.62083333333333],[130.5375,33.62500000000001],[130.54375,33.62500000000001],[130.54375,33.62083333333332],[130.5375,33.62083333333333]]]}},{"type":"Feature","id":"40342:503034434","properties":{"id":"40342:503034434","meshCode":"503034434","cityCode":"40342","city":"篠栗町","lat":33.6229167,"lon":130.546875,"areaKm2":0.2679781,"populated2020":true,"population2020":32.5247,"populationNote":"2020年基準の国交省調整値"},"geometry":{"type":"Polygon","coordinates":[[[130.54375,33.62083333333332],[130.54375,33.62500000000001],[130.55,33.62500000000001],[130.55,33.62083333333333],[130.54375,33.62083333333332]]]}},{"type":"Feature","id":"40342:503034443","properties":{"id":"40342:503034443","meshCode":"503034443","cityCode":"40342","city":"篠栗町","lat":33.6229167,"lon":130.553125,"areaKm2":0.2679778,"populated2020":true,"population2020":92.1313,"populationNote":"2020年基準の国交省調整値"},"geometry":{"type":"Polygon","coordinates":[[[130.55,33.62083333333333],[130.55,33.62500000000001],[130.55625,33.625],[130.55625,33.62083333333333],[130.55,33.62083333333333]]]}},{"type":"Feature","id":"40342:503034444","properties":{"id":"40342:503034444","meshCode":"503034444","cityCode":"40342","city":"篠栗町","lat":33.6229167,"lon":130.559375,"areaKm2":0.2679775,"populated2020":true,"population2020":35.4789,"populationNote":"2020年基準の国交省調整値"},"geometry":{"type":"Polygon","coordinates":[[[130.55625,33.62083333333333],[130.55625,33.625],[130.5625,33.625],[130.5625,33.62083333333333],[130.55625,33.62083333333333]]]}},{"type":"Feature","id":"40342:503034453","properties":{"id":"40342:503034453","meshCode":"503034453","cityCode":"40342","city":"篠栗町","lat":33.6229167,"lon":130.565625,"areaKm2":0.2679772,"populated2020":true,"population2020":4.0301,"populationNote":"2020年基準の国交省調整値"},"geometry":{"type":"Polygon","coordinates":[[[130.5625,33.62083333333333],[130.5625,33.625],[130.56875,33.62500000000001],[130.56875,33.62083333333332],[130.5625,33.62083333333333]]]}},{"type":"Feature","id":"40342:503034454","properties":{"id":"40342:503034454","meshCode":"503034454","cityCode":"40342","city":"篠栗町","lat":33.6229167,"lon":130.571875,"areaKm2":0.2679768,"populated2020":true,"population2020":22.3289,"populationNote":"2020年基準の国交省調整値"},"geometry":{"type":"Polygon","coordinates":[[[130.56875,33.62083333333332],[130.56875,33.62500000000001],[130.575,33.625000000000014],[130.575,33.62083333333333],[130.56875,33.62083333333332]]]}},{"type":"Feature","id":"40342:503034463","properties":{"id":"40342:503034463","meshCode":"503034463","cityCode":"40342","city":"篠栗町","lat":33.6229167,"lon":130.578125,"areaKm2":0.2679765,"populated2020":true,"population2020":5.0414,"populationNote":"2020年基準の国交省調整値"},"geometry":{"type":"Polygon","coordinates":[[[130.575,33.62083333333333],[130.575,33.625000000000014],[130.58125000000004,33.62500000000001],[130.58125000000004,33.62083333333333],[130.575,33.62083333333333]]]}},{"type":"Feature","id":"40342:503034464","properties":{"id":"40342:503034464","meshCode":"503034464","cityCode":"40342","city":"篠栗町","lat":33.6229167,"lon":130.584375,"areaKm2":0.1784407,"populated2020":true,"population2020":7.0931,"populationNote":"2020年基準の国交省調整値"},"geometry":{"type":"Polygon","coordinates":[[[130.586565447,33.625],[130.584914994,33.622206387],[130.584766939,33.621688613],[130.58469639536722,33.62083333333332],[130.58125000000004,33.62083333333333],[130.58125000000004,33.62500000000001],[130.586565447,33.625]]]}},{"type":"Feature","id":"40342:503033592","properties":{"id":"40342:503033592","meshCode":"503033592","cityCode":"40342","city":"篠栗町","lat":33.6275971,"lon":130.4981828,"areaKm2":0.0864083,"populated2020":true,"population2020":null,"populationNote":"境界またぎ・原典収録外のため自治体内人口は未集計"},"geometry":{"type":"MultiPolygon","coordinates":[[[[130.499785058,33.62500000000001],[130.499924163,33.625263054],[130.5,33.625650919],[130.5,33.62500000000001],[130.499785058,33.62500000000001]]],[[[130.5,33.625931468000005],[130.49983917,33.626265829],[130.499430999,33.626210801999996],[130.49915111500002,33.627247225],[130.49895083,33.627273333],[130.497985279,33.62689138700001],[130.49766166,33.626896946],[130.496458327,33.627431667],[130.496284721,33.627796946],[130.496157328,33.628492198],[130.4961904258728,33.62916666666666],[130.5,33.62916666666666],[130.5,33.625931468000005]]]]}},{"type":"Feature","id":"40342:503034501","properties":{"id":"40342:503034501","meshCode":"503034501","cityCode":"40342","city":"篠栗町","lat":33.6270833,"lon":130.503125,"areaKm2":0.2679367,"populated2020":true,"population2020":364.9591,"populationNote":"2020年基準の国交省調整値"},"geometry":{"type":"Polygon","coordinates":[[[130.5,33.62500000000001],[130.5,33.62916666666666],[130.50625,33.62916666666667],[130.50625,33.62500000000001],[130.5,33.62500000000001]]]}},{"type":"Feature","id":"40342:503034502","properties":{"id":"40342:503034502","meshCode":"503034502","cityCode":"40342","city":"篠栗町","lat":33.6270833,"lon":130.509375,"areaKm2":0.2679674,"populated2020":true,"population2020":20.3153,"populationNote":"2020年基準の国交省調整値"},"geometry":{"type":"Polygon","coordinates":[[[130.50625,33.62500000000001],[130.50625,33.62916666666667],[130.5125,33.62916666666666],[130.5125,33.62500000000001],[130.50625,33.62500000000001]]]}},{"type":"Feature","id":"40342:503034511","properties":{"id":"40342:503034511","meshCode":"503034511","cityCode":"40342","city":"篠栗町","lat":33.6270833,"lon":130.515625,"areaKm2":0.267967,"populated2020":true,"population2020":1243.2145,"populationNote":"2020年基準の国交省調整値"},"geometry":{"type":"Polygon","coordinates":[[[130.5125,33.62500000000001],[130.5125,33.62916666666666],[130.51875,33.62916666666667],[130.51875,33.62500000000001],[130.5125,33.62500000000001]]]}},{"type":"Feature","id":"40342:503034512","properties":{"id":"40342:503034512","meshCode":"503034512","cityCode":"40342","city":"篠栗町","lat":33.6270833,"lon":130.521875,"areaKm2":0.2679667,"populated2020":true,"population2020":2061.0536,"populationNote":"2020年基準の国交省調整値"},"geometry":{"type":"Polygon","coordinates":[[[130.51875,33.62500000000001],[130.51875,33.62916666666667],[130.525,33.62916666666667],[130.525,33.62500000000001],[130.51875,33.62500000000001]]]}},{"type":"Feature","id":"40342:503034521","properties":{"id":"40342:503034521","meshCode":"503034521","cityCode":"40342","city":"篠栗町","lat":33.6270833,"lon":130.528125,"areaKm2":0.2679664,"populated2020":true,"population2020":894.8253,"populationNote":"2020年基準の国交省調整値"},"geometry":{"type":"Polygon","coordinates":[[[130.525,33.62500000000001],[130.525,33.62916666666667],[130.53125,33.62916666666667],[130.53125,33.62500000000001],[130.525,33.62500000000001]]]}},{"type":"Feature","id":"40342:503034522","properties":{"id":"40342:503034522","meshCode":"503034522","cityCode":"40342","city":"篠栗町","lat":33.6270833,"lon":130.534375,"areaKm2":0.267966,"populated2020":true,"population2020":240.1591,"populationNote":"2020年基準の国交省調整値"},"geometry":{"type":"Polygon","coordinates":[[[130.53125,33.62500000000001],[130.53125,33.62916666666667],[130.5375,33.62916666666666],[130.5375,33.62500000000001],[130.53125,33.62500000000001]]]}},{"type":"Feature","id":"40342:503034531","properties":{"id":"40342:503034531","meshCode":"503034531","cityCode":"40342","city":"篠栗町","lat":33.6270833,"lon":130.540625,"areaKm2":0.2679657,"populated2020":true,"population2020":86.2487,"populationNote":"2020年基準の国交省調整値"},"geometry":{"type":"Polygon","coordinates":[[[130.5375,33.62500000000001],[130.5375,33.62916666666666],[130.54375,33.62916666666666],[130.54375,33.62500000000001],[130.5375,33.62500000000001]]]}},{"type":"Feature","id":"40342:503034532","properties":{"id":"40342:503034532","meshCode":"503034532","cityCode":"40342","city":"篠栗町","lat":33.6270833,"lon":130.546875,"areaKm2":0.2679654,"populated2020":false,"population2020":null,"populationNote":"境界またぎ・原典収録外のため自治体内人口は未集計"},"geometry":{"type":"Polygon","coordinates":[[[130.54375,33.62500000000001],[130.54375,33.62916666666666],[130.55,33.62916666666667],[130.55,33.62500000000001],[130.54375,33.62500000000001]]]}},{"type":"Feature","id":"40342:503034541","properties":{"id":"40342:503034541","meshCode":"503034541","cityCode":"40342","city":"篠栗町","lat":33.6270833,"lon":130.553125,"areaKm2":0.2679651,"populated2020":false,"population2020":null,"populationNote":"境界またぎ・原典収録外のため自治体内人口は未集計"},"geometry":{"type":"Polygon","coordinates":[[[130.55,33.62500000000001],[130.55,33.62916666666667],[130.55625,33.62916666666666],[130.55625,33.625],[130.55,33.62500000000001]]]}},{"type":"Feature","id":"40342:503034542","properties":{"id":"40342:503034542","meshCode":"503034542","cityCode":"40342","city":"篠栗町","lat":33.6270833,"lon":130.559375,"areaKm2":0.2679647,"populated2020":true,"population2020":3.0407,"populationNote":"2020年基準の国交省調整値"},"geometry":{"type":"Polygon","coordinates":[[[130.55625,33.625],[130.55625,33.62916666666666],[130.5625,33.62916666666666],[130.5625,33.625],[130.55625,33.625]]]}},{"type":"Feature","id":"40342:503034551","properties":{"id":"40342:503034551","meshCode":"503034551","cityCode":"40342","city":"篠栗町","lat":33.6270833,"lon":130.565625,"areaKm2":0.2679644,"populated2020":true,"population2020":16.1834,"populationNote":"2020年基準の国交省調整値"},"geometry":{"type":"Polygon","coordinates":[[[130.5625,33.625],[130.5625,33.62916666666666],[130.56875,33.62916666666668],[130.56875,33.62500000000001],[130.5625,33.625]]]}},{"type":"Feature","id":"40342:503034552","properties":{"id":"40342:503034552","meshCode":"503034552","cityCode":"40342","city":"篠栗町","lat":33.6270833,"lon":130.571875,"areaKm2":0.2679641,"populated2020":false,"population2020":null,"populationNote":"境界またぎ・原典収録外のため自治体内人口は未集計"},"geometry":{"type":"Polygon","coordinates":[[[130.56875,33.62500000000001],[130.56875,33.62916666666668],[130.575,33.62916666666666],[130.575,33.625000000000014],[130.56875,33.62500000000001]]]}},{"type":"Feature","id":"40342:503034561","properties":{"id":"40342:503034561","meshCode":"503034561","cityCode":"40342","city":"篠栗町","lat":33.6270833,"lon":130.578125,"areaKm2":0.2679638,"populated2020":false,"population2020":null,"populationNote":"境界またぎ・原典収録外のため自治体内人口は未集計"},"geometry":{"type":"Polygon","coordinates":[[[130.575,33.625000000000014],[130.575,33.62916666666666],[130.58125000000004,33.62916666666666],[130.58125000000004,33.62500000000001],[130.575,33.625000000000014]]]}},{"type":"Feature","id":"40342:503034562","properties":{"id":"40342:503034562","meshCode":"503034562","cityCode":"40342","city":"篠栗町","lat":33.6270833,"lon":130.584375,"areaKm2":0.2413827,"populated2020":true,"population2020":10.1435,"populationNote":"2020年基準の国交省調整値"},"geometry":{"type":"Polygon","coordinates":[[[130.5865040492503,33.62916666666667],[130.586529728,33.628540559],[130.586768327,33.627789162],[130.58670083,33.627464162],[130.586763891,33.627274441],[130.587321946,33.626586387],[130.587357782,33.626231946000004],[130.587231946,33.625797225],[130.586565447,33.625],[130.58125000000004,33.62500000000001],[130.58125000000004,33.62916666666666],[130.5865040492503,33.62916666666667]]]}},{"type":"Feature","id":"40342:503033594","properties":{"id":"40342:503033594","meshCode":"503033594","cityCode":"40342","city":"篠栗町","lat":33.6312243,"lon":130.4984525,"areaKm2":0.1288016,"populated2020":true,"population2020":null,"populationNote":"境界またぎ・原典収録外のため自治体内人口は未集計"},"geometry":{"type":"Polygon","coordinates":[[[130.4961904258728,33.62916666666666],[130.496211946,33.629788613],[130.496936394,33.63129055900001],[130.49766138800004,33.632360279000004],[130.497694163,33.63274361300001],[130.49791374807285,33.63333333333333],[130.5,33.63333333333334],[130.5,33.62916666666666],[130.4961904258728,33.62916666666666]]]}},{"type":"Feature","id":"40342:503034503","properties":{"id":"40342:503034503","meshCode":"503034503","cityCode":"40342","city":"篠栗町","lat":33.63125,"lon":130.503125,"areaKm2":0.267955,"populated2020":true,"population2020":1253.1736,"populationNote":"2020年基準の国交省調整値"},"geometry":{"type":"Polygon","coordinates":[[[130.5,33.62916666666666],[130.5,33.63333333333334],[130.50625,33.63333333333333],[130.50625,33.62916666666667],[130.5,33.62916666666666]]]}},{"type":"Feature","id":"40342:503034504","properties":{"id":"40342:503034504","meshCode":"503034504","cityCode":"40342","city":"篠栗町","lat":33.63125,"lon":130.509375,"areaKm2":0.2679547,"populated2020":true,"population2020":133.3957,"populationNote":"2020年基準の国交省調整値"},"geometry":{"type":"Polygon","coordinates":[[[130.50625,33.62916666666667],[130.50625,33.63333333333333],[130.5125,33.63333333333333],[130.5125,33.62916666666666],[130.50625,33.62916666666667]]]}},{"type":"Feature","id":"40342:503034513","properties":{"id":"40342:503034513","meshCode":"503034513","cityCode":"40342","city":"篠栗町","lat":33.63125,"lon":130.515625,"areaKm2":0.2679543,"populated2020":true,"population2020":817.8142,"populationNote":"2020年基準の国交省調整値"},"geometry":{"type":"Polygon","coordinates":[[[130.5125,33.62916666666666],[130.5125,33.63333333333333],[130.51875,33.63333333333334],[130.51875,33.62916666666667],[130.5125,33.62916666666666]]]}},{"type":"Feature","id":"40342:503034514","properties":{"id":"40342:503034514","meshCode":"503034514","cityCode":"40342","city":"篠栗町","lat":33.63125,"lon":130.521875,"areaKm2":0.267954,"populated2020":true,"population2020":1148.9346,"populationNote":"2020年基準の国交省調整値"},"geometry":{"type":"Polygon","coordinates":[[[130.51875,33.62916666666667],[130.51875,33.63333333333334],[130.525,33.63333333333333],[130.525,33.62916666666667],[130.51875,33.62916666666667]]]}},{"type":"Feature","id":"40342:503034523","properties":{"id":"40342:503034523","meshCode":"503034523","cityCode":"40342","city":"篠栗町","lat":33.63125,"lon":130.528125,"areaKm2":0.2679536,"populated2020":true,"population2020":1630.7733,"populationNote":"2020年基準の国交省調整値"},"geometry":{"type":"Polygon","coordinates":[[[130.525,33.62916666666667],[130.525,33.63333333333333],[130.53125,33.63333333333333],[130.53125,33.62916666666667],[130.525,33.62916666666667]]]}},{"type":"Feature","id":"40342:503034524","properties":{"id":"40342:503034524","meshCode":"503034524","cityCode":"40342","city":"篠栗町","lat":33.63125,"lon":130.534375,"areaKm2":0.2679533,"populated2020":false,"population2020":null,"populationNote":"境界またぎ・原典収録外のため自治体内人口は未集計"},"geometry":{"type":"Polygon","coordinates":[[[130.53125,33.62916666666667],[130.53125,33.63333333333333],[130.5375,33.63333333333333],[130.5375,33.62916666666666],[130.53125,33.62916666666667]]]}},{"type":"Feature","id":"40342:503034533","properties":{"id":"40342:503034533","meshCode":"503034533","cityCode":"40342","city":"篠栗町","lat":33.63125,"lon":130.540625,"areaKm2":0.267953,"populated2020":true,"population2020":67.4003,"populationNote":"2020年基準の国交省調整値"},"geometry":{"type":"Polygon","coordinates":[[[130.5375,33.62916666666666],[130.5375,33.63333333333333],[130.54375,33.63333333333333],[130.54375,33.62916666666666],[130.5375,33.62916666666666]]]}},{"type":"Feature","id":"40342:503034534","properties":{"id":"40342:503034534","meshCode":"503034534","cityCode":"40342","city":"篠栗町","lat":33.63125,"lon":130.546875,"areaKm2":0.2679527,"populated2020":false,"population2020":null,"populationNote":"境界またぎ・原典収録外のため自治体内人口は未集計"},"geometry":{"type":"Polygon","coordinates":[[[130.54375,33.62916666666666],[130.54375,33.63333333333333],[130.55,33.63333333333334],[130.55,33.62916666666667],[130.54375,33.62916666666666]]]}},{"type":"Feature","id":"40342:503034543","properties":{"id":"40342:503034543","meshCode":"503034543","cityCode":"40342","city":"篠栗町","lat":33.63125,"lon":130.553125,"areaKm2":0.2679523,"populated2020":false,"population2020":null,"populationNote":"境界またぎ・原典収録外のため自治体内人口は未集計"},"geometry":{"type":"Polygon","coordinates":[[[130.55,33.62916666666667],[130.55,33.63333333333334],[130.55625,33.63333333333334],[130.55625,33.62916666666666],[130.55,33.62916666666667]]]}},{"type":"Feature","id":"40342:503034544","properties":{"id":"40342:503034544","meshCode":"503034544","cityCode":"40342","city":"篠栗町","lat":33.63125,"lon":130.559375,"areaKm2":0.267952,"populated2020":false,"population2020":null,"populationNote":"境界またぎ・原典収録外のため自治体内人口は未集計"},"geometry":{"type":"Polygon","coordinates":[[[130.55625,33.62916666666666],[130.55625,33.63333333333334],[130.5625,33.63333333333334],[130.5625,33.62916666666666],[130.55625,33.62916666666666]]]}},{"type":"Feature","id":"40342:503034553","properties":{"id":"40342:503034553","meshCode":"503034553","cityCode":"40342","city":"篠栗町","lat":33.63125,"lon":130.565625,"areaKm2":0.2679517,"populated2020":false,"population2020":null,"populationNote":"境界またぎ・原典収録外のため自治体内人口は未集計"},"geometry":{"type":"Polygon","coordinates":[[[130.5625,33.62916666666666],[130.5625,33.63333333333334],[130.56875,33.63333333333333],[130.56875,33.62916666666668],[130.5625,33.62916666666666]]]}},{"type":"Feature","id":"40342:503034554","properties":{"id":"40342:503034554","meshCode":"503034554","cityCode":"40342","city":"篠栗町","lat":33.63125,"lon":130.571875,"areaKm2":0.2679514,"populated2020":false,"population2020":null,"populationNote":"境界またぎ・原典収録外のため自治体内人口は未集計"},"geometry":{"type":"Polygon","coordinates":[[[130.56875,33.62916666666668],[130.56875,33.63333333333333],[130.575,33.63333333333334],[130.575,33.62916666666666],[130.56875,33.62916666666668]]]}},{"type":"Feature","id":"40342:503034563","properties":{"id":"40342:503034563","meshCode":"503034563","cityCode":"40342","city":"篠栗町","lat":33.63125,"lon":130.578125,"areaKm2":0.2679511,"populated2020":false,"population2020":null,"populationNote":"境界またぎ・原典収録外のため自治体内人口は未集計"},"geometry":{"type":"Polygon","coordinates":[[[130.575,33.62916666666666],[130.575,33.63333333333334],[130.58125000000004,33.63333333333334],[130.58125000000004,33.62916666666666],[130.575,33.62916666666666]]]}},{"type":"Feature","id":"40342:503034564","properties":{"id":"40342:503034564","meshCode":"503034564","cityCode":"40342","city":"篠栗町","lat":33.63125,"lon":130.584375,"areaKm2":0.188117,"populated2020":false,"population2020":null,"populationNote":"境界またぎ・原典収録外のため自治体内人口は未集計"},"geometry":{"type":"Polygon","coordinates":[[[130.582846226,33.633333333],[130.583582776,33.633016667],[130.584055551,33.632923612999996],[130.58424,33.632775828999996],[130.58509083,33.63268305399999],[130.585765837,33.63236666699999],[130.585928054,33.631999441],[130.585931388,33.630790829000006],[130.58621055800003,33.630001387],[130.586223891,33.629630279000004],[130.586295837,33.62947],[130.586525551,33.62930527899999],[130.5865040492503,33.62916666666667],[130.58125000000004,33.62916666666666],[130.58125000000004,33.63333333333334],[130.582846226,33.633333333]]]}},{"type":"Feature","id":"40342:503033692","properties":{"id":"40342:503033692","meshCode":"503033692","cityCode":"40342","city":"篠栗町","lat":33.6341751,"lon":130.4991423,"areaKm2":0.0330961,"populated2020":false,"population2020":null,"populationNote":"境界またぎ・原典収録外のため自治体内人口は未集計"},"geometry":{"type":"Polygon","coordinates":[[[130.49791374807285,33.63333333333333],[130.498168054,33.634066108],[130.498401115,33.634284162],[130.497962503,33.634650279],[130.49796166,33.63488861300001],[130.498499442,33.634821946],[130.499523061,33.635228054],[130.5,33.635119694],[130.5,33.63333333333334],[130.49791374807285,33.63333333333333]]]}},{"type":"Feature","id":"40342:503034601","properties":{"id":"40342:503034601","meshCode":"503034601","cityCode":"40342","city":"篠栗町","lat":33.6354167,"lon":130.503125,"areaKm2":0.1756298,"populated2020":true,"population2020":99.385,"populationNote":"2020年基準の国交省調整値"},"geometry":{"type":"Polygon","coordinates":[[[130.5,33.635119694],[130.500258885,33.63506082899999],[130.501421946,33.635509162],[130.503935837,33.636518333],[130.504337224,33.63674249500001],[130.504914449,33.636497495],[130.505383333,33.63648472100001],[130.505998054,33.63679277500001],[130.50625,33.63679130844072],[130.50625,33.63333333333333],[130.5,33.63333333333334],[130.5,33.635119694]]]}},{"type":"Feature","id":"40342:503034602","properties":{"id":"40342:503034602","meshCode":"503034602","cityCode":"40342","city":"篠栗町","lat":33.6354167,"lon":130.509375,"areaKm2":0.2540385,"populated2020":false,"population2020":null,"populationNote":"境界またぎ・原典収録外のため自治体内人口は未集計"},"geometry":{"type":"Polygon","coordinates":[[[130.506264163,33.636788333000005],[130.50667,33.636682775],[130.506863606,33.636792775],[130.50756263310794,33.6375],[130.51072781476861,33.637499999999996],[130.510914163,33.637312495],[130.511180272,33.636804999999995],[130.511793333,33.636999721],[130.512149728,33.637274441],[130.5122725288422,33.63750000000001],[130.5125,33.6375],[130.5125,33.63333333333333],[130.50625,33.63333333333333],[130.506264163,33.636788333000005]]]}},{"type":"Feature","id":"40342:503034611","properties":{"id":"40342:503034611","meshCode":"503034611","cityCode":"40342","city":"篠栗町","lat":33.6354167,"lon":130.515625,"areaKm2":0.2679416,"populated2020":false,"population2020":null,"populationNote":"境界またぎ・原典収録外のため自治体内人口は未集計"},"geometry":{"type":"Polygon","coordinates":[[[130.5125,33.63333333333333],[130.5125,33.6375],[130.51875,33.6375],[130.51875,33.63333333333334],[130.5125,33.63333333333333]]]}},{"type":"Feature","id":"40342:503034612","properties":{"id":"40342:503034612","meshCode":"503034612","cityCode":"40342","city":"篠栗町","lat":33.6354167,"lon":130.521875,"areaKm2":0.2679413,"populated2020":true,"population2020":228.492,"populationNote":"2020年基準の国交省調整値"},"geometry":{"type":"Polygon","coordinates":[[[130.51875,33.63333333333334],[130.51875,33.6375],[130.525,33.637499999999996],[130.525,33.63333333333333],[130.51875,33.63333333333334]]]}},{"type":"Feature","id":"40342:503034621","properties":{"id":"40342:503034621","meshCode":"503034621","cityCode":"40342","city":"篠栗町","lat":33.6354167,"lon":130.528125,"areaKm2":0.2349315,"populated2020":false,"population2020":null,"populationNote":"境界またぎ・原典収録外のため自治体内人口は未集計"},"geometry":{"type":"Polygon","coordinates":[[[130.52776307827585,33.637499999999996],[130.527878054,33.63705055900001],[130.528261388,33.636691108],[130.528543891,33.636282224999995],[130.528994721,33.636066667],[130.529368885,33.636383892],[130.52991,33.63656138699999],[130.530451115,33.636857494999994],[130.53125,33.63668647710654],[130.53125,33.63333333333333],[130.525,33.63333333333333],[130.525,33.637499999999996],[130.52776307827585,33.637499999999996]]]}},{"type":"Feature","id":"40342:503034622","properties":{"id":"40342:503034622","meshCode":"503034622","cityCode":"40342","city":"篠栗町","lat":33.6354167,"lon":130.534375,"areaKm2":0.2482048,"populated2020":false,"population2020":null,"populationNote":"境界またぎ・原典収録外のため自治体内人口は未集計"},"geometry":{"type":"Polygon","coordinates":[[[130.53125,33.63668647710654],[130.531950272,33.636561387],[130.532635837,33.636810829000005],[130.533023606,33.636861667],[130.533881946,33.637194721],[130.53438741027094,33.637499999999996],[130.5375,33.637499999999996],[130.5375,33.63333333333333],[130.53125,33.63333333333333],[130.53125,33.63668647710654]]]}},{"type":"Feature","id":"40342:503034631","properties":{"id":"40342:503034631","meshCode":"503034631","cityCode":"40342","city":"篠栗町","lat":33.6354167,"lon":130.540625,"areaKm2":0.2679403,"populated2020":false,"population2020":null,"populationNote":"境界またぎ・原典収録外のため自治体内人口は未集計"},"geometry":{"type":"Polygon","coordinates":[[[130.5375,33.63333333333333],[130.5375,33.637499999999996],[130.54375,33.6375],[130.54375,33.63333333333333],[130.5375,33.63333333333333]]]}},{"type":"Feature","id":"40342:503034632","properties":{"id":"40342:503034632","meshCode":"503034632","cityCode":"40342","city":"篠栗町","lat":33.6354167,"lon":130.546875,"areaKm2":0.2679399,"populated2020":false,"population2020":null,"populationNote":"境界またぎ・原典収録外のため自治体内人口は未集計"},"geometry":{"type":"Polygon","coordinates":[[[130.54375,33.63333333333333],[130.54375,33.6375],[130.55,33.637499999999996],[130.55,33.63333333333334],[130.54375,33.63333333333333]]]}},{"type":"Feature","id":"40342:503034641","properties":{"id":"40342:503034641","meshCode":"503034641","cityCode":"40342","city":"篠栗町","lat":33.6354167,"lon":130.553125,"areaKm2":0.2679396,"populated2020":true,"population2020":4.0387,"populationNote":"2020年基準の国交省調整値"},"geometry":{"type":"Polygon","coordinates":[[[130.55,33.63333333333334],[130.55,33.637499999999996],[130.55625,33.6375],[130.55625,33.63333333333334],[130.55,33.63333333333334]]]}},{"type":"Feature","id":"40342:503034642","properties":{"id":"40342:503034642","meshCode":"503034642","cityCode":"40342","city":"篠栗町","lat":33.6354167,"lon":130.559375,"areaKm2":0.2679393,"populated2020":false,"population2020":null,"populationNote":"境界またぎ・原典収録外のため自治体内人口は未集計"},"geometry":{"type":"Polygon","coordinates":[[[130.55625,33.63333333333334],[130.55625,33.6375],[130.5625,33.637499999999996],[130.5625,33.63333333333334],[130.55625,33.63333333333334]]]}},{"type":"Feature","id":"40342:503034651","properties":{"id":"40342:503034651","meshCode":"503034651","cityCode":"40342","city":"篠栗町","lat":33.6354167,"lon":130.565625,"areaKm2":0.267939,"populated2020":false,"population2020":null,"populationNote":"境界またぎ・原典収録外のため自治体内人口は未集計"},"geometry":{"type":"Polygon","coordinates":[[[130.5625,33.63333333333334],[130.5625,33.637499999999996],[130.56875,33.6375],[130.56875,33.63333333333333],[130.5625,33.63333333333334]]]}},{"type":"Feature","id":"40342:503034652","properties":{"id":"40342:503034652","meshCode":"503034652","cityCode":"40342","city":"篠栗町","lat":33.6354167,"lon":130.571875,"areaKm2":0.2679387,"populated2020":false,"population2020":null,"populationNote":"境界またぎ・原典収録外のため自治体内人口は未集計"},"geometry":{"type":"Polygon","coordinates":[[[130.56875,33.63333333333333],[130.56875,33.6375],[130.575,33.637499999999996],[130.575,33.63333333333334],[130.56875,33.63333333333333]]]}},{"type":"Feature","id":"40342:503034661","properties":{"id":"40342:503034661","meshCode":"503034661","cityCode":"40342","city":"篠栗町","lat":33.6354167,"lon":130.578125,"areaKm2":0.2117246,"populated2020":false,"population2020":null,"populationNote":"境界またぎ・原典収録外のため自治体内人口は未集計"},"geometry":{"type":"Polygon","coordinates":[[[130.57781688959267,33.6375],[130.578916667,33.63625916200001],[130.579852503,33.635715],[130.58125000000004,33.634506947244994],[130.58125000000004,33.63333333333334],[130.575,33.63333333333334],[130.575,33.637499999999996],[130.57781688959267,33.6375]]]}},{"type":"Feature","id":"40342:503034662","properties":{"id":"40342:503034662","meshCode":"503034662","cityCode":"40342","city":"篠栗町","lat":33.6338925,"lon":130.5818287,"areaKm2":0.0116639,"populated2020":false,"population2020":null,"populationNote":"境界またぎ・原典収録外のため自治体内人口は未集計"},"geometry":{"type":"Polygon","coordinates":[[[130.58151166,33.634331946],[130.582285837,33.634028332999996],[130.582695551,33.63342055900001],[130.58284622542422,33.63333333333333],[130.58125000000004,33.63333333333334],[130.58125000000004,33.634506947244994],[130.58151166,33.634331946]]]}},{"type":"Feature","id":"40342:503034604","properties":{"id":"40342:503034604","meshCode":"503034604","cityCode":"40342","city":"篠栗町","lat":33.6378603,"lon":130.5091702,"areaKm2":0.0175049,"populated2020":true,"population2020":null,"populationNote":"境界またぎ・原典収録外のため自治体内人口は未集計"},"geometry":{"type":"MultiPolygon","coordinates":[[[[130.50756263310794,33.6375],[130.508437224,33.638132775],[130.509167497,33.63833582899999],[130.509922218,33.638128613],[130.51072781476861,33.637499999999996],[130.50756263310794,33.6375]]],[[[130.5125,33.637726216075926],[130.5125,33.6375],[130.5122725288422,33.63750000000001],[130.5125,33.637726216075926]]]]}},{"type":"Feature","id":"40342:503034613","properties":{"id":"40342:503034613","meshCode":"503034613","cityCode":"40342","city":"篠栗町","lat":33.6395833,"lon":130.515625,"areaKm2":0.1040855,"populated2020":false,"population2020":null,"populationNote":"境界またぎ・原典収録外のため自治体内人口は未集計"},"geometry":{"type":"Polygon","coordinates":[[[130.512568885,33.637794721000006],[130.513064721,33.638217495],[130.513371388,33.63836138700001],[130.513536667,33.638910279],[130.513874994,33.639451387],[130.514127497,33.639616387],[130.514495837,33.639713054],[130.515221946,33.639780829],[130.515794449,33.639746946],[130.51598360600002,33.63967082900001],[130.51875,33.63833321087283],[130.51875,33.6375],[130.5125,33.6375],[130.512568885,33.637794721000006]]]}},{"type":"Feature","id":"40342:503034614","properties":{"id":"40342:503034614","meshCode":"503034614","cityCode":"40342","city":"篠栗町","lat":33.6382899,"lon":130.52382,"areaKm2":0.0486183,"populated2020":true,"population2020":null,"populationNote":"境界またぎ・原典収録外のため自治体内人口は未集計"},"geometry":{"type":"Polygon","coordinates":[[[130.51875,33.63833321087283],[130.519794449,33.637612775],[130.520037782,33.63757472100001],[130.520326394,33.637642495],[130.520637497,33.637942775000006],[130.520894449,33.638027225],[130.521941946,33.637862225],[130.523704994,33.63894500000001],[130.524282218,33.638983054],[130.525,33.63877636],[130.525,33.637499999999996],[130.51875,33.6375],[130.51875,33.63833321087283]]]}},{"type":"Feature","id":"40342:503034623","properties":{"id":"40342:503034623","meshCode":"503034623","cityCode":"40342","city":"篠栗町","lat":33.6381524,"lon":130.5271267,"areaKm2":0.0176901,"populated2020":false,"population2020":null,"populationNote":"境界またぎ・原典収録外のため自治体内人口は未集計"},"geometry":{"type":"Polygon","coordinates":[[[130.525102503,33.638741946],[130.525783333,33.63786694600001],[130.526313333,33.63784138700001],[130.526588612,33.637968332999996],[130.52688166,33.638243333000005],[130.527255837,33.638276946],[130.527476667,33.63817138700001],[130.527611946,33.63799361299999],[130.52776307827585,33.637499999999996],[130.525,33.637499999999996],[130.525,33.63877636],[130.525102503,33.638741946]]]}},{"type":"Feature","id":"40342:503034624","properties":{"id":"40342:503034624","meshCode":"503034624","cityCode":"40342","city":"篠栗町","lat":33.6396015,"lon":130.5368615,"areaKm2":0.0709147,"populated2020":false,"population2020":null,"populationNote":"境界またぎ・原典収録外のため自治体内人口は未集計"},"geometry":{"type":"Polygon","coordinates":[[[130.534423061,33.637524721],[130.534792776,33.63815889199999],[130.535388054,33.638387225],[130.536021115,33.638841108],[130.536111115,33.638980829],[130.536228327,33.63965722500001],[130.536282503,33.64084110799999],[130.53620564202765,33.641666666666666],[130.5375,33.64166666666667],[130.5375,33.637499999999996],[130.534423061,33.637524721]]]}},{"type":"Feature","id":"40342:503034633","properties":{"id":"40342:503034633","meshCode":"503034633","cityCode":"40342","city":"篠栗町","lat":33.6395833,"lon":130.540625,"areaKm2":0.2679275,"populated2020":false,"population2020":null,"populationNote":"境界またぎ・原典収録外のため自治体内人口は未集計"},"geometry":{"type":"Polygon","coordinates":[[[130.5375,33.637499999999996],[130.5375,33.64166666666667],[130.54375,33.64166666666667],[130.54375,33.6375],[130.5375,33.637499999999996]]]}},{"type":"Feature","id":"40342:503034634","properties":{"id":"40342:503034634","meshCode":"503034634","cityCode":"40342","city":"篠栗町","lat":33.6395833,"lon":130.546875,"areaKm2":0.2679272,"populated2020":false,"population2020":null,"populationNote":"境界またぎ・原典収録外のため自治体内人口は未集計"},"geometry":{"type":"Polygon","coordinates":[[[130.54375,33.6375],[130.54375,33.64166666666667],[130.55,33.641666666666666],[130.55,33.637499999999996],[130.54375,33.6375]]]}},{"type":"Feature","id":"40342:503034643","properties":{"id":"40342:503034643","meshCode":"503034643","cityCode":"40342","city":"篠栗町","lat":33.6395833,"lon":130.553125,"areaKm2":0.2679269,"populated2020":true,"population2020":1.0031,"populationNote":"2020年基準の国交省調整値"},"geometry":{"type":"Polygon","coordinates":[[[130.55,33.637499999999996],[130.55,33.641666666666666],[130.55625,33.641666666666666],[130.55625,33.6375],[130.55,33.637499999999996]]]}},{"type":"Feature","id":"40342:503034644","properties":{"id":"40342:503034644","meshCode":"503034644","cityCode":"40342","city":"篠栗町","lat":33.6395833,"lon":130.559375,"areaKm2":0.2679266,"populated2020":false,"population2020":null,"populationNote":"境界またぎ・原典収録外のため自治体内人口は未集計"},"geometry":{"type":"Polygon","coordinates":[[[130.55625,33.6375],[130.55625,33.641666666666666],[130.5625,33.64166666666667],[130.5625,33.637499999999996],[130.55625,33.6375]]]}},{"type":"Feature","id":"40342:503034653","properties":{"id":"40342:503034653","meshCode":"503034653","cityCode":"40342","city":"篠栗町","lat":33.6395833,"lon":130.565625,"areaKm2":0.2679263,"populated2020":false,"population2020":null,"populationNote":"境界またぎ・原典収録外のため自治体内人口は未集計"},"geometry":{"type":"Polygon","coordinates":[[[130.5625,33.637499999999996],[130.5625,33.64166666666667],[130.56875,33.641666666666666],[130.56875,33.6375],[130.5625,33.637499999999996]]]}},{"type":"Feature","id":"40342:503034654","properties":{"id":"40342:503034654","meshCode":"503034654","cityCode":"40342","city":"篠栗町","lat":33.6395833,"lon":130.571875,"areaKm2":0.2235874,"populated2020":false,"population2020":null,"populationNote":"境界またぎ・原典収録外のため自治体内人口は未集計"},"geometry":{"type":"Polygon","coordinates":[[[130.57272749700002,33.641646667],[130.57311444900003,33.641389161999996],[130.573497224,33.640536667],[130.573748885,33.639513333],[130.573973891,33.639226386999994],[130.574648885,33.638643892],[130.574883061,33.638124721000004],[130.575,33.638085306],[130.575,33.637499999999996],[130.56875,33.6375],[130.56875,33.641666666666666],[130.57272749700002,33.641646667]]]}},{"type":"Feature","id":"40342:503034663","properties":{"id":"40342:503034663","meshCode":"503034663","cityCode":"40342","city":"篠栗町","lat":33.6377993,"lon":130.5754323,"areaKm2":0.0096415,"populated2020":false,"population2020":null,"populationNote":"境界またぎ・原典収録外のため自治体内人口は未集計"},"geometry":{"type":"Polygon","coordinates":[[[130.575,33.638085306],[130.575511388,33.637961946000004],[130.575889442,33.637784441],[130.576843606,33.637776108],[130.577455551,33.637856387],[130.57781688959267,33.6375],[130.575,33.637499999999996],[130.575,33.638085306]]]}},{"type":"Feature","id":"40342:503034722","properties":{"id":"40342:503034722","meshCode":"503034722","cityCode":"40342","city":"篠栗町","lat":33.6428196,"lon":130.5368947,"areaKm2":0.0233477,"populated2020":false,"population2020":null,"populationNote":"境界またぎ・原典収録外のため自治体内人口は未集計"},"geometry":{"type":"Polygon","coordinates":[[[130.536205642,33.641666667],[130.53626,33.642728613],[130.536422503,33.643096666999995],[130.53711166,33.643729162],[130.5375,33.64389327389979],[130.5375,33.64166666666667],[130.536205642,33.641666667]]]}},{"type":"Feature","id":"40342:503034731","properties":{"id":"40342:503034731","meshCode":"503034731","cityCode":"40342","city":"篠栗町","lat":33.64375,"lon":130.540625,"areaKm2":0.1580319,"populated2020":false,"population2020":null,"populationNote":"境界またぎ・原典収録外のため自治体内人口は未集計"},"geometry":{"type":"Polygon","coordinates":[[[130.5375,33.64389327389979],[130.537846667,33.643767225],[130.538297497,33.643348613],[130.539469728,33.64373749500001],[130.539857497,33.64397444099999],[130.540535837,33.64475444100001],[130.54081083,33.644758892000006],[130.541284163,33.644318891999994],[130.541478054,33.644234441],[130.542231115,33.644361387],[130.54305166,33.644344440999994],[130.54375,33.64470683074248],[130.54375,33.64166666666667],[130.5375,33.64166666666667],[130.5375,33.64389327389979]]]}},{"type":"Feature","id":"40342:503034732","properties":{"id":"40342:503034732","meshCode":"503034732","cityCode":"40342","city":"篠栗町","lat":33.64375,"lon":130.546875,"areaKm2":0.2595995,"populated2020":false,"population2020":null,"populationNote":"境界またぎ・原典収録外のため自治体内人口は未集計"},"geometry":{"type":"Polygon","coordinates":[[[130.54375,33.64470683074248],[130.54478083,33.645484721],[130.5451074690298,33.64583333333334],[130.55,33.645833333333336],[130.55,33.641666666666666],[130.54375,33.64166666666667],[130.54375,33.64470683074248]]]}},{"type":"Feature","id":"40342:503034741","properties":{"id":"40342:503034741","meshCode":"503034741","cityCode":"40342","city":"篠栗町","lat":33.64375,"lon":130.553125,"areaKm2":0.2679142,"populated2020":true,"population2020":1.0133,"populationNote":"2020年基準の国交省調整値"},"geometry":{"type":"Polygon","coordinates":[[[130.55,33.641666666666666],[130.55,33.645833333333336],[130.55625,33.645833333333336],[130.55625,33.641666666666666],[130.55,33.641666666666666]]]}},{"type":"Feature","id":"40342:503034742","properties":{"id":"40342:503034742","meshCode":"503034742","cityCode":"40342","city":"篠栗町","lat":33.64375,"lon":130.559375,"areaKm2":0.2679138,"populated2020":false,"population2020":null,"populationNote":"境界またぎ・原典収録外のため自治体内人口は未集計"},"geometry":{"type":"Polygon","coordinates":[[[130.55625,33.641666666666666],[130.55625,33.645833333333336],[130.5625,33.64583333333333],[130.5625,33.64166666666667],[130.55625,33.641666666666666]]]}},{"type":"Feature","id":"40342:503034751","properties":{"id":"40342:503034751","meshCode":"503034751","cityCode":"40342","city":"篠栗町","lat":33.64375,"lon":130.565625,"areaKm2":0.2596729,"populated2020":false,"population2020":null,"populationNote":"境界またぎ・原典収録外のため自治体内人口は未集計"},"geometry":{"type":"Polygon","coordinates":[[[130.56727350053495,33.645833333333336],[130.568150558,33.645334441],[130.568465551,33.644773054],[130.56875,33.64464353785678],[130.56875,33.641666666666666],[130.5625,33.64166666666667],[130.5625,33.64583333333333],[130.56727350053495,33.645833333333336]]]}},{"type":"Feature","id":"40342:503034752","properties":{"id":"40342:503034752","meshCode":"503034752","cityCode":"40342","city":"篠栗町","lat":33.6432183,"lon":130.5697999,"areaKm2":0.0582253,"populated2020":false,"population2020":null,"populationNote":"境界またぎ・原典収録外のため自治体内人口は未集計"},"geometry":{"type":"Polygon","coordinates":[[[130.569036939,33.644558054],[130.569346394,33.643817774999995],[130.570372503,33.643644721],[130.570647224,33.64328582899999],[130.571052218,33.64315082900001],[130.571384994,33.642863892],[130.571426939,33.64257916199999],[130.571624721,33.642191108000006],[130.571912776,33.641883054],[130.572142503,33.641752225000005],[130.57257611152318,33.641666666666666],[130.56875,33.641666666666666],[130.56875,33.64464353785678],[130.569036939,33.644558054]]]}},{"type":"Feature","id":"40342:503034734","properties":{"id":"40342:503034734","meshCode":"503034734","cityCode":"40342","city":"篠栗町","lat":33.6479392,"lon":130.5489645,"areaKm2":0.1034663,"populated2020":false,"population2020":null,"populationNote":"境界またぎ・原典収録外のため自治体内人口は未集計"},"geometry":{"type":"Polygon","coordinates":[[[130.54526805400002,33.64600472099999],[130.545937782,33.64616027900001],[130.546383891,33.646350559],[130.546906939,33.646346386999994],[130.547076109,33.646580279],[130.547823333,33.647200829],[130.547953891,33.648183892000006],[130.548164163,33.648822225],[130.548046329,33.64999999999999],[130.55,33.64999999999999],[130.55,33.645833333333336],[130.5451074690298,33.64583333333334],[130.54526805400002,33.64600472099999]]]}},{"type":"Feature","id":"40342:503034743","properties":{"id":"40342:503034743","meshCode":"503034743","cityCode":"40342","city":"篠栗町","lat":33.6479167,"lon":130.553125,"areaKm2":0.2679014,"populated2020":true,"population2020":21.2974,"populationNote":"2020年基準の国交省調整値"},"geometry":{"type":"Polygon","coordinates":[[[130.55,33.645833333333336],[130.55,33.64999999999999],[130.55625,33.65],[130.55625,33.645833333333336],[130.55,33.645833333333336]]]}},{"type":"Feature","id":"40342:503034744","properties":{"id":"40342:503034744","meshCode":"503034744","cityCode":"40342","city":"篠栗町","lat":33.6479167,"lon":130.559375,"areaKm2":0.2679011,"populated2020":true,"population2020":2.0254,"populationNote":"2020年基準の国交省調整値"},"geometry":{"type":"Polygon","coordinates":[[[130.55625,33.645833333333336],[130.55625,33.65],[130.5625,33.64999999999999],[130.5625,33.64583333333333],[130.55625,33.645833333333336]]]}},{"type":"Feature","id":"40342:503034753","properties":{"id":"40342:503034753","meshCode":"503034753","cityCode":"40342","city":"篠栗町","lat":33.6479167,"lon":130.565625,"areaKm2":0.1860131,"populated2020":false,"population2020":null,"populationNote":"境界またぎ・原典収録外のため自治体内人口は未集計"},"geometry":{"type":"Polygon","coordinates":[[[130.567628885,33.649736387],[130.567529728,33.64935694600001],[130.567579442,33.648791387],[130.567489442,33.648622495],[130.566818612,33.648386108],[130.565959442,33.647664440999996],[130.566228885,33.646807495],[130.566422503,33.646541666999994],[130.56727350053495,33.645833333333336],[130.5625,33.64583333333333],[130.5625,33.64999999999999],[130.567929857,33.65],[130.567628885,33.649736387]]]}},{"type":"Feature","id":"40342:503034832","properties":{"id":"40342:503034832","meshCode":"503034832","cityCode":"40342","city":"篠栗町","lat":33.6520911,"lon":130.5487437,"areaKm2":0.0978767,"populated2020":false,"population2020":null,"populationNote":"境界またぎ・原典収録外のため自治体内人口は未集計"},"geometry":{"type":"Polygon","coordinates":[[[130.548046329,33.64999999999999],[130.548078612,33.650750828999996],[130.547602218,33.65160999999999],[130.547453606,33.652243054],[130.54721527900003,33.65262722500001],[130.547381946,33.653236666999994],[130.547737497,33.653641946],[130.54854334284767,33.65416666666667],[130.55,33.65416666666667],[130.55,33.64999999999999],[130.548046329,33.64999999999999]]]}},{"type":"Feature","id":"40342:503034841","properties":{"id":"40342:503034841","meshCode":"503034841","cityCode":"40342","city":"篠栗町","lat":33.6520833,"lon":130.553125,"areaKm2":0.2678887,"populated2020":true,"population2020":53.6378,"populationNote":"2020年基準の国交省調整値"},"geometry":{"type":"Polygon","coordinates":[[[130.55,33.64999999999999],[130.55,33.65416666666667],[130.55625,33.654166666666676],[130.55625,33.65],[130.55,33.64999999999999]]]}},{"type":"Feature","id":"40342:503034842","properties":{"id":"40342:503034842","meshCode":"503034842","cityCode":"40342","city":"篠栗町","lat":33.6520833,"lon":130.559375,"areaKm2":0.2678884,"populated2020":true,"population2020":4.0383,"populationNote":"2020年基準の国交省調整値"},"geometry":{"type":"Polygon","coordinates":[[[130.55625,33.65],[130.55625,33.654166666666676],[130.5625,33.65416666666666],[130.5625,33.64999999999999],[130.55625,33.65]]]}},{"type":"Feature","id":"40342:503034851","properties":{"id":"40342:503034851","meshCode":"503034851","cityCode":"40342","city":"篠栗町","lat":33.6520833,"lon":130.565625,"areaKm2":0.26425,"populated2020":false,"population2020":null,"populationNote":"境界またぎ・原典収録外のため自治体内人口は未集計"},"geometry":{"type":"Polygon","coordinates":[[[130.56875,33.650857549366314],[130.567929857,33.65],[130.5625,33.64999999999999],[130.5625,33.65416666666666],[130.56875,33.65416666666667],[130.56875,33.650857549366314]]]}},{"type":"Feature","id":"40342:503034852","properties":{"id":"40342:503034852","meshCode":"503034852","cityCode":"40342","city":"篠栗町","lat":33.6523018,"lon":130.569922,"areaKm2":0.0862306,"populated2020":false,"population2020":null,"populationNote":"境界またぎ・原典収録外のため自治体内人口は未集計"},"geometry":{"type":"Polygon","coordinates":[[[130.5739950357983,33.65416666666667],[130.573662503,33.653870829],[130.572924721,33.653495],[130.571236939,33.653064441],[130.571019728,33.652084441],[130.570776939,33.65187749500001],[130.569080272,33.651147224999995],[130.56875,33.650857549366314],[130.56875,33.65416666666667],[130.5739950357983,33.65416666666667]]]}},{"type":"Feature","id":"40342:503034834","properties":{"id":"40342:503034834","meshCode":"503034834","cityCode":"40342","city":"篠栗町","lat":33.6554275,"lon":130.5495222,"areaKm2":0.0261501,"populated2020":false,"population2020":null,"populationNote":"境界またぎ・原典収録外のため自治体内人口は未集計"},"geometry":{"type":"Polygon","coordinates":[[[130.54854334284767,33.65416666666667],[130.548974721,33.65458749500001],[130.549100558,33.656364441],[130.549505551,33.656689441],[130.55,33.65693310799999],[130.55,33.65416666666667],[130.54854334284767,33.65416666666667]]]}},{"type":"Feature","id":"40342:503034843","properties":{"id":"40342:503034843","meshCode":"503034843","cityCode":"40342","city":"篠栗町","lat":33.65625,"lon":130.553125,"areaKm2":0.2416557,"populated2020":false,"population2020":null,"populationNote":"境界またぎ・原典収録外のため自治体内人口は未集計"},"geometry":{"type":"Polygon","coordinates":[[[130.55,33.65693310799999],[130.550771388,33.657064441],[130.55167166,33.657671946],[130.552324163,33.657840559],[130.5534761097987,33.658333333333324],[130.55625,33.658333333333324],[130.55625,33.654166666666676],[130.55,33.65416666666667],[130.55,33.65693310799999]]]}},{"type":"Feature","id":"40342:503034844","properties":{"id":"40342:503034844","meshCode":"503034844","cityCode":"40342","city":"篠栗町","lat":33.65625,"lon":130.559375,"areaKm2":0.2678757,"populated2020":true,"population2020":4.0302,"populationNote":"2020年基準の国交省調整値"},"geometry":{"type":"Polygon","coordinates":[[[130.55625,33.654166666666676],[130.55625,33.658333333333324],[130.5625,33.65833333333333],[130.5625,33.65416666666666],[130.55625,33.654166666666676]]]}},{"type":"Feature","id":"40342:503034853","properties":{"id":"40342:503034853","meshCode":"503034853","cityCode":"40342","city":"篠栗町","lat":33.65625,"lon":130.565625,"areaKm2":0.2678754,"populated2020":false,"population2020":null,"populationNote":"境界またぎ・原典収録外のため自治体内人口は未集計"},"geometry":{"type":"Polygon","coordinates":[[[130.5625,33.65416666666666],[130.5625,33.65833333333333],[130.56875,33.65833333333333],[130.56875,33.65416666666667],[130.5625,33.65416666666666]]]}},{"type":"Feature","id":"40342:503034854","properties":{"id":"40342:503034854","meshCode":"503034854","cityCode":"40342","city":"篠栗町","lat":33.65625,"lon":130.571875,"areaKm2":0.258581,"populated2020":true,"population2020":3.0353,"populationNote":"2020年基準の国交省調整値"},"geometry":{"type":"Polygon","coordinates":[[[130.57490655,33.658333332999995],[130.575,33.658196108],[130.575,33.655923495],[130.5739950357983,33.65416666666667],[130.56875,33.65416666666667],[130.56875,33.65833333333333],[130.57490655,33.658333332999995]]]}},{"type":"Feature","id":"40342:503034863","properties":{"id":"40342:503034863","meshCode":"503034863","cityCode":"40342","city":"篠栗町","lat":33.6569011,"lon":130.5751128,"areaKm2":0.0043189,"populated2020":false,"population2020":null,"populationNote":"境界またぎ・原典収録外のため自治体内人口は未集計"},"geometry":{"type":"Polygon","coordinates":[[[130.575,33.658196108],[130.575272776,33.657593333],[130.575133333,33.656197775],[130.575,33.655923495],[130.575,33.658196108]]]}},{"type":"Feature","id":"40342:503034941","properties":{"id":"40342:503034941","meshCode":"503034941","cityCode":"40342","city":"篠栗町","lat":33.65924,"lon":130.5556692,"areaKm2":0.0253053,"populated2020":false,"population2020":null,"populationNote":"境界またぎ・原典収録外のため自治体内人口は未集計"},"geometry":{"type":"Polygon","coordinates":[[[130.5534761097987,33.658333333333324],[130.554063333,33.65855305400001],[130.554603333,33.658975278999996],[130.555240272,33.659331667000004],[130.555447497,33.65963138699999],[130.555546394,33.659968892],[130.55625,33.660283083943774],[130.55625,33.658333333333324],[130.5534761097987,33.658333333333324]]]}},{"type":"Feature","id":"40342:503034942","properties":{"id":"40342:503034942","meshCode":"503034942","cityCode":"40342","city":"篠栗町","lat":33.6604167,"lon":130.559375,"areaKm2":0.2429191,"populated2020":false,"population2020":null,"populationNote":"境界またぎ・原典収録外のため自治体内人口は未集計"},"geometry":{"type":"Polygon","coordinates":[[[130.55625,33.660283083943774],[130.556788327,33.66099444100001],[130.557742218,33.66164444099999],[130.55842857939714,33.662499999999994],[130.5625,33.6625],[130.5625,33.65833333333333],[130.55625,33.658333333333324],[130.55625,33.660283083943774]]]}},{"type":"Feature","id":"40342:503034951","properties":{"id":"40342:503034951","meshCode":"503034951","cityCode":"40342","city":"篠栗町","lat":33.6604167,"lon":130.565625,"areaKm2":0.2678626,"populated2020":true,"population2020":22.314,"populationNote":"2020年基準の国交省調整値"},"geometry":{"type":"Polygon","coordinates":[[[130.5625,33.65833333333333],[130.5625,33.6625],[130.56875,33.6625],[130.56875,33.65833333333333],[130.5625,33.65833333333333]]]}},{"type":"Feature","id":"40342:503034952","properties":{"id":"40342:503034952","meshCode":"503034952","cityCode":"40342","city":"篠栗町","lat":33.6604167,"lon":130.571875,"areaKm2":0.1819215,"populated2020":false,"population2020":null,"populationNote":"境界またぎ・原典収録外のため自治体内人口は未集計"},"geometry":{"type":"Polygon","coordinates":[[[130.571023891,33.662271387000004],[130.572646667,33.660919721],[130.573429728,33.659978892000005],[130.574028327,33.659776108],[130.574336667,33.659218054],[130.574255551,33.65847944099999],[130.57455277600002,33.658496108],[130.57490654977292,33.658333333333324],[130.56875,33.65833333333333],[130.56875,33.6625],[130.57085215239817,33.662499999999994],[130.571023891,33.662271387000004]]]}},{"type":"Feature","id":"40342:503034944","properties":{"id":"40342:503034944","meshCode":"503034944","cityCode":"40342","city":"篠栗町","lat":33.6640993,"lon":130.561919,"areaKm2":0.0539885,"populated2020":false,"population2020":null,"populationNote":"境界またぎ・原典収録外のため自治体内人口は未集計"},"geometry":{"type":"Polygon","coordinates":[[[130.55842857939714,33.662499999999994],[130.559414163,33.66296610799999],[130.559706667,33.663295279],[130.560125279,33.663556946],[130.561047782,33.663755279],[130.561718054,33.66466694599999],[130.56204917,33.66574805399999],[130.5625,33.665465852810385],[130.5625,33.6625],[130.55842857939714,33.662499999999994]]]}},{"type":"Feature","id":"40342:503034953","properties":{"id":"40342:503034953","meshCode":"503034953","cityCode":"40342","city":"篠栗町","lat":33.6645833,"lon":130.565625,"areaKm2":0.1617633,"populated2020":false,"population2020":null,"populationNote":"境界またぎ・原典収録外のため自治体内人口は未集計"},"geometry":{"type":"Polygon","coordinates":[[[130.562591115,33.665417225],[130.564494449,33.665543892],[130.565196667,33.665328613],[130.565748054,33.665383333],[130.566234163,33.664927495],[130.56711166,33.66466582900001],[130.568413333,33.663955279],[130.56875,33.66390073962774],[130.56875,33.6625],[130.5625,33.6625],[130.5625,33.665465852810385],[130.562591115,33.665417225]]]}},{"type":"Feature","id":"40342:503034954","properties":{"id":"40342:503034954","meshCode":"503034954","cityCode":"40342","city":"篠栗町","lat":33.6630602,"lon":130.569676,"areaKm2":0.0207468,"populated2020":false,"population2020":null,"populationNote":"境界またぎ・原典収録外のため自治体内人口は未集計"},"geometry":{"type":"Polygon","coordinates":[[[130.568751115,33.663900559],[130.570528612,33.663258891999995],[130.57085215239817,33.662499999999994],[130.56875,33.6625],[130.568751115,33.663900559]]]}}]}