{"type":"FeatureCollection","metadata":{"cityCode":"40342","city":"篠栗町","resolution":1000,"boundaryDate":"2026-01-01","populationLabel":"2020年基準人口（国交省調整値）","method":"標準地域メッシュを行政界で切抜き。中心が区域外のとき区域内代表点を判定点にする。人口不明をゼロにしない。"},"features":[{"type":"Feature","id":"40342:50303412","properties":{"id":"40342:50303412","meshCode":"50303412","cityCode":"40342","city":"篠栗町","lat":33.5982073,"lon":130.5354202,"areaKm2":0.1702696,"populated2020":false,"population2020":null,"populationNote":"境界またぎ・収録外等のため人口未集計"},"geometry":{"type":"Polygon","coordinates":[[[130.5375,33.59553529103171],[130.536255279,33.595479441],[130.53556917,33.595671108],[130.534744449,33.596813613],[130.534437782,33.59750277500001],[130.534038885,33.59803222499999],[130.533518054,33.598415559],[130.533031388,33.598621108],[130.532067782,33.598871667000004],[130.531933061,33.599534999999996],[130.531615058,33.6],[130.5375,33.60000000000001],[130.5375,33.59553529103171]]]}},{"type":"Feature","id":"40342:50303413","properties":{"id":"40342:50303413","meshCode":"50303413","cityCode":"40342","city":"篠栗町","lat":33.5983237,"lon":130.5426685,"areaKm2":0.3941273,"populated2020":false,"population2020":null,"populationNote":"境界またぎ・収録外等のため人口未集計"},"geometry":{"type":"Polygon","coordinates":[[[130.539101946,33.595703333],[130.538016939,33.595393054000006],[130.5375,33.59553529103171],[130.5375,33.60000000000001],[130.55,33.60000000000001],[130.55,33.59854797300001],[130.549084163,33.598399441],[130.548699728,33.59826249500001],[130.547916667,33.597641667],[130.547571115,33.597513892],[130.546928612,33.597449999999995],[130.545473333,33.597641667],[130.54469000000003,33.597591667],[130.544226939,33.597377775000005],[130.543384994,33.597131387],[130.54320499400004,33.596971667],[130.541482503,33.596163612999995],[130.539101946,33.595703333]]]}},{"type":"Feature","id":"40342:50303414","properties":{"id":"40342:50303414","meshCode":"50303414","cityCode":"40342","city":"篠栗町","lat":33.5994075,"lon":130.5539279,"areaKm2":0.1044572,"populated2020":false,"population2020":null,"populationNote":"境界またぎ・収録外等のため人口未集計"},"geometry":{"type":"Polygon","coordinates":[[[130.556317497,33.59896361300001],[130.555313891,33.59895027899999],[130.55469083,33.59884972100001],[130.553615551,33.598503054],[130.551591115,33.598671667],[130.550919728,33.598630559],[130.55057917,33.59878555900001],[130.55,33.59854797300001],[130.55,33.60000000000001],[130.560176394,33.599999999999994],[130.55969083,33.599957495000005],[130.558965551,33.599546667000006],[130.558137497,33.599493054],[130.557543891,33.599287775],[130.557130272,33.59927389199999],[130.556317497,33.59896361300001]]]}},{"type":"Feature","id":"40342:50303421","properties":{"id":"40342:50303421","meshCode":"50303421","cityCode":"40342","city":"篠栗町","lat":33.605455,"lon":130.5198249,"areaKm2":0.6682383,"populated2020":true,"population2020":8.1578,"populationNote":"収録500mメッシュ人口の合算（原典収録外は補完しない）"},"geometry":{"type":"Polygon","coordinates":[[[130.524639728,33.600706386999995],[130.524094721,33.60154582900001],[130.523807497,33.601719161999995],[130.52301472100004,33.60196555900001],[130.521446394,33.602262225],[130.520872218,33.602289441],[130.519777224,33.60208],[130.519042503,33.60213],[130.51807166,33.60242972099999],[130.516563333,33.603137225],[130.515706667,33.603853613],[130.514972218,33.605146387],[130.514436939,33.605634441],[130.514193606,33.60609082900001],[130.513203606,33.606508612999995],[130.5125,33.606976504133584],[130.5125,33.60833333333333],[130.525,33.608333333333334],[130.525,33.600581135],[130.524639728,33.600706386999995]]]}},{"type":"Feature","id":"40342:50303422","properties":{"id":"40342:50303422","meshCode":"50303422","cityCode":"40342","city":"篠栗町","lat":33.6043015,"lon":130.5313677,"areaKm2":1.0355511,"populated2020":true,"population2020":45.7355,"populationNote":"収録500mメッシュ人口の合算（原典収録外は補完しない）"},"geometry":{"type":"Polygon","coordinates":[[[130.531222503,33.600374720999994],[130.53052166,33.600662225],[130.52993778200002,33.60076694599999],[130.529689442,33.600885829],[130.529493891,33.600793333000006],[130.529177497,33.60032305400001],[130.529007224,33.600186108],[130.528764163,33.60012222500001],[130.52729917,33.600209162000006],[130.526997497,33.600752225],[130.526343061,33.600815829],[130.525983061,33.60094361299999],[130.52548166,33.60092527899999],[130.525,33.600581135],[130.525,33.608333333333334],[130.5375,33.60833333333333],[130.5375,33.60000000000001],[130.531615058,33.6],[130.531222503,33.600374720999994]]]}},{"type":"Feature","id":"40342:50303423","properties":{"id":"40342:50303423","meshCode":"50303423","cityCode":"40342","city":"篠栗町","lat":33.6041667,"lon":130.54375,"areaKm2":1.072142,"populated2020":false,"population2020":null,"populationNote":"境界またぎ・収録外等のため人口未集計"},"geometry":{"type":"Polygon","coordinates":[[[130.55,33.60000000000001],[130.5375,33.60000000000001],[130.5375,33.60833333333333],[130.55,33.60833333333333],[130.55,33.60000000000001]]]}},{"type":"Feature","id":"40342:50303424","properties":{"id":"40342:50303424","meshCode":"50303424","cityCode":"40342","city":"篠栗町","lat":33.6042151,"lon":130.5561754,"areaKm2":1.0581553,"populated2020":true,"population2020":8.2042,"populationNote":"収録500mメッシュ人口の合算（原典収録外は補完しない）"},"geometry":{"type":"Polygon","coordinates":[[[130.5625,33.60165959628506],[130.56211166,33.60115110800001],[130.561306109,33.600418613],[130.560834449,33.600135559],[130.560411115,33.60002582900001],[130.55,33.60000000000001],[130.55,33.60833333333333],[130.5625,33.60833333333333],[130.5625,33.60165959628506]]]}},{"type":"Feature","id":"40342:50303425","properties":{"id":"40342:50303425","meshCode":"50303425","cityCode":"40342","city":"篠栗町","lat":33.605003,"lon":130.5645766,"areaKm2":0.4226191,"populated2020":false,"population2020":null,"populationNote":"境界またぎ・収録外等のため人口未集計"},"geometry":{"type":"Polygon","coordinates":[[[130.566454994,33.604648333],[130.564931946,33.603749441],[130.564695837,33.60338722499999],[130.564374449,33.603127225],[130.564077782,33.602981108],[130.563347782,33.602876108000004],[130.563192218,33.602789441],[130.5625,33.60165959628506],[130.5625,33.60833333333333],[130.575,33.608333333333334],[130.575,33.604554359999995],[130.573983333,33.604843054],[130.573798327,33.60509861300001],[130.573462503,33.60520833299999],[130.57285917,33.605555],[130.571438054,33.605641946000006],[130.570844449,33.60587889200001],[130.570265279,33.605915558999996],[130.570148327,33.605970279],[130.569543333,33.60674000000001],[130.569363333,33.606803892],[130.568088327,33.60694082900001],[130.567669728,33.606795],[130.567265837,33.606347495],[130.567168612,33.60574055899999],[130.566454994,33.604648333]]]}},{"type":"Feature","id":"40342:50303426","properties":{"id":"40342:50303426","meshCode":"50303426","cityCode":"40342","city":"篠栗町","lat":33.6059068,"lon":130.5813618,"areaKm2":0.5363104,"populated2020":true,"population2020":null,"populationNote":"境界またぎ・収録外等のため人口未集計"},"geometry":{"type":"Polygon","coordinates":[[[130.5875,33.60294956425983],[130.586455551,33.602235559],[130.585786394,33.601634720999996],[130.585543061,33.601570829],[130.585406667,33.601685],[130.585226939,33.602366667],[130.585246394,33.602544720999994],[130.585538612,33.60308805399999],[130.58551917,33.60325249499999],[130.58512,33.603571946],[130.584725551,33.604261387],[130.584463606,33.604563891999994],[130.584283333,33.60527610799999],[130.584074163,33.605582225],[130.582693333,33.60699944099999],[130.582191946,33.60701333299999],[130.581666109,33.607967495],[130.581529728,33.60792166700001],[130.581491115,33.607791108],[130.581524994,33.606631667],[130.581408612,33.605937775000015],[130.580941388,33.605595558999994],[130.580494449,33.604740559],[130.58115166,33.603489721],[130.581146667,33.60325249500001],[130.580844994,33.602686387],[130.580067497,33.602672774999995],[130.579473606,33.602777775],[130.578797224,33.603261667],[130.577998885,33.60355389200001],[130.576843891,33.603534720999995],[130.576860272,33.603910559000006],[130.57616083,33.604327775],[130.576034449,33.60449666700001],[130.575,33.604554359999995],[130.575,33.608333333333334],[130.5875,33.608333333333334],[130.5875,33.60294956425983]]]}},{"type":"Feature","id":"40342:50303427","properties":{"id":"40342:50303427","meshCode":"50303427","cityCode":"40342","city":"篠栗町","lat":33.6066718,"lon":130.5890357,"areaKm2":0.1163491,"populated2020":false,"population2020":null,"populationNote":"境界またぎ・収録外等のため人口未集計"},"geometry":{"type":"Polygon","coordinates":[[[130.588276109,33.603951667000004],[130.5875,33.60294956425983],[130.5875,33.608333333333334],[130.59277725145688,33.60833333333333],[130.591704449,33.608133054],[130.591563333,33.60801416200001],[130.591344449,33.607585],[130.591237497,33.606955],[130.591130272,33.60669944100001],[130.59096,33.60654416199999],[130.590723891,33.606468892],[130.589915837,33.60647333299999],[130.589750272,33.60637305400001],[130.589584994,33.606195],[130.589541115,33.60599389200001],[130.589614163,33.60577500000001],[130.589531388,33.605633613],[130.589141946,33.605478333],[130.588208054,33.604472225],[130.588144721,33.604344441],[130.588276109,33.603951667000004]]]}},{"type":"Feature","id":"40342:50303420","properties":{"id":"40342:50303420","meshCode":"50303420","cityCode":"40342","city":"篠栗町","lat":33.6079217,"lon":130.5120332,"areaKm2":0.008437,"populated2020":false,"population2020":null,"populationNote":"境界またぎ・収録外等のため人口未集計"},"geometry":{"type":"Polygon","coordinates":[[[130.512205837,33.607266108000005],[130.512050272,33.607763613],[130.511865279,33.60791416200001],[130.51077955828242,33.60833333333333],[130.5125,33.60833333333333],[130.5125,33.606976504133584],[130.512205837,33.607266108000005]]]}},{"type":"Feature","id":"40342:50303430","properties":{"id":"40342:50303430","meshCode":"50303430","cityCode":"40342","city":"篠栗町","lat":33.6134564,"lon":130.5073132,"areaKm2":0.7557782,"populated2020":true,"population2020":null,"populationNote":"境界またぎ・収録外等のため人口未集計"},"geometry":{"type":"Polygon","coordinates":[[[130.509814449,33.608816108],[130.508719442,33.609030559000004],[130.508417782,33.609199441],[130.50698944200002,33.61049777499999],[130.506643891,33.611195829],[130.505612503,33.611793892],[130.504853333,33.611985559],[130.503995279,33.612431946],[130.503713061,33.612472775],[130.501888327,33.612208054],[130.501635279,33.612315279],[130.500623061,33.613038892],[130.500365279,33.613546108],[130.500297224,33.614162225],[130.5,33.614587919],[130.5,33.61666666666667],[130.5125,33.61666666666667],[130.5125,33.60833333333333],[130.51077955828242,33.60833333333333],[130.509814449,33.608816108]]]}},{"type":"Feature","id":"40342:50303431","properties":{"id":"40342:50303431","meshCode":"50303431","cityCode":"40342","city":"篠栗町","lat":33.6125,"lon":130.51875,"areaKm2":1.0720456,"populated2020":true,"population2020":1185.5437,"populationNote":"収録500mメッシュ人口の合算（原典収録外は補完しない）"},"geometry":{"type":"Polygon","coordinates":[[[130.525,33.608333333333334],[130.5125,33.60833333333333],[130.5125,33.61666666666667],[130.525,33.61666666666667],[130.525,33.608333333333334]]]}},{"type":"Feature","id":"40342:50303432","properties":{"id":"40342:50303432","meshCode":"50303432","cityCode":"40342","city":"篠栗町","lat":33.6125,"lon":130.53125,"areaKm2":1.0720428,"populated2020":true,"population2020":176.6985,"populationNote":"収録500mメッシュ人口の合算（原典収録外は補完しない）"},"geometry":{"type":"Polygon","coordinates":[[[130.5375,33.60833333333333],[130.525,33.608333333333334],[130.525,33.61666666666667],[130.5375,33.61666666666667],[130.5375,33.60833333333333]]]}},{"type":"Feature","id":"40342:50303433","properties":{"id":"40342:50303433","meshCode":"50303433","cityCode":"40342","city":"篠栗町","lat":33.6125,"lon":130.54375,"areaKm2":1.0720402,"populated2020":true,"population2020":67.8921,"populationNote":"収録500mメッシュ人口の合算（原典収録外は補完しない）"},"geometry":{"type":"Polygon","coordinates":[[[130.55,33.60833333333333],[130.5375,33.60833333333333],[130.5375,33.61666666666667],[130.55,33.61666666666667],[130.55,33.60833333333333]]]}},{"type":"Feature","id":"40342:50303434","properties":{"id":"40342:50303434","meshCode":"50303434","cityCode":"40342","city":"篠栗町","lat":33.6125,"lon":130.55625,"areaKm2":1.0720376,"populated2020":true,"population2020":25.401,"populationNote":"収録500mメッシュ人口の合算（原典収録外は補完しない）"},"geometry":{"type":"Polygon","coordinates":[[[130.5625,33.60833333333333],[130.55,33.60833333333333],[130.55,33.61666666666667],[130.5625,33.61666666666667],[130.5625,33.60833333333333]]]}},{"type":"Feature","id":"40342:50303435","properties":{"id":"40342:50303435","meshCode":"50303435","cityCode":"40342","city":"篠栗町","lat":33.6125,"lon":130.56875,"areaKm2":1.0720352,"populated2020":true,"population2020":2.0462,"populationNote":"収録500mメッシュ人口の合算（原典収録外は補完しない）"},"geometry":{"type":"Polygon","coordinates":[[[130.575,33.608333333333334],[130.5625,33.60833333333333],[130.5625,33.61666666666667],[130.575,33.61666666666667],[130.575,33.608333333333334]]]}},{"type":"Feature","id":"40342:50303436","properties":{"id":"40342:50303436","meshCode":"50303436","cityCode":"40342","city":"篠栗町","lat":33.6125,"lon":130.58125,"areaKm2":1.0720328,"populated2020":true,"population2020":42.4718,"populationNote":"収録500mメッシュ人口の合算（原典収録外は補完しない）"},"geometry":{"type":"Polygon","coordinates":[[[130.5875,33.608333333333334],[130.575,33.608333333333334],[130.575,33.61666666666667],[130.5875,33.61666666666667],[130.5875,33.608333333333334]]]}},{"type":"Feature","id":"40342:50303437","properties":{"id":"40342:50303437","meshCode":"50303437","cityCode":"40342","city":"篠栗町","lat":33.6128132,"lon":130.5919311,"areaKm2":0.7318763,"populated2020":true,"population2020":1.032,"populationNote":"収録500mメッシュ人口の合算（原典収録外は補完しない）"},"geometry":{"type":"Polygon","coordinates":[[[130.59331083,33.608557495],[130.59277725145688,33.60833333333333],[130.5875,33.608333333333334],[130.5875,33.61666666666667],[130.59410744529902,33.61666666666667],[130.594680272,33.61630861300001],[130.595071946,33.616211667],[130.596324994,33.61616527900001],[130.597101946,33.615576387],[130.597502776,33.614938892],[130.597795279,33.614124441],[130.597916667,33.613939721],[130.598305837,33.613638613],[130.598769442,33.61299249500001],[130.597968885,33.612704721],[130.596805837,33.612672775],[130.595377224,33.611187775],[130.594758885,33.61021082900001],[130.594306667,33.60992305400001],[130.59394639400003,33.609905000000005],[130.593853891,33.609831946],[130.593844163,33.609334162],[130.593529728,33.608781108],[130.59331083,33.608557495]]]}},{"type":"Feature","id":"40342:50303339","properties":{"id":"40342:50303339","meshCode":"50303339","cityCode":"40342","city":"篠栗町","lat":33.6156618,"lon":130.4998258,"areaKm2":0.0069719,"populated2020":true,"population2020":null,"populationNote":"境界またぎ・収録外等のため人口未集計"},"geometry":{"type":"Polygon","coordinates":[[[130.5,33.614587919],[130.499525279,33.614926946],[130.499707224,33.615232495],[130.499590558,33.615881387],[130.49971282705576,33.61666666666667],[130.5,33.61666666666667],[130.5,33.614587919]]]}},{"type":"Feature","id":"40342:50303349","properties":{"id":"40342:50303349","meshCode":"50303349","cityCode":"40342","city":"篠栗町","lat":33.6212525,"lon":130.4992797,"areaKm2":0.070038,"populated2020":true,"population2020":null,"populationNote":"境界またぎ・収録外等のため人口未集計"},"geometry":{"type":"Polygon","coordinates":[[[130.49971282705576,33.61666666666667],[130.499482218,33.61976027899999],[130.498999728,33.620791946000004],[130.498797782,33.620938054],[130.498138327,33.621182225],[130.497899728,33.621590829],[130.49762083,33.62177389200001],[130.497598054,33.622652225],[130.49766166,33.622697225],[130.498433891,33.622576945999995],[130.499869728,33.622948892],[130.499473333,33.624149441],[130.49965583700003,33.624211945999996],[130.499559442,33.62448527899999],[130.499785058,33.62500000000001],[130.5,33.62500000000001],[130.5,33.61666666666667],[130.49971282705576,33.61666666666667]]]}},{"type":"Feature","id":"40342:50303440","properties":{"id":"40342:50303440","meshCode":"50303440","cityCode":"40342","city":"篠栗町","lat":33.6208333,"lon":130.50625,"areaKm2":1.0719466,"populated2020":true,"population2020":3334.0334,"populationNote":"収録500mメッシュ人口の合算（原典収録外は補完しない）"},"geometry":{"type":"Polygon","coordinates":[[[130.5125,33.61666666666667],[130.5,33.61666666666667],[130.5,33.62500000000001],[130.5125,33.62500000000001],[130.5125,33.61666666666667]]]}},{"type":"Feature","id":"40342:50303441","properties":{"id":"40342:50303441","meshCode":"50303441","cityCode":"40342","city":"篠栗町","lat":33.6208333,"lon":130.51875,"areaKm2":1.0719438,"populated2020":true,"population2020":8682.0342,"populationNote":"収録500mメッシュ人口の合算（原典収録外は補完しない）"},"geometry":{"type":"Polygon","coordinates":[[[130.525,33.61666666666667],[130.5125,33.61666666666667],[130.5125,33.62500000000001],[130.525,33.62500000000001],[130.525,33.61666666666667]]]}},{"type":"Feature","id":"40342:50303442","properties":{"id":"40342:50303442","meshCode":"50303442","cityCode":"40342","city":"篠栗町","lat":33.6208333,"lon":130.53125,"areaKm2":1.0719412,"populated2020":true,"population2020":4416.6372,"populationNote":"収録500mメッシュ人口の合算（原典収録外は補完しない）"},"geometry":{"type":"Polygon","coordinates":[[[130.5375,33.61666666666667],[130.525,33.61666666666667],[130.525,33.62500000000001],[130.5375,33.62500000000001],[130.5375,33.61666666666667]]]}},{"type":"Feature","id":"40342:50303443","properties":{"id":"40342:50303443","meshCode":"50303443","cityCode":"40342","city":"篠栗町","lat":33.6208333,"lon":130.54375,"areaKm2":1.0719384,"populated2020":true,"population2020":121.0873,"populationNote":"収録500mメッシュ人口の合算（原典収録外は補完しない）"},"geometry":{"type":"Polygon","coordinates":[[[130.55,33.61666666666667],[130.5375,33.61666666666667],[130.5375,33.62500000000001],[130.55,33.62500000000001],[130.55,33.61666666666667]]]}},{"type":"Feature","id":"40342:50303444","properties":{"id":"40342:50303444","meshCode":"50303444","cityCode":"40342","city":"篠栗町","lat":33.6208333,"lon":130.55625,"areaKm2":1.071936,"populated2020":true,"population2020":198.5736,"populationNote":"収録500mメッシュ人口の合算（原典収録外は補完しない）"},"geometry":{"type":"Polygon","coordinates":[[[130.5625,33.61666666666667],[130.55,33.61666666666667],[130.55,33.62500000000001],[130.5625,33.625],[130.5625,33.61666666666667]]]}},{"type":"Feature","id":"40342:50303445","properties":{"id":"40342:50303445","meshCode":"50303445","cityCode":"40342","city":"篠栗町","lat":33.6208333,"lon":130.56875,"areaKm2":1.0719335,"populated2020":true,"population2020":66.8454,"populationNote":"収録500mメッシュ人口の合算（原典収録外は補完しない）"},"geometry":{"type":"Polygon","coordinates":[[[130.575,33.61666666666667],[130.5625,33.61666666666667],[130.5625,33.625],[130.575,33.625000000000014],[130.575,33.61666666666667]]]}},{"type":"Feature","id":"40342:50303446","properties":{"id":"40342:50303446","meshCode":"50303446","cityCode":"40342","city":"篠栗町","lat":33.6207497,"lon":130.580376,"areaKm2":0.9070596,"populated2020":true,"population2020":75.1485,"populationNote":"収録500mメッシュ人口の合算（原典収録外は補完しない）"},"geometry":{"type":"Polygon","coordinates":[[[130.584681388,33.620781108],[130.584155551,33.62038138700001],[130.58362,33.620065000000004],[130.583399442,33.620018613000006],[130.58447917,33.61873333300001],[130.584956394,33.618501108],[130.586000558,33.618581387],[130.587001946,33.61907500000001],[130.5875,33.61898775664306],[130.5875,33.61666666666667],[130.575,33.61666666666667],[130.575,33.625000000000014],[130.586565447,33.625],[130.586264721,33.624596946],[130.584914994,33.622206387],[130.584766939,33.621688613],[130.584681388,33.620781108]]]}},{"type":"Feature","id":"40342:50303447","properties":{"id":"40342:50303447","meshCode":"50303447","cityCode":"40342","city":"篠栗町","lat":33.617651,"lon":130.5903434,"areaKm2":0.1195619,"populated2020":false,"population2020":null,"populationNote":"境界またぎ・収録外等のため人口未集計"},"geometry":{"type":"Polygon","coordinates":[[[130.593469442,33.61741416200001],[130.59410744529902,33.61666666666667],[130.5875,33.61666666666667],[130.5875,33.61898775664306],[130.58801,33.61883861300001],[130.588716667,33.618509162],[130.589013606,33.61846277499999],[130.589720272,33.618631667],[130.590094994,33.618796387],[130.590945551,33.618838613],[130.591170272,33.618948333],[130.591656394,33.618990559],[130.591984994,33.61878389200001],[130.592771946,33.617992495],[130.592875279,33.61762527900001],[130.593469442,33.61741416200001]]]}},{"type":"Feature","id":"40342:50303359","properties":{"id":"40342:50303359","meshCode":"50303359","cityCode":"40342","city":"篠栗町","lat":33.6298118,"lon":130.4983692,"areaKm2":0.2152099,"populated2020":true,"population2020":null,"populationNote":"境界またぎ・収録外等のため人口未集計"},"geometry":{"type":"MultiPolygon","coordinates":[[[[130.499785058,33.62500000000001],[130.499973061,33.625512775],[130.5,33.625650919],[130.5,33.62500000000001],[130.499785058,33.62500000000001]]],[[[130.49983917,33.626265829],[130.499430999,33.626210801999996],[130.49915111500002,33.627247225],[130.49895083,33.627273333],[130.497985279,33.62689138700001],[130.49766166,33.626896946],[130.496519442,33.62738361299999],[130.496284721,33.627796946],[130.496157328,33.628492198],[130.496211946,33.629788613],[130.496936394,33.63129055900001],[130.49766138800004,33.632360279000004],[130.497694163,33.63274361300001],[130.49791374807285,33.63333333333333],[130.5,33.63333333333334],[130.5,33.625931468000005],[130.49983917,33.626265829]]]]}},{"type":"Feature","id":"40342:50303450","properties":{"id":"40342:50303450","meshCode":"50303450","cityCode":"40342","city":"篠栗町","lat":33.6291668,"lon":130.5062502,"areaKm2":1.0718138,"populated2020":true,"population2020":1771.8437,"populationNote":"収録500mメッシュ人口の合算（原典収録外は補完しない）"},"geometry":{"type":"Polygon","coordinates":[[[130.5,33.62500000000001],[130.5,33.63333333333334],[130.5125,33.63333333333333],[130.5125,33.62500000000001],[130.5,33.62500000000001]]]}},{"type":"Feature","id":"40342:50303451","properties":{"id":"40342:50303451","meshCode":"50303451","cityCode":"40342","city":"篠栗町","lat":33.6291667,"lon":130.51875,"areaKm2":1.071842,"populated2020":true,"population2020":5271.0169,"populationNote":"収録500mメッシュ人口の合算（原典収録外は補完しない）"},"geometry":{"type":"Polygon","coordinates":[[[130.525,33.62500000000001],[130.5125,33.62500000000001],[130.5125,33.63333333333333],[130.525,33.63333333333333],[130.525,33.62500000000001]]]}},{"type":"Feature","id":"40342:50303452","properties":{"id":"40342:50303452","meshCode":"50303452","cityCode":"40342","city":"篠栗町","lat":33.6291667,"lon":130.53125,"areaKm2":1.0718393,"populated2020":true,"population2020":2765.7577,"populationNote":"収録500mメッシュ人口の合算（原典収録外は補完しない）"},"geometry":{"type":"Polygon","coordinates":[[[130.5375,33.62500000000001],[130.525,33.62500000000001],[130.525,33.63333333333333],[130.5375,33.63333333333333],[130.5375,33.62500000000001]]]}},{"type":"Feature","id":"40342:50303453","properties":{"id":"40342:50303453","meshCode":"50303453","cityCode":"40342","city":"篠栗町","lat":33.6291667,"lon":130.54375,"areaKm2":1.0718368,"populated2020":true,"population2020":153.649,"populationNote":"収録500mメッシュ人口の合算（原典収録外は補完しない）"},"geometry":{"type":"Polygon","coordinates":[[[130.55,33.62500000000001],[130.5375,33.62500000000001],[130.5375,33.63333333333333],[130.55,33.63333333333334],[130.55,33.62500000000001]]]}},{"type":"Feature","id":"40342:50303454","properties":{"id":"40342:50303454","meshCode":"50303454","cityCode":"40342","city":"篠栗町","lat":33.6291667,"lon":130.55625,"areaKm2":1.0718341,"populated2020":true,"population2020":3.0407,"populationNote":"収録500mメッシュ人口の合算（原典収録外は補完しない）"},"geometry":{"type":"Polygon","coordinates":[[[130.5625,33.625],[130.55,33.62500000000001],[130.55,33.63333333333334],[130.5625,33.63333333333334],[130.5625,33.625]]]}},{"type":"Feature","id":"40342:50303455","properties":{"id":"40342:50303455","meshCode":"50303455","cityCode":"40342","city":"篠栗町","lat":33.6291667,"lon":130.56875,"areaKm2":1.0718316,"populated2020":true,"population2020":16.1834,"populationNote":"収録500mメッシュ人口の合算（原典収録外は補完しない）"},"geometry":{"type":"Polygon","coordinates":[[[130.575,33.625000000000014],[130.5625,33.625],[130.5625,33.63333333333334],[130.575,33.63333333333334],[130.575,33.625000000000014]]]}},{"type":"Feature","id":"40342:50303456","properties":{"id":"40342:50303456","meshCode":"50303456","cityCode":"40342","city":"篠栗町","lat":33.6290039,"lon":130.5806659,"areaKm2":0.9654146,"populated2020":true,"population2020":10.1435,"populationNote":"収録500mメッシュ人口の合算（原典収録外は補完しない）"},"geometry":{"type":"Polygon","coordinates":[[[130.586462503,33.62909833300001],[130.586529728,33.628540559],[130.586768327,33.627789162],[130.58670083,33.627464162],[130.586763891,33.627274441],[130.587321946,33.626586387],[130.587357782,33.626231946000004],[130.587231946,33.625797225],[130.586565447,33.625],[130.575,33.625000000000014],[130.575,33.63333333333334],[130.58284622542422,33.63333333333333],[130.583582776,33.633016667],[130.584055551,33.632923612999996],[130.58424,33.632775828999996],[130.58509083,33.63268305399999],[130.58563083,33.632463613],[130.585846939,33.632231667],[130.585928054,33.631999441],[130.585931388,33.630790829000006],[130.58621055800003,33.630001387],[130.586223891,33.629630279000004],[130.586295837,33.62947],[130.586525551,33.62930527899999],[130.586462503,33.62909833300001]]]}},{"type":"Feature","id":"40342:50303369","properties":{"id":"40342:50303369","meshCode":"50303369","cityCode":"40342","city":"篠栗町","lat":33.6341717,"lon":130.4990817,"areaKm2":0.0330961,"populated2020":false,"population2020":null,"populationNote":"境界またぎ・収録外等のため人口未集計"},"geometry":{"type":"Polygon","coordinates":[[[130.49791374807285,33.63333333333333],[130.498168054,33.634066108],[130.498401115,33.634284162],[130.497962503,33.634650279],[130.49796166,33.63488861300001],[130.498499442,33.634821946],[130.499523061,33.635228054],[130.5,33.635119694],[130.5,33.63333333333334],[130.49791374807285,33.63333333333333]]]}},{"type":"Feature","id":"40342:50303460","properties":{"id":"40342:50303460","meshCode":"50303460","cityCode":"40342","city":"篠栗町","lat":33.6351952,"lon":130.5070635,"areaKm2":0.4471732,"populated2020":true,"population2020":null,"populationNote":"境界またぎ・収録外等のため人口未集計"},"geometry":{"type":"Polygon","coordinates":[[[130.500353606,33.635098054],[130.503935837,33.636518333],[130.504337224,33.63674249500001],[130.504914449,33.636497495],[130.505383333,33.63648472100001],[130.505998054,33.63679277500001],[130.50667,33.636682775],[130.506863606,33.636792775],[130.507720272,33.637642494999994],[130.508437224,33.638132775],[130.508829728,33.63828082900001],[130.509167497,33.63833582899999],[130.509922218,33.638128613],[130.510413606,33.63779055900001],[130.510914163,33.637312495],[130.511180272,33.636804999999995],[130.511793333,33.636999721],[130.512149728,33.637274441],[130.5125,33.637726216075926],[130.5125,33.63333333333333],[130.5,33.63333333333334],[130.5,33.635119694],[130.500353606,33.635098054]]]}},{"type":"Feature","id":"40342:50303461","properties":{"id":"40342:50303461","meshCode":"50303461","cityCode":"40342","city":"篠栗町","lat":33.6360541,"lon":130.5185704,"areaKm2":0.6885867,"populated2020":true,"population2020":null,"populationNote":"境界またぎ・収録外等のため人口未集計"},"geometry":{"type":"Polygon","coordinates":[[[130.525,33.63333333333333],[130.5125,33.63333333333333],[130.5125,33.637726216075926],[130.513064721,33.638217495],[130.513371388,33.63836138700001],[130.513536667,33.638910279],[130.513874994,33.639451387],[130.514127497,33.639616387],[130.514495837,33.639713054],[130.515221946,33.639780829],[130.515794449,33.639746946],[130.516294721,33.639539721],[130.518908054,33.63824666699999],[130.519794449,33.637612775],[130.520037782,33.63757472100001],[130.520326394,33.637642495],[130.520637497,33.637942775000006],[130.520894449,33.638027225],[130.521941946,33.637862225],[130.523704994,33.63894500000001],[130.524282218,33.638983054],[130.525,33.63877636],[130.525,33.63333333333333]]]}},{"type":"Feature","id":"40342:50303462","properties":{"id":"40342:50303462","meshCode":"50303462","cityCode":"40342","city":"篠栗町","lat":33.635813,"lon":130.5318166,"areaKm2":0.5717411,"populated2020":false,"population2020":null,"populationNote":"境界またぎ・収録外等のため人口未集計"},"geometry":{"type":"Polygon","coordinates":[[[130.527878054,33.63705055900001],[130.528261388,33.636691108],[130.528543891,33.636282224999995],[130.528994721,33.636066667],[130.529368885,33.636383892],[130.52991,33.63656138699999],[130.530451115,33.636857494999994],[130.531950272,33.636561387],[130.532635837,33.636810829000005],[130.533023606,33.636861667],[130.533881946,33.637194721],[130.534423061,33.637524721],[130.534792776,33.63815889199999],[130.535388054,33.638387225],[130.536021115,33.638841108],[130.536111115,33.638980829],[130.536228327,33.63965722500001],[130.536282503,33.64084110799999],[130.53620564202765,33.641666666666666],[130.5375,33.64166666666667],[130.5375,33.63333333333333],[130.525,33.63333333333333],[130.525,33.63877636],[130.525287497,33.638576946],[130.52549917,33.638179721],[130.525783333,33.63786694600001],[130.526313333,33.63784138700001],[130.526989728,33.638272775000004],[130.527255837,33.638276946],[130.527476667,33.63817138700001],[130.527715837,33.637833054000005],[130.527878054,33.63705055900001]]]}},{"type":"Feature","id":"40342:50303463","properties":{"id":"40342:50303463","meshCode":"50303463","cityCode":"40342","city":"篠栗町","lat":33.6375,"lon":130.54375,"areaKm2":1.0717349,"populated2020":false,"population2020":null,"populationNote":"境界またぎ・収録外等のため人口未集計"},"geometry":{"type":"Polygon","coordinates":[[[130.55,33.63333333333334],[130.5375,33.63333333333333],[130.5375,33.64166666666667],[130.55,33.641666666666666],[130.55,33.63333333333334]]]}},{"type":"Feature","id":"40342:50303464","properties":{"id":"40342:50303464","meshCode":"50303464","cityCode":"40342","city":"篠栗町","lat":33.6375,"lon":130.55625,"areaKm2":1.0717324,"populated2020":true,"population2020":5.0418,"populationNote":"収録500mメッシュ人口の合算（原典収録外は補完しない）"},"geometry":{"type":"Polygon","coordinates":[[[130.5625,33.63333333333334],[130.55,33.63333333333334],[130.55,33.641666666666666],[130.5625,33.64166666666667],[130.5625,33.63333333333334]]]}},{"type":"Feature","id":"40342:50303465","properties":{"id":"40342:50303465","meshCode":"50303465","cityCode":"40342","city":"篠栗町","lat":33.6373765,"lon":130.5685123,"areaKm2":1.0273914,"populated2020":false,"population2020":null,"populationNote":"境界またぎ・収録外等のため人口未集計"},"geometry":{"type":"Polygon","coordinates":[[[130.575,33.63333333333334],[130.5625,33.63333333333334],[130.5625,33.64166666666667],[130.57257611152318,33.641666666666666],[130.572970558,33.641532775],[130.57311444900003,33.641389161999996],[130.573497224,33.640536667],[130.573748885,33.639513333],[130.573973891,33.639226386999994],[130.574648885,33.638643892],[130.574883061,33.638124721000004],[130.575,33.638085306],[130.575,33.63333333333334]]]}},{"type":"Feature","id":"40342:50303466","properties":{"id":"40342:50303466","meshCode":"50303466","cityCode":"40342","city":"篠栗町","lat":33.6351671,"lon":130.5777706,"areaKm2":0.23303,"populated2020":false,"population2020":null,"populationNote":"境界またぎ・収録外等のため人口未集計"},"geometry":{"type":"Polygon","coordinates":[[[130.58151166,33.634331946],[130.582285837,33.634028332999996],[130.582695551,33.63342055900001],[130.58284622542422,33.63333333333333],[130.575,33.63333333333334],[130.575,33.638085306],[130.575511388,33.637961946000004],[130.575889442,33.637784441],[130.577545551,33.637814162],[130.578916667,33.63625916200001],[130.579852503,33.635715],[130.580994163,33.63467805399999],[130.58151166,33.634331946]]]}},{"type":"Feature","id":"40342:50303472","properties":{"id":"40342:50303472","meshCode":"50303472","cityCode":"40342","city":"篠栗町","lat":33.6425905,"lon":130.5369336,"areaKm2":0.0233477,"populated2020":false,"population2020":null,"populationNote":"境界またぎ・収録外等のため人口未集計"},"geometry":{"type":"Polygon","coordinates":[[[130.536205642,33.641666667],[130.53626,33.642728613],[130.536422503,33.643096666999995],[130.53711166,33.643729162],[130.5375,33.64389327389979],[130.5375,33.64166666666667],[130.536205642,33.641666667]]]}},{"type":"Feature","id":"40342:50303473","properties":{"id":"40342:50303473","meshCode":"50303473","cityCode":"40342","city":"篠栗町","lat":33.6442392,"lon":130.5454469,"areaKm2":0.5210977,"populated2020":false,"population2020":null,"populationNote":"境界またぎ・収録外等のため人口未集計"},"geometry":{"type":"Polygon","coordinates":[[[130.537846667,33.643767225],[130.538297497,33.643348613],[130.539469728,33.64373749500001],[130.539857497,33.64397444099999],[130.540407782,33.644634162],[130.540662218,33.64478416200001],[130.54081083,33.644758892000006],[130.541284163,33.644318891999994],[130.541478054,33.644234441],[130.542231115,33.644361387],[130.54305166,33.644344440999994],[130.543398885,33.644504999999995],[130.54478083,33.645484721],[130.54526805400002,33.64600472099999],[130.545937782,33.64616027900001],[130.546383891,33.646350559],[130.546906939,33.646346386999994],[130.547076109,33.646580279],[130.547823333,33.647200829],[130.547953891,33.648183892000006],[130.548164163,33.648822225],[130.548046329,33.64999999999999],[130.55,33.64999999999999],[130.55,33.641666666666666],[130.5375,33.64166666666667],[130.5375,33.64389327389979],[130.537846667,33.643767225]]]}},{"type":"Feature","id":"40342:50303474","properties":{"id":"40342:50303474","meshCode":"50303474","cityCode":"40342","city":"篠栗町","lat":33.6458333,"lon":130.55625,"areaKm2":1.0716305,"populated2020":true,"population2020":24.3361,"populationNote":"収録500mメッシュ人口の合算（原典収録外は補完しない）"},"geometry":{"type":"Polygon","coordinates":[[[130.5625,33.64166666666667],[130.55,33.641666666666666],[130.55,33.64999999999999],[130.5625,33.64999999999999],[130.5625,33.64166666666667]]]}},{"type":"Feature","id":"40342:50303475","properties":{"id":"40342:50303475","meshCode":"50303475","cityCode":"40342","city":"篠栗町","lat":33.6451816,"lon":130.5657517,"areaKm2":0.5039113,"populated2020":false,"population2020":null,"populationNote":"境界またぎ・収録外等のため人口未集計"},"geometry":{"type":"Polygon","coordinates":[[[130.569036939,33.644558054],[130.569274449,33.64389805399999],[130.569436394,33.643758613],[130.570111388,33.643729162],[130.570372503,33.643644721],[130.570647224,33.64328582899999],[130.571236394,33.64303277500001],[130.571384994,33.642863892],[130.571426939,33.64257916199999],[130.571624721,33.642191108000006],[130.571912776,33.641883054],[130.572142503,33.641752225000005],[130.57257611152318,33.641666666666666],[130.5625,33.64166666666667],[130.5625,33.64999999999999],[130.567929857,33.65],[130.567628885,33.649736387],[130.567565837,33.649563613000005],[130.567579442,33.648791387],[130.567489442,33.648622495],[130.566818612,33.648386108],[130.565959442,33.647664440999996],[130.565977497,33.647486945999994],[130.566228885,33.646807495],[130.566422503,33.646541666999994],[130.567362776,33.64576916200001],[130.568150558,33.645334441],[130.568465551,33.644773054],[130.569036939,33.644558054]]]}},{"type":"Feature","id":"40342:50303483","properties":{"id":"40342:50303483","meshCode":"50303483","cityCode":"40342","city":"篠栗町","lat":33.6528201,"lon":130.5489749,"areaKm2":0.1240268,"populated2020":false,"population2020":null,"populationNote":"境界またぎ・収録外等のため人口未集計"},"geometry":{"type":"Polygon","coordinates":[[[130.54811917,33.650548332999996],[130.547925551,33.651075829],[130.547602218,33.65160999999999],[130.547453606,33.652243054],[130.54721527900003,33.65262722500001],[130.547237782,33.652844162],[130.547557497,33.65349],[130.548605837,33.654207495],[130.548974721,33.65458749500001],[130.549100558,33.656364441],[130.549505551,33.656689441],[130.55,33.65693310799999],[130.55,33.64999999999999],[130.548046329,33.64999999999999],[130.54811917,33.650548332999996]]]}},{"type":"Feature","id":"40342:50303484","properties":{"id":"40342:50303484","meshCode":"50303484","cityCode":"40342","city":"篠栗町","lat":33.6540747,"lon":130.5563782,"areaKm2":1.0453085,"populated2020":true,"population2020":61.7063,"populationNote":"収録500mメッシュ人口の合算（原典収録外は補完しない）"},"geometry":{"type":"Polygon","coordinates":[[[130.5625,33.64999999999999],[130.55,33.64999999999999],[130.55,33.65693310799999],[130.550771388,33.657064441],[130.55167166,33.657671946],[130.552324163,33.657840559],[130.5534761097987,33.658333333333324],[130.5625,33.65833333333333],[130.5625,33.64999999999999]]]}},{"type":"Feature","id":"40342:50303485","properties":{"id":"40342:50303485","meshCode":"50303485","cityCode":"40342","city":"篠栗町","lat":33.6547029,"lon":130.5679003,"areaKm2":0.876937,"populated2020":true,"population2020":3.0353,"populationNote":"収録500mメッシュ人口の合算（原典収録外は補完しない）"},"geometry":{"type":"Polygon","coordinates":[[[130.567929857,33.65],[130.5625,33.64999999999999],[130.5625,33.65833333333333],[130.57490654977292,33.658333333333324],[130.575,33.658196108],[130.575,33.655923495],[130.573959442,33.654107225],[130.573662503,33.653870829],[130.572924721,33.653495],[130.571236939,33.653064441],[130.571019728,33.652084441],[130.570776939,33.65187749500001],[130.569080272,33.651147224999995],[130.567929857,33.65]]]}},{"type":"Feature","id":"40342:50303486","properties":{"id":"40342:50303486","meshCode":"50303486","cityCode":"40342","city":"篠栗町","lat":33.6571278,"lon":130.5751064,"areaKm2":0.0043189,"populated2020":false,"population2020":null,"populationNote":"境界またぎ・収録外等のため人口未集計"},"geometry":{"type":"Polygon","coordinates":[[[130.575,33.658196108],[130.575272776,33.657593333],[130.575133333,33.656197775],[130.575,33.655923495],[130.575,33.658196108]]]}},{"type":"Feature","id":"40342:50303494","properties":{"id":"40342:50303494","meshCode":"50303494","cityCode":"40342","city":"篠栗町","lat":33.6607145,"lon":130.5595682,"areaKm2":0.3222129,"populated2020":false,"population2020":null,"populationNote":"境界またぎ・収録外等のため人口未集計"},"geometry":{"type":"Polygon","coordinates":[[[130.554063333,33.65855305400001],[130.554603333,33.658975278999996],[130.555240272,33.659331667000004],[130.555447497,33.65963138699999],[130.555546394,33.659968892],[130.556369728,33.66035722499999],[130.556788327,33.66099444100001],[130.557742218,33.66164444099999],[130.558518612,33.662569441],[130.559414163,33.66296610799999],[130.559706667,33.663295279],[130.560125279,33.663556946],[130.561047782,33.663755279],[130.561718054,33.66466694599999],[130.56204917,33.66574805399999],[130.5625,33.665465852810385],[130.5625,33.65833333333333],[130.5534761097987,33.658333333333324],[130.554063333,33.65855305400001]]]}},{"type":"Feature","id":"40342:50303495","properties":{"id":"40342:50303495","meshCode":"50303495","cityCode":"40342","city":"篠栗町","lat":33.6612769,"lon":130.5672229,"areaKm2":0.6322942,"populated2020":true,"population2020":22.314,"populationNote":"収録500mメッシュ人口の合算（原典収録外は補完しない）"},"geometry":{"type":"Polygon","coordinates":[[[130.571023891,33.662271387000004],[130.572646667,33.660919721],[130.573429728,33.659978892000005],[130.574028327,33.659776108],[130.574336667,33.659218054],[130.574255551,33.65847944099999],[130.57455277600002,33.658496108],[130.57490654977292,33.658333333333324],[130.5625,33.65833333333333],[130.5625,33.665465852810385],[130.562748612,33.665391946],[130.56326166,33.665505829],[130.564494449,33.665543892],[130.565196667,33.665328613],[130.565748054,33.665383333],[130.566234163,33.664927495],[130.56711166,33.66466582900001],[130.568413333,33.663955279],[130.56905693900003,33.663803333],[130.570528612,33.663258891999995],[130.570767224,33.66261305399999],[130.571023891,33.662271387000004]]]}}]}