{"type":"FeatureCollection","metadata":{"cityCode":"40345","city":"新宮町","resolution":500,"boundaryDate":"2026-01-01","populationLabel":"2020年基準人口（国交省調整値）","method":"標準地域メッシュを行政界で切抜き。中心が区域外のとき区域内代表点を判定点にする。人口不明をゼロにしない。"},"features":[{"type":"Feature","id":"40345:503043084","properties":{"id":"40345:503043084","meshCode":"503043084","cityCode":"40345","city":"新宮町","lat":33.6745704,"lon":130.486451,"areaKm2":0.0186052,"populated2020":true,"population2020":null,"populationNote":"境界またぎ・原典収録外のため自治体内人口は未集計"},"geometry":{"type":"Polygon","coordinates":[[[130.4875,33.67427477128406],[130.48652166,33.674087495],[130.48626277600002,33.674113054],[130.485607497,33.674479162000004],[130.484407134,33.675],[130.4875,33.675],[130.4875,33.67427477128406]]]}},{"type":"Feature","id":"40345:503043093","properties":{"id":"40345:503043093","meshCode":"503043093","cityCode":"40345","city":"新宮町","lat":33.6746518,"lon":130.4885017,"areaKm2":0.014071,"populated2020":true,"population2020":null,"populationNote":"境界またぎ・原典収録外のため自治体内人口は未集計"},"geometry":{"type":"Polygon","coordinates":[[[130.489863113,33.67499999999999],[130.489423061,33.674602775],[130.488562503,33.674273613000004],[130.4875,33.67427477128406],[130.4875,33.675],[130.489863113,33.67499999999999]]]}},{"type":"Feature","id":"40345:503043172","properties":{"id":"40345:503043172","meshCode":"503043172","cityCode":"40345","city":"新宮町","lat":33.6773478,"lon":130.4733893,"areaKm2":0.109806,"populated2020":false,"population2020":null,"populationNote":"境界またぎ・原典収録外のため自治体内人口は未集計"},"geometry":{"type":"Polygon","coordinates":[[[130.475,33.675661468],[130.473783333,33.676119162],[130.473652776,33.676242775000006],[130.473574449,33.676622495000004],[130.473208327,33.676932225],[130.472834163,33.677085279],[130.472349442,33.67703027900001],[130.472128612,33.677102775],[130.47132138800004,33.677643892],[130.470649442,33.677967224999996],[130.470298327,33.678300000000014],[130.470096109,33.678821387],[130.46982000930083,33.67916666666667],[130.475,33.679166666666674],[130.475,33.675661468]]]}},{"type":"Feature","id":"40345:503043181","properties":{"id":"40345:503043181","meshCode":"503043181","cityCode":"40345","city":"新宮町","lat":33.6770833,"lon":130.478125,"areaKm2":0.2207714,"populated2020":false,"population2020":null,"populationNote":"境界またぎ・原典収録外のため自治体内人口は未集計"},"geometry":{"type":"Polygon","coordinates":[[[130.48125,33.675816634136226],[130.479237497,33.675794441],[130.478563891,33.675713892],[130.477539442,33.675856667],[130.475782218,33.675488054],[130.475,33.675661468],[130.475,33.679166666666674],[130.48125,33.679166666666674],[130.48125,33.675816634136226]]]}},{"type":"Feature","id":"40345:503043182","properties":{"id":"40345:503043182","meshCode":"503043182","cityCode":"40345","city":"新宮町","lat":33.6770833,"lon":130.484375,"areaKm2":0.2500919,"populated2020":true,"population2020":138.092,"populationNote":"2020年基準の国交省調整値"},"geometry":{"type":"Polygon","coordinates":[[[130.484407134,33.675],[130.483449728,33.67548694599999],[130.482663891,33.675590559],[130.482067224,33.675776667],[130.48125,33.675816634136226],[130.48125,33.679166666666674],[130.4875,33.67916666666667],[130.4875,33.675],[130.484407134,33.675]]]}},{"type":"Feature","id":"40345:503043191","properties":{"id":"40345:503043191","meshCode":"503043191","cityCode":"40345","city":"新宮町","lat":33.6770833,"lon":130.490625,"areaKm2":0.174537,"populated2020":true,"population2020":10.0167,"populationNote":"2020年基準の国交省調整値"},"geometry":{"type":"Polygon","coordinates":[[[130.49323393997827,33.679166666666674],[130.492307782,33.67823444100001],[130.49192,33.677652495000004],[130.491397224,33.676419441],[130.490898885,33.675982225000006],[130.490048327,33.675539721],[130.489863113,33.67499999999999],[130.4875,33.675],[130.4875,33.67916666666667],[130.49323393997827,33.679166666666674]]]}},{"type":"Feature","id":"40345:503043163","properties":{"id":"40345:503043163","meshCode":"503043163","cityCode":"40345","city":"新宮町","lat":33.6814114,"lon":130.4553274,"areaKm2":0.0710019,"populated2020":true,"population2020":null,"populationNote":"境界またぎ・原典収録外のため自治体内人口は未集計"},"geometry":{"type":"Polygon","coordinates":[[[130.45625,33.67991196920246],[130.45561027200003,33.679787775],[130.455160558,33.679529441],[130.454380558,33.680943613],[130.454512503,33.682077495],[130.454133061,33.682604162000004],[130.453594994,33.682845],[130.453271115,33.68314861299999],[130.45319158185643,33.68333333333334],[130.45625,33.68333333333334],[130.45625,33.67991196920246]]]}},{"type":"Feature","id":"40345:503043164","properties":{"id":"40345:503043164","meshCode":"503043164","cityCode":"40345","city":"新宮町","lat":33.68125,"lon":130.459375,"areaKm2":0.1714896,"populated2020":false,"population2020":null,"populationNote":"境界またぎ・原典収録外のため自治体内人口は未集計"},"geometry":{"type":"Polygon","coordinates":[[[130.462364449,33.682256387],[130.46097,33.68155555900001],[130.460779728,33.681383333],[130.460555837,33.680719721],[130.460093061,33.680408333],[130.459342503,33.680205],[130.458235837,33.680137495000004],[130.457637224,33.679923333],[130.456966394,33.680075829],[130.45625,33.67991196920246],[130.45625,33.68333333333334],[130.4625,33.68333333333334],[130.4625,33.682256387],[130.462364449,33.682256387]]]}},{"type":"Feature","id":"40345:503043173","properties":{"id":"40345:503043173","meshCode":"503043173","cityCode":"40345","city":"新宮町","lat":33.6814081,"lon":130.4674902,"areaKm2":0.1109176,"populated2020":false,"population2020":null,"populationNote":"境界またぎ・原典収録外のため自治体内人口は未集計"},"geometry":{"type":"Polygon","coordinates":[[[130.46875,33.6795422226136],[130.467198612,33.680130559],[130.466752776,33.680486667],[130.466176109,33.681516667],[130.466065551,33.682294441],[130.465786667,33.682580279],[130.465113606,33.682921108],[130.464412218,33.682985],[130.464056394,33.682846108],[130.463500272,33.682424721000004],[130.463197782,33.68229749499999],[130.4625,33.682256387],[130.4625,33.68333333333334],[130.46875,33.68333333333334],[130.46875,33.6795422226136]]]}},{"type":"Feature","id":"40345:503043174","properties":{"id":"40345:503043174","meshCode":"503043174","cityCode":"40345","city":"新宮町","lat":33.68125,"lon":130.471875,"areaKm2":0.2646069,"populated2020":false,"population2020":null,"populationNote":"境界またぎ・原典収録外のため自治体内人口は未集計"},"geometry":{"type":"Polygon","coordinates":[[[130.46962166,33.679350559],[130.469230272,33.679526946],[130.46875,33.6795422226136],[130.46875,33.68333333333334],[130.475,33.68333333333334],[130.475,33.679166666666674],[130.46982000930083,33.67916666666667],[130.46962166,33.679350559]]]}},{"type":"Feature","id":"40345:503043183","properties":{"id":"40345:503043183","meshCode":"503043183","cityCode":"40345","city":"新宮町","lat":33.68125,"lon":130.478125,"areaKm2":0.2678037,"populated2020":false,"population2020":null,"populationNote":"境界またぎ・原典収録外のため自治体内人口は未集計"},"geometry":{"type":"Polygon","coordinates":[[[130.475,33.679166666666674],[130.475,33.68333333333334],[130.48125,33.68333333333333],[130.48125,33.679166666666674],[130.475,33.679166666666674]]]}},{"type":"Feature","id":"40345:503043184","properties":{"id":"40345:503043184","meshCode":"503043184","cityCode":"40345","city":"新宮町","lat":33.68125,"lon":130.484375,"areaKm2":0.2678033,"populated2020":true,"population2020":5.997,"populationNote":"2020年基準の国交省調整値"},"geometry":{"type":"Polygon","coordinates":[[[130.48125,33.679166666666674],[130.48125,33.68333333333333],[130.4875,33.68333333333334],[130.4875,33.67916666666667],[130.48125,33.679166666666674]]]}},{"type":"Feature","id":"40345:503043193","properties":{"id":"40345:503043193","meshCode":"503043193","cityCode":"40345","city":"新宮町","lat":33.68125,"lon":130.490625,"areaKm2":0.2665147,"populated2020":false,"population2020":null,"populationNote":"境界またぎ・原典収録外のため自治体内人口は未集計"},"geometry":{"type":"Polygon","coordinates":[[[130.49375,33.67961197295708],[130.49323393997827,33.679166666666674],[130.4875,33.67916666666667],[130.4875,33.68333333333334],[130.49375,33.68333333333333],[130.49375,33.67961197295708]]]}},{"type":"Feature","id":"40345:503043194","properties":{"id":"40345:503043194","meshCode":"503043194","cityCode":"40345","city":"新宮町","lat":33.6814899,"lon":130.4949001,"areaKm2":0.1375871,"populated2020":true,"population2020":5.8552,"populationNote":"2020年基準の国交省調整値"},"geometry":{"type":"Polygon","coordinates":[[[130.5,33.682052802],[130.498925551,33.681960829000005],[130.498816939,33.681599721],[130.49864917,33.68154416200001],[130.498232776,33.68169499999999],[130.497659728,33.681466107999995],[130.497100272,33.681664441],[130.496572503,33.68198000000001],[130.496438612,33.68198],[130.496244721,33.681889721],[130.496105837,33.681652775],[130.49559917,33.680408054000004],[130.495174449,33.680157225],[130.494583061,33.68000805399999],[130.49375,33.67961197295708],[130.49375,33.68333333333333],[130.5,33.68333333333334],[130.5,33.682052802]]]}},{"type":"Feature","id":"40345:503044103","properties":{"id":"40345:503044103","meshCode":"503044103","cityCode":"40345","city":"新宮町","lat":33.6827964,"lon":130.5014928,"areaKm2":0.0237392,"populated2020":false,"population2020":null,"populationNote":"境界またぎ・原典収録外のため自治体内人口は未集計"},"geometry":{"type":"Polygon","coordinates":[[[130.503295694,33.68333333300001],[130.502894163,33.68266944100001],[130.501718612,33.682587495],[130.501302503,33.682649721],[130.500389442,33.682607225],[130.500211115,33.68244305399999],[130.500091946,33.682098612999994],[130.5,33.682052802],[130.5,33.68333333333334],[130.503295694,33.68333333300001]]]}},{"type":"Feature","id":"40345:503043261","properties":{"id":"40345:503043261","meshCode":"503043261","cityCode":"40345","city":"新宮町","lat":33.6854167,"lon":130.453125,"areaKm2":0.1628969,"populated2020":true,"population2020":null,"populationNote":"境界またぎ・原典収録外のため自治体内人口は未集計"},"geometry":{"type":"Polygon","coordinates":[[[130.453184163,33.683350559],[130.453022218,33.683841945999994],[130.452948885,33.684744441],[130.452806667,33.684997225],[130.452362503,33.685300829],[130.452306939,33.685506387],[130.452361946,33.68597444099999],[130.45174083,33.68663277500001],[130.45164483747362,33.68750000000001],[130.45625,33.68750000000001],[130.45625,33.68333333333334],[130.453184163,33.683350559]]]}},{"type":"Feature","id":"40345:503043262","properties":{"id":"40345:503043262","meshCode":"503043262","cityCode":"40345","city":"新宮町","lat":33.6854167,"lon":130.459375,"areaKm2":0.2677921,"populated2020":true,"population2020":60.176,"populationNote":"2020年基準の国交省調整値"},"geometry":{"type":"Polygon","coordinates":[[[130.45625,33.68333333333334],[130.45625,33.68750000000001],[130.4625,33.68750000000001],[130.4625,33.68333333333334],[130.45625,33.68333333333334]]]}},{"type":"Feature","id":"40345:503043271","properties":{"id":"40345:503043271","meshCode":"503043271","cityCode":"40345","city":"新宮町","lat":33.6854167,"lon":130.465625,"areaKm2":0.2677917,"populated2020":false,"population2020":null,"populationNote":"境界またぎ・原典収録外のため自治体内人口は未集計"},"geometry":{"type":"Polygon","coordinates":[[[130.4625,33.68333333333334],[130.4625,33.68750000000001],[130.46875,33.68750000000001],[130.46875,33.68333333333334],[130.4625,33.68333333333334]]]}},{"type":"Feature","id":"40345:503043272","properties":{"id":"40345:503043272","meshCode":"503043272","cityCode":"40345","city":"新宮町","lat":33.6854167,"lon":130.471875,"areaKm2":0.2677913,"populated2020":true,"population2020":91.7687,"populationNote":"2020年基準の国交省調整値"},"geometry":{"type":"Polygon","coordinates":[[[130.46875,33.68333333333334],[130.46875,33.68750000000001],[130.475,33.68750000000001],[130.475,33.68333333333334],[130.46875,33.68333333333334]]]}},{"type":"Feature","id":"40345:503043281","properties":{"id":"40345:503043281","meshCode":"503043281","cityCode":"40345","city":"新宮町","lat":33.6854167,"lon":130.478125,"areaKm2":0.267791,"populated2020":false,"population2020":null,"populationNote":"境界またぎ・原典収録外のため自治体内人口は未集計"},"geometry":{"type":"Polygon","coordinates":[[[130.475,33.68333333333334],[130.475,33.68750000000001],[130.48125,33.68750000000001],[130.48125,33.68333333333333],[130.475,33.68333333333334]]]}},{"type":"Feature","id":"40345:503043282","properties":{"id":"40345:503043282","meshCode":"503043282","cityCode":"40345","city":"新宮町","lat":33.6854167,"lon":130.484375,"areaKm2":0.2677906,"populated2020":true,"population2020":16.8357,"populationNote":"2020年基準の国交省調整値"},"geometry":{"type":"Polygon","coordinates":[[[130.48125,33.68333333333333],[130.48125,33.68750000000001],[130.4875,33.6875],[130.4875,33.68333333333334],[130.48125,33.68333333333333]]]}},{"type":"Feature","id":"40345:503043291","properties":{"id":"40345:503043291","meshCode":"503043291","cityCode":"40345","city":"新宮町","lat":33.6854167,"lon":130.490625,"areaKm2":0.2677902,"populated2020":true,"population2020":13.9221,"populationNote":"2020年基準の国交省調整値"},"geometry":{"type":"Polygon","coordinates":[[[130.4875,33.68333333333334],[130.4875,33.6875],[130.49375,33.68750000000001],[130.49375,33.68333333333333],[130.4875,33.68333333333334]]]}},{"type":"Feature","id":"40345:503043292","properties":{"id":"40345:503043292","meshCode":"503043292","cityCode":"40345","city":"新宮町","lat":33.6854167,"lon":130.496875,"areaKm2":0.2677899,"populated2020":true,"population2020":5.9259,"populationNote":"2020年基準の国交省調整値"},"geometry":{"type":"Polygon","coordinates":[[[130.49375,33.68333333333333],[130.49375,33.68750000000001],[130.5,33.68750000000001],[130.5,33.68333333333334],[130.49375,33.68333333333333]]]}},{"type":"Feature","id":"40345:503044201","properties":{"id":"40345:503044201","meshCode":"503044201","cityCode":"40345","city":"新宮町","lat":33.6854167,"lon":130.503125,"areaKm2":0.2415879,"populated2020":false,"population2020":null,"populationNote":"境界またぎ・原典収録外のため自治体内人口は未集計"},"geometry":{"type":"Polygon","coordinates":[[[130.50625,33.68390702025606],[130.505447497,33.684155829000005],[130.504964721,33.684441387],[130.504259442,33.684216108],[130.503325551,33.684078332999995],[130.50318917,33.683868333],[130.50329569408515,33.68333333333334],[130.5,33.68333333333334],[130.5,33.68750000000001],[130.50625,33.68750000000001],[130.50625,33.68390702025606]]]}},{"type":"Feature","id":"40345:503044202","properties":{"id":"40345:503044202","meshCode":"503044202","cityCode":"40345","city":"新宮町","lat":33.6855306,"lon":130.5076671,"areaKm2":0.0866126,"populated2020":false,"population2020":null,"populationNote":"境界またぎ・原典収録外のため自治体内人口は未集計"},"geometry":{"type":"Polygon","coordinates":[[[130.50718860561454,33.6875],[130.507346394,33.68733110800001],[130.507983061,33.68726861300001],[130.508367782,33.68699305399999],[130.50815,33.68642444099999],[130.508237497,33.686204721],[130.509164721,33.685453613],[130.509248612,33.684691108],[130.508982776,33.68442861300001],[130.50786,33.684005279],[130.507551946,33.683972495000006],[130.507177782,33.683726387],[130.506971115,33.683677225],[130.506666939,33.68371666699999],[130.50625,33.68390702025606],[130.50625,33.68750000000001],[130.50718860561454,33.6875]]]}},{"type":"Feature","id":"40345:503043254","properties":{"id":"40345:503043254","meshCode":"503043254","cityCode":"40345","city":"新宮町","lat":33.69106,"lon":130.4497317,"areaKm2":0.0067922,"populated2020":true,"population2020":null,"populationNote":"境界またぎ・原典収録外のため自治体内人口は未集計"},"geometry":{"type":"Polygon","coordinates":[[[130.45,33.69048897300001],[130.449168885,33.6914],[130.4486814793952,33.69166666666666],[130.45,33.69166666666666],[130.45,33.69048897300001]]]}},{"type":"Feature","id":"40345:503043263","properties":{"id":"40345:503043263","meshCode":"503043263","cityCode":"40345","city":"新宮町","lat":33.6895833,"lon":130.453125,"areaKm2":0.2432858,"populated2020":true,"population2020":265.8558,"populationNote":"2020年基準の国交省調整値"},"geometry":{"type":"Polygon","coordinates":[[[130.45164483747362,33.68750000000001],[130.45147,33.687981945999994],[130.450986939,33.688473892000005],[130.45087166,33.688861667],[130.450186939,33.689948333000004],[130.450181946,33.690220559],[130.45,33.69048897300001],[130.45,33.69166666666666],[130.45625,33.69166666666667],[130.45625,33.68750000000001],[130.45164483747362,33.68750000000001]]]}},{"type":"Feature","id":"40345:503043264","properties":{"id":"40345:503043264","meshCode":"503043264","cityCode":"40345","city":"新宮町","lat":33.6895833,"lon":130.459375,"areaKm2":0.2677793,"populated2020":true,"population2020":75.196,"populationNote":"2020年基準の国交省調整値"},"geometry":{"type":"Polygon","coordinates":[[[130.45625,33.68750000000001],[130.45625,33.69166666666667],[130.4625,33.69166666666667],[130.4625,33.68750000000001],[130.45625,33.68750000000001]]]}},{"type":"Feature","id":"40345:503043273","properties":{"id":"40345:503043273","meshCode":"503043273","cityCode":"40345","city":"新宮町","lat":33.6895833,"lon":130.465625,"areaKm2":0.267779,"populated2020":true,"population2020":25.6722,"populationNote":"2020年基準の国交省調整値"},"geometry":{"type":"Polygon","coordinates":[[[130.4625,33.68750000000001],[130.4625,33.69166666666667],[130.46875,33.69166666666667],[130.46875,33.68750000000001],[130.4625,33.68750000000001]]]}},{"type":"Feature","id":"40345:503043274","properties":{"id":"40345:503043274","meshCode":"503043274","cityCode":"40345","city":"新宮町","lat":33.6895833,"lon":130.471875,"areaKm2":0.2677786,"populated2020":true,"population2020":275.2048,"populationNote":"2020年基準の国交省調整値"},"geometry":{"type":"Polygon","coordinates":[[[130.46875,33.68750000000001],[130.46875,33.69166666666667],[130.475,33.69166666666666],[130.475,33.68750000000001],[130.46875,33.68750000000001]]]}},{"type":"Feature","id":"40345:503043283","properties":{"id":"40345:503043283","meshCode":"503043283","cityCode":"40345","city":"新宮町","lat":33.6895833,"lon":130.478125,"areaKm2":0.2677782,"populated2020":true,"population2020":92.0855,"populationNote":"2020年基準の国交省調整値"},"geometry":{"type":"Polygon","coordinates":[[[130.475,33.68750000000001],[130.475,33.69166666666666],[130.48125,33.69166666666667],[130.48125,33.68750000000001],[130.475,33.68750000000001]]]}},{"type":"Feature","id":"40345:503043284","properties":{"id":"40345:503043284","meshCode":"503043284","cityCode":"40345","city":"新宮町","lat":33.6895833,"lon":130.484375,"areaKm2":0.2677778,"populated2020":true,"population2020":30.6317,"populationNote":"2020年基準の国交省調整値"},"geometry":{"type":"Polygon","coordinates":[[[130.48125,33.68750000000001],[130.48125,33.69166666666667],[130.4875,33.69166666666667],[130.4875,33.6875],[130.48125,33.68750000000001]]]}},{"type":"Feature","id":"40345:503043293","properties":{"id":"40345:503043293","meshCode":"503043293","cityCode":"40345","city":"新宮町","lat":33.6895833,"lon":130.490625,"areaKm2":0.2677775,"populated2020":true,"population2020":37.5505,"populationNote":"2020年基準の国交省調整値"},"geometry":{"type":"Polygon","coordinates":[[[130.4875,33.6875],[130.4875,33.69166666666667],[130.49375,33.69166666666666],[130.49375,33.68750000000001],[130.4875,33.6875]]]}},{"type":"Feature","id":"40345:503043294","properties":{"id":"40345:503043294","meshCode":"503043294","cityCode":"40345","city":"新宮町","lat":33.6895833,"lon":130.496875,"areaKm2":0.2677771,"populated2020":false,"population2020":null,"populationNote":"境界またぎ・原典収録外のため自治体内人口は未集計"},"geometry":{"type":"Polygon","coordinates":[[[130.49375,33.68750000000001],[130.49375,33.69166666666666],[130.5,33.69166666666667],[130.5,33.68750000000001],[130.49375,33.68750000000001]]]}},{"type":"Feature","id":"40345:503044203","properties":{"id":"40345:503044203","meshCode":"503044203","cityCode":"40345","city":"新宮町","lat":33.6895833,"lon":130.503125,"areaKm2":0.2269336,"populated2020":false,"population2020":null,"populationNote":"境界またぎ・原典収録外のため自治体内人口は未集計"},"geometry":{"type":"Polygon","coordinates":[[[130.504127782,33.691480000000006],[130.50433406000002,33.69107016200001],[130.504554449,33.69085361300001],[130.505320272,33.690433891999994],[130.505397224,33.690207495],[130.505106939,33.689715279],[130.505026394,33.689243053999995],[130.505444449,33.68884722500001],[130.505794163,33.688650279],[130.50625,33.68858295566256],[130.50625,33.68750000000001],[130.5,33.68750000000001],[130.5,33.69166666666667],[130.50413977997857,33.69166666666667],[130.504127782,33.691480000000006]]]}},{"type":"Feature","id":"40345:503044204","properties":{"id":"40345:503044204","meshCode":"503044204","cityCode":"40345","city":"新宮町","lat":33.6881714,"lon":130.5066019,"areaKm2":0.0093105,"populated2020":false,"population2020":null,"populationNote":"境界またぎ・原典収録外のため自治体内人口は未集計"},"geometry":{"type":"Polygon","coordinates":[[[130.50625,33.68858295566256],[130.506990558,33.688738891999996],[130.507056939,33.688702775],[130.507102503,33.688509162],[130.50694166,33.688092775],[130.50718860561454,33.6875],[130.50625,33.68750000000001],[130.50625,33.68858295566256]]]}},{"type":"Feature","id":"40345:503043352","properties":{"id":"40345:503043352","meshCode":"503043352","cityCode":"40345","city":"新宮町","lat":33.6937865,"lon":130.4490388,"areaKm2":0.0825592,"populated2020":true,"population2020":null,"populationNote":"境界またぎ・原典収録外のため自治体内人口は未集計"},"geometry":{"type":"Polygon","coordinates":[[[130.448681479,33.691666667],[130.448455551,33.691895279],[130.448233333,33.692418333],[130.447781946,33.695442495],[130.447703061,33.695776802],[130.4475981963605,33.695833333333326],[130.45,33.695833333333326],[130.45,33.69166666666666],[130.448681479,33.691666667]]]}},{"type":"Feature","id":"40345:503043361","properties":{"id":"40345:503043361","meshCode":"503043361","cityCode":"40345","city":"新宮町","lat":33.69375,"lon":130.453125,"areaKm2":0.267767,"populated2020":true,"population2020":627.2419,"populationNote":"2020年基準の国交省調整値"},"geometry":{"type":"Polygon","coordinates":[[[130.45,33.69166666666666],[130.45,33.695833333333326],[130.45625,33.69583333333333],[130.45625,33.69166666666667],[130.45,33.69166666666666]]]}},{"type":"Feature","id":"40345:503043362","properties":{"id":"40345:503043362","meshCode":"503043362","cityCode":"40345","city":"新宮町","lat":33.69375,"lon":130.459375,"areaKm2":0.2677666,"populated2020":true,"population2020":3.9722,"populationNote":"2020年基準の国交省調整値"},"geometry":{"type":"Polygon","coordinates":[[[130.45625,33.69166666666667],[130.45625,33.69583333333333],[130.4625,33.69583333333333],[130.4625,33.69166666666667],[130.45625,33.69166666666667]]]}},{"type":"Feature","id":"40345:503043371","properties":{"id":"40345:503043371","meshCode":"503043371","cityCode":"40345","city":"新宮町","lat":33.69375,"lon":130.465625,"areaKm2":0.2632055,"populated2020":false,"population2020":null,"populationNote":"境界またぎ・原典収録外のため自治体内人口は未集計"},"geometry":{"type":"Polygon","coordinates":[[[130.46735917,33.695810559],[130.467278885,33.695650559],[130.46875,33.695375572377266],[130.46875,33.69166666666667],[130.4625,33.69166666666667],[130.4625,33.69583333333333],[130.46735917,33.695810559]]]}},{"type":"Feature","id":"40345:503043372","properties":{"id":"40345:503043372","meshCode":"503043372","cityCode":"40345","city":"新宮町","lat":33.69375,"lon":130.471875,"areaKm2":0.1708574,"populated2020":true,"population2020":33.6697,"populationNote":"2020年基準の国交省調整値"},"geometry":{"type":"Polygon","coordinates":[[[130.468770558,33.695368892000005],[130.469181115,33.695073332999996],[130.46979,33.694893613000005],[130.470762503,33.694410559000005],[130.471840272,33.694283053999996],[130.473296939,33.69380194600001],[130.473939442,33.693828892],[130.475,33.6942],[130.475,33.69166666666666],[130.46875,33.69166666666667],[130.468770558,33.695368892000005]]]}},{"type":"Feature","id":"40345:503043381","properties":{"id":"40345:503043381","meshCode":"503043381","cityCode":"40345","city":"新宮町","lat":33.69375,"lon":130.478125,"areaKm2":0.1910496,"populated2020":true,"population2020":null,"populationNote":"境界またぎ・原典収録外のため自治体内人口は未集計"},"geometry":{"type":"Polygon","coordinates":[[[130.475,33.6942],[130.476937497,33.694482494999995],[130.477281388,33.69481305400001],[130.478105551,33.695116387],[130.479101388,33.69498777500001],[130.479842218,33.694533892],[130.480209442,33.694545559000005],[130.480868327,33.69440861300001],[130.48125,33.69466417875215],[130.48125,33.69166666666667],[130.475,33.69166666666666],[130.475,33.6942]]]}},{"type":"Feature","id":"40345:503043382","properties":{"id":"40345:503043382","meshCode":"503043382","cityCode":"40345","city":"新宮町","lat":33.69375,"lon":130.484375,"areaKm2":0.1502882,"populated2020":false,"population2020":null,"populationNote":"境界またぎ・原典収録外のため自治体内人口は未集計"},"geometry":{"type":"Polygon","coordinates":[[[130.48125,33.69466417875215],[130.48159083,33.694784162],[130.481802503,33.694709721],[130.481994449,33.694343892],[130.482163061,33.694200829],[130.483316109,33.69423805400001],[130.484337224,33.694171667000006],[130.484711115,33.693940829],[130.485116109,33.693522494999996],[130.485328327,33.693461946],[130.486211115,33.693534162],[130.487026667,33.693802225],[130.4875,33.693789730976555],[130.4875,33.69166666666667],[130.48125,33.69166666666667],[130.48125,33.69466417875215]]]}},{"type":"Feature","id":"40345:503043391","properties":{"id":"40345:503043391","meshCode":"503043391","cityCode":"40345","city":"新宮町","lat":33.6927314,"lon":130.4888456,"areaKm2":0.0814606,"populated2020":true,"population2020":null,"populationNote":"境界またぎ・原典収録外のため自治体内人口は未集計"},"geometry":{"type":"Polygon","coordinates":[[[130.487528612,33.693785],[130.488337782,33.69347389200001],[130.488944994,33.693469721],[130.489378885,33.693358333],[130.490433061,33.692526946],[130.49065,33.692393892],[130.491024994,33.692305829000006],[130.491506667,33.69235],[130.49375,33.69309901778196],[130.49375,33.69166666666666],[130.4875,33.69166666666667],[130.487528612,33.693785]]]}},{"type":"Feature","id":"40345:503043392","properties":{"id":"40345:503043392","meshCode":"503043392","cityCode":"40345","city":"新宮町","lat":33.69375,"lon":130.496875,"areaKm2":0.2257217,"populated2020":true,"population2020":3.9385,"populationNote":"2020年基準の国交省調整値"},"geometry":{"type":"Polygon","coordinates":[[[130.49375,33.69309901778196],[130.494282503,33.693436946],[130.494592776,33.693875000000006],[130.495703891,33.69505638700001],[130.496351388,33.695511946],[130.49696,33.695701667],[130.49713394673157,33.69583333333333],[130.5,33.695833333333326],[130.5,33.69166666666667],[130.49375,33.69166666666666],[130.49375,33.69309901778196]]]}},{"type":"Feature","id":"40345:503044301","properties":{"id":"40345:503044301","meshCode":"503044301","cityCode":"40345","city":"新宮町","lat":33.69375,"lon":130.503125,"areaKm2":0.162543,"populated2020":false,"population2020":null,"populationNote":"境界またぎ・原典収録外のため自治体内人口は未集計"},"geometry":{"type":"Polygon","coordinates":[[[130.5030007007228,33.695833333333326],[130.503122218,33.695001108],[130.502968327,33.694558332999996],[130.503115279,33.694167775],[130.503543891,33.69383889200001],[130.503813333,33.69376361300001],[130.50453722400002,33.693766667],[130.504659728,33.69361944100001],[130.504544449,33.692546667],[130.504229442,33.69221527900001],[130.50413977997857,33.69166666666667],[130.5,33.69166666666667],[130.5,33.695833333333326],[130.5030007007228,33.695833333333326]]]}},{"type":"Feature","id":"40345:503043353","properties":{"id":"40345:503043353","meshCode":"503043353","cityCode":"40345","city":"新宮町","lat":33.6994515,"lon":130.4412743,"areaKm2":0.0152302,"populated2020":true,"population2020":null,"populationNote":"境界またぎ・原典収録外のため自治体内人口は未集計"},"geometry":{"type":"Polygon","coordinates":[[[130.442072776,33.699956666999995],[130.442371115,33.699803892],[130.441952503,33.69924805400001],[130.441733333,33.69913833299999],[130.441517782,33.699300559],[130.441232218,33.69886944100001],[130.440817782,33.69924194600001],[130.440364721,33.699510279],[130.440267782,33.69970805400001],[130.440297756,33.7],[130.442072776,33.699956666999995]]]}},{"type":"Feature","id":"40345:503043354","properties":{"id":"40345:503043354","meshCode":"503043354","cityCode":"40345","city":"新宮町","lat":33.6979371,"lon":130.4487828,"areaKm2":0.1566699,"populated2020":true,"population2020":null,"populationNote":"境界またぎ・原典収録外のため自治体内人口は未集計"},"geometry":{"type":"Polygon","coordinates":[[[130.4475981963605,33.695833333333326],[130.446967808,33.696261054],[130.447414449,33.69693889199999],[130.447436109,33.69713666700001],[130.447843891,33.697818613],[130.446131388,33.698528613],[130.445418054,33.69900610799999],[130.444316939,33.69896333300001],[130.443902776,33.7],[130.45,33.70000000000001],[130.45,33.695833333333326],[130.4475981963605,33.695833333333326]]]}},{"type":"Feature","id":"40345:503043363","properties":{"id":"40345:503043363","meshCode":"503043363","cityCode":"40345","city":"新宮町","lat":33.6979167,"lon":130.453125,"areaKm2":0.2677542,"populated2020":true,"population2020":579.9457,"populationNote":"2020年基準の国交省調整値"},"geometry":{"type":"Polygon","coordinates":[[[130.45,33.695833333333326],[130.45,33.70000000000001],[130.45625,33.7],[130.45625,33.69583333333333],[130.45,33.695833333333326]]]}},{"type":"Feature","id":"40345:503043364","properties":{"id":"40345:503043364","meshCode":"503043364","cityCode":"40345","city":"新宮町","lat":33.6979167,"lon":130.459375,"areaKm2":0.2677539,"populated2020":true,"population2020":71.4472,"populationNote":"2020年基準の国交省調整値"},"geometry":{"type":"Polygon","coordinates":[[[130.45625,33.69583333333333],[130.45625,33.7],[130.4625,33.699999999999996],[130.4625,33.69583333333333],[130.45625,33.69583333333333]]]}},{"type":"Feature","id":"40345:503043373","properties":{"id":"40345:503043373","meshCode":"503043373","cityCode":"40345","city":"新宮町","lat":33.6979167,"lon":130.465625,"areaKm2":0.2048489,"populated2020":true,"population2020":null,"populationNote":"境界またぎ・原典収録外のため自治体内人口は未集計"},"geometry":{"type":"Polygon","coordinates":[[[130.466241051,33.7],[130.46683166,33.699462775],[130.467060272,33.69913],[130.467300558,33.698549162000006],[130.467325551,33.698032775],[130.467751115,33.697790559],[130.467513891,33.696976946],[130.4673706087498,33.69583333333333],[130.4625,33.69583333333333],[130.4625,33.699999999999996],[130.466241051,33.7]]]}},{"type":"Feature","id":"40345:503043394","properties":{"id":"40345:503043394","meshCode":"503043394","cityCode":"40345","city":"新宮町","lat":33.6971358,"lon":130.4989182,"areaKm2":0.0536692,"populated2020":false,"population2020":null,"populationNote":"境界またぎ・原典収録外のため自治体内人口は未集計"},"geometry":{"type":"Polygon","coordinates":[[[130.49713394673157,33.69583333333333],[130.497371946,33.69621582900001],[130.498098885,33.69661944100001],[130.49784,33.697060279000006],[130.497853891,33.697342494999994],[130.49855,33.698185559],[130.498847497,33.698480829],[130.499578327,33.69853666700001],[130.5,33.69757564],[130.5,33.695833333333326],[130.49713394673157,33.69583333333333]]]}},{"type":"Feature","id":"40345:503044303","properties":{"id":"40345:503044303","meshCode":"503044303","cityCode":"40345","city":"新宮町","lat":33.6966715,"lon":130.5013978,"areaKm2":0.0389758,"populated2020":false,"population2020":null,"populationNote":"境界またぎ・原典収録外のため自治体内人口は未集計"},"geometry":{"type":"Polygon","coordinates":[[[130.5,33.69757564],[130.500282218,33.69727833300001],[130.501230272,33.697009441],[130.501985837,33.697248892],[130.50259083,33.697111108],[130.502748327,33.69701277499999],[130.5030007007228,33.695833333333326],[130.5,33.695833333333326],[130.5,33.69757564]]]}},{"type":"Feature","id":"40345:503043442","properties":{"id":"40345:503043442","meshCode":"503043442","cityCode":"40345","city":"新宮町","lat":33.7034121,"lon":130.4363528,"areaKm2":0.0382934,"populated2020":true,"population2020":null,"populationNote":"境界またぎ・原典収録外のため自治体内人口は未集計"},"geometry":{"type":"Polygon","coordinates":[[[130.4375,33.702535962204735],[130.436462218,33.702445278999996],[130.436017497,33.702631387],[130.435569728,33.702933333],[130.435096939,33.703559999999996],[130.43442733194107,33.704166666666666],[130.4375,33.704166666666666],[130.4375,33.702535962204735]]]}},{"type":"Feature","id":"40345:503043451","properties":{"id":"40345:503043451","meshCode":"503043451","cityCode":"40345","city":"新宮町","lat":33.7020833,"lon":130.440625,"areaKm2":0.2066879,"populated2020":true,"population2020":1577.8787,"populationNote":"2020年基準の国交省調整値"},"geometry":{"type":"Polygon","coordinates":[[[130.443672218,33.700105558999994],[130.443398054,33.700418613],[130.442967224,33.700656108000004],[130.442343891,33.700914441],[130.442213891,33.700771387],[130.441683891,33.701073333],[130.441590558,33.700848054000005],[130.441904449,33.700658054],[130.441588885,33.70025055899999],[130.44198797700003,33.70000000000001],[130.440297756,33.7],[130.440409728,33.700498054],[130.440314449,33.70080166700001],[130.439983606,33.700864162],[130.439809728,33.700756387000006],[130.439066109,33.700913333],[130.438887224,33.701238612999994],[130.438907224,33.70203000000001],[130.438835279,33.702216108],[130.438608054,33.702316108],[130.438183606,33.702349162000004],[130.437740558,33.702527495000005],[130.4375,33.702535962204735],[130.4375,33.704166666666666],[130.44375,33.70416666666667],[130.44375,33.700105559],[130.443672218,33.700105558999994]]]}},{"type":"Feature","id":"40345:503043452","properties":{"id":"40345:503043452","meshCode":"503043452","cityCode":"40345","city":"新宮町","lat":33.7020833,"lon":130.446875,"areaKm2":0.2676165,"populated2020":true,"population2020":2698.2635,"populationNote":"2020年基準の国交省調整値"},"geometry":{"type":"Polygon","coordinates":[[[130.443886109,33.70003694600001],[130.44375,33.700105559],[130.44375,33.70416666666667],[130.45,33.704166666666666],[130.45,33.70000000000001],[130.443886109,33.70003694600001]]]}},{"type":"Feature","id":"40345:503043461","properties":{"id":"40345:503043461","meshCode":"503043461","cityCode":"40345","city":"新宮町","lat":33.7020833,"lon":130.453125,"areaKm2":0.2677415,"populated2020":true,"population2020":1139.2943,"populationNote":"2020年基準の国交省調整値"},"geometry":{"type":"Polygon","coordinates":[[[130.45,33.70000000000001],[130.45,33.704166666666666],[130.45625,33.70416666666667],[130.45625,33.7],[130.45,33.70000000000001]]]}},{"type":"Feature","id":"40345:503043462","properties":{"id":"40345:503043462","meshCode":"503043462","cityCode":"40345","city":"新宮町","lat":33.7020833,"lon":130.459375,"areaKm2":0.2677411,"populated2020":true,"population2020":27.7688,"populationNote":"2020年基準の国交省調整値"},"geometry":{"type":"Polygon","coordinates":[[[130.45625,33.7],[130.45625,33.70416666666667],[130.4625,33.70416666666667],[130.4625,33.699999999999996],[130.45625,33.7]]]}},{"type":"Feature","id":"40345:503043471","properties":{"id":"40345:503043471","meshCode":"503043471","cityCode":"40345","city":"新宮町","lat":33.7020833,"lon":130.465625,"areaKm2":0.2028936,"populated2020":true,"population2020":null,"populationNote":"境界またぎ・原典収録外のため自治体内人口は未集計"},"geometry":{"type":"Polygon","coordinates":[[[130.46800376295337,33.70416666666666],[130.468174994,33.703593892],[130.468114721,33.702549162],[130.46664166000002,33.701344162],[130.465717224,33.700970559],[130.466241051,33.7],[130.4625,33.699999999999996],[130.4625,33.70416666666667],[130.46800376295337,33.70416666666666]]]}},{"type":"Feature","id":"40345:503043443","properties":{"id":"40345:503043443","meshCode":"503043443","cityCode":"40345","city":"新宮町","lat":33.7071604,"lon":130.4307345,"areaKm2":0.0160763,"populated2020":true,"population2020":null,"populationNote":"境界またぎ・原典収録外のため自治体内人口は未集計"},"geometry":{"type":"Polygon","coordinates":[[[130.431216667,33.706219721000004],[130.430768885,33.70659],[130.430035279,33.706964441],[130.430481388,33.707440559],[130.43057,33.708243892],[130.42879876942732,33.708333333333336],[130.43125,33.708333333333336],[130.431216667,33.706219721000004]]]}},{"type":"Feature","id":"40345:503043444","properties":{"id":"40345:503043444","meshCode":"503043444","cityCode":"40345","city":"新宮町","lat":33.70625,"lon":130.434375,"areaKm2":0.2260416,"populated2020":true,"population2020":null,"populationNote":"境界またぎ・原典収録外のため自治体内人口は未集計"},"geometry":{"type":"Polygon","coordinates":[[[130.43442733194107,33.704166666666666],[130.43394917,33.704383054],[130.433501388,33.704721946],[130.433318612,33.705247225],[130.432608327,33.70580361299999],[130.432424721,33.70616889200001],[130.432107224,33.706233613],[130.43147917,33.70615110799999],[130.43125,33.70619760052274],[130.43125,33.708333333333336],[130.4375,33.70833333333333],[130.4375,33.704166666666666],[130.43442733194107,33.704166666666666]]]}},{"type":"Feature","id":"40345:503043453","properties":{"id":"40345:503043453","meshCode":"503043453","cityCode":"40345","city":"新宮町","lat":33.70625,"lon":130.440625,"areaKm2":0.2677295,"populated2020":true,"population2020":572.8997,"populationNote":"2020年基準の国交省調整値"},"geometry":{"type":"Polygon","coordinates":[[[130.4375,33.704166666666666],[130.4375,33.70833333333333],[130.44375,33.708333333333336],[130.44375,33.70416666666667],[130.4375,33.704166666666666]]]}},{"type":"Feature","id":"40345:503043454","properties":{"id":"40345:503043454","meshCode":"503043454","cityCode":"40345","city":"新宮町","lat":33.70625,"lon":130.446875,"areaKm2":0.2677291,"populated2020":true,"population2020":927.6492,"populationNote":"2020年基準の国交省調整値"},"geometry":{"type":"Polygon","coordinates":[[[130.44375,33.70416666666667],[130.44375,33.708333333333336],[130.45,33.70833333333333],[130.45,33.704166666666666],[130.44375,33.70416666666667]]]}},{"type":"Feature","id":"40345:503043463","properties":{"id":"40345:503043463","meshCode":"503043463","cityCode":"40345","city":"新宮町","lat":33.70625,"lon":130.453125,"areaKm2":0.2677287,"populated2020":true,"population2020":1322.0325,"populationNote":"2020年基準の国交省調整値"},"geometry":{"type":"Polygon","coordinates":[[[130.45,33.704166666666666],[130.45,33.70833333333333],[130.45625,33.708333333333336],[130.45625,33.70416666666667],[130.45,33.704166666666666]]]}},{"type":"Feature","id":"40345:503043464","properties":{"id":"40345:503043464","meshCode":"503043464","cityCode":"40345","city":"新宮町","lat":33.70625,"lon":130.459375,"areaKm2":0.2677284,"populated2020":true,"population2020":580.638,"populationNote":"2020年基準の国交省調整値"},"geometry":{"type":"Polygon","coordinates":[[[130.45625,33.70416666666667],[130.45625,33.708333333333336],[130.4625,33.708333333333336],[130.4625,33.70416666666667],[130.45625,33.70416666666667]]]}},{"type":"Feature","id":"40345:503043473","properties":{"id":"40345:503043473","meshCode":"503043473","cityCode":"40345","city":"新宮町","lat":33.70625,"lon":130.465625,"areaKm2":0.2485407,"populated2020":false,"population2020":null,"populationNote":"境界またぎ・原典収録外のため自治体内人口は未集計"},"geometry":{"type":"Polygon","coordinates":[[[130.468104306,33.708333333000006],[130.46850166,33.708036387],[130.468736939,33.707056387],[130.468676667,33.706848892],[130.468089728,33.706058613],[130.46800376295337,33.70416666666666],[130.4625,33.70416666666667],[130.4625,33.708333333333336],[130.468104306,33.708333333000006]]]}},{"type":"Feature","id":"40345:503043531","properties":{"id":"40345:503043531","meshCode":"503043531","cityCode":"40345","city":"新宮町","lat":33.71246,"lon":130.4185306,"areaKm2":0.000473,"populated2020":false,"population2020":null,"populationNote":"境界またぎ・原典収録外のため自治体内人口は未集計"},"geometry":{"type":"Polygon","coordinates":[[[130.41875,33.71234872113154],[130.41817816035254,33.712500000000006],[130.41875,33.7125],[130.41875,33.71234872113154]]]}},{"type":"Feature","id":"40345:503043532","properties":{"id":"40345:503043532","meshCode":"503043532","cityCode":"40345","city":"新宮町","lat":33.7102283,"lon":130.4245091,"areaKm2":0.0886609,"populated2020":true,"population2020":null,"populationNote":"境界またぎ・原典収録外のため自治体内人口は未集計"},"geometry":{"type":"Polygon","coordinates":[[[130.424451946,33.708988054],[130.423845279,33.70887055899999],[130.423544449,33.70845527899999],[130.423355551,33.708539441000006],[130.423256939,33.708678613000004],[130.423143333,33.709117495],[130.424258054,33.710565279],[130.424364994,33.710724162],[130.42433166,33.710878613],[130.423753333,33.711086387],[130.422807497,33.711131108000004],[130.422242776,33.711466108],[130.421758327,33.711540559],[130.421512503,33.71173249499999],[130.420828885,33.71182666699999],[130.41875,33.71234872113154],[130.41875,33.7125],[130.425,33.712500000000006],[130.425,33.70899525200001],[130.42481277600004,33.70893333299999],[130.424451946,33.708988054]]]}},{"type":"Feature","id":"40345:503043541","properties":{"id":"40345:503043541","meshCode":"503043541","cityCode":"40345","city":"新宮町","lat":33.7104167,"lon":130.428125,"areaKm2":0.2329615,"populated2020":true,"population2020":1330.934,"populationNote":"2020年基準の国交省調整値"},"geometry":{"type":"Polygon","coordinates":[[[130.42877000000001,33.708334162],[130.42879,33.708773054],[130.429050558,33.709317495],[130.428241946,33.70979555900001],[130.42810166,33.709789721],[130.428051388,33.709383892],[130.427815837,33.708976387],[130.42725917,33.708796108],[130.427155551,33.708463054],[130.426956667,33.708345559],[130.426492218,33.708519721],[130.426461946,33.708805829],[130.426221388,33.709231108],[130.426204721,33.709566108],[130.425499442,33.70985805400001],[130.425332218,33.709856108],[130.425213891,33.709636667],[130.425268885,33.709084162],[130.425,33.70899525200001],[130.425,33.712500000000006],[130.43125,33.7125],[130.43125,33.708333333333336],[130.42877000000001,33.708334162]]]}},{"type":"Feature","id":"40345:503043542","properties":{"id":"40345:503043542","meshCode":"503043542","cityCode":"40345","city":"新宮町","lat":33.7104167,"lon":130.434375,"areaKm2":0.2677172,"populated2020":true,"population2020":1265.028,"populationNote":"2020年基準の国交省調整値"},"geometry":{"type":"Polygon","coordinates":[[[130.43125,33.708333333333336],[130.43125,33.7125],[130.4375,33.712500000000006],[130.4375,33.70833333333333],[130.43125,33.708333333333336]]]}},{"type":"Feature","id":"40345:503043551","properties":{"id":"40345:503043551","meshCode":"503043551","cityCode":"40345","city":"新宮町","lat":33.7104167,"lon":130.440625,"areaKm2":0.2677168,"populated2020":true,"population2020":1361.0113,"populationNote":"2020年基準の国交省調整値"},"geometry":{"type":"Polygon","coordinates":[[[130.4375,33.70833333333333],[130.4375,33.712500000000006],[130.44375,33.712500000000006],[130.44375,33.708333333333336],[130.4375,33.70833333333333]]]}},{"type":"Feature","id":"40345:503043552","properties":{"id":"40345:503043552","meshCode":"503043552","cityCode":"40345","city":"新宮町","lat":33.7104167,"lon":130.446875,"areaKm2":0.2677164,"populated2020":true,"population2020":2497.3211,"populationNote":"2020年基準の国交省調整値"},"geometry":{"type":"Polygon","coordinates":[[[130.44375,33.708333333333336],[130.44375,33.712500000000006],[130.45,33.712500000000006],[130.45,33.70833333333333],[130.44375,33.708333333333336]]]}},{"type":"Feature","id":"40345:503043561","properties":{"id":"40345:503043561","meshCode":"503043561","cityCode":"40345","city":"新宮町","lat":33.7104167,"lon":130.453125,"areaKm2":0.267716,"populated2020":true,"population2020":1463.9756,"populationNote":"2020年基準の国交省調整値"},"geometry":{"type":"Polygon","coordinates":[[[130.45,33.70833333333333],[130.45,33.712500000000006],[130.45625,33.712500000000006],[130.45625,33.708333333333336],[130.45,33.70833333333333]]]}},{"type":"Feature","id":"40345:503043562","properties":{"id":"40345:503043562","meshCode":"503043562","cityCode":"40345","city":"新宮町","lat":33.7104167,"lon":130.459375,"areaKm2":0.2677156,"populated2020":true,"population2020":676.2491,"populationNote":"2020年基準の国交省調整値"},"geometry":{"type":"Polygon","coordinates":[[[130.45625,33.708333333333336],[130.45625,33.712500000000006],[130.4625,33.712500000000006],[130.4625,33.708333333333336],[130.45625,33.708333333333336]]]}},{"type":"Feature","id":"40345:503043571","properties":{"id":"40345:503043571","meshCode":"503043571","cityCode":"40345","city":"新宮町","lat":33.7104167,"lon":130.465625,"areaKm2":0.1687404,"populated2020":true,"population2020":1.0131,"populationNote":"2020年基準の国交省調整値"},"geometry":{"type":"Polygon","coordinates":[[[130.465005837,33.712490559],[130.46502083,33.712199162],[130.464923891,33.711952775],[130.46510749700002,33.711586946],[130.46585000000002,33.710853332999996],[130.466462218,33.710579441],[130.466901388,33.710055278999995],[130.467285279,33.709820279],[130.467552218,33.709458892],[130.467742218,33.70875055900001],[130.46810430561646,33.708333333333336],[130.4625,33.708333333333336],[130.4625,33.712500000000006],[130.465005837,33.712490559]]]}},{"type":"Feature","id":"40345:503043533","properties":{"id":"40345:503043533","meshCode":"503043533","cityCode":"40345","city":"新宮町","lat":33.7134062,"lon":130.4184916,"areaKm2":0.009094,"populated2020":false,"population2020":null,"populationNote":"境界またぎ・原典収録外のため自治体内人口は未集計"},"geometry":{"type":"MultiPolygon","coordinates":[[[[130.418032218,33.71254389199999],[130.418179922,33.712624080999994],[130.418159585,33.712759252000005],[130.41827802900002,33.712824360000006],[130.418319857,33.713070775],[130.418119585,33.713588108],[130.417948495,33.71354936000001],[130.418031829,33.713831333],[130.418225422,33.713859279],[130.418489222,33.714065279],[130.418461051,33.714147108],[130.418582309,33.714148495],[130.41875,33.7142946335352],[130.41875,33.7125],[130.418032218,33.71254389199999]]],[[[130.41875,33.71447243286456],[130.418715966,33.71451997300001],[130.41875,33.71454579209484],[130.41875,33.71447243286456]]],[[[130.418436304,33.714137279],[130.41838869,33.71418889200001],[130.418448807,33.714155279],[130.418436304,33.714137279]]]]}},{"type":"Feature","id":"40345:503043534","properties":{"id":"40345:503043534","meshCode":"503043534","cityCode":"40345","city":"新宮町","lat":33.7145833,"lon":130.421875,"areaKm2":0.2289113,"populated2020":false,"population2020":null,"populationNote":"境界またぎ・原典収録外のため自治体内人口は未集計"},"geometry":{"type":"MultiPolygon","coordinates":[[[[130.418768586,33.714302559000004],[130.4188293,33.714354586],[130.41875,33.71447243286456],[130.418814721,33.714851802],[130.418930117,33.714812468],[130.419043865,33.714595586],[130.41920358,33.714590892],[130.419647523,33.714806748],[130.419755888,33.714975775],[130.420069442,33.715087252],[130.420841829,33.715632946],[130.420938885,33.715899559],[130.42116869,33.71612561300001],[130.42125635500003,33.716470441000006],[130.421208029,33.716600586],[130.42130669307446,33.71666666666667],[130.425,33.71666666666667],[130.425,33.712500000000006],[130.41875,33.7125],[130.418768586,33.714302559000004]]],[[[130.420615551,33.715558865],[130.420639468,33.715610441],[130.420630363,33.715539279],[130.420615551,33.715558865]]],[[[130.420575642,33.715927252],[130.420558495,33.716006891999996],[130.42060160800003,33.715978694],[130.420575642,33.715927252]]]]}},{"type":"Feature","id":"40345:503043543","properties":{"id":"40345:503043543","meshCode":"503043543","cityCode":"40345","city":"新宮町","lat":33.7145833,"lon":130.428125,"areaKm2":0.191994,"populated2020":true,"population2020":411.0326,"populationNote":"2020年基準の国交省調整値"},"geometry":{"type":"Polygon","coordinates":[[[130.425151245,33.716584198],[130.42537577151504,33.716666666666676],[130.425157951,33.716469468],[130.42537275,33.716130279000005],[130.425689585,33.715847721],[130.426144332,33.715652721],[130.426391725,33.716242306],[130.426632088,33.716519775],[130.426822283,33.716638586],[130.426499728,33.716324027],[130.426261077,33.71591412600001],[130.426151764,33.71549561300001],[130.426151933,33.714951468],[130.426411362,33.714974495],[130.426531167,33.715683829],[130.426806083,33.71618436],[130.426556031,33.715677721],[130.426574112,33.715470613],[130.427047471,33.71520699999999],[130.427747471,33.715092946],[130.428685331,33.715168973],[130.42949594,33.71537710799999],[130.430147613,33.71564061299999],[130.43125,33.715894281738564],[130.43125,33.7125],[130.425,33.712500000000006],[130.425,33.71666666666667],[130.425151245,33.716584198]]]}},{"type":"Feature","id":"40345:503043544","properties":{"id":"40345:503043544","meshCode":"503043544","cityCode":"40345","city":"新宮町","lat":33.7145833,"lon":130.434375,"areaKm2":0.2579988,"populated2020":true,"population2020":1240.8941,"populationNote":"2020年基準の国交省調整値"},"geometry":{"type":"Polygon","coordinates":[[[130.431282114,33.715903613],[130.432168975,33.716120225000004],[130.43338438287216,33.71666666666667],[130.4375,33.71666666666667],[130.4375,33.712500000000006],[130.43125,33.7125],[130.431282114,33.715903613]]]}},{"type":"Feature","id":"40345:503043553","properties":{"id":"40345:503043553","meshCode":"503043553","cityCode":"40345","city":"新宮町","lat":33.7145833,"lon":130.440625,"areaKm2":0.267704,"populated2020":true,"population2020":2097.4647,"populationNote":"2020年基準の国交省調整値"},"geometry":{"type":"Polygon","coordinates":[[[130.4375,33.712500000000006],[130.4375,33.71666666666667],[130.44375,33.71666666666667],[130.44375,33.712500000000006],[130.4375,33.712500000000006]]]}},{"type":"Feature","id":"40345:503043554","properties":{"id":"40345:503043554","meshCode":"503043554","cityCode":"40345","city":"新宮町","lat":33.7145833,"lon":130.446875,"areaKm2":0.2677036,"populated2020":true,"population2020":1418.5832,"populationNote":"2020年基準の国交省調整値"},"geometry":{"type":"Polygon","coordinates":[[[130.44375,33.712500000000006],[130.44375,33.71666666666667],[130.45,33.716666666666676],[130.45,33.712500000000006],[130.44375,33.712500000000006]]]}},{"type":"Feature","id":"40345:503043563","properties":{"id":"40345:503043563","meshCode":"503043563","cityCode":"40345","city":"新宮町","lat":33.7145833,"lon":130.453125,"areaKm2":0.2677032,"populated2020":true,"population2020":1252.4006,"populationNote":"2020年基準の国交省調整値"},"geometry":{"type":"Polygon","coordinates":[[[130.45,33.712500000000006],[130.45,33.716666666666676],[130.45625,33.716666666666676],[130.45625,33.712500000000006],[130.45,33.712500000000006]]]}},{"type":"Feature","id":"40345:503043564","properties":{"id":"40345:503043564","meshCode":"503043564","cityCode":"40345","city":"新宮町","lat":33.7145833,"lon":130.459375,"areaKm2":0.2535985,"populated2020":true,"population2020":213.5278,"populationNote":"2020年基準の国交省調整値"},"geometry":{"type":"Polygon","coordinates":[[[130.46134306119808,33.71666666666667],[130.462056109,33.715487225],[130.462259442,33.71433499999999],[130.4625,33.71397416512155],[130.4625,33.712500000000006],[130.45625,33.712500000000006],[130.45625,33.716666666666676],[130.46134306119808,33.71666666666667]]]}},{"type":"Feature","id":"40345:503043573","properties":{"id":"40345:503043573","meshCode":"503043573","cityCode":"40345","city":"新宮町","lat":33.7132872,"lon":130.4630528,"areaKm2":0.0201757,"populated2020":true,"population2020":null,"populationNote":"境界またぎ・原典収録外のため自治体内人口は未集計"},"geometry":{"type":"Polygon","coordinates":[[[130.4625,33.71397416512155],[130.463047497,33.71380082900001],[130.463486394,33.713356667],[130.464608612,33.71284610800001],[130.46499843369608,33.712500000000006],[130.4625,33.712500000000006],[130.4625,33.71397416512155]]]}},{"type":"Feature","id":"40345:503043632","properties":{"id":"40345:503043632","meshCode":"503043632","cityCode":"40345","city":"新宮町","lat":33.7182928,"lon":130.4226184,"areaKm2":0.0789886,"populated2020":true,"population2020":6.9237,"populationNote":"2020年基準の国交省調整値"},"geometry":{"type":"MultiPolygon","coordinates":[[[[130.421306693,33.716666667],[130.421323645,33.71692833299999],[130.421131829,33.716970720999996],[130.421110804,33.717035198000005],[130.421235227,33.717239802],[130.421107613,33.717333613],[130.421145577,33.71748058600001],[130.421063865,33.71759758599999],[130.42115,33.717817081],[130.421084034,33.718112694],[130.421153839,33.718115829000006],[130.421205746,33.718289639999995],[130.4210607,33.718345306],[130.421122581,33.718557225000005],[130.421329416,33.71841364],[130.422156304,33.718872387000005],[130.422152023,33.718785468],[130.422296641,33.718735333],[130.422492023,33.719251667],[130.423008975,33.719605198000004],[130.425,33.719917135],[130.425,33.719836135],[130.423556446,33.719622766],[130.423675603,33.719166468],[130.423872166,33.719197613],[130.424182166,33.717888414],[130.424820117,33.717961829],[130.425,33.718086135000014],[130.424834747,33.717934108],[130.424854916,33.717837387],[130.424220947,33.717736865],[130.424260856,33.71756077500002],[130.424020389,33.71752272100001],[130.424130778,33.71706866699999],[130.424373969,33.717117892],[130.425,33.71666666666667],[130.421306693,33.716666667]]],[[[130.420553191,33.717937108],[130.420591894,33.718004279],[130.420643839,33.71796538699999],[130.420615084,33.717924946],[130.420553191,33.717937108]]],[[[130.420631997,33.718011054],[130.420671141,33.718045748],[130.420667834,33.71800849499999],[130.420631997,33.718011054]]],[[[130.420943943,33.718037829000004],[130.420961894,33.718032532],[130.420952218,33.71801264],[130.420943943,33.718037829000004]]],[[[130.420874721,33.71835235999999],[130.420866887,33.718280919],[130.420771997,33.718304],[130.42077131,33.718328441000004],[130.420874721,33.71835235999999]]],[[[130.420595305,33.718365387],[130.42049002600004,33.718391333],[130.420506329,33.718455054],[130.420624189,33.718417468],[130.420595305,33.718365387]]],[[[130.420659611,33.718655225],[130.420658003,33.718538162],[130.420633696,33.718526775],[130.420659611,33.718655225]]],[[[130.425,33.718937198000006],[130.425,33.718870441],[130.424659754,33.718819532],[130.42464594,33.71888430600001],[130.425,33.718937198000006]]],[[[130.421347886,33.719007198],[130.421479105,33.719083],[130.421449559,33.71890589200001],[130.421347886,33.719007198]]],[[[130.421286161,33.71907272100001],[130.42133166,33.719075468],[130.421316252,33.719043559000006],[130.421286161,33.71907272100001]]]]}},{"type":"Feature","id":"40345:503043641","properties":{"id":"40345:503043641","meshCode":"503043641","cityCode":"40345","city":"新宮町","lat":33.7189655,"lon":130.4254131,"areaKm2":0.0025357,"populated2020":false,"population2020":null,"populationNote":"境界またぎ・原典収録外のため自治体内人口は未集計"},"geometry":{"type":"MultiPolygon","coordinates":[[[[130.425,33.719917135],[130.425492335,33.719885360000006],[130.425826394,33.71973841399999],[130.42606027200003,33.719530495],[130.426210973,33.719244667000005],[130.426117691,33.719221694],[130.426007393,33.719452973],[130.425686355,33.719718468],[130.425424034,33.719818946000004],[130.425,33.719836135],[130.425,33.719917135]]],[[[130.425257639,33.71824886499999],[130.425309274,33.718191748],[130.425,33.718038468],[130.425,33.718086135000014],[130.425257639,33.71824886499999]]],[[[130.425031141,33.71666666699999],[130.425,33.71666666666667],[130.425,33.716688054],[130.425031141,33.71666666699999]]],[[[130.425333359,33.716666667],[130.42624263300002,33.71729138700001],[130.425755811,33.71795564],[130.426288054,33.717293586],[130.425333359,33.716666667]]],[[[130.425,33.718937198000006],[130.425710506,33.719043441],[130.425724423,33.718978667],[130.425,33.718870441],[130.425,33.718937198000006]]]]}},{"type":"Feature","id":"40345:503043642","properties":{"id":"40345:503043642","meshCode":"503043642","cityCode":"40345","city":"新宮町","lat":33.7179218,"lon":130.4365933,"areaKm2":0.0473912,"populated2020":false,"population2020":null,"populationNote":"境界またぎ・原典収録外のため自治体内人口は未集計"},"geometry":{"type":"Polygon","coordinates":[[[130.433384384,33.716666667],[130.433727406,33.716800811],[130.434935551,33.717607198],[130.43655247700002,33.71825274799999],[130.436965668,33.718575279],[130.4375,33.719192418297574],[130.4375,33.71666666666667],[130.433384384,33.716666667]]]}},{"type":"Feature","id":"40345:503043651","properties":{"id":"40345:503043651","meshCode":"503043651","cityCode":"40345","city":"新宮町","lat":33.71875,"lon":130.440625,"areaKm2":0.2432103,"populated2020":true,"population2020":289.5953,"populationNote":"2020年基準の国交省調整値"},"geometry":{"type":"Polygon","coordinates":[[[130.437533191,33.719220721],[130.43837121900003,33.719604414],[130.439160246,33.720239414000005],[130.4405724768131,33.72083333333334],[130.44375,33.72083333333334],[130.44375,33.71666666666667],[130.4375,33.71666666666667],[130.437533191,33.719220721]]]}},{"type":"Feature","id":"40345:503043652","properties":{"id":"40345:503043652","meshCode":"503043652","cityCode":"40345","city":"新宮町","lat":33.71875,"lon":130.446875,"areaKm2":0.2676909,"populated2020":true,"population2020":732.3532,"populationNote":"2020年基準の国交省調整値"},"geometry":{"type":"Polygon","coordinates":[[[130.44375,33.71666666666667],[130.44375,33.72083333333334],[130.45,33.72083333333334],[130.45,33.716666666666676],[130.44375,33.71666666666667]]]}},{"type":"Feature","id":"40345:503043661","properties":{"id":"40345:503043661","meshCode":"503043661","cityCode":"40345","city":"新宮町","lat":33.71875,"lon":130.453125,"areaKm2":0.2667005,"populated2020":true,"population2020":989.1745,"populationNote":"2020年基準の国交省調整値"},"geometry":{"type":"Polygon","coordinates":[[[130.45566083,33.720788891999995],[130.45625,33.72056115551114],[130.45625,33.716666666666676],[130.45,33.716666666666676],[130.45,33.72083333333334],[130.45566083,33.720788891999995]]]}},{"type":"Feature","id":"40345:503043662","properties":{"id":"40345:503043662","meshCode":"503043662","cityCode":"40345","city":"新宮町","lat":33.71875,"lon":130.459375,"areaKm2":0.1265991,"populated2020":true,"population2020":null,"populationNote":"境界またぎ・原典収録外のため自治体内人口は未集計"},"geometry":{"type":"Polygon","coordinates":[[[130.45625,33.72056115551114],[130.459121115,33.719160829],[130.460676109,33.717683613000005],[130.46134306119808,33.71666666666667],[130.45625,33.716666666666676],[130.45625,33.72056115551114]]]}},{"type":"Feature","id":"40345:503043653","properties":{"id":"40345:503043653","meshCode":"503043653","cityCode":"40345","city":"新宮町","lat":33.7215729,"lon":130.4428774,"areaKm2":0.0272952,"populated2020":false,"population2020":null,"populationNote":"境界またぎ・原典収録外のため自治体内人口は未集計"},"geometry":{"type":"Polygon","coordinates":[[[130.4405724768131,33.72083333333334],[130.442292802,33.721714018],[130.44375,33.72257228962505],[130.44375,33.72083333333334],[130.4405724768131,33.72083333333334]]]}},{"type":"Feature","id":"40345:503043654","properties":{"id":"40345:503043654","meshCode":"503043654","cityCode":"40345","city":"新宮町","lat":33.7229167,"lon":130.446875,"areaKm2":0.1980955,"populated2020":true,"population2020":6.9284,"populationNote":"2020年基準の国交省調整値"},"geometry":{"type":"Polygon","coordinates":[[[130.44375,33.72257228962505],[130.444768885,33.723224162],[130.447028807,33.725],[130.447172918,33.725],[130.448540558,33.723984441000006],[130.44913166,33.723802494999994],[130.45,33.72334425199999],[130.45,33.72083333333334],[130.44375,33.72083333333334],[130.44375,33.72257228962505]]]}},{"type":"Feature","id":"40345:503043663","properties":{"id":"40345:503043663","meshCode":"503043663","cityCode":"40345","city":"新宮町","lat":33.7220539,"lon":130.4514211,"areaKm2":0.0747293,"populated2020":true,"population2020":null,"populationNote":"境界またぎ・原典収録外のため自治体内人口は未集計"},"geometry":{"type":"Polygon","coordinates":[[[130.45,33.72334425199999],[130.451656109,33.72233],[130.453002776,33.721997775],[130.453634721,33.721970559000006],[130.455053333,33.72146],[130.455327224,33.721162774999996],[130.455256939,33.720945559],[130.4555462592572,33.72083333333334],[130.45,33.72083333333334],[130.45,33.72334425199999]]]}},{"type":"Feature","id":"40345:503043752","properties":{"id":"40345:503043752","meshCode":"503043752","cityCode":"40345","city":"新宮町","lat":33.7250286,"lon":130.4470993,"areaKm2":4.24e-05,"populated2020":false,"population2020":null,"populationNote":"境界またぎ・原典収録外のため自治体内人口は未集計"},"geometry":{"type":"Polygon","coordinates":[[[130.447097782,33.725057225],[130.447172918,33.725],[130.447028807,33.725],[130.447097782,33.725057225]]]}},{"type":"Feature","id":"40345:503052084","properties":{"id":"40345:503052084","meshCode":"503052084","cityCode":"40345","city":"新宮町","lat":33.7567702,"lon":130.361995,"areaKm2":0.0409663,"populated2020":false,"population2020":null,"populationNote":"境界またぎ・原典収録外のため自治体内人口は未集計"},"geometry":{"type":"Polygon","coordinates":[[[130.362466641,33.755190721000005],[130.36217124500004,33.755446532],[130.361944942,33.756096081],[130.361558885,33.75669664],[130.360619364,33.75740697300001],[130.35972481182608,33.758333333333326],[130.3625,33.75833333333333],[130.362466641,33.755190721000005]]]}},{"type":"Feature","id":"40345:503052093","properties":{"id":"40345:503052093","meshCode":"503052093","cityCode":"40345","city":"新宮町","lat":33.756561,"lon":130.3637563,"areaKm2":0.085366,"populated2020":true,"population2020":194.9264,"populationNote":"2020年基準の国交省調整値"},"geometry":{"type":"MultiPolygon","coordinates":[[[[130.366301479,33.755986613],[130.365916576,33.755675099],[130.365837173,33.75574348600001],[130.36622217900003,33.75605500000001],[130.366301479,33.755986613]]],[[[130.366768885,33.756353],[130.366383865,33.756041495],[130.366304565,33.756109883],[130.366689468,33.75642138700001],[130.366768885,33.756353]]],[[[130.366836537,33.756400414],[130.366757134,33.756468802],[130.36714214,33.75678039600001],[130.36722144,33.756711919000004],[130.366836537,33.756400414]]],[[[130.367303878,33.75677554100001],[130.367224578,33.756843937],[130.367609481,33.757155441],[130.367688898,33.757087045000006],[130.367303878,33.75677554100001]]],[[[130.367786654,33.75713650500002],[130.367707354,33.757204901],[130.36809227,33.757516396],[130.368171673,33.757448009],[130.367786654,33.75713650500002]]],[[[130.368250402,33.757517297],[130.368170986,33.757585685],[130.368556018,33.757897189],[130.368635318,33.757828802],[130.368250402,33.757517297]]],[[[130.36875,33.75789627761825],[130.36865804200002,33.75795442300001],[130.36875,33.758028843006485],[130.36875,33.75789627761825]]],[[[130.365758158,33.758333332999996],[130.365056615,33.757458991],[130.365100208,33.757300703],[130.365034475,33.757284676],[130.364948054,33.757616486],[130.365052672,33.758009324],[130.36534683527202,33.758333333333326],[130.365758158,33.758333332999996]]],[[[130.36443882,33.758333332999996],[130.364196822,33.757987243],[130.364070752,33.757546694000006],[130.364149209,33.757446018],[130.364371816,33.757502982],[130.364432127,33.757418441],[130.364308936,33.757275080999996],[130.364831868,33.75683046799999],[130.36534094700002,33.756887189],[130.364989637,33.756719207],[130.365172062,33.755651081],[130.365442827,33.75586445],[130.365483982,33.75583201800001],[130.365187588,33.75559373],[130.365066563,33.75498296400001],[130.365324903,33.754962928],[130.365325525,33.75490747700001],[130.36493262,33.754932153],[130.36449594,33.754798252],[130.363958003,33.75499780199999],[130.362737108,33.75504858600001],[130.3625,33.75516949073449],[130.3625,33.75833333333333],[130.36443882,33.758333332999996]]]]}},{"type":"Feature","id":"40345:503052094","properties":{"id":"40345:503052094","meshCode":"503052094","cityCode":"40345","city":"新宮町","lat":33.7581132,"lon":130.3689362,"areaKm2":0.0004532,"populated2020":false,"population2020":null,"populationNote":"境界またぎ・原典収録外のため自治体内人口は未集計"},"geometry":{"type":"Polygon","coordinates":[[[130.36875,33.75789627761825],[130.36875,33.758028843006485],[130.369042957,33.75826592799999],[130.369122361,33.75819753199999],[130.36875,33.75789627761825]]]}},{"type":"Feature","id":"40345:503053003","properties":{"id":"40345:503053003","meshCode":"503053003","cityCode":"40345","city":"新宮町","lat":33.7581702,"lon":130.3793912,"areaKm2":0.0057853,"populated2020":false,"population2020":null,"populationNote":"境界またぎ・原典収録外のため自治体内人口は未集計"},"geometry":{"type":"MultiPolygon","coordinates":[[[[130.378352244,33.757998468000004],[130.37834941600002,33.758060495],[130.378378301,33.758020532],[130.378352244,33.757998468000004]]],[[[130.380441725,33.758152081],[130.38046083,33.758198973],[130.380546615,33.758187414],[130.380523943,33.758159162],[130.380441725,33.758152081]]],[[[130.380569948,33.758260107999995],[130.380732114,33.75830086500001],[130.380573606,33.758248135],[130.380569948,33.758260107999995]]],[[[130.380600726,33.758333333],[130.380251725,33.758064667000006],[130.380041219,33.758022495],[130.379942724,33.758028586],[130.379942309,33.758087720999995],[130.379645162,33.758050081],[130.37892153,33.758135972999995],[130.378822387,33.758039360000005],[130.378668495,33.75807564],[130.378548638,33.75800894599999],[130.378431855,33.758035135],[130.378352866,33.75822749500001],[130.37811263254383,33.75833333333333],[130.380600726,33.758333333]]]]}},{"type":"Feature","id":"40345:503052182","properties":{"id":"40345:503052182","meshCode":"503052182","cityCode":"40345","city":"新宮町","lat":33.7604167,"lon":130.359375,"areaKm2":0.1329146,"populated2020":false,"population2020":null,"populationNote":"境界またぎ・原典収録外のため自治体内人口は未集計"},"geometry":{"type":"Polygon","coordinates":[[[130.359716304,33.758349640000006],[130.359493217,33.758984387],[130.359240026,33.760571667],[130.359349948,33.762093108],[130.359634332,33.76239194600001],[130.35964021196773,33.76250000000001],[130.3625,33.762499999999996],[130.3625,33.75833333333333],[130.359716304,33.758349640000006]]]}},{"type":"Feature","id":"40345:503052191","properties":{"id":"40345:503052191","meshCode":"503052191","cityCode":"40345","city":"新宮町","lat":33.7604167,"lon":130.365625,"areaKm2":0.1986473,"populated2020":true,"population2020":16.6236,"populationNote":"2020年基準の国交省調整値"},"geometry":{"type":"Polygon","coordinates":[[[130.36875,33.76021912270474],[130.367483217,33.760796946],[130.367355837,33.760987711999995],[130.36729428,33.760976667],[130.367035966,33.760843431999994],[130.367162023,33.760626964000004],[130.366672607,33.760432315],[130.366787211,33.760231297],[130.366636706,33.760454946],[130.36624600500002,33.760298216],[130.365674254,33.759880351],[130.365008703,33.759053279000014],[130.365641933,33.758698946],[130.366181258,33.75937155],[130.367615824,33.75995315299999],[130.367640532,33.75990955],[130.366720856,33.759536973],[130.36575815826862,33.75833333333333],[130.36534683527202,33.758333333333326],[130.365433891,33.758440009],[130.36476345,33.758788468000006],[130.3644388202331,33.758333333333326],[130.3625,33.75833333333333],[130.3625,33.762499999999996],[130.36875,33.7625],[130.36875,33.76021912270474]]]}},{"type":"Feature","id":"40345:503052192","properties":{"id":"40345:503052192","meshCode":"503052192","cityCode":"40345","city":"新宮町","lat":33.7604167,"lon":130.371875,"areaKm2":0.1593675,"populated2020":false,"population2020":null,"populationNote":"境界またぎ・原典収録外のため自治体内人口は未集計"},"geometry":{"type":"Polygon","coordinates":[[[130.374958949,33.759918414],[130.37431856,33.759686251999995],[130.373510921,33.759667279],[130.372391051,33.75986253199999],[130.371352503,33.760228135],[130.370237601,33.760464712],[130.36954952,33.76011290099999],[130.36875,33.76021912270474],[130.36875,33.7625],[130.375,33.762499999999996],[130.374958949,33.759918414]]]}},{"type":"Feature","id":"40345:503053101","properties":{"id":"40345:503053101","meshCode":"503053101","cityCode":"40345","city":"新宮町","lat":33.7603554,"lon":130.3763029,"areaKm2":0.1107622,"populated2020":false,"population2020":null,"populationNote":"境界またぎ・原典収録外のため自治体内人口は未集計"},"geometry":{"type":"MultiPolygon","coordinates":[[[[130.380815914,33.758550946],[130.380783113,33.758506333],[130.380776083,33.75852289200001],[130.380815914,33.758550946]]],[[[130.381149339,33.759518279000005],[130.381220026,33.759549197999995],[130.381199663,33.759498332999996],[130.381149339,33.759518279000005]]],[[[130.37887725,33.75965002700001],[130.378856641,33.759501081],[130.378755253,33.759458558999995],[130.37872939,33.75955569400001],[130.37887725,33.75965002700001]]],[[[130.376342361,33.762489225],[130.376670584,33.762273586000006],[130.377131751,33.761678495],[130.377766861,33.759863721],[130.3780838,33.759520162],[130.378408171,33.759358333],[130.378823333,33.759300026999995],[130.378987134,33.75945764000001],[130.379042529,33.759694694],[130.379211479,33.759754775],[130.37953856,33.759738306],[130.379809442,33.759583414],[130.38079856,33.759795586],[130.381059883,33.759602865],[130.381160389,33.759330414],[130.380697056,33.759122532000006],[130.380893217,33.758686135000005],[130.380672802,33.758384054000004],[130.3806007264737,33.75833333333333],[130.37811263254383,33.75833333333333],[130.376367613,33.75976236000001],[130.376190467,33.75983849499999],[130.375922244,33.75981825200001],[130.375714112,33.759926027],[130.375,33.759926694],[130.375,33.762499999999996],[130.376342361,33.762489225]]]]}},{"type":"Feature","id":"40345:503053102","properties":{"id":"40345:503053102","meshCode":"503053102","cityCode":"40345","city":"新宮町","lat":33.7587722,"lon":130.3846848,"areaKm2":0.0011756,"populated2020":false,"population2020":null,"populationNote":"境界またぎ・原典収録外のため自治体内人口は未集計"},"geometry":{"type":"MultiPolygon","coordinates":[[[[130.384327406,33.75840333299999],[130.384217458,33.758397649],[130.38423856,33.758434990999994],[130.384327406,33.75840333299999]]],[[[130.384489416,33.758588432],[130.38456114100003,33.75853613500001],[130.384412957,33.758561279000006],[130.384489416,33.758588432]]],[[[130.384445162,33.758920108],[130.384901816,33.75888406300001],[130.384742737,33.758636856],[130.384491595,33.758645251999994],[130.384558664,33.75871609],[130.384343333,33.758848820000004],[130.384445162,33.758920108]]]]}},{"type":"Feature","id":"40345:503052184","properties":{"id":"40345:503052184","meshCode":"503052184","cityCode":"40345","city":"新宮町","lat":33.764587,"lon":130.3615351,"areaKm2":0.0684478,"populated2020":false,"population2020":null,"populationNote":"境界またぎ・原典収録外のため自治体内人口は未集計"},"geometry":{"type":"Polygon","coordinates":[[[130.359641582,33.762520198000004],[130.359871777,33.76267358599999],[130.359819831,33.762777559],[130.35996917,33.762800495],[130.359953606,33.762964613],[130.360195084,33.762981198000006],[130.360538003,33.76339491900001],[130.360658392,33.76400072100001],[130.360475383,33.764382613],[130.360750311,33.764866135000005],[130.361204112,33.765234279000005],[130.361719857,33.765809586],[130.361733139,33.766235306],[130.362008054,33.766428135],[130.36215788583021,33.76666666666666],[130.3625,33.76666666666666],[130.3625,33.762499999999996],[130.359641582,33.762520198000004]]]}},{"type":"Feature","id":"40345:503052193","properties":{"id":"40345:503052193","meshCode":"503052193","cityCode":"40345","city":"新宮町","lat":33.7645833,"lon":130.365625,"areaKm2":0.2568316,"populated2020":false,"population2020":null,"populationNote":"境界またぎ・原典収録外のため自治体内人口は未集計"},"geometry":{"type":"Polygon","coordinates":[[[130.3651759404917,33.766666666666666],[130.36539377400004,33.766532775],[130.36580958500002,33.766510946],[130.366328975,33.766318774999995],[130.36657061,33.766313162],[130.367054864,33.766450694],[130.367652892,33.766428162],[130.36875,33.76602255452981],[130.36875,33.7625],[130.3625,33.762499999999996],[130.3625,33.76666666666666],[130.3651759404917,33.766666666666666]]]}},{"type":"Feature","id":"40345:503052194","properties":{"id":"40345:503052194","meshCode":"503052194","cityCode":"40345","city":"新宮町","lat":33.7645833,"lon":130.371875,"areaKm2":0.1519665,"populated2020":false,"population2020":null,"populationNote":"境界またぎ・原典収録外のため自治体内人口は未集計"},"geometry":{"type":"Polygon","coordinates":[[[130.36878613500002,33.766013441],[130.370165279,33.765584559],[130.370739339,33.765476387],[130.37196406,33.764858694],[130.372611829,33.764745775],[130.375,33.76327736],[130.375,33.762499999999996],[130.36875,33.7625],[130.36878613500002,33.766013441]]]}},{"type":"Feature","id":"40345:503053103","properties":{"id":"40345:503053103","meshCode":"503053103","cityCode":"40345","city":"新宮町","lat":33.7628947,"lon":130.375352,"areaKm2":0.0055156,"populated2020":false,"population2020":null,"populationNote":"境界またぎ・原典収録外のため自治体内人口は未集計"},"geometry":{"type":"Polygon","coordinates":[[[130.375,33.76327736],[130.375741946,33.762875775000005],[130.37633094402923,33.762499999999996],[130.375,33.762499999999996],[130.375,33.76327736]]]}},{"type":"Feature","id":"40345:503052282","properties":{"id":"40345:503052282","meshCode":"503052282","cityCode":"40345","city":"新宮町","lat":33.766835,"lon":130.3624215,"areaKm2":0.0006346,"populated2020":false,"population2020":null,"populationNote":"境界またぎ・原典収録外のため自治体内人口は未集計"},"geometry":{"type":"Polygon","coordinates":[[[130.362157886,33.766666667],[130.362244838,33.766803721],[130.3625,33.76700254613206],[130.3625,33.76666666666666],[130.362157886,33.766666667]]]}},{"type":"Feature","id":"40345:503052291","properties":{"id":"40345:503052291","meshCode":"503052291","cityCode":"40345","city":"新宮町","lat":33.7669141,"lon":130.363128,"areaKm2":0.0066584,"populated2020":false,"population2020":null,"populationNote":"境界またぎ・原典収録外のため自治体内人口は未集計"},"geometry":{"type":"Polygon","coordinates":[[[130.362525888,33.767017162],[130.363029585,33.766994053999994],[130.363355966,33.76716497299999],[130.363839442,33.76684955899999],[130.364422944,33.766854279],[130.364638664,33.766746026999996],[130.3651759404917,33.766666666666666],[130.3625,33.76666666666666],[130.362525888,33.767017162]]]}}]}