{"type":"FeatureCollection","metadata":{"cityCode":"40345","city":"新宮町","resolution":1000,"boundaryDate":"2026-01-01","populationLabel":"2020年基準人口（国交省調整値）","method":"標準地域メッシュを行政界で切抜き。中心が区域外のとき区域内代表点を判定点にする。人口不明をゼロにしない。"},"features":[{"type":"Feature","id":"40345:50304308","properties":{"id":"40345:50304308","meshCode":"50304308","cityCode":"40345","city":"新宮町","lat":33.6746377,"lon":130.4863377,"areaKm2":0.0186052,"populated2020":true,"population2020":null,"populationNote":"境界またぎ・収録外等のため人口未集計"},"geometry":{"type":"Polygon","coordinates":[[[130.4875,33.67427477128406],[130.48652166,33.674087495],[130.48626277600002,33.674113054],[130.485607497,33.674479162000004],[130.484407134,33.675],[130.4875,33.675],[130.4875,33.67427477128406]]]}},{"type":"Feature","id":"40345:50304309","properties":{"id":"40345:50304309","meshCode":"50304309","cityCode":"40345","city":"新宮町","lat":33.6746784,"lon":130.4884819,"areaKm2":0.014071,"populated2020":true,"population2020":null,"populationNote":"境界またぎ・収録外等のため人口未集計"},"geometry":{"type":"Polygon","coordinates":[[[130.489863113,33.67499999999999],[130.489423061,33.674602775],[130.488562503,33.674273613000004],[130.4875,33.67427477128406],[130.4875,33.675],[130.489863113,33.67499999999999]]]}},{"type":"Feature","id":"40345:50304317","properties":{"id":"40345:50304317","meshCode":"50304317","cityCode":"40345","city":"新宮町","lat":33.6806838,"lon":130.470989,"areaKm2":0.4853305,"populated2020":false,"population2020":null,"populationNote":"境界またぎ・収録外等のため人口未集計"},"geometry":{"type":"Polygon","coordinates":[[[130.474082503,33.675966386999995],[130.473652776,33.676242775000006],[130.473574449,33.676622495000004],[130.473208327,33.676932225],[130.472834163,33.677085279],[130.472349442,33.67703027900001],[130.472128612,33.677102775],[130.470462218,33.67810610800001],[130.470298327,33.678300000000014],[130.470096109,33.678821387],[130.46962166,33.679350559],[130.469230272,33.679526946],[130.468568327,33.67958638700001],[130.466974721,33.680267494999995],[130.466607497,33.68069638699999],[130.466284721,33.68129944099999],[130.466176109,33.681516667],[130.466065551,33.682294441],[130.465786667,33.682580279],[130.465113606,33.682921108],[130.464412218,33.682985],[130.464056394,33.682846108],[130.463500272,33.682424721000004],[130.463197782,33.68229749499999],[130.4625,33.682256387],[130.4625,33.68333333333334],[130.475,33.68333333333334],[130.475,33.675661468],[130.474082503,33.675966386999995]]]}},{"type":"Feature","id":"40345:50304318","properties":{"id":"40345:50304318","meshCode":"50304318","cityCode":"40345","city":"新宮町","lat":33.6794116,"lon":130.4813658,"areaKm2":1.0064703,"populated2020":true,"population2020":144.089,"populationNote":"収録500mメッシュ人口の合算（原典収録外は補完しない）"},"geometry":{"type":"Polygon","coordinates":[[[130.484407134,33.675],[130.483153891,33.67555749500001],[130.482663891,33.675590559],[130.482197782,33.67575694600001],[130.481453891,33.675817775],[130.480205279,33.675829441],[130.478563891,33.675713892],[130.477539442,33.675856667],[130.475782218,33.675488054],[130.475,33.675661468],[130.475,33.68333333333334],[130.4875,33.68333333333334],[130.4875,33.675],[130.484407134,33.675]]]}},{"type":"Feature","id":"40345:50304319","properties":{"id":"40345:50304319","meshCode":"50304319","cityCode":"40345","city":"新宮町","lat":33.680283,"lon":130.4916642,"areaKm2":0.5786388,"populated2020":true,"population2020":15.8719,"populationNote":"収録500mメッシュ人口の合算（原典収録外は補完しない）"},"geometry":{"type":"Polygon","coordinates":[[[130.493402776,33.679341667],[130.492307782,33.67823444100001],[130.49192,33.677652495000004],[130.491397224,33.676419441],[130.490898885,33.675982225000006],[130.490048327,33.675539721],[130.489863113,33.67499999999999],[130.4875,33.675],[130.4875,33.68333333333334],[130.5,33.68333333333334],[130.5,33.682052802],[130.499124721,33.682016387000004],[130.498925551,33.681960829000005],[130.498816939,33.681599721],[130.49864917,33.68154416200001],[130.498232776,33.68169499999999],[130.497659728,33.681466107999995],[130.497100272,33.681664441],[130.496572503,33.68198000000001],[130.496438612,33.68198],[130.496244721,33.681889721],[130.496105837,33.681652775],[130.49559917,33.680408054000004],[130.495174449,33.680157225],[130.494583061,33.68000805399999],[130.49386083,33.679686667],[130.493402776,33.679341667]]]}},{"type":"Feature","id":"40345:50304316","properties":{"id":"40345:50304316","meshCode":"50304316","cityCode":"40345","city":"新宮町","lat":33.6818453,"lon":130.4578182,"areaKm2":0.2424915,"populated2020":true,"population2020":null,"populationNote":"境界またぎ・収録外等のため人口未集計"},"geometry":{"type":"Polygon","coordinates":[[[130.455897497,33.679887775],[130.455160558,33.679529441],[130.454380558,33.680943613],[130.454512503,33.682077495],[130.454133061,33.682604162000004],[130.453594994,33.682845],[130.453271115,33.68314861299999],[130.45319158185643,33.68333333333334],[130.4625,33.68333333333334],[130.4625,33.682256387],[130.46224917,33.682238892],[130.461627782,33.681851108],[130.46097,33.68155555900001],[130.460779728,33.681383333],[130.460555837,33.680719721],[130.460276939,33.680482775],[130.459342503,33.680205],[130.458235837,33.680137495000004],[130.457637224,33.679923333],[130.456966394,33.680075829],[130.456313333,33.679913054],[130.455897497,33.679887775]]]}},{"type":"Feature","id":"40345:50304410","properties":{"id":"40345:50304410","meshCode":"50304410","cityCode":"40345","city":"新宮町","lat":33.6829611,"lon":130.5014902,"areaKm2":0.0237392,"populated2020":false,"population2020":null,"populationNote":"境界またぎ・収録外等のため人口未集計"},"geometry":{"type":"Polygon","coordinates":[[[130.503295694,33.68333333300001],[130.502894163,33.68266944100001],[130.501718612,33.682587495],[130.501302503,33.682649721],[130.500389442,33.682607225],[130.500211115,33.68244305399999],[130.500091946,33.682098612999994],[130.5,33.682052802],[130.5,33.68333333333334],[130.503295694,33.68333333300001]]]}},{"type":"Feature","id":"40345:50304326","properties":{"id":"40345:50304326","meshCode":"50304326","cityCode":"40345","city":"新宮町","lat":33.6877356,"lon":130.4569514,"areaKm2":0.9417541,"populated2020":true,"population2020":null,"populationNote":"境界またぎ・収録外等のため人口未集計"},"geometry":{"type":"Polygon","coordinates":[[[130.453043333,33.68374889199999],[130.452948885,33.684744441],[130.452806667,33.684997225],[130.452362503,33.685300829],[130.452341946,33.686023613],[130.45174083,33.68663277500001],[130.451545279,33.687846946],[130.450986939,33.688473892000005],[130.45087166,33.688861667],[130.450186939,33.689948333000004],[130.450181946,33.690220559],[130.45,33.69048897300001],[130.45,33.69166666666666],[130.4625,33.69166666666667],[130.4625,33.68333333333334],[130.45319158185643,33.68333333333334],[130.453043333,33.68374889199999]]]}},{"type":"Feature","id":"40345:50304327","properties":{"id":"40345:50304327","meshCode":"50304327","cityCode":"40345","city":"新宮町","lat":33.6875,"lon":130.46875,"areaKm2":1.0711406,"populated2020":true,"population2020":392.6457,"populationNote":"収録500mメッシュ人口の合算（原典収録外は補完しない）"},"geometry":{"type":"Polygon","coordinates":[[[130.475,33.68333333333334],[130.4625,33.68333333333334],[130.4625,33.69166666666667],[130.475,33.69166666666666],[130.475,33.68333333333334]]]}},{"type":"Feature","id":"40345:50304328","properties":{"id":"40345:50304328","meshCode":"50304328","cityCode":"40345","city":"新宮町","lat":33.6875,"lon":130.48125,"areaKm2":1.0711376,"populated2020":true,"population2020":139.5529,"populationNote":"収録500mメッシュ人口の合算（原典収録外は補完しない）"},"geometry":{"type":"Polygon","coordinates":[[[130.4875,33.68333333333334],[130.475,33.68333333333334],[130.475,33.69166666666666],[130.4875,33.69166666666667],[130.4875,33.68333333333334]]]}},{"type":"Feature","id":"40345:50304329","properties":{"id":"40345:50304329","meshCode":"50304329","cityCode":"40345","city":"新宮町","lat":33.6875,"lon":130.49375,"areaKm2":1.0711347,"populated2020":true,"population2020":57.3985,"populationNote":"収録500mメッシュ人口の合算（原典収録外は補完しない）"},"geometry":{"type":"Polygon","coordinates":[[[130.5,33.68333333333334],[130.4875,33.68333333333334],[130.4875,33.69166666666667],[130.5,33.69166666666667],[130.5,33.68333333333334]]]}},{"type":"Feature","id":"40345:50304420","properties":{"id":"40345:50304420","meshCode":"50304420","cityCode":"40345","city":"新宮町","lat":33.687172,"lon":130.5035999,"areaKm2":0.5644446,"populated2020":false,"population2020":null,"populationNote":"境界またぎ・収録外等のため人口未集計"},"geometry":{"type":"Polygon","coordinates":[[[130.505447497,33.684155829000005],[130.504964721,33.684441387],[130.504259442,33.684216108],[130.503325551,33.684078332999995],[130.50318917,33.683868333],[130.50329569408515,33.68333333333334],[130.5,33.68333333333334],[130.5,33.69166666666667],[130.50413977997857,33.69166666666667],[130.504127782,33.691480000000006],[130.50433406000002,33.69107016200001],[130.504554449,33.69085361300001],[130.505320272,33.690433891999994],[130.505397224,33.690207495],[130.505005551,33.689426667000006],[130.505153891,33.68907333300001],[130.505444449,33.68884722500001],[130.506014449,33.688574721],[130.507056939,33.688702775],[130.507102503,33.688509162],[130.50694166,33.688092775],[130.507231115,33.687419441],[130.507346394,33.68733110800001],[130.507983061,33.68726861300001],[130.508367782,33.68699305399999],[130.50815,33.68642444099999],[130.508237497,33.686204721],[130.509164721,33.685453613],[130.509248612,33.684691108],[130.509168054,33.684569720999995],[130.508982776,33.68442861300001],[130.50786,33.684005279],[130.507551946,33.683972495000006],[130.507177782,33.683726387],[130.506971115,33.683677225],[130.506666939,33.68371666699999],[130.506047782,33.683995559],[130.505447497,33.684155829000005]]]}},{"type":"Feature","id":"40345:50304325","properties":{"id":"40345:50304325","meshCode":"50304325","cityCode":"40345","city":"新宮町","lat":33.691295,"lon":130.4496035,"areaKm2":0.0067922,"populated2020":true,"population2020":null,"populationNote":"境界またぎ・収録外等のため人口未集計"},"geometry":{"type":"Polygon","coordinates":[[[130.45,33.69048897300001],[130.449168885,33.6914],[130.4486814793952,33.69166666666666],[130.45,33.69166666666666],[130.45,33.69048897300001]]]}},{"type":"Feature","id":"40345:50304335","properties":{"id":"40345:50304335","meshCode":"50304335","cityCode":"40345","city":"新宮町","lat":33.6969457,"lon":130.4478716,"areaKm2":0.2544593,"populated2020":true,"population2020":null,"populationNote":"境界またぎ・収録外等のため人口未集計"},"geometry":{"type":"MultiPolygon","coordinates":[[[[130.44853583700004,33.691789441],[130.448233333,33.692418333],[130.44802083,33.69414972100001],[130.447703061,33.695776802],[130.446967808,33.696261054],[130.447414449,33.69693889199999],[130.447436109,33.69713666700001],[130.447843891,33.697818613],[130.446131388,33.698528613],[130.445418054,33.69900610799999],[130.444316939,33.69896333300001],[130.443902776,33.7],[130.45,33.70000000000001],[130.45,33.69166666666666],[130.4486814793952,33.69166666666666],[130.44853583700004,33.691789441]]],[[[130.442343606,33.699818054000005],[130.441952503,33.69924805400001],[130.441733333,33.69913833299999],[130.441517782,33.699300559],[130.441232218,33.69886944100001],[130.440817782,33.69924194600001],[130.440364721,33.699510279],[130.440267782,33.69970805400001],[130.440297756,33.7],[130.44198797700003,33.70000000000001],[130.442343606,33.699818054000005]]]]}},{"type":"Feature","id":"40345:50304336","properties":{"id":"40345:50304336","meshCode":"50304336","cityCode":"40345","city":"新宮町","lat":33.6958333,"lon":130.45625,"areaKm2":1.0710417,"populated2020":true,"population2020":1282.607,"populationNote":"収録500mメッシュ人口の合算（原典収録外は補完しない）"},"geometry":{"type":"Polygon","coordinates":[[[130.4625,33.69166666666667],[130.45,33.69166666666666],[130.45,33.70000000000001],[130.4625,33.699999999999996],[130.4625,33.69166666666667]]]}},{"type":"Feature","id":"40345:50304337","properties":{"id":"40345:50304337","meshCode":"50304337","cityCode":"40345","city":"新宮町","lat":33.6948574,"lon":130.4669763,"areaKm2":0.6389118,"populated2020":true,"population2020":null,"populationNote":"境界またぎ・収録外等のため人口未集計"},"geometry":{"type":"Polygon","coordinates":[[[130.468560272,33.695437225],[130.469181115,33.695073332999996],[130.46979,33.694893613000005],[130.470762503,33.694410559000005],[130.471840272,33.694283053999996],[130.473296939,33.69380194600001],[130.473939442,33.693828892],[130.475,33.6942],[130.475,33.69166666666666],[130.4625,33.69166666666667],[130.4625,33.699999999999996],[130.466241051,33.7],[130.46683166,33.699462775],[130.467060272,33.69913],[130.467300558,33.698549162000006],[130.467325551,33.698032775],[130.467751115,33.697790559],[130.467513891,33.696976946],[130.467423891,33.696028333],[130.467278885,33.695650559],[130.468560272,33.695437225]]]}},{"type":"Feature","id":"40345:50304338","properties":{"id":"40345:50304338","meshCode":"50304338","cityCode":"40345","city":"新宮町","lat":33.6930352,"lon":130.480796,"areaKm2":0.3413378,"populated2020":true,"population2020":null,"populationNote":"境界またぎ・収録外等のため人口未集計"},"geometry":{"type":"Polygon","coordinates":[[[130.481470558,33.694778333],[130.481802503,33.694709721],[130.481994449,33.694343892],[130.482163061,33.694200829],[130.483316109,33.69423805400001],[130.484337224,33.694171667000006],[130.484711115,33.693940829],[130.485116109,33.693522494999996],[130.485328327,33.693461946],[130.486211115,33.693534162],[130.487026667,33.693802225],[130.4875,33.693789730976555],[130.4875,33.69166666666667],[130.475,33.69166666666666],[130.475,33.6942],[130.476937497,33.694482494999995],[130.477281388,33.69481305400001],[130.478105551,33.695116387],[130.479101388,33.69498777500001],[130.479712218,33.694573053999996],[130.480311115,33.69453],[130.480716667,33.694412495],[130.480968612,33.694449721000005],[130.481470558,33.694778333]]]}},{"type":"Feature","id":"40345:50304339","properties":{"id":"40345:50304339","meshCode":"50304339","cityCode":"40345","city":"新宮町","lat":33.6937872,"lon":130.4959125,"areaKm2":0.3608515,"populated2020":true,"population2020":null,"populationNote":"境界またぎ・収録外等のため人口未集計"},"geometry":{"type":"Polygon","coordinates":[[[130.4875,33.693789730976555],[130.488337782,33.69347389200001],[130.488944994,33.693469721],[130.489378885,33.693358333],[130.490433061,33.692526946],[130.49065,33.692393892],[130.491024994,33.692305829000006],[130.491506667,33.69235],[130.493635837,33.693051667000006],[130.494282503,33.693436946],[130.494592776,33.693875000000006],[130.495895837,33.695220559],[130.496351388,33.695511946],[130.49696,33.695701667],[130.49719027200004,33.695903054000006],[130.497371946,33.69621582900001],[130.498014994,33.696524162],[130.498098885,33.69661944100001],[130.49784,33.697060279000006],[130.497853891,33.697342494999994],[130.498847497,33.698480829],[130.499578327,33.69853666700001],[130.499655551,33.698464441],[130.5,33.69757564],[130.5,33.69166666666667],[130.4875,33.69166666666667],[130.4875,33.693789730976555]]]}},{"type":"Feature","id":"40345:50304430","properties":{"id":"40345:50304430","meshCode":"50304430","cityCode":"40345","city":"新宮町","lat":33.6941381,"lon":130.5018519,"areaKm2":0.2015188,"populated2020":false,"population2020":null,"populationNote":"境界またぎ・収録外等のため人口未集計"},"geometry":{"type":"Polygon","coordinates":[[[130.503143333,33.69516194599999],[130.502968327,33.694558332999996],[130.503115279,33.694167775],[130.503543891,33.69383889200001],[130.503813333,33.69376361300001],[130.50453722400002,33.693766667],[130.504659728,33.69361944100001],[130.504544449,33.692546667],[130.504229442,33.69221527900001],[130.50413977997857,33.69166666666667],[130.5,33.69166666666667],[130.5,33.69757564],[130.500282218,33.69727833300001],[130.501230272,33.697009441],[130.501985837,33.697248892],[130.50259083,33.697111108],[130.502748327,33.69701277499999],[130.503143333,33.69516194599999]]]}},{"type":"Feature","id":"40345:50304344","properties":{"id":"40345:50304344","meshCode":"50304344","cityCode":"40345","city":"新宮町","lat":33.706111,"lon":130.4347447,"areaKm2":0.2804113,"populated2020":true,"population2020":null,"populationNote":"境界またぎ・収録外等のため人口未集計"},"geometry":{"type":"Polygon","coordinates":[[[130.4375,33.702535962204735],[130.436462218,33.702445278999996],[130.435688327,33.702829441],[130.434594163,33.704044162],[130.43394917,33.704383054],[130.433501388,33.704721946],[130.433318612,33.705247225],[130.432608327,33.70580361299999],[130.432424721,33.70616889200001],[130.432107224,33.706233613],[130.431278612,33.70617861299999],[130.430768885,33.70659],[130.430035279,33.706964441],[130.430481388,33.707440559],[130.43057,33.708243892],[130.42879876942732,33.708333333333336],[130.4375,33.70833333333333],[130.4375,33.702535962204735]]]}},{"type":"Feature","id":"40345:50304345","properties":{"id":"40345:50304345","meshCode":"50304345","cityCode":"40345","city":"新宮町","lat":33.7043677,"lon":130.4440086,"areaKm2":1.009763,"populated2020":true,"population2020":5776.6911,"populationNote":"収録500mメッシュ人口の合算（原典収録外は補完しない）"},"geometry":{"type":"Polygon","coordinates":[[[130.443548612,33.700215279],[130.443398054,33.700418613],[130.442967224,33.700656108000004],[130.442343891,33.700914441],[130.442213891,33.700771387],[130.441683891,33.701073333],[130.441590558,33.700848054000005],[130.441904449,33.700658054],[130.441588885,33.70025055899999],[130.44198797700003,33.70000000000001],[130.440297756,33.7],[130.440409728,33.700498054],[130.440314449,33.70080166700001],[130.439983606,33.700864162],[130.439809728,33.700756387000006],[130.439066109,33.700913333],[130.438887224,33.701238612999994],[130.438907224,33.70203000000001],[130.438835279,33.702216108],[130.438608054,33.702316108],[130.438183606,33.702349162000004],[130.437740558,33.702527495000005],[130.4375,33.702535962204735],[130.4375,33.70833333333333],[130.45,33.70833333333333],[130.45,33.70000000000001],[130.443902776,33.7],[130.443548612,33.700215279]]]}},{"type":"Feature","id":"40345:50304346","properties":{"id":"40345:50304346","meshCode":"50304346","cityCode":"40345","city":"新宮町","lat":33.7041667,"lon":130.45625,"areaKm2":1.0709397,"populated2020":true,"population2020":3069.7336,"populationNote":"収録500mメッシュ人口の合算（原典収録外は補完しない）"},"geometry":{"type":"Polygon","coordinates":[[[130.4625,33.699999999999996],[130.45,33.70000000000001],[130.45,33.70833333333333],[130.4625,33.708333333333336],[130.4625,33.699999999999996]]]}},{"type":"Feature","id":"40345:50304347","properties":{"id":"40345:50304347","meshCode":"50304347","cityCode":"40345","city":"新宮町","lat":33.7044994,"lon":130.4652051,"areaKm2":0.4514343,"populated2020":true,"population2020":null,"populationNote":"境界またぎ・収録外等のため人口未集計"},"geometry":{"type":"Polygon","coordinates":[[[130.467994721,33.704237495],[130.468174994,33.703593892],[130.468114721,33.702549162],[130.46664166000002,33.701344162],[130.465717224,33.700970559],[130.466241051,33.7],[130.4625,33.699999999999996],[130.4625,33.708333333333336],[130.46810430561646,33.708333333333336],[130.468438327,33.70811861300002],[130.468583333,33.70787],[130.468736939,33.707056387],[130.468676667,33.706848892],[130.468089728,33.706058613],[130.467994721,33.704237495]]]}},{"type":"Feature","id":"40345:50304353","properties":{"id":"40345:50304353","meshCode":"50304353","cityCode":"40345","city":"新宮町","lat":33.7134861,"lon":130.4223852,"areaKm2":0.3271392,"populated2020":true,"population2020":null,"populationNote":"境界またぎ・収録外等のため人口未集計"},"geometry":{"type":"MultiPolygon","coordinates":[[[[130.423845279,33.70887055899999],[130.423544449,33.70845527899999],[130.423355551,33.708539441000006],[130.423143333,33.709117495],[130.424258054,33.710565279],[130.424364994,33.710724162],[130.42433166,33.710878613],[130.423753333,33.711086387],[130.422807497,33.711131108000004],[130.422242776,33.711466108],[130.421758327,33.711540559],[130.421512503,33.71173249499999],[130.420828885,33.71182666699999],[130.418002451,33.712548216],[130.418130117,33.712545721000005],[130.418319416,33.713038135],[130.418119585,33.713588108],[130.417948495,33.71354936000001],[130.418031829,33.713831333],[130.418225422,33.713859279],[130.418489222,33.714065279],[130.418461051,33.714147108],[130.418582309,33.714148495],[130.418828275,33.71434594600001],[130.418716031,33.714510252000004],[130.418795837,33.71483764],[130.418912607,33.71483141400001],[130.419043865,33.714595586],[130.41920358,33.714590892],[130.420624617,33.715448252],[130.42065041500004,33.715556027000005],[130.420858029,33.715649441],[130.42094358,33.715906000000004],[130.421114578,33.716021225],[130.42125635500003,33.716470441000006],[130.421208029,33.716600586],[130.42130669307446,33.71666666666667],[130.425,33.71666666666667],[130.425,33.70899525200001],[130.42481277600004,33.70893333299999],[130.424451946,33.708988054],[130.424015551,33.708948891999995],[130.423845279,33.70887055899999]]],[[[130.418380363,33.714161532],[130.418444747,33.71416516199999],[130.418436304,33.714137279],[130.418380363,33.714161532]]],[[[130.420615551,33.715558865],[130.420642114,33.71560333299999],[130.420630363,33.715539279],[130.420615551,33.715558865]]],[[[130.420575058,33.715967279],[130.42060160800003,33.715978694],[130.420575642,33.715927252],[130.420575058,33.715967279]]]]}},{"type":"Feature","id":"40345:50304354","properties":{"id":"40345:50304354","meshCode":"50304354","cityCode":"40345","city":"新宮町","lat":33.7123114,"lon":130.4316436,"areaKm2":0.9506715,"populated2020":true,"population2020":4247.8887,"populationNote":"収録500mメッシュ人口の合算（原典収録外は補完しない）"},"geometry":{"type":"Polygon","coordinates":[[[130.428846939,33.708939441000005],[130.429050558,33.709317495],[130.42814166,33.709803332999996],[130.428051388,33.709383892],[130.427815837,33.708976387],[130.42725917,33.708796108],[130.427155551,33.708463054],[130.426898327,33.708359162],[130.426492218,33.708519721],[130.426461946,33.708805829],[130.426221388,33.709231108],[130.426204721,33.709566108],[130.425499442,33.70985805400001],[130.425332218,33.709856108],[130.425213891,33.709636667],[130.425268885,33.709084162],[130.425,33.70899525200001],[130.425,33.71666666666667],[130.425182361,33.71656289199999],[130.42537577151504,33.716666666666676],[130.425157951,33.716469468],[130.42537275,33.716130279000005],[130.425689585,33.715847721],[130.426144332,33.715652721],[130.426391725,33.716242306],[130.426632088,33.716519775],[130.426822283,33.716638586],[130.426499728,33.716324027],[130.426261077,33.71591412600001],[130.426151764,33.71549561300001],[130.426151933,33.714951468],[130.426411362,33.714974495],[130.426531167,33.715683829],[130.426806083,33.71618436],[130.426556031,33.715677721],[130.426574112,33.715470613],[130.427088327,33.715195559],[130.42808022,33.71509125199999],[130.428908418,33.71522282899999],[130.430147613,33.71564061299999],[130.432168975,33.716120225000004],[130.43338438287216,33.71666666666667],[130.4375,33.71666666666667],[130.4375,33.70833333333333],[130.42877000000001,33.708334162],[130.428846939,33.708939441000005]]]}},{"type":"Feature","id":"40345:50304355","properties":{"id":"40345:50304355","meshCode":"50304355","cityCode":"40345","city":"新宮町","lat":33.7125,"lon":130.44375,"areaKm2":1.0708408,"populated2020":true,"population2020":7374.3803,"populationNote":"収録500mメッシュ人口の合算（原典収録外は補完しない）"},"geometry":{"type":"Polygon","coordinates":[[[130.45,33.70833333333333],[130.4375,33.70833333333333],[130.4375,33.71666666666667],[130.45,33.716666666666676],[130.45,33.70833333333333]]]}},{"type":"Feature","id":"40345:50304356","properties":{"id":"40345:50304356","meshCode":"50304356","cityCode":"40345","city":"新宮町","lat":33.7124565,"lon":130.4561711,"areaKm2":1.0567333,"populated2020":true,"population2020":3606.1531,"populationNote":"収録500mメッシュ人口の合算（原典収録外は補完しない）"},"geometry":{"type":"Polygon","coordinates":[[[130.4625,33.708333333333336],[130.45,33.70833333333333],[130.45,33.716666666666676],[130.46134306119808,33.71666666666667],[130.462056109,33.715487225],[130.462259442,33.71433499999999],[130.4625,33.71397416512155],[130.4625,33.708333333333336]]]}},{"type":"Feature","id":"40345:50304357","properties":{"id":"40345:50304357","meshCode":"50304357","cityCode":"40345","city":"新宮町","lat":33.7103971,"lon":130.4644905,"areaKm2":0.1889161,"populated2020":true,"population2020":null,"populationNote":"境界またぎ・収録外等のため人口未集計"},"geometry":{"type":"Polygon","coordinates":[[[130.46503917,33.712361387],[130.464923891,33.711952775],[130.46510749700002,33.711586946],[130.46585000000002,33.710853332999996],[130.466462218,33.710579441],[130.466901388,33.710055278999995],[130.467285279,33.709820279],[130.467552218,33.709458892],[130.467742218,33.70875055900001],[130.46810430561646,33.708333333333336],[130.4625,33.708333333333336],[130.4625,33.71397416512155],[130.463047497,33.71380082900001],[130.463486394,33.713356667],[130.464608612,33.71284610800001],[130.464932218,33.712584441],[130.46503917,33.712361387]]]}},{"type":"Feature","id":"40345:50304363","properties":{"id":"40345:50304363","meshCode":"50304363","cityCode":"40345","city":"新宮町","lat":33.7179152,"lon":130.4228366,"areaKm2":0.0789886,"populated2020":true,"population2020":6.9237,"populationNote":"収録500mメッシュ人口の合算（原典収録外は補完しない）"},"geometry":{"type":"MultiPolygon","coordinates":[[[[130.420574306,33.717922495],[130.420604306,33.718002252],[130.420640169,33.71795122500001],[130.420574306,33.717922495]]],[[[130.420631219,33.71804458599999],[130.420674112,33.718018919],[130.42064022,33.718005586],[130.420631219,33.71804458599999]]],[[[130.420961894,33.718032532],[130.420952218,33.71801264],[130.420949533,33.718042748],[130.420961894,33.718032532]]],[[[130.42130669307446,33.71666666666667],[130.421296057,33.716969694],[130.421227419,33.716925999999994],[130.421110804,33.717035198000005],[130.421235227,33.717239802],[130.421107613,33.717333613],[130.421145577,33.71748058600001],[130.421063865,33.71759758599999],[130.42115,33.717817081],[130.421084034,33.718112694],[130.421153839,33.718115829000006],[130.421205746,33.718289639999995],[130.4210607,33.718345306],[130.421122581,33.718557225000005],[130.421329416,33.71841364],[130.422156304,33.718872387000005],[130.422152023,33.718785468],[130.422296641,33.718735333],[130.422492023,33.719251667],[130.423008975,33.719605198000004],[130.425,33.719917135],[130.425,33.719836135],[130.423556446,33.719622766],[130.423675603,33.719166468],[130.423872166,33.719197613],[130.424182166,33.717888414],[130.424820117,33.717961829],[130.425,33.718086135000014],[130.424834747,33.717934108],[130.424854916,33.717837387],[130.424220947,33.717736865],[130.424260856,33.71756077500002],[130.424020389,33.71752272100001],[130.424130778,33.71706866699999],[130.424373969,33.717117892],[130.425,33.71666666666667],[130.42130669307446,33.71666666666667]]],[[[130.420863865,33.71836233300001],[130.420851699,33.718278612999995],[130.420765772,33.718318586],[130.420863865,33.71836233300001]]],[[[130.420624189,33.718417468],[130.42049002600004,33.718391333],[130.420506329,33.718455054],[130.420624189,33.718417468]]],[[[130.420685746,33.718633333],[130.420622283,33.718541613],[130.420659611,33.718655225],[130.420685746,33.718633333]]],[[[130.424659754,33.718819532],[130.42464594,33.71888430600001],[130.425,33.718937198000006],[130.425,33.718870441],[130.424659754,33.718819532]]],[[[130.4214662,33.719097027],[130.421449559,33.71890589200001],[130.421341582,33.719031054],[130.4214662,33.719097027]]],[[[130.421286161,33.71907272100001],[130.42133166,33.719075468],[130.421316252,33.719043559000006],[130.421286161,33.71907272100001]]]]}},{"type":"Feature","id":"40345:50304364","properties":{"id":"40345:50304364","meshCode":"50304364","cityCode":"40345","city":"新宮町","lat":33.7174931,"lon":130.4355984,"areaKm2":0.0499269,"populated2020":false,"population2020":null,"populationNote":"境界またぎ・収録外等のため人口未集計"},"geometry":{"type":"MultiPolygon","coordinates":[[[[130.425,33.71666666666667],[130.425,33.716688054],[130.42503114148545,33.71666666666667],[130.425,33.71666666666667]]],[[[130.42624263300002,33.71729138700001],[130.425755811,33.71795564],[130.426288054,33.717293586],[130.425333358515,33.716666666666676],[130.42624263300002,33.71729138700001]]],[[[130.43338438287216,33.71666666666667],[130.434935551,33.717607198],[130.43655247700002,33.71825274799999],[130.436965668,33.718575279],[130.4375,33.719192418297574],[130.4375,33.71666666666667],[130.43338438287216,33.71666666666667]]],[[[130.425257639,33.71824886499999],[130.425238949,33.71818935999999],[130.425,33.718038468],[130.425257639,33.71824886499999]]],[[[130.425724423,33.718978667],[130.425123061,33.718888865],[130.425,33.718870441],[130.425,33.718937198000006],[130.425710506,33.719043441],[130.425724423,33.718978667]]],[[[130.425,33.719917135],[130.425614838,33.719846802000006],[130.425901284,33.71968736],[130.426210973,33.719244667000005],[130.426117691,33.719221694],[130.426007393,33.719452973],[130.425686355,33.719718468],[130.425424034,33.719818946000004],[130.425,33.719836135],[130.425,33.719917135]]]]}},{"type":"Feature","id":"40345:50304365","properties":{"id":"40345:50304365","meshCode":"50304365","cityCode":"40345","city":"新宮町","lat":33.719791,"lon":130.4447689,"areaKm2":0.7362919,"populated2020":true,"population2020":1028.8769,"populationNote":"収録500mメッシュ人口の合算（原典収録外は補完しない）"},"geometry":{"type":"Polygon","coordinates":[[[130.4375,33.719192418297574],[130.43837121900003,33.719604414],[130.439160246,33.720239414000005],[130.441136109,33.721088081],[130.443852218,33.722632495000006],[130.444768885,33.723224162],[130.447028807,33.725],[130.447172918,33.725],[130.448540558,33.723984441000006],[130.44913166,33.723802494999994],[130.45,33.72334425199999],[130.45,33.716666666666676],[130.4375,33.71666666666667],[130.4375,33.719192418297574]]]}},{"type":"Feature","id":"40345:50304366","properties":{"id":"40345:50304366","meshCode":"50304366","cityCode":"40345","city":"新宮町","lat":33.7190273,"lon":130.4543208,"areaKm2":0.4680289,"populated2020":true,"population2020":null,"populationNote":"境界またぎ・収録外等のため人口未集計"},"geometry":{"type":"Polygon","coordinates":[[[130.45659083,33.720414162],[130.459121115,33.719160829],[130.460676109,33.717683613000005],[130.46134306119808,33.71666666666667],[130.45,33.716666666666676],[130.45,33.72334425199999],[130.451656109,33.72233],[130.453002776,33.721997775],[130.453634721,33.721970559000006],[130.455053333,33.72146],[130.455327224,33.721162774999996],[130.455256939,33.720945559],[130.45659083,33.720414162]]]}},{"type":"Feature","id":"40345:50304375","properties":{"id":"40345:50304375","meshCode":"50304375","cityCode":"40345","city":"新宮町","lat":33.7250191,"lon":130.4470998,"areaKm2":4.24e-05,"populated2020":false,"population2020":null,"populationNote":"境界またぎ・収録外等のため人口未集計"},"geometry":{"type":"Polygon","coordinates":[[[130.447097782,33.725057225],[130.447172918,33.725],[130.447028807,33.725],[130.447097782,33.725057225]]]}},{"type":"Feature","id":"40345:50305208","properties":{"id":"40345:50305208","meshCode":"50305208","cityCode":"40345","city":"新宮町","lat":33.7573408,"lon":130.3615977,"areaKm2":0.0409663,"populated2020":false,"population2020":null,"populationNote":"境界またぎ・収録外等のため人口未集計"},"geometry":{"type":"Polygon","coordinates":[[[130.362466641,33.755190721000005],[130.36217124500004,33.755446532],[130.361944942,33.756096081],[130.361558885,33.75669664],[130.360619364,33.75740697300001],[130.35972481182608,33.758333333333326],[130.3625,33.75833333333333],[130.362466641,33.755190721000005]]]}},{"type":"Feature","id":"40345:50305209","properties":{"id":"40345:50305209","meshCode":"50305209","cityCode":"40345","city":"新宮町","lat":33.7565557,"lon":130.3639156,"areaKm2":0.0858192,"populated2020":true,"population2020":194.9264,"populationNote":"収録500mメッシュ人口の合算（原典収録外は補完しない）"},"geometry":{"type":"MultiPolygon","coordinates":[[[[130.36622217900003,33.75605500000001],[130.366301479,33.755986613],[130.365916576,33.755675099],[130.365837173,33.75574348600001],[130.36622217900003,33.75605500000001]]],[[[130.366666667,33.756402928],[130.366768885,33.756353],[130.366383865,33.756041495],[130.366304565,33.756109883],[130.366666667,33.756402928]]],[[[130.364073087,33.757552649],[130.364149209,33.757446018],[130.364371816,33.757502982],[130.364432127,33.757418441],[130.364308936,33.757275080999996],[130.364831868,33.75683046799999],[130.36534094700002,33.756887189],[130.364989637,33.756719207],[130.365172062,33.755651081],[130.365442827,33.75586445],[130.365483982,33.75583201800001],[130.365187588,33.75559373],[130.365066563,33.75498296400001],[130.365324903,33.754962928],[130.36531716,33.754900946],[130.36493262,33.754932153],[130.36444572,33.754801162],[130.36396869,33.754996252],[130.363025473,33.754998694],[130.3625,33.75516949073449],[130.3625,33.75833333333333],[130.3644388202331,33.758333333333326],[130.364196822,33.757987243],[130.364073087,33.757552649]]],[[[130.366836537,33.756400414],[130.366757134,33.756468802],[130.36714214,33.75678039600001],[130.36722144,33.756711919000004],[130.366836537,33.756400414]]],[[[130.367303878,33.75677554100001],[130.367224578,33.756843937],[130.367609481,33.757155441],[130.367688898,33.757087045000006],[130.367303878,33.75677554100001]]],[[[130.368171673,33.757448009],[130.367786654,33.75713650500002],[130.367707354,33.757204901],[130.36809227,33.757516396],[130.368171673,33.757448009]]],[[[130.368635318,33.757828802],[130.368250402,33.757517297],[130.368170986,33.757585685],[130.368556018,33.757897189],[130.368635318,33.757828802]]],[[[130.365100208,33.757300703],[130.365034475,33.757284676],[130.364948054,33.757616486],[130.365052672,33.758009324],[130.36534683527202,33.758333333333326],[130.36575815826862,33.75833333333333],[130.365056615,33.757458991],[130.365100208,33.757300703]]],[[[130.369122361,33.75819753199999],[130.368737341,33.75788603600001],[130.36865804200002,33.75795442300001],[130.369042957,33.75826592799999],[130.369122361,33.75819753199999]]]]}},{"type":"Feature","id":"40345:50305300","properties":{"id":"40345:50305300","meshCode":"50305300","cityCode":"40345","city":"新宮町","lat":33.758206,"lon":130.379395,"areaKm2":0.0057853,"populated2020":false,"population2020":null,"populationNote":"境界またぎ・収録外等のため人口未集計"},"geometry":{"type":"MultiPolygon","coordinates":[[[[130.378317782,33.758017333],[130.378368911,33.758052946],[130.378370441,33.758006134999995],[130.378317782,33.758017333]]],[[[130.3806007264737,33.75833333333333],[130.380251725,33.758064667000006],[130.380041219,33.758022495],[130.379942724,33.758028586],[130.379942309,33.758087720999995],[130.379645162,33.758050081],[130.37892153,33.758135972999995],[130.378822387,33.758039360000005],[130.378668495,33.75807564],[130.378548638,33.75800894599999],[130.378431855,33.758035135],[130.378352866,33.75822749500001],[130.37811263254383,33.75833333333333],[130.3806007264737,33.75833333333333]]],[[[130.380482892,33.758149387],[130.38046083,33.758198973],[130.380546615,33.758187414],[130.380482892,33.758149387]]],[[[130.380659948,33.758311586000005],[130.380711505,33.758286054],[130.380573606,33.758248135],[130.380659948,33.758311586000005]]]]}},{"type":"Feature","id":"40345:50305218","properties":{"id":"40345:50305218","meshCode":"50305218","cityCode":"40345","city":"新宮町","lat":33.761684,"lon":130.361156,"areaKm2":0.2013624,"populated2020":false,"population2020":null,"populationNote":"境界またぎ・収録外等のため人口未集計"},"geometry":{"type":"Polygon","coordinates":[[[130.359703528,33.758371027],[130.359493217,33.758984387],[130.359240026,33.760571667],[130.359341855,33.762074225],[130.359634332,33.76239194600001],[130.35965166,33.76254080199999],[130.359871777,33.76267358599999],[130.359819831,33.762777559],[130.35996917,33.762800495],[130.359953606,33.762964613],[130.360195084,33.762981198000006],[130.360538003,33.76339491900001],[130.360658392,33.76400072100001],[130.360475383,33.764382613],[130.360750311,33.764866135000005],[130.361204112,33.765234279000005],[130.361719857,33.765809586],[130.361733139,33.766235306],[130.362008054,33.766428135],[130.36215788583021,33.76666666666666],[130.3625,33.76666666666666],[130.3625,33.75833333333333],[130.359703528,33.758371027]]]}},{"type":"Feature","id":"40345:50305219","properties":{"id":"40345:50305219","meshCode":"50305219","cityCode":"40345","city":"新宮町","lat":33.7627238,"lon":130.3679183,"areaKm2":0.7668129,"populated2020":true,"population2020":16.6236,"populationNote":"収録500mメッシュ人口の合算（原典収録外は補完しない）"},"geometry":{"type":"Polygon","coordinates":[[[130.368526342,33.760265901],[130.367483217,33.760796946],[130.367355837,33.760987711999995],[130.36729428,33.760976667],[130.367035966,33.760843431999994],[130.367162023,33.760626964000004],[130.366672607,33.760432315],[130.366787211,33.760231297],[130.366636706,33.760454946],[130.36624600500002,33.760298216],[130.365674254,33.759880351],[130.365008703,33.759053279000014],[130.365641933,33.758698946],[130.366181258,33.75937155],[130.367615824,33.75995315299999],[130.367640532,33.75990955],[130.366720856,33.759536973],[130.36575815826862,33.75833333333333],[130.36534683527202,33.758333333333326],[130.365433891,33.758440009],[130.36476345,33.758788468000006],[130.3644388202331,33.758333333333326],[130.3625,33.75833333333333],[130.3625,33.76666666666666],[130.3651759404917,33.766666666666666],[130.36539377400004,33.766532775],[130.36580958500002,33.766510946],[130.366328975,33.766318774999995],[130.36657061,33.766313162],[130.367054864,33.766450694],[130.367652892,33.766428162],[130.369129027,33.765893829],[130.370739339,33.765476387],[130.37196406,33.764858694],[130.372611829,33.764745775],[130.375,33.76327736],[130.375,33.759926694],[130.37431856,33.759686251999995],[130.373510921,33.759667279],[130.372391051,33.75986253199999],[130.371385383,33.76021836],[130.370492918,33.760435],[130.370237601,33.760464712],[130.36954952,33.76011290099999],[130.368526342,33.760265901]]]}},{"type":"Feature","id":"40345:50305310","properties":{"id":"40345:50305310","meshCode":"50305310","cityCode":"40345","city":"新宮町","lat":33.7602836,"lon":130.3774208,"areaKm2":0.1174534,"populated2020":false,"population2020":null,"populationNote":"境界またぎ・収録外等のため人口未集計"},"geometry":{"type":"MultiPolygon","coordinates":[[[[130.384297458,33.758364955],[130.38423856,33.758434990999994],[130.384327406,33.75840333299999],[130.384297458,33.758364955]]],[[[130.38081083,33.758508081],[130.380815914,33.758550946],[130.380836355,33.75854464],[130.38081083,33.758508081]]],[[[130.384574591,33.75854107200001],[130.384447185,33.758544856],[130.384413035,33.758566414],[130.384511012,33.75858727899999],[130.384574591,33.75854107200001]]],[[[130.384355629,33.758881072],[130.384893645,33.758895117],[130.384866719,33.758780829],[130.384742737,33.758636856],[130.384491595,33.758645251999994],[130.384558664,33.75871609],[130.384355629,33.758881072]]],[[[130.381162724,33.759562252000016],[130.381199663,33.759498332999996],[130.381142412,33.75953346800001],[130.381162724,33.759562252000016]]],[[[130.378879883,33.75960036],[130.378845084,33.75948713499999],[130.378755253,33.759458558999995],[130.378808716,33.75964772099999],[130.378879883,33.75960036]]],[[[130.376585616,33.762337081],[130.37715022,33.761644225],[130.377766861,33.759863721],[130.3780838,33.759520162],[130.378408171,33.759358333],[130.378823333,33.759300026999995],[130.378987134,33.75945764000001],[130.379042529,33.759694694],[130.379211479,33.759754775],[130.37953856,33.759738306],[130.379809442,33.759583414],[130.38079856,33.759795586],[130.381059883,33.759602865],[130.381160389,33.759330414],[130.380697056,33.759122532000006],[130.380893217,33.758686135000005],[130.380672802,33.758384054000004],[130.3806007264737,33.75833333333333],[130.37811263254383,33.75833333333333],[130.376367613,33.75976236000001],[130.376190467,33.75983849499999],[130.375922244,33.75981825200001],[130.375714112,33.759926027],[130.375,33.759926694],[130.375,33.76327736],[130.376585616,33.762337081]]]]}},{"type":"Feature","id":"40345:50305228","properties":{"id":"40345:50305228","meshCode":"50305228","cityCode":"40345","city":"新宮町","lat":33.7667782,"lon":130.3623762,"areaKm2":0.0006346,"populated2020":false,"population2020":null,"populationNote":"境界またぎ・収録外等のため人口未集計"},"geometry":{"type":"Polygon","coordinates":[[[130.362157886,33.766666667],[130.362244838,33.766803721],[130.3625,33.76700254613206],[130.3625,33.76666666666666],[130.362157886,33.766666667]]]}},{"type":"Feature","id":"40345:50305229","properties":{"id":"40345:50305229","meshCode":"50305229","cityCode":"40345","city":"新宮町","lat":33.7668283,"lon":130.3634586,"areaKm2":0.0066584,"populated2020":false,"population2020":null,"populationNote":"境界またぎ・収録外等のため人口未集計"},"geometry":{"type":"Polygon","coordinates":[[[130.362525888,33.767017162],[130.363029585,33.766994053999994],[130.363355966,33.76716497299999],[130.363839442,33.76684955899999],[130.364422944,33.766854279],[130.364638664,33.766746026999996],[130.3651759404917,33.766666666666666],[130.3625,33.76666666666666],[130.362525888,33.767017162]]]}}]}