{"type":"FeatureCollection","metadata":{"cityCode":"40341","city":"宇美町","resolution":500,"boundaryDate":"2026-01-01","populationLabel":"2020年基準人口（国交省調整値）","method":"標準地域メッシュを行政界で切抜き。中心が区域外のとき区域内代表点を判定点にする。人口不明をゼロにしない。"},"features":[{"type":"Feature","id":"40341:503024313","properties":{"id":"40341:503024313","meshCode":"503024313","cityCode":"40341","city":"宇美町","lat":33.5321054,"lon":130.5174364,"areaKm2":0.0692684,"populated2020":false,"population2020":null,"populationNote":"境界またぎ・原典収録外のため自治体内人口は未集計"},"geometry":{"type":"Polygon","coordinates":[[[130.518733891,33.530862775],[130.51831,33.531300559],[130.517673891,33.531254720999996],[130.517254721,33.530972774999995],[130.516765551,33.530828613000004],[130.51633917,33.530992495],[130.515975551,33.531425279000004],[130.516143333,33.531982495],[130.516102218,33.532228333],[130.515598885,33.532792225],[130.51521306100003,33.53305610799999],[130.514865279,33.533104162],[130.51449199648718,33.53333333333333],[130.51875,33.533333333333324],[130.518733891,33.530862775]]]}},{"type":"Feature","id":"40341:503024314","properties":{"id":"40341:503024314","meshCode":"503024314","cityCode":"40341","city":"宇美町","lat":33.53125,"lon":130.521875,"areaKm2":0.1481729,"populated2020":false,"population2020":null,"populationNote":"境界またぎ・原典収録外のため自治体内人口は未集計"},"geometry":{"type":"Polygon","coordinates":[[[130.524944163,33.532893613],[130.524720272,33.53274277500001],[130.524314994,33.532205279],[130.524273061,33.53193638700001],[130.52409111500003,33.531805279000004],[130.523553061,33.53167444099999],[130.52332917,33.531549721],[130.522570272,33.531393613],[130.522192776,33.531098613],[130.52208083,33.530672495],[130.521243606,33.530685829],[130.52016,33.529813892],[130.519293333,33.530443054],[130.51888083000003,33.530580829],[130.51875,33.53083190739566],[130.51875,33.533333333333324],[130.525,33.533333333333324],[130.524944163,33.532893613]]]}},{"type":"Feature","id":"40341:503024323","properties":{"id":"40341:503024323","meshCode":"503024323","cityCode":"40341","city":"宇美町","lat":33.5331067,"lon":130.5251763,"areaKm2":0.0019939,"populated2020":false,"population2020":null,"populationNote":"境界またぎ・原典収録外のため自治体内人口は未集計"},"geometry":{"type":"Polygon","coordinates":[[[130.526046913,33.53333333300001],[130.525481946,33.533168892],[130.525,33.532923775],[130.525,33.533333333333324],[130.526046913,33.53333333300001]]]}},{"type":"Feature","id":"40341:503024411","properties":{"id":"40341:503024411","meshCode":"503024411","cityCode":"40341","city":"宇美町","lat":33.5354167,"lon":130.515625,"areaKm2":0.1964058,"populated2020":false,"population2020":null,"populationNote":"境界またぎ・原典収録外のため自治体内人口は未集計"},"geometry":{"type":"Polygon","coordinates":[[[130.514345837,33.53342833300001],[130.513977224,33.534326108],[130.513949442,33.535273333],[130.51420083,33.536016108],[130.51432083,33.536975559000005],[130.51450367320797,33.5375],[130.51875,33.537499999999994],[130.51875,33.533333333333324],[130.51449199648718,33.53333333333333],[130.514345837,33.53342833300001]]]}},{"type":"Feature","id":"40341:503024412","properties":{"id":"40341:503024412","meshCode":"503024412","cityCode":"40341","city":"宇美町","lat":33.5354167,"lon":130.521875,"areaKm2":0.2682462,"populated2020":true,"population2020":12.1281,"populationNote":"2020年基準の国交省調整値"},"geometry":{"type":"Polygon","coordinates":[[[130.51875,33.533333333333324],[130.51875,33.537499999999994],[130.525,33.5375],[130.525,33.533333333333324],[130.51875,33.533333333333324]]]}},{"type":"Feature","id":"40341:503024421","properties":{"id":"40341:503024421","meshCode":"503024421","cityCode":"40341","city":"宇美町","lat":33.5354167,"lon":130.528125,"areaKm2":0.1328984,"populated2020":false,"population2020":null,"populationNote":"境界またぎ・原典収録外のため自治体内人口は未集計"},"geometry":{"type":"Polygon","coordinates":[[[130.5284868964581,33.53750000000001],[130.528631115,33.537254721],[130.529330272,33.53694],[130.529616939,33.536658333],[130.529679728,33.53650110800001],[130.529441946,33.53597666699999],[130.52868,33.53562277499999],[130.528372503,33.53537361299999],[130.527876394,33.535301387],[130.527750558,33.535209721],[130.526886939,33.53442722500001],[130.526621388,33.533896667],[130.526243891,33.53344416200001],[130.5260469135924,33.53333333333333],[130.525,33.533333333333324],[130.525,33.5375],[130.5284868964581,33.53750000000001]]]}},{"type":"Feature","id":"40341:503024404","properties":{"id":"40341:503024404","meshCode":"503024404","cityCode":"40341","city":"宇美町","lat":33.5405489,"lon":130.5116855,"areaKm2":0.0412732,"populated2020":false,"population2020":null,"populationNote":"境界またぎ・原典収録外のため自治体内人口は未集計"},"geometry":{"type":"Polygon","coordinates":[[[130.512381946,33.539707495],[130.511048054,33.540475279000006],[130.509747782,33.54100222499999],[130.509120272,33.541115829],[130.508691479242,33.54166666666667],[130.5125,33.541666666666664],[130.5125,33.53949034339761],[130.512381946,33.539707495]]]}},{"type":"Feature","id":"40341:503024413","properties":{"id":"40341:503024413","meshCode":"503024413","cityCode":"40341","city":"宇美町","lat":33.5395833,"lon":130.515625,"areaKm2":0.249216,"populated2020":false,"population2020":null,"populationNote":"境界またぎ・原典収録外のため自治体内人口は未集計"},"geometry":{"type":"Polygon","coordinates":[[[130.51450367320797,33.5375],[130.514575551,33.53788333300001],[130.513433606,33.538228613],[130.512578885,33.539291387000006],[130.5125,33.53949034339761],[130.5125,33.541666666666664],[130.51875,33.541666666666664],[130.51875,33.537499999999994],[130.51450367320797,33.5375]]]}},{"type":"Feature","id":"40341:503024414","properties":{"id":"40341:503024414","meshCode":"503024414","cityCode":"40341","city":"宇美町","lat":33.5395833,"lon":130.521875,"areaKm2":0.2682335,"populated2020":false,"population2020":null,"populationNote":"境界またぎ・原典収録外のため自治体内人口は未集計"},"geometry":{"type":"Polygon","coordinates":[[[130.51875,33.537499999999994],[130.51875,33.541666666666664],[130.525,33.541666666666664],[130.525,33.5375],[130.51875,33.537499999999994]]]}},{"type":"Feature","id":"40341:503024423","properties":{"id":"40341:503024423","meshCode":"503024423","cityCode":"40341","city":"宇美町","lat":33.539584,"lon":130.5265235,"areaKm2":0.1379163,"populated2020":false,"population2020":null,"populationNote":"境界またぎ・原典収録外のため自治体内人口は未集計"},"geometry":{"type":"Polygon","coordinates":[[[130.528092503,33.541661946],[130.528106667,33.541078892],[130.527973891,33.540606667],[130.527624163,33.540252775],[130.52837917,33.53900722499999],[130.52863083,33.53884999999999],[130.528714721,33.538646946],[130.528484449,33.53791027900001],[130.5284868964581,33.53750000000001],[130.525,33.5375],[130.525,33.541666666666664],[130.528092503,33.541661946]]]}},{"type":"Feature","id":"40341:503024502","properties":{"id":"40341:503024502","meshCode":"503024502","cityCode":"40341","city":"宇美町","lat":33.54375,"lon":130.509375,"areaKm2":0.1630614,"populated2020":false,"population2020":null,"populationNote":"境界またぎ・原典収録外のため自治体内人口は未集計"},"geometry":{"type":"Polygon","coordinates":[[[130.508691479,33.54166666700001],[130.508306667,33.54229110799999],[130.50829166,33.542666108000006],[130.508983891,33.544679720999994],[130.509074994,33.545016667],[130.50901917,33.545376946],[130.5091523455863,33.545833333333334],[130.5125,33.545833333333334],[130.5125,33.541666666666664],[130.508691479,33.54166666700001]]]}},{"type":"Feature","id":"40341:503024511","properties":{"id":"40341:503024511","meshCode":"503024511","cityCode":"40341","city":"宇美町","lat":33.54375,"lon":130.515625,"areaKm2":0.2682212,"populated2020":false,"population2020":null,"populationNote":"境界またぎ・原典収録外のため自治体内人口は未集計"},"geometry":{"type":"Polygon","coordinates":[[[130.5125,33.541666666666664],[130.5125,33.545833333333334],[130.51875,33.545833333333334],[130.51875,33.541666666666664],[130.5125,33.541666666666664]]]}},{"type":"Feature","id":"40341:503024512","properties":{"id":"40341:503024512","meshCode":"503024512","cityCode":"40341","city":"宇美町","lat":33.54375,"lon":130.521875,"areaKm2":0.2682208,"populated2020":false,"population2020":null,"populationNote":"境界またぎ・原典収録外のため自治体内人口は未集計"},"geometry":{"type":"Polygon","coordinates":[[[130.51875,33.541666666666664],[130.51875,33.545833333333334],[130.525,33.545833333333334],[130.525,33.541666666666664],[130.51875,33.541666666666664]]]}},{"type":"Feature","id":"40341:503024521","properties":{"id":"40341:503024521","meshCode":"503024521","cityCode":"40341","city":"宇美町","lat":33.54375,"lon":130.528125,"areaKm2":0.2237689,"populated2020":false,"population2020":null,"populationNote":"境界またぎ・原典収録外のため自治体内人口は未集計"},"geometry":{"type":"Polygon","coordinates":[[[130.53125,33.54351864982024],[130.531076394,33.543762775],[130.530845551,33.543769162],[130.530573061,33.543592225],[130.52986,33.54335],[130.52969917,33.54303527900001],[130.529545551,33.542917225],[130.528916667,33.542753333],[130.52876972800001,33.542622224999995],[130.528636939,33.542491108],[130.528497224,33.542110828999995],[130.528169442,33.54182582899999],[130.5280947208434,33.54166666666667],[130.525,33.541666666666664],[130.525,33.545833333333334],[130.53125,33.545833333333334],[130.53125,33.54351864982024]]]}},{"type":"Feature","id":"40341:503024522","properties":{"id":"40341:503024522","meshCode":"503024522","cityCode":"40341","city":"宇美町","lat":33.5445097,"lon":130.5329756,"areaKm2":0.0886404,"populated2020":false,"population2020":null,"populationNote":"境界またぎ・原典収録外のため自治体内人口は未集計"},"geometry":{"type":"Polygon","coordinates":[[[130.53623223935992,33.545833333333334],[130.536121388,33.545503892],[130.535904721,33.545464441],[130.53565166,33.545303054],[130.534784994,33.544627775],[130.534407497,33.54393277500001],[130.534246667,33.543781946],[130.533659728,33.543618054],[130.533296109,33.543401667],[130.533023606,33.543631108],[130.532743891,33.543736108],[130.531565551,33.54335],[130.53125,33.54351864982024],[130.53125,33.545833333333334],[130.53623223935992,33.545833333333334]]]}},{"type":"Feature","id":"40341:503024551","properties":{"id":"40341:503024551","meshCode":"503024551","cityCode":"40341","city":"宇美町","lat":33.5450617,"lon":130.5671778,"areaKm2":0.0393173,"populated2020":false,"population2020":null,"populationNote":"境界またぎ・原典収録外のため自治体内人口は未集計"},"geometry":{"type":"Polygon","coordinates":[[[130.56875,33.544387894575216],[130.568163061,33.544435829],[130.567107497,33.544757225],[130.566793061,33.544717774999995],[130.565694721,33.545012494999995],[130.565516667,33.545110828999995],[130.565317224,33.545425559],[130.56522996026877,33.545833333333334],[130.56875,33.545833333333334],[130.56875,33.544387894575216]]]}},{"type":"Feature","id":"40341:503024552","properties":{"id":"40341:503024552","meshCode":"503024552","cityCode":"40341","city":"宇美町","lat":33.54375,"lon":130.571875,"areaKm2":0.1546705,"populated2020":false,"population2020":null,"populationNote":"境界またぎ・原典収録外のため自治体内人口は未集計"},"geometry":{"type":"Polygon","coordinates":[[[130.575,33.54446444100001],[130.574778885,33.54416555900001],[130.574733333,33.543790829],[130.574364163,33.54351555900001],[130.574045837,33.54311249500001],[130.573074721,33.54287055900001],[130.572472776,33.54246249500001],[130.57215555100004,33.54247694600001],[130.570765551,33.54343166700001],[130.570596109,33.543633054],[130.570470272,33.544068892],[130.570225551,33.544236108],[130.569830558,33.544324721],[130.56875,33.544387894575216],[130.56875,33.545833333333334],[130.575,33.54583333333334],[130.575,33.54446444100001]]]}},{"type":"Feature","id":"40341:503024561","properties":{"id":"40341:503024561","meshCode":"503024561","cityCode":"40341","city":"宇美町","lat":33.5452815,"lon":130.5751687,"areaKm2":0.0041559,"populated2020":false,"population2020":null,"populationNote":"境界またぎ・原典収録外のため自治体内人口は未集計"},"geometry":{"type":"Polygon","coordinates":[[[130.57548675333518,33.545833333333334],[130.57521917,33.544768054],[130.575,33.54446444100001],[130.575,33.54583333333334],[130.57548675333518,33.545833333333334]]]}},{"type":"Feature","id":"40341:503024503","properties":{"id":"40341:503024503","meshCode":"503024503","cityCode":"40341","city":"宇美町","lat":33.5493058,"lon":130.5055644,"areaKm2":0.0180117,"populated2020":false,"population2020":null,"populationNote":"境界またぎ・原典収録外のため自治体内人口は未集計"},"geometry":{"type":"Polygon","coordinates":[[[130.50625,33.54862906921645],[130.505627497,33.549006946],[130.505192503,33.549016386999995],[130.504564994,33.549633333],[130.50394,33.549925279],[130.503599857,33.55],[130.50625,33.54999999999999],[130.50625,33.54862906921645]]]}},{"type":"Feature","id":"40341:503024504","properties":{"id":"40341:503024504","meshCode":"503024504","cityCode":"40341","city":"宇美町","lat":33.5479167,"lon":130.509375,"areaKm2":0.1985307,"populated2020":false,"population2020":null,"populationNote":"境界またぎ・原典収録外のため自治体内人口は未集計"},"geometry":{"type":"Polygon","coordinates":[[[130.509236667,33.545984441],[130.509383333,33.547219721000005],[130.509044721,33.547953892],[130.508943606,33.54805805400001],[130.507307497,33.547939441],[130.506933061,33.54803916200001],[130.50625,33.54862906921645],[130.50625,33.54999999999999],[130.5125,33.55],[130.5125,33.545833333333334],[130.5091523455863,33.545833333333334],[130.509236667,33.545984441]]]}},{"type":"Feature","id":"40341:503024513","properties":{"id":"40341:503024513","meshCode":"503024513","cityCode":"40341","city":"宇美町","lat":33.5479167,"lon":130.515625,"areaKm2":0.2682085,"populated2020":false,"population2020":null,"populationNote":"境界またぎ・原典収録外のため自治体内人口は未集計"},"geometry":{"type":"Polygon","coordinates":[[[130.5125,33.545833333333334],[130.5125,33.55],[130.51875,33.55],[130.51875,33.545833333333334],[130.5125,33.545833333333334]]]}},{"type":"Feature","id":"40341:503024514","properties":{"id":"40341:503024514","meshCode":"503024514","cityCode":"40341","city":"宇美町","lat":33.5479167,"lon":130.521875,"areaKm2":0.2682081,"populated2020":false,"population2020":null,"populationNote":"境界またぎ・原典収録外のため自治体内人口は未集計"},"geometry":{"type":"Polygon","coordinates":[[[130.51875,33.545833333333334],[130.51875,33.55],[130.525,33.54999999999999],[130.525,33.545833333333334],[130.51875,33.545833333333334]]]}},{"type":"Feature","id":"40341:503024523","properties":{"id":"40341:503024523","meshCode":"503024523","cityCode":"40341","city":"宇美町","lat":33.5479167,"lon":130.528125,"areaKm2":0.2682078,"populated2020":false,"population2020":null,"populationNote":"境界またぎ・原典収録外のため自治体内人口は未集計"},"geometry":{"type":"Polygon","coordinates":[[[130.525,33.545833333333334],[130.525,33.54999999999999],[130.53125,33.55],[130.53125,33.545833333333334],[130.525,33.545833333333334]]]}},{"type":"Feature","id":"40341:503024524","properties":{"id":"40341:503024524","meshCode":"503024524","cityCode":"40341","city":"宇美町","lat":33.5479167,"lon":130.534375,"areaKm2":0.2622349,"populated2020":false,"population2020":null,"populationNote":"境界またぎ・原典収録外のため自治体内人口は未集計"},"geometry":{"type":"Polygon","coordinates":[[[130.537456667,33.546532775],[130.53717,33.546486945999995],[130.536708612,33.546231108],[130.53623223935992,33.545833333333334],[130.53125,33.545833333333334],[130.53125,33.55],[130.5375,33.54999999999999],[130.537456667,33.546532775]]]}},{"type":"Feature","id":"40341:503024533","properties":{"id":"40341:503024533","meshCode":"503024533","cityCode":"40341","city":"宇美町","lat":33.5479167,"lon":130.540625,"areaKm2":0.1038895,"populated2020":true,"population2020":null,"populationNote":"境界またぎ・原典収録外のため自治体内人口は未集計"},"geometry":{"type":"Polygon","coordinates":[[[130.541681245,33.55],[130.541675551,33.549276387000006],[130.541332776,33.548863333],[130.541367782,33.548417495],[130.540955279,33.547945559],[130.54069,33.547768613],[130.540284449,33.54764416199999],[130.540067782,33.547663892],[130.539553606,33.54750305400001],[130.539022503,33.547470278999995],[130.538966394,33.547267225],[130.538672776,33.547149162000004],[130.538295279,33.547227775],[130.5375,33.54656234273743],[130.5375,33.54999999999999],[130.541681245,33.55]]]}},{"type":"Feature","id":"40341:503024544","properties":{"id":"40341:503024544","meshCode":"503024544","cityCode":"40341","city":"宇美町","lat":33.5485842,"lon":130.5616115,"areaKm2":0.04467,"populated2020":false,"population2020":null,"populationNote":"境界またぎ・原典収録外のため自治体内人口は未集計"},"geometry":{"type":"Polygon","coordinates":[[[130.5625,33.5472479734544],[130.561947782,33.547834162],[130.561895279,33.548050559],[130.561629728,33.54812944100001],[130.561073891,33.548152225],[130.56082917,33.54829],[130.560693333,33.54864],[130.560169442,33.549409441],[130.559854994,33.549645559000005],[130.559563969,33.54999999999999],[130.5625,33.55],[130.5625,33.5472479734544]]]}},{"type":"Feature","id":"40341:503024553","properties":{"id":"40341:503024553","meshCode":"503024553","cityCode":"40341","city":"宇美町","lat":33.5479167,"lon":130.565625,"areaKm2":0.2449121,"populated2020":false,"population2020":null,"populationNote":"境界またぎ・原典収録外のため自治体内人口は未集計"},"geometry":{"type":"Polygon","coordinates":[[[130.56522996026877,33.545833333333334],[130.564944163,33.546325278999994],[130.564755279,33.546433613],[130.56402917,33.546540559],[130.563508327,33.54683582900001],[130.562690272,33.547006108],[130.5625,33.5472479734544],[130.5625,33.55],[130.56875,33.55],[130.56875,33.545833333333334],[130.56522996026877,33.545833333333334]]]}},{"type":"Feature","id":"40341:503024554","properties":{"id":"40341:503024554","meshCode":"503024554","cityCode":"40341","city":"宇美町","lat":33.5479167,"lon":130.571875,"areaKm2":0.2682056,"populated2020":false,"population2020":null,"populationNote":"境界またぎ・原典収録外のため自治体内人口は未集計"},"geometry":{"type":"Polygon","coordinates":[[[130.56875,33.545833333333334],[130.56875,33.55],[130.575,33.55],[130.575,33.54583333333334],[130.56875,33.545833333333334]]]}},{"type":"Feature","id":"40341:503024563","properties":{"id":"40341:503024563","meshCode":"503024563","cityCode":"40341","city":"宇美町","lat":33.5478836,"lon":130.57575,"areaKm2":0.0627883,"populated2020":false,"population2020":null,"populationNote":"境界またぎ・原典収録外のため自治体内人口は未集計"},"geometry":{"type":"Polygon","coordinates":[[[130.577712244,33.550000000000004],[130.577139442,33.54943],[130.576446939,33.54773194599999],[130.575935837,33.547176946],[130.575795279,33.54654333300001],[130.57548675333518,33.545833333333334],[130.575,33.54583333333334],[130.575,33.55],[130.577712244,33.550000000000004]]]}},{"type":"Feature","id":"40341:503024601","properties":{"id":"40341:503024601","meshCode":"503024601","cityCode":"40341","city":"宇美町","lat":33.5521394,"lon":130.5049102,"areaKm2":0.1145617,"populated2020":false,"population2020":null,"populationNote":"境界またぎ・原典収録外のため自治体内人口は未集計"},"geometry":{"type":"Polygon","coordinates":[[[130.50355055800003,33.550010828999994],[130.503024163,33.550266946],[130.502933061,33.55045222500001],[130.502907497,33.551086108],[130.503124994,33.551683892],[130.503893891,33.552414721],[130.504146109,33.55278277499999],[130.504277782,33.55310999999999],[130.504131115,33.55396889200001],[130.50429943543216,33.55416666666666],[130.50625,33.55416666666666],[130.50625,33.54999999999999],[130.50355055800003,33.550010828999994]]]}},{"type":"Feature","id":"40341:503024602","properties":{"id":"40341:503024602","meshCode":"503024602","cityCode":"40341","city":"宇美町","lat":33.5520833,"lon":130.509375,"areaKm2":0.2681961,"populated2020":true,"population2020":86.3528,"populationNote":"2020年基準の国交省調整値"},"geometry":{"type":"Polygon","coordinates":[[[130.50625,33.54999999999999],[130.50625,33.55416666666666],[130.5125,33.55416666666667],[130.5125,33.55],[130.50625,33.54999999999999]]]}},{"type":"Feature","id":"40341:503024611","properties":{"id":"40341:503024611","meshCode":"503024611","cityCode":"40341","city":"宇美町","lat":33.5520833,"lon":130.515625,"areaKm2":0.2681958,"populated2020":true,"population2020":1.0194,"populationNote":"2020年基準の国交省調整値"},"geometry":{"type":"Polygon","coordinates":[[[130.5125,33.55],[130.5125,33.55416666666667],[130.51875,33.55416666666666],[130.51875,33.55],[130.5125,33.55]]]}},{"type":"Feature","id":"40341:503024612","properties":{"id":"40341:503024612","meshCode":"503024612","cityCode":"40341","city":"宇美町","lat":33.5520833,"lon":130.521875,"areaKm2":0.2681954,"populated2020":true,"population2020":118.4412,"populationNote":"2020年基準の国交省調整値"},"geometry":{"type":"Polygon","coordinates":[[[130.51875,33.55],[130.51875,33.55416666666666],[130.525,33.55416666666666],[130.525,33.54999999999999],[130.51875,33.55]]]}},{"type":"Feature","id":"40341:503024621","properties":{"id":"40341:503024621","meshCode":"503024621","cityCode":"40341","city":"宇美町","lat":33.5520833,"lon":130.528125,"areaKm2":0.2681951,"populated2020":true,"population2020":172.3204,"populationNote":"2020年基準の国交省調整値"},"geometry":{"type":"Polygon","coordinates":[[[130.525,33.54999999999999],[130.525,33.55416666666666],[130.53125,33.55416666666666],[130.53125,33.55],[130.525,33.54999999999999]]]}},{"type":"Feature","id":"40341:503024622","properties":{"id":"40341:503024622","meshCode":"503024622","cityCode":"40341","city":"宇美町","lat":33.5520833,"lon":130.534375,"areaKm2":0.2681948,"populated2020":true,"population2020":517.1461,"populationNote":"2020年基準の国交省調整値"},"geometry":{"type":"Polygon","coordinates":[[[130.53125,33.55],[130.53125,33.55416666666666],[130.5375,33.55416666666667],[130.5375,33.54999999999999],[130.53125,33.55]]]}},{"type":"Feature","id":"40341:503024631","properties":{"id":"40341:503024631","meshCode":"503024631","cityCode":"40341","city":"宇美町","lat":33.5520833,"lon":130.540625,"areaKm2":0.1522997,"populated2020":true,"population2020":113.438,"populationNote":"2020年基準の国交省調整値"},"geometry":{"type":"Polygon","coordinates":[[[130.540797782,33.554102225],[130.540291115,33.55355333300001],[130.53971083,33.553074721],[130.539745837,33.552897775],[130.53987166,33.552793054],[130.54066166,33.552616107999995],[130.541066939,33.55228194600001],[130.541640272,33.551980279],[130.541731115,33.551606387],[130.541681245,33.55],[130.5375,33.54999999999999],[130.5375,33.55416666666667],[130.54074463400786,33.55416666666667],[130.540797782,33.554102225]]]}},{"type":"Feature","id":"40341:503024641","properties":{"id":"40341:503024641","meshCode":"503024641","cityCode":"40341","city":"宇美町","lat":33.5534357,"lon":130.5556801,"areaKm2":0.0168787,"populated2020":false,"population2020":null,"populationNote":"境界またぎ・原典収録外のため自治体内人口は未集計"},"geometry":{"type":"Polygon","coordinates":[[[130.55625,33.552759441499994],[130.555468612,33.553123054],[130.555251946,33.553378333000005],[130.554622776,33.553725829],[130.554465551,33.55385389199999],[130.55442859457736,33.55416666666667],[130.55625,33.55416666666666],[130.55625,33.552759441499994]]]}},{"type":"Feature","id":"40341:503024642","properties":{"id":"40341:503024642","meshCode":"503024642","cityCode":"40341","city":"宇美町","lat":33.5520833,"lon":130.559375,"areaKm2":0.2152658,"populated2020":false,"population2020":null,"populationNote":"境界またぎ・原典収録外のため自治体内人口は未集計"},"geometry":{"type":"Polygon","coordinates":[[[130.559563969,33.54999999999999],[130.558782218,33.550660279],[130.55863555100004,33.551096387],[130.558056109,33.55156361300001],[130.557703061,33.552012774999994],[130.557458327,33.552137495],[130.55671166,33.552303892000005],[130.55648083,33.552658054],[130.55625,33.552759441499994],[130.55625,33.55416666666666],[130.5625,33.55416666666666],[130.5625,33.55],[130.559563969,33.54999999999999]]]}},{"type":"Feature","id":"40341:503024651","properties":{"id":"40341:503024651","meshCode":"503024651","cityCode":"40341","city":"宇美町","lat":33.5520833,"lon":130.565625,"areaKm2":0.2681932,"populated2020":false,"population2020":null,"populationNote":"境界またぎ・原典収録外のため自治体内人口は未集計"},"geometry":{"type":"Polygon","coordinates":[[[130.5625,33.55],[130.5625,33.55416666666666],[130.56875,33.55416666666667],[130.56875,33.55],[130.5625,33.55]]]}},{"type":"Feature","id":"40341:503024652","properties":{"id":"40341:503024652","meshCode":"503024652","cityCode":"40341","city":"宇美町","lat":33.5520833,"lon":130.571875,"areaKm2":0.2681929,"populated2020":false,"population2020":null,"populationNote":"境界またぎ・原典収録外のため自治体内人口は未集計"},"geometry":{"type":"Polygon","coordinates":[[[130.56875,33.55],[130.56875,33.55416666666667],[130.575,33.55416666666666],[130.575,33.55],[130.56875,33.55]]]}},{"type":"Feature","id":"40341:503024661","properties":{"id":"40341:503024661","meshCode":"503024661","cityCode":"40341","city":"宇美町","lat":33.5520833,"lon":130.578125,"areaKm2":0.173559,"populated2020":false,"population2020":null,"populationNote":"境界またぎ・原典収録外のため自治体内人口は未集計"},"geometry":{"type":"Polygon","coordinates":[[[130.581186394,33.554070559],[130.580594721,33.55386194599999],[130.580061115,33.553356387],[130.579287497,33.553086108],[130.578847224,33.552246667000006],[130.57863083,33.55106777500001],[130.578170272,33.550749999999994],[130.577882218,33.550423054],[130.577712244,33.550000000000004],[130.575,33.55],[130.575,33.55416666666666],[130.58125000000004,33.55416666666666],[130.581186394,33.554070559]]]}},{"type":"Feature","id":"40341:503024662","properties":{"id":"40341:503024662","meshCode":"503024662","cityCode":"40341","city":"宇美町","lat":33.5541023,"lon":130.5813732,"areaKm2":0.0003712,"populated2020":false,"population2020":null,"populationNote":"境界またぎ・原典収録外のため自治体内人口は未集計"},"geometry":{"type":"Polygon","coordinates":[[[130.58196300168117,33.55416666666667],[130.58125000000004,33.55407706796545],[130.58125000000004,33.55416666666666],[130.58196300168117,33.55416666666667]]]}},{"type":"Feature","id":"40341:503024603","properties":{"id":"40341:503024603","meshCode":"503024603","cityCode":"40341","city":"宇美町","lat":33.5564035,"lon":130.5048154,"areaKm2":0.1159136,"populated2020":true,"population2020":null,"populationNote":"境界またぎ・原典収録外のため自治体内人口は未集計"},"geometry":{"type":"Polygon","coordinates":[[[130.504338612,33.55422027899999],[130.503893891,33.55507694600001],[130.50364083,33.55578861299999],[130.503478885,33.555964161999995],[130.503373333,33.55655999999999],[130.50344389100002,33.556868613],[130.503008885,33.557978613],[130.5026982226348,33.55833333333334],[130.50625,33.558333333333344],[130.50625,33.55416666666666],[130.50429943543216,33.55416666666666],[130.504338612,33.55422027899999]]]}},{"type":"Feature","id":"40341:503024604","properties":{"id":"40341:503024604","meshCode":"503024604","cityCode":"40341","city":"宇美町","lat":33.55625,"lon":130.509375,"areaKm2":0.2681834,"populated2020":true,"population2020":950.7043,"populationNote":"2020年基準の国交省調整値"},"geometry":{"type":"Polygon","coordinates":[[[130.50625,33.55416666666666],[130.50625,33.558333333333344],[130.5125,33.558333333333344],[130.5125,33.55416666666667],[130.50625,33.55416666666666]]]}},{"type":"Feature","id":"40341:503024613","properties":{"id":"40341:503024613","meshCode":"503024613","cityCode":"40341","city":"宇美町","lat":33.55625,"lon":130.515625,"areaKm2":0.2681831,"populated2020":true,"population2020":406.2521,"populationNote":"2020年基準の国交省調整値"},"geometry":{"type":"Polygon","coordinates":[[[130.5125,33.55416666666667],[130.5125,33.558333333333344],[130.51875,33.55833333333333],[130.51875,33.55416666666666],[130.5125,33.55416666666667]]]}},{"type":"Feature","id":"40341:503024614","properties":{"id":"40341:503024614","meshCode":"503024614","cityCode":"40341","city":"宇美町","lat":33.55625,"lon":130.521875,"areaKm2":0.2681827,"populated2020":true,"population2020":647.0851,"populationNote":"2020年基準の国交省調整値"},"geometry":{"type":"Polygon","coordinates":[[[130.51875,33.55416666666666],[130.51875,33.55833333333333],[130.525,33.55833333333334],[130.525,33.55416666666666],[130.51875,33.55416666666666]]]}},{"type":"Feature","id":"40341:503024623","properties":{"id":"40341:503024623","meshCode":"503024623","cityCode":"40341","city":"宇美町","lat":33.55625,"lon":130.528125,"areaKm2":0.2681824,"populated2020":true,"population2020":633.7294,"populationNote":"2020年基準の国交省調整値"},"geometry":{"type":"Polygon","coordinates":[[[130.525,33.55416666666666],[130.525,33.55833333333334],[130.53125,33.558333333333344],[130.53125,33.55416666666666],[130.525,33.55416666666666]]]}},{"type":"Feature","id":"40341:503024624","properties":{"id":"40341:503024624","meshCode":"503024624","cityCode":"40341","city":"宇美町","lat":33.55625,"lon":130.534375,"areaKm2":0.2681821,"populated2020":true,"population2020":714.0662,"populationNote":"2020年基準の国交省調整値"},"geometry":{"type":"Polygon","coordinates":[[[130.53125,33.55416666666666],[130.53125,33.558333333333344],[130.5375,33.55833333333334],[130.5375,33.55416666666667],[130.53125,33.55416666666666]]]}},{"type":"Feature","id":"40341:503024633","properties":{"id":"40341:503024633","meshCode":"503024633","cityCode":"40341","city":"宇美町","lat":33.55625,"lon":130.540625,"areaKm2":0.2447361,"populated2020":true,"population2020":1132.1473,"populationNote":"2020年基準の国交省調整値"},"geometry":{"type":"Polygon","coordinates":[[[130.543708054,33.554983891999996],[130.543487782,33.55482000000001],[130.543113606,33.554738054],[130.542038327,33.554950829],[130.54096166,33.554905000000005],[130.54078,33.554970559],[130.540465551,33.55457444100001],[130.54074463400786,33.55416666666667],[130.5375,33.55416666666667],[130.5375,33.55833333333334],[130.54375,33.558333333333344],[130.543708054,33.554983891999996]]]}},{"type":"Feature","id":"40341:503024634","properties":{"id":"40341:503024634","meshCode":"503024634","cityCode":"40341","city":"宇美町","lat":33.55625,"lon":130.546875,"areaKm2":0.1596093,"populated2020":true,"population2020":null,"populationNote":"境界またぎ・原典収録外のため自治体内人口は未集計"},"geometry":{"type":"Polygon","coordinates":[[[130.55,33.55610966700001],[130.54919472100002,33.55644082900001],[130.548726394,33.556365559],[130.54707166,33.555831946],[130.544706667,33.555452225],[130.544088885,33.555233054],[130.54375,33.55501948471334],[130.54375,33.558333333333344],[130.55,33.558333333333344],[130.55,33.55610966700001]]]}},{"type":"Feature","id":"40341:503024643","properties":{"id":"40341:503024643","meshCode":"503024643","cityCode":"40341","city":"宇美町","lat":33.55625,"lon":130.553125,"areaKm2":0.2233151,"populated2020":true,"population2020":3.0663,"populationNote":"2020年基準の国交省調整値"},"geometry":{"type":"Polygon","coordinates":[[[130.55442859457736,33.55416666666667],[130.554277782,33.55456333299999],[130.553714721,33.554940279],[130.553263891,33.554887775],[130.551902218,33.555186108],[130.550945279,33.555205828999995],[130.55031,33.555913054],[130.55,33.55610966700001],[130.55,33.558333333333344],[130.55625,33.558333333333344],[130.55625,33.55416666666666],[130.55442859457736,33.55416666666667]]]}},{"type":"Feature","id":"40341:503024644","properties":{"id":"40341:503024644","meshCode":"503024644","cityCode":"40341","city":"宇美町","lat":33.55625,"lon":130.559375,"areaKm2":0.2681808,"populated2020":true,"population2020":3.1058,"populationNote":"2020年基準の国交省調整値"},"geometry":{"type":"Polygon","coordinates":[[[130.55625,33.55416666666666],[130.55625,33.558333333333344],[130.5625,33.55833333333334],[130.5625,33.55416666666666],[130.55625,33.55416666666666]]]}},{"type":"Feature","id":"40341:503024653","properties":{"id":"40341:503024653","meshCode":"503024653","cityCode":"40341","city":"宇美町","lat":33.55625,"lon":130.565625,"areaKm2":0.2681805,"populated2020":false,"population2020":null,"populationNote":"境界またぎ・原典収録外のため自治体内人口は未集計"},"geometry":{"type":"Polygon","coordinates":[[[130.5625,33.55416666666666],[130.5625,33.55833333333334],[130.56875,33.55833333333334],[130.56875,33.55416666666667],[130.5625,33.55416666666666]]]}},{"type":"Feature","id":"40341:503024654","properties":{"id":"40341:503024654","meshCode":"503024654","cityCode":"40341","city":"宇美町","lat":33.55625,"lon":130.571875,"areaKm2":0.2681802,"populated2020":false,"population2020":null,"populationNote":"境界またぎ・原典収録外のため自治体内人口は未集計"},"geometry":{"type":"Polygon","coordinates":[[[130.56875,33.55416666666667],[130.56875,33.55833333333334],[130.575,33.558333333333344],[130.575,33.55416666666666],[130.56875,33.55416666666667]]]}},{"type":"Feature","id":"40341:503024663","properties":{"id":"40341:503024663","meshCode":"503024663","cityCode":"40341","city":"宇美町","lat":33.55625,"lon":130.578125,"areaKm2":0.2669689,"populated2020":false,"population2020":null,"populationNote":"境界またぎ・原典収録外のため自治体内人口は未集計"},"geometry":{"type":"Polygon","coordinates":[[[130.580778275,33.55833333300001],[130.58125000000004,33.55784351096378],[130.58125000000004,33.55416666666666],[130.575,33.55416666666666],[130.575,33.558333333333344],[130.580778275,33.55833333300001]]]}},{"type":"Feature","id":"40341:503024664","properties":{"id":"40341:503024664","meshCode":"503024664","cityCode":"40341","city":"宇美町","lat":33.5560922,"lon":130.5820563,"areaKm2":0.0599488,"populated2020":true,"population2020":1.048,"populationNote":"2020年基準の国交省調整値"},"geometry":{"type":"Polygon","coordinates":[[[130.58148,33.557559440999995],[130.582106939,33.55713249499999],[130.582536939,33.556368613],[130.584255837,33.555098892],[130.584088885,33.554676667],[130.583704449,33.55468166699999],[130.583219728,33.554497495],[130.582516939,33.554388613],[130.582036394,33.554179721],[130.58125000000004,33.55416666666666],[130.58125000000004,33.55784351096378],[130.58148,33.557559440999995]]]}},{"type":"Feature","id":"40341:503023782","properties":{"id":"40341:503023782","meshCode":"503023782","cityCode":"40341","city":"宇美町","lat":33.5609019,"lon":130.4872519,"areaKm2":0.0088662,"populated2020":true,"population2020":null,"populationNote":"境界またぎ・原典収録外のため自治体内人口は未集計"},"geometry":{"type":"Polygon","coordinates":[[[130.487486667,33.560753612999996],[130.486601388,33.560117774999995],[130.485669442,33.560186387],[130.485641115,33.560283054],[130.486426667,33.560538054000006],[130.486937224,33.560834441000004],[130.4875,33.561651680457565],[130.487486667,33.560753612999996]]]}},{"type":"Feature","id":"40341:503023791","properties":{"id":"40341:503023791","meshCode":"503023791","cityCode":"40341","city":"宇美町","lat":33.5604167,"lon":130.490625,"areaKm2":0.1894543,"populated2020":true,"population2020":432.0693,"populationNote":"2020年基準の国交省調整値"},"geometry":{"type":"Polygon","coordinates":[[[130.49375,33.55906916604411],[130.493468885,33.55908082900001],[130.493294163,33.558934441],[130.49311917,33.55893277500001],[130.491557224,33.560001107999994],[130.489886394,33.559393613],[130.489581946,33.559143053999996],[130.48917166,33.558624721],[130.489019442,33.55859999999999],[130.488708327,33.558903892],[130.488548327,33.55933249500001],[130.488286109,33.559666387],[130.488334721,33.559945559],[130.488550558,33.560265279],[130.488536109,33.560396387],[130.4875,33.56075188835729],[130.4875,33.561651680457565],[130.487722503,33.562179721],[130.48808062892866,33.562500000000014],[130.49375,33.56250000000001],[130.49375,33.55906916604411]]]}},{"type":"Feature","id":"40341:503023792","properties":{"id":"40341:503023792","meshCode":"503023792","cityCode":"40341","city":"宇美町","lat":33.5604167,"lon":130.496875,"areaKm2":0.1603917,"populated2020":false,"population2020":null,"populationNote":"境界またぎ・原典収録外のため自治体内人口は未集計"},"geometry":{"type":"Polygon","coordinates":[[[130.499965279,33.560466946000005],[130.498766394,33.560666108],[130.498022776,33.560443333],[130.496419728,33.560200279],[130.496338612,33.560044441],[130.495356667,33.559398054],[130.49485917,33.559189162],[130.494479442,33.559211946000005],[130.49375,33.55906916604411],[130.49375,33.56250000000001],[130.5,33.56250000000001],[130.499965279,33.560466946000005]]]}},{"type":"Feature","id":"40341:503024701","properties":{"id":"40341:503024701","meshCode":"503024701","cityCode":"40341","city":"宇美町","lat":33.5604167,"lon":130.503125,"areaKm2":0.2291221,"populated2020":true,"population2020":40.4549,"populationNote":"2020年基準の国交省調整値"},"geometry":{"type":"Polygon","coordinates":[[[130.5026982226348,33.55833333333334],[130.502543606,33.558623892],[130.50197917,33.559100559],[130.50185778200003,33.559821667],[130.5,33.56045566699999],[130.5,33.56250000000001],[130.50625,33.56250000000001],[130.50625,33.558333333333344],[130.5026982226348,33.55833333333334]]]}},{"type":"Feature","id":"40341:503024702","properties":{"id":"40341:503024702","meshCode":"503024702","cityCode":"40341","city":"宇美町","lat":33.5604167,"lon":130.509375,"areaKm2":0.2681707,"populated2020":true,"population2020":574.2215,"populationNote":"2020年基準の国交省調整値"},"geometry":{"type":"Polygon","coordinates":[[[130.50625,33.558333333333344],[130.50625,33.56250000000001],[130.5125,33.562500000000014],[130.5125,33.558333333333344],[130.50625,33.558333333333344]]]}},{"type":"Feature","id":"40341:503024711","properties":{"id":"40341:503024711","meshCode":"503024711","cityCode":"40341","city":"宇美町","lat":33.5604167,"lon":130.515625,"areaKm2":0.2681704,"populated2020":true,"population2020":1628.7442,"populationNote":"2020年基準の国交省調整値"},"geometry":{"type":"Polygon","coordinates":[[[130.5125,33.558333333333344],[130.5125,33.562500000000014],[130.51875,33.56250000000001],[130.51875,33.55833333333333],[130.5125,33.558333333333344]]]}},{"type":"Feature","id":"40341:503024712","properties":{"id":"40341:503024712","meshCode":"503024712","cityCode":"40341","city":"宇美町","lat":33.5604167,"lon":130.521875,"areaKm2":0.26817,"populated2020":true,"population2020":1714.9761,"populationNote":"2020年基準の国交省調整値"},"geometry":{"type":"Polygon","coordinates":[[[130.51875,33.55833333333333],[130.51875,33.56250000000001],[130.525,33.56250000000001],[130.525,33.55833333333334],[130.51875,33.55833333333333]]]}},{"type":"Feature","id":"40341:503024721","properties":{"id":"40341:503024721","meshCode":"503024721","cityCode":"40341","city":"宇美町","lat":33.5604167,"lon":130.528125,"areaKm2":0.2681697,"populated2020":true,"population2020":408.2648,"populationNote":"2020年基準の国交省調整値"},"geometry":{"type":"Polygon","coordinates":[[[130.525,33.55833333333334],[130.525,33.56250000000001],[130.53125,33.562500000000014],[130.53125,33.558333333333344],[130.525,33.55833333333334]]]}},{"type":"Feature","id":"40341:503024722","properties":{"id":"40341:503024722","meshCode":"503024722","cityCode":"40341","city":"宇美町","lat":33.5604167,"lon":130.534375,"areaKm2":0.2681694,"populated2020":true,"population2020":406.7014,"populationNote":"2020年基準の国交省調整値"},"geometry":{"type":"Polygon","coordinates":[[[130.53125,33.558333333333344],[130.53125,33.562500000000014],[130.5375,33.56250000000001],[130.5375,33.55833333333334],[130.53125,33.558333333333344]]]}},{"type":"Feature","id":"40341:503024731","properties":{"id":"40341:503024731","meshCode":"503024731","cityCode":"40341","city":"宇美町","lat":33.5604167,"lon":130.540625,"areaKm2":0.268169,"populated2020":true,"population2020":512.8289,"populationNote":"2020年基準の国交省調整値"},"geometry":{"type":"Polygon","coordinates":[[[130.5375,33.55833333333334],[130.5375,33.56250000000001],[130.54375,33.56250000000001],[130.54375,33.558333333333344],[130.5375,33.55833333333334]]]}},{"type":"Feature","id":"40341:503024732","properties":{"id":"40341:503024732","meshCode":"503024732","cityCode":"40341","city":"宇美町","lat":33.5604167,"lon":130.546875,"areaKm2":0.2681687,"populated2020":true,"population2020":31.4164,"populationNote":"2020年基準の国交省調整値"},"geometry":{"type":"Polygon","coordinates":[[[130.54375,33.558333333333344],[130.54375,33.56250000000001],[130.55,33.56250000000001],[130.55,33.558333333333344],[130.54375,33.558333333333344]]]}},{"type":"Feature","id":"40341:503024741","properties":{"id":"40341:503024741","meshCode":"503024741","cityCode":"40341","city":"宇美町","lat":33.5604167,"lon":130.553125,"areaKm2":0.2681684,"populated2020":true,"population2020":6.2112,"populationNote":"2020年基準の国交省調整値"},"geometry":{"type":"Polygon","coordinates":[[[130.55,33.558333333333344],[130.55,33.56250000000001],[130.55625,33.562500000000014],[130.55625,33.558333333333344],[130.55,33.558333333333344]]]}},{"type":"Feature","id":"40341:503024742","properties":{"id":"40341:503024742","meshCode":"503024742","cityCode":"40341","city":"宇美町","lat":33.5604167,"lon":130.559375,"areaKm2":0.2681681,"populated2020":false,"population2020":null,"populationNote":"境界またぎ・原典収録外のため自治体内人口は未集計"},"geometry":{"type":"Polygon","coordinates":[[[130.55625,33.558333333333344],[130.55625,33.562500000000014],[130.5625,33.562500000000014],[130.5625,33.55833333333334],[130.55625,33.558333333333344]]]}},{"type":"Feature","id":"40341:503024751","properties":{"id":"40341:503024751","meshCode":"503024751","cityCode":"40341","city":"宇美町","lat":33.5604167,"lon":130.565625,"areaKm2":0.2681678,"populated2020":false,"population2020":null,"populationNote":"境界またぎ・原典収録外のため自治体内人口は未集計"},"geometry":{"type":"Polygon","coordinates":[[[130.5625,33.55833333333334],[130.5625,33.562500000000014],[130.56875,33.56250000000001],[130.56875,33.55833333333334],[130.5625,33.55833333333334]]]}},{"type":"Feature","id":"40341:503024752","properties":{"id":"40341:503024752","meshCode":"503024752","cityCode":"40341","city":"宇美町","lat":33.5604167,"lon":130.571875,"areaKm2":0.2681675,"populated2020":false,"population2020":null,"populationNote":"境界またぎ・原典収録外のため自治体内人口は未集計"},"geometry":{"type":"Polygon","coordinates":[[[130.56875,33.55833333333334],[130.56875,33.56250000000001],[130.575,33.562500000000014],[130.575,33.558333333333344],[130.56875,33.55833333333334]]]}},{"type":"Feature","id":"40341:503024761","properties":{"id":"40341:503024761","meshCode":"503024761","cityCode":"40341","city":"宇美町","lat":33.5604167,"lon":130.578125,"areaKm2":0.2428746,"populated2020":false,"population2020":null,"populationNote":"境界またぎ・原典収録外のため自治体内人口は未集計"},"geometry":{"type":"Polygon","coordinates":[[[130.58045728345172,33.562500000000014],[130.580823891,33.561883613000006],[130.580944721,33.561544721],[130.580762776,33.560814162],[130.580767782,33.560510559],[130.580464449,33.559723054],[130.580540272,33.559353333],[130.58041917,33.55895666699999],[130.580414163,33.558757225],[130.58077827473952,33.55833333333334],[130.575,33.558333333333344],[130.575,33.562500000000014],[130.58045728345172,33.562500000000014]]]}},{"type":"Feature","id":"40341:503023793","properties":{"id":"40341:503023793","meshCode":"503023793","cityCode":"40341","city":"宇美町","lat":33.5645833,"lon":130.490625,"areaKm2":0.2464765,"populated2020":true,"population2020":1797.6849,"populationNote":"2020年基準の国交省調整値"},"geometry":{"type":"Polygon","coordinates":[[[130.488113061,33.562527495],[130.487928327,33.562826108],[130.48776472100002,33.56348249500001],[130.48790083,33.563826387],[130.488253333,33.564000559],[130.488018327,33.565169721],[130.487685577,33.565492721000005],[130.48776083,33.565767495],[130.488484721,33.56652666699999],[130.48823328166088,33.56666666666668],[130.49375,33.56666666666668],[130.49375,33.56250000000001],[130.488113061,33.562527495]]]}},{"type":"Feature","id":"40341:503023794","properties":{"id":"40341:503023794","meshCode":"503023794","cityCode":"40341","city":"宇美町","lat":33.5645833,"lon":130.496875,"areaKm2":0.2681587,"populated2020":true,"population2020":67.7659,"populationNote":"2020年基準の国交省調整値"},"geometry":{"type":"Polygon","coordinates":[[[130.49375,33.56250000000001],[130.49375,33.56666666666668],[130.5,33.56666666666668],[130.5,33.56250000000001],[130.49375,33.56250000000001]]]}},{"type":"Feature","id":"40341:503024703","properties":{"id":"40341:503024703","meshCode":"503024703","cityCode":"40341","city":"宇美町","lat":33.5645833,"lon":130.503125,"areaKm2":0.2681584,"populated2020":true,"population2020":323.5446,"populationNote":"2020年基準の国交省調整値"},"geometry":{"type":"Polygon","coordinates":[[[130.5,33.56250000000001],[130.5,33.56666666666668],[130.50625,33.56666666666668],[130.50625,33.56250000000001],[130.5,33.56250000000001]]]}},{"type":"Feature","id":"40341:503024704","properties":{"id":"40341:503024704","meshCode":"503024704","cityCode":"40341","city":"宇美町","lat":33.5645833,"lon":130.509375,"areaKm2":0.268158,"populated2020":true,"population2020":1098.4505,"populationNote":"2020年基準の国交省調整値"},"geometry":{"type":"Polygon","coordinates":[[[130.50625,33.56250000000001],[130.50625,33.56666666666668],[130.5125,33.56666666666668],[130.5125,33.562500000000014],[130.50625,33.56250000000001]]]}},{"type":"Feature","id":"40341:503024713","properties":{"id":"40341:503024713","meshCode":"503024713","cityCode":"40341","city":"宇美町","lat":33.5645833,"lon":130.515625,"areaKm2":0.2681577,"populated2020":true,"population2020":1143.4268,"populationNote":"2020年基準の国交省調整値"},"geometry":{"type":"Polygon","coordinates":[[[130.5125,33.562500000000014],[130.5125,33.56666666666668],[130.51875,33.56666666666668],[130.51875,33.56250000000001],[130.5125,33.562500000000014]]]}},{"type":"Feature","id":"40341:503024714","properties":{"id":"40341:503024714","meshCode":"503024714","cityCode":"40341","city":"宇美町","lat":33.5645833,"lon":130.521875,"areaKm2":0.2681574,"populated2020":true,"population2020":616.2844,"populationNote":"2020年基準の国交省調整値"},"geometry":{"type":"Polygon","coordinates":[[[130.51875,33.56250000000001],[130.51875,33.56666666666668],[130.525,33.56666666666668],[130.525,33.56250000000001],[130.51875,33.56250000000001]]]}},{"type":"Feature","id":"40341:503024723","properties":{"id":"40341:503024723","meshCode":"503024723","cityCode":"40341","city":"宇美町","lat":33.5645833,"lon":130.528125,"areaKm2":0.268157,"populated2020":true,"population2020":177.4663,"populationNote":"2020年基準の国交省調整値"},"geometry":{"type":"Polygon","coordinates":[[[130.525,33.56250000000001],[130.525,33.56666666666668],[130.53125,33.56666666666668],[130.53125,33.562500000000014],[130.525,33.56250000000001]]]}},{"type":"Feature","id":"40341:503024724","properties":{"id":"40341:503024724","meshCode":"503024724","cityCode":"40341","city":"宇美町","lat":33.5645833,"lon":130.534375,"areaKm2":0.2681567,"populated2020":true,"population2020":1435.3276,"populationNote":"2020年基準の国交省調整値"},"geometry":{"type":"Polygon","coordinates":[[[130.53125,33.562500000000014],[130.53125,33.56666666666668],[130.5375,33.56666666666668],[130.5375,33.56250000000001],[130.53125,33.562500000000014]]]}},{"type":"Feature","id":"40341:503024733","properties":{"id":"40341:503024733","meshCode":"503024733","cityCode":"40341","city":"宇美町","lat":33.5645833,"lon":130.540625,"areaKm2":0.2681563,"populated2020":true,"population2020":535.3567,"populationNote":"2020年基準の国交省調整値"},"geometry":{"type":"Polygon","coordinates":[[[130.5375,33.56250000000001],[130.5375,33.56666666666668],[130.54375,33.56666666666668],[130.54375,33.56250000000001],[130.5375,33.56250000000001]]]}},{"type":"Feature","id":"40341:503024734","properties":{"id":"40341:503024734","meshCode":"503024734","cityCode":"40341","city":"宇美町","lat":33.5645833,"lon":130.546875,"areaKm2":0.268156,"populated2020":true,"population2020":58.7583,"populationNote":"2020年基準の国交省調整値"},"geometry":{"type":"Polygon","coordinates":[[[130.54375,33.56250000000001],[130.54375,33.56666666666668],[130.55,33.56666666666668],[130.55,33.56250000000001],[130.54375,33.56250000000001]]]}},{"type":"Feature","id":"40341:503024743","properties":{"id":"40341:503024743","meshCode":"503024743","cityCode":"40341","city":"宇美町","lat":33.5645833,"lon":130.553125,"areaKm2":0.2681557,"populated2020":false,"population2020":null,"populationNote":"境界またぎ・原典収録外のため自治体内人口は未集計"},"geometry":{"type":"Polygon","coordinates":[[[130.55,33.56250000000001],[130.55,33.56666666666668],[130.55625,33.56666666666668],[130.55625,33.562500000000014],[130.55,33.56250000000001]]]}},{"type":"Feature","id":"40341:503024744","properties":{"id":"40341:503024744","meshCode":"503024744","cityCode":"40341","city":"宇美町","lat":33.5645833,"lon":130.559375,"areaKm2":0.2681554,"populated2020":false,"population2020":null,"populationNote":"境界またぎ・原典収録外のため自治体内人口は未集計"},"geometry":{"type":"Polygon","coordinates":[[[130.55625,33.562500000000014],[130.55625,33.56666666666668],[130.5625,33.56666666666668],[130.5625,33.562500000000014],[130.55625,33.562500000000014]]]}},{"type":"Feature","id":"40341:503024753","properties":{"id":"40341:503024753","meshCode":"503024753","cityCode":"40341","city":"宇美町","lat":33.5645833,"lon":130.565625,"areaKm2":0.2681551,"populated2020":false,"population2020":null,"populationNote":"境界またぎ・原典収録外のため自治体内人口は未集計"},"geometry":{"type":"Polygon","coordinates":[[[130.5625,33.562500000000014],[130.5625,33.56666666666668],[130.56875,33.56666666666668],[130.56875,33.56250000000001],[130.5625,33.562500000000014]]]}},{"type":"Feature","id":"40341:503024754","properties":{"id":"40341:503024754","meshCode":"503024754","cityCode":"40341","city":"宇美町","lat":33.5645833,"lon":130.571875,"areaKm2":0.2681548,"populated2020":false,"population2020":null,"populationNote":"境界またぎ・原典収録外のため自治体内人口は未集計"},"geometry":{"type":"Polygon","coordinates":[[[130.56875,33.56250000000001],[130.56875,33.56666666666668],[130.575,33.56666666666668],[130.575,33.562500000000014],[130.56875,33.56250000000001]]]}},{"type":"Feature","id":"40341:503024763","properties":{"id":"40341:503024763","meshCode":"503024763","cityCode":"40341","city":"宇美町","lat":33.5645833,"lon":130.578125,"areaKm2":0.1934116,"populated2020":false,"population2020":null,"populationNote":"境界またぎ・原典収録外のため自治体内人口は未集計"},"geometry":{"type":"Polygon","coordinates":[[[130.57794758849616,33.56666666666668],[130.579377782,33.565495279],[130.579554721,33.56473166699999],[130.579539442,33.564352225],[130.580054994,33.563538892],[130.58045728345172,33.562500000000014],[130.575,33.562500000000014],[130.575,33.56666666666668],[130.57794758849616,33.56666666666668]]]}},{"type":"Feature","id":"40341:503023882","properties":{"id":"40341:503023882","meshCode":"503023882","cityCode":"40341","city":"宇美町","lat":33.5678468,"lon":130.487252,"areaKm2":0.0076367,"populated2020":true,"population2020":null,"populationNote":"境界またぎ・原典収録外のため自治体内人口は未集計"},"geometry":{"type":"Polygon","coordinates":[[[130.4875,33.56693976168888],[130.487114163,33.566997495],[130.487023333,33.56718000000001],[130.486968327,33.567708054],[130.487194721,33.568361945999996],[130.4875,33.568901081139614],[130.4875,33.56693976168888]]]}},{"type":"Feature","id":"40341:503023891","properties":{"id":"40341:503023891","meshCode":"503023891","cityCode":"40341","city":"宇美町","lat":33.56875,"lon":130.490625,"areaKm2":0.2523814,"populated2020":true,"population2020":535.5854,"populationNote":"2020年基準の国交省調整値"},"geometry":{"type":"Polygon","coordinates":[[[130.48823328100002,33.56666666700001],[130.487631115,33.566942225],[130.4875,33.56693976168888],[130.4875,33.568901081139614],[130.488288885,33.570130279],[130.4894357843508,33.57083333333333],[130.49375,33.57083333333333],[130.49375,33.56666666666668],[130.48823328100002,33.56666666700001]]]}},{"type":"Feature","id":"40341:503023892","properties":{"id":"40341:503023892","meshCode":"503023892","cityCode":"40341","city":"宇美町","lat":33.56875,"lon":130.496875,"areaKm2":0.268146,"populated2020":true,"population2020":314.4357,"populationNote":"2020年基準の国交省調整値"},"geometry":{"type":"Polygon","coordinates":[[[130.49375,33.56666666666668],[130.49375,33.57083333333333],[130.5,33.57083333333333],[130.5,33.56666666666668],[130.49375,33.56666666666668]]]}},{"type":"Feature","id":"40341:503024801","properties":{"id":"40341:503024801","meshCode":"503024801","cityCode":"40341","city":"宇美町","lat":33.56875,"lon":130.503125,"areaKm2":0.2681457,"populated2020":true,"population2020":727.4264,"populationNote":"2020年基準の国交省調整値"},"geometry":{"type":"Polygon","coordinates":[[[130.5,33.56666666666668],[130.5,33.57083333333333],[130.50625,33.57083333333333],[130.50625,33.56666666666668],[130.5,33.56666666666668]]]}},{"type":"Feature","id":"40341:503024802","properties":{"id":"40341:503024802","meshCode":"503024802","cityCode":"40341","city":"宇美町","lat":33.56875,"lon":130.509375,"areaKm2":0.2681453,"populated2020":true,"population2020":1464.6668,"populationNote":"2020年基準の国交省調整値"},"geometry":{"type":"Polygon","coordinates":[[[130.50625,33.56666666666668],[130.50625,33.57083333333333],[130.5125,33.57083333333333],[130.5125,33.56666666666668],[130.50625,33.56666666666668]]]}},{"type":"Feature","id":"40341:503024811","properties":{"id":"40341:503024811","meshCode":"503024811","cityCode":"40341","city":"宇美町","lat":33.56875,"lon":130.515625,"areaKm2":0.268145,"populated2020":true,"population2020":1385.6663,"populationNote":"2020年基準の国交省調整値"},"geometry":{"type":"Polygon","coordinates":[[[130.5125,33.56666666666668],[130.5125,33.57083333333333],[130.51875,33.57083333333333],[130.51875,33.56666666666668],[130.5125,33.56666666666668]]]}},{"type":"Feature","id":"40341:503024812","properties":{"id":"40341:503024812","meshCode":"503024812","cityCode":"40341","city":"宇美町","lat":33.56875,"lon":130.521875,"areaKm2":0.2681447,"populated2020":true,"population2020":1141.2512,"populationNote":"2020年基準の国交省調整値"},"geometry":{"type":"Polygon","coordinates":[[[130.51875,33.56666666666668],[130.51875,33.57083333333333],[130.525,33.57083333333333],[130.525,33.56666666666668],[130.51875,33.56666666666668]]]}},{"type":"Feature","id":"40341:503024821","properties":{"id":"40341:503024821","meshCode":"503024821","cityCode":"40341","city":"宇美町","lat":33.56875,"lon":130.528125,"areaKm2":0.2681443,"populated2020":true,"population2020":736.2396,"populationNote":"2020年基準の国交省調整値"},"geometry":{"type":"Polygon","coordinates":[[[130.525,33.56666666666668],[130.525,33.57083333333333],[130.53125,33.57083333333333],[130.53125,33.56666666666668],[130.525,33.56666666666668]]]}},{"type":"Feature","id":"40341:503024822","properties":{"id":"40341:503024822","meshCode":"503024822","cityCode":"40341","city":"宇美町","lat":33.56875,"lon":130.534375,"areaKm2":0.268144,"populated2020":true,"population2020":1323.7192,"populationNote":"2020年基準の国交省調整値"},"geometry":{"type":"Polygon","coordinates":[[[130.53125,33.56666666666668],[130.53125,33.57083333333333],[130.5375,33.57083333333334],[130.5375,33.56666666666668],[130.53125,33.56666666666668]]]}},{"type":"Feature","id":"40341:503024831","properties":{"id":"40341:503024831","meshCode":"503024831","cityCode":"40341","city":"宇美町","lat":33.56875,"lon":130.540625,"areaKm2":0.2681436,"populated2020":true,"population2020":308.0571,"populationNote":"2020年基準の国交省調整値"},"geometry":{"type":"Polygon","coordinates":[[[130.5375,33.56666666666668],[130.5375,33.57083333333334],[130.54375,33.57083333333333],[130.54375,33.56666666666668],[130.5375,33.56666666666668]]]}},{"type":"Feature","id":"40341:503024832","properties":{"id":"40341:503024832","meshCode":"503024832","cityCode":"40341","city":"宇美町","lat":33.56875,"lon":130.546875,"areaKm2":0.2681433,"populated2020":true,"population2020":35.4398,"populationNote":"2020年基準の国交省調整値"},"geometry":{"type":"Polygon","coordinates":[[[130.54375,33.56666666666668],[130.54375,33.57083333333333],[130.55,33.57083333333333],[130.55,33.56666666666668],[130.54375,33.56666666666668]]]}},{"type":"Feature","id":"40341:503024841","properties":{"id":"40341:503024841","meshCode":"503024841","cityCode":"40341","city":"宇美町","lat":33.56875,"lon":130.553125,"areaKm2":0.268143,"populated2020":false,"population2020":null,"populationNote":"境界またぎ・原典収録外のため自治体内人口は未集計"},"geometry":{"type":"Polygon","coordinates":[[[130.55,33.56666666666668],[130.55,33.57083333333333],[130.55625,33.57083333333333],[130.55625,33.56666666666668],[130.55,33.56666666666668]]]}},{"type":"Feature","id":"40341:503024842","properties":{"id":"40341:503024842","meshCode":"503024842","cityCode":"40341","city":"宇美町","lat":33.56875,"lon":130.559375,"areaKm2":0.2681427,"populated2020":false,"population2020":null,"populationNote":"境界またぎ・原典収録外のため自治体内人口は未集計"},"geometry":{"type":"Polygon","coordinates":[[[130.55625,33.56666666666668],[130.55625,33.57083333333333],[130.5625,33.57083333333333],[130.5625,33.56666666666668],[130.55625,33.56666666666668]]]}},{"type":"Feature","id":"40341:503024851","properties":{"id":"40341:503024851","meshCode":"503024851","cityCode":"40341","city":"宇美町","lat":33.56875,"lon":130.565625,"areaKm2":0.2681424,"populated2020":false,"population2020":null,"populationNote":"境界またぎ・原典収録外のため自治体内人口は未集計"},"geometry":{"type":"Polygon","coordinates":[[[130.5625,33.56666666666668],[130.5625,33.57083333333333],[130.56875,33.57083333333333],[130.56875,33.56666666666668],[130.5625,33.56666666666668]]]}},{"type":"Feature","id":"40341:503024852","properties":{"id":"40341:503024852","meshCode":"503024852","cityCode":"40341","city":"宇美町","lat":33.56875,"lon":130.571875,"areaKm2":0.2624799,"populated2020":false,"population2020":null,"populationNote":"境界またぎ・原典収録外のため自治体内人口は未集計"},"geometry":{"type":"Polygon","coordinates":[[[130.57462629564412,33.57083333333333],[130.574718327,33.569792494999994],[130.575,33.569284946],[130.575,33.568903613],[130.574753891,33.56851166700001],[130.574758885,33.568275829],[130.575,33.56804064],[130.575,33.56666666666668],[130.56875,33.56666666666668],[130.56875,33.57083333333333],[130.57462629564412,33.57083333333333]]]}},{"type":"Feature","id":"40341:503024861","properties":{"id":"40341:503024861","meshCode":"503024861","cityCode":"40341","city":"宇美町","lat":33.5674225,"lon":130.5756826,"areaKm2":0.0220347,"populated2020":false,"population2020":null,"populationNote":"境界またぎ・原典収録外のため自治体内人口は未集計"},"geometry":{"type":"MultiPolygon","coordinates":[[[[130.575,33.569284946],[130.575067497,33.569000278999994],[130.575,33.568903613],[130.575,33.569284946]]],[[[130.575,33.56804064],[130.576003061,33.56761666700001],[130.576769442,33.56719138700001],[130.577472503,33.567063333],[130.57794758849616,33.56666666666668],[130.575,33.56666666666668],[130.575,33.56804064]]]]}},{"type":"Feature","id":"40341:503023893","properties":{"id":"40341:503023893","meshCode":"503023893","cityCode":"40341","city":"宇美町","lat":33.5727566,"lon":130.4926526,"areaKm2":0.085409,"populated2020":true,"population2020":null,"populationNote":"境界またぎ・原典収録外のため自治体内人口は未集計"},"geometry":{"type":"Polygon","coordinates":[[[130.4894357843508,33.57083333333333],[130.490346939,33.57157110800001],[130.490544721,33.57185805400001],[130.491443606,33.57267055900001],[130.492342503,33.573349721],[130.49345,33.57455722500001],[130.49375,33.574221295997546],[130.49375,33.57083333333333],[130.4894357843508,33.57083333333333]]]}},{"type":"Feature","id":"40341:503023894","properties":{"id":"40341:503023894","meshCode":"503023894","cityCode":"40341","city":"宇美町","lat":33.572914,"lon":130.4988619,"areaKm2":0.1625331,"populated2020":true,"population2020":null,"populationNote":"境界またぎ・原典収録外のため自治体内人口は未集計"},"geometry":{"type":"Polygon","coordinates":[[[130.49375,33.574221295997546],[130.494516109,33.573452225],[130.495324163,33.572892495],[130.495876667,33.57267194600001],[130.496754163,33.572694721],[130.497663606,33.572889721],[130.499116667,33.573424721],[130.499604994,33.57345333300001],[130.499647782,33.57349610800001],[130.49947166,33.573742775],[130.498394137,33.575],[130.5,33.575],[130.5,33.57083333333333],[130.49375,33.57083333333333],[130.49375,33.574221295997546]]]}},{"type":"Feature","id":"40341:503024803","properties":{"id":"40341:503024803","meshCode":"503024803","cityCode":"40341","city":"宇美町","lat":33.5729167,"lon":130.503125,"areaKm2":0.268133,"populated2020":true,"population2020":810.192,"populationNote":"2020年基準の国交省調整値"},"geometry":{"type":"Polygon","coordinates":[[[130.5,33.57083333333333],[130.5,33.575],[130.50625,33.575],[130.50625,33.57083333333333],[130.5,33.57083333333333]]]}},{"type":"Feature","id":"40341:503024804","properties":{"id":"40341:503024804","meshCode":"503024804","cityCode":"40341","city":"宇美町","lat":33.5729167,"lon":130.509375,"areaKm2":0.2681326,"populated2020":true,"population2020":936.8748,"populationNote":"2020年基準の国交省調整値"},"geometry":{"type":"Polygon","coordinates":[[[130.50625,33.57083333333333],[130.50625,33.575],[130.5125,33.575],[130.5125,33.57083333333333],[130.50625,33.57083333333333]]]}},{"type":"Feature","id":"40341:503024813","properties":{"id":"40341:503024813","meshCode":"503024813","cityCode":"40341","city":"宇美町","lat":33.5729167,"lon":130.515625,"areaKm2":0.2681323,"populated2020":true,"population2020":1133.995,"populationNote":"2020年基準の国交省調整値"},"geometry":{"type":"Polygon","coordinates":[[[130.5125,33.57083333333333],[130.5125,33.575],[130.51875,33.575],[130.51875,33.57083333333333],[130.5125,33.57083333333333]]]}},{"type":"Feature","id":"40341:503024814","properties":{"id":"40341:503024814","meshCode":"503024814","cityCode":"40341","city":"宇美町","lat":33.5729167,"lon":130.521875,"areaKm2":0.2681319,"populated2020":true,"population2020":1368.6114,"populationNote":"2020年基準の国交省調整値"},"geometry":{"type":"Polygon","coordinates":[[[130.51875,33.57083333333333],[130.51875,33.575],[130.525,33.575],[130.525,33.57083333333333],[130.51875,33.57083333333333]]]}},{"type":"Feature","id":"40341:503024823","properties":{"id":"40341:503024823","meshCode":"503024823","cityCode":"40341","city":"宇美町","lat":33.5729167,"lon":130.528125,"areaKm2":0.2681316,"populated2020":true,"population2020":1153.4041,"populationNote":"2020年基準の国交省調整値"},"geometry":{"type":"Polygon","coordinates":[[[130.525,33.57083333333333],[130.525,33.575],[130.53125,33.575],[130.53125,33.57083333333333],[130.525,33.57083333333333]]]}},{"type":"Feature","id":"40341:503024824","properties":{"id":"40341:503024824","meshCode":"503024824","cityCode":"40341","city":"宇美町","lat":33.5729167,"lon":130.534375,"areaKm2":0.2681313,"populated2020":true,"population2020":1157.0009,"populationNote":"2020年基準の国交省調整値"},"geometry":{"type":"Polygon","coordinates":[[[130.53125,33.57083333333333],[130.53125,33.575],[130.5375,33.575],[130.5375,33.57083333333334],[130.53125,33.57083333333333]]]}},{"type":"Feature","id":"40341:503024833","properties":{"id":"40341:503024833","meshCode":"503024833","cityCode":"40341","city":"宇美町","lat":33.5729167,"lon":130.540625,"areaKm2":0.2681309,"populated2020":true,"population2020":191.6923,"populationNote":"2020年基準の国交省調整値"},"geometry":{"type":"Polygon","coordinates":[[[130.5375,33.57083333333334],[130.5375,33.575],[130.54375,33.575],[130.54375,33.57083333333333],[130.5375,33.57083333333334]]]}},{"type":"Feature","id":"40341:503024834","properties":{"id":"40341:503024834","meshCode":"503024834","cityCode":"40341","city":"宇美町","lat":33.5729167,"lon":130.546875,"areaKm2":0.2681306,"populated2020":false,"population2020":null,"populationNote":"境界またぎ・原典収録外のため自治体内人口は未集計"},"geometry":{"type":"Polygon","coordinates":[[[130.54375,33.57083333333333],[130.54375,33.575],[130.55,33.574999999999996],[130.55,33.57083333333333],[130.54375,33.57083333333333]]]}},{"type":"Feature","id":"40341:503024843","properties":{"id":"40341:503024843","meshCode":"503024843","cityCode":"40341","city":"宇美町","lat":33.5729167,"lon":130.553125,"areaKm2":0.2681303,"populated2020":false,"population2020":null,"populationNote":"境界またぎ・原典収録外のため自治体内人口は未集計"},"geometry":{"type":"Polygon","coordinates":[[[130.55,33.57083333333333],[130.55,33.574999999999996],[130.55625,33.574999999999996],[130.55625,33.57083333333333],[130.55,33.57083333333333]]]}},{"type":"Feature","id":"40341:503024844","properties":{"id":"40341:503024844","meshCode":"503024844","cityCode":"40341","city":"宇美町","lat":33.5729167,"lon":130.559375,"areaKm2":0.26813,"populated2020":false,"population2020":null,"populationNote":"境界またぎ・原典収録外のため自治体内人口は未集計"},"geometry":{"type":"Polygon","coordinates":[[[130.55625,33.57083333333333],[130.55625,33.574999999999996],[130.5625,33.575],[130.5625,33.57083333333333],[130.55625,33.57083333333333]]]}},{"type":"Feature","id":"40341:503024853","properties":{"id":"40341:503024853","meshCode":"503024853","cityCode":"40341","city":"宇美町","lat":33.5729167,"lon":130.565625,"areaKm2":0.2681297,"populated2020":false,"population2020":null,"populationNote":"境界またぎ・原典収録外のため自治体内人口は未集計"},"geometry":{"type":"Polygon","coordinates":[[[130.5625,33.57083333333333],[130.5625,33.575],[130.56875,33.575],[130.56875,33.57083333333333],[130.5625,33.57083333333333]]]}},{"type":"Feature","id":"40341:503024854","properties":{"id":"40341:503024854","meshCode":"503024854","cityCode":"40341","city":"宇美町","lat":33.5729167,"lon":130.571875,"areaKm2":0.2272239,"populated2020":false,"population2020":null,"populationNote":"境界またぎ・原典収録外のため自治体内人口は未集計"},"geometry":{"type":"Polygon","coordinates":[[[130.57348717300002,33.574999999999996],[130.573732218,33.574291946],[130.574015279,33.573929162],[130.573813061,33.573028054],[130.574116394,33.572610829],[130.574202503,33.572255],[130.57413166,33.57205582900001],[130.574440272,33.57161638699999],[130.574455279,33.571255829],[130.57462629564412,33.57083333333333],[130.56875,33.57083333333333],[130.56875,33.575],[130.57348717300002,33.574999999999996]]]}},{"type":"Feature","id":"40341:503023992","properties":{"id":"40341:503023992","meshCode":"503023992","cityCode":"40341","city":"宇美町","lat":33.5764442,"lon":130.4985635,"areaKm2":0.074364,"populated2020":true,"population2020":null,"populationNote":"境界またぎ・原典収録外のため自治体内人口は未集計"},"geometry":{"type":"Polygon","coordinates":[[[130.498394137,33.575],[130.496854994,33.576746667],[130.497776394,33.577341667],[130.498873333,33.578334162000004],[130.49947083,33.578016387000005],[130.499903061,33.57831416199999],[130.5,33.57830764],[130.5,33.575],[130.498394137,33.575]]]}},{"type":"Feature","id":"40341:503024901","properties":{"id":"40341:503024901","meshCode":"503024901","cityCode":"40341","city":"宇美町","lat":33.5770833,"lon":130.503125,"areaKm2":0.2617729,"populated2020":true,"population2020":857.7746,"populationNote":"2020年基準の国交省調整値"},"geometry":{"type":"Polygon","coordinates":[[[130.5,33.57830764],[130.500758885,33.578304161999995],[130.50062927685673,33.57916666666666],[130.50625,33.57916666666666],[130.50625,33.575],[130.5,33.575],[130.5,33.57830764]]]}},{"type":"Feature","id":"40341:503024902","properties":{"id":"40341:503024902","meshCode":"503024902","cityCode":"40341","city":"宇美町","lat":33.5770833,"lon":130.509375,"areaKm2":0.197109,"populated2020":true,"population2020":null,"populationNote":"境界またぎ・原典収録外のため自治体内人口は未集計"},"geometry":{"type":"Polygon","coordinates":[[[130.50785327159647,33.579166666666666],[130.509344721,33.577965279],[130.509909728,33.577658613],[130.510416109,33.577275279000006],[130.510863606,33.57725555900001],[130.510905551,33.57748500000001],[130.51196055800003,33.576613333],[130.512156109,33.576613333],[130.51229610900003,33.576960829],[130.512288885,33.577301387],[130.5125,33.57735097251452],[130.5125,33.575],[130.50625,33.575],[130.50625,33.57916666666666],[130.50785327159647,33.579166666666666]]]}},{"type":"Feature","id":"40341:503024911","properties":{"id":"40341:503024911","meshCode":"503024911","cityCode":"40341","city":"宇美町","lat":33.5762418,"lon":130.5173247,"areaKm2":0.0973181,"populated2020":true,"population2020":null,"populationNote":"境界またぎ・原典収録外のため自治体内人口は未集計"},"geometry":{"type":"Polygon","coordinates":[[[130.512596394,33.57737361299999],[130.513595551,33.576652775],[130.515883891,33.57539610800001],[130.515880272,33.576076108],[130.516018054,33.57671305400001],[130.51875,33.57667970358418],[130.51875,33.575],[130.5125,33.575],[130.5125,33.57735097251452],[130.512596394,33.57737361299999]]]}},{"type":"Feature","id":"40341:503024912","properties":{"id":"40341:503024912","meshCode":"503024912","cityCode":"40341","city":"宇美町","lat":33.5758928,"lon":130.5208999,"areaKm2":0.0649127,"populated2020":true,"population2020":null,"populationNote":"境界またぎ・原典収録外のため自治体内人口は未集計"},"geometry":{"type":"Polygon","coordinates":[[[130.51875,33.57667970358418],[130.51927166,33.57658500000001],[130.519701115,33.576113333],[130.519952218,33.576061387],[130.52156917,33.576009162],[130.522781115,33.57610749500002],[130.523004449,33.576005829],[130.523095279,33.575779721],[130.525,33.575608919],[130.525,33.575],[130.51875,33.575],[130.51875,33.57667970358418]]]}},{"type":"Feature","id":"40341:503024921","properties":{"id":"40341:503024921","meshCode":"503024921","cityCode":"40341","city":"宇美町","lat":33.5756328,"lon":130.52825,"areaKm2":0.0583944,"populated2020":true,"population2020":null,"populationNote":"境界またぎ・原典収録外のため自治体内人口は未集計"},"geometry":{"type":"Polygon","coordinates":[[[130.525018885,33.575606667],[130.52717499400003,33.576265279],[130.527936667,33.57572110800001],[130.528338327,33.575711387],[130.528890558,33.57580638700001],[130.529292503,33.575639162],[130.529909728,33.57603527900001],[130.531151946,33.57601249500001],[130.53125,33.57600187768531],[130.53125,33.575],[130.525,33.575],[130.525018885,33.575606667]]]}},{"type":"Feature","id":"40341:503024922","properties":{"id":"40341:503024922","meshCode":"503024922","cityCode":"40341","city":"宇美町","lat":33.5762681,"lon":130.5352229,"areaKm2":0.1189552,"populated2020":true,"population2020":null,"populationNote":"境界またぎ・原典収録外のため自治体内人口は未集計"},"geometry":{"type":"Polygon","coordinates":[[[130.53125,33.57600187768531],[130.531938327,33.57601249499999],[130.533097224,33.57632694600001],[130.534128054,33.576776108],[130.534423891,33.576982225],[130.534633333,33.57726389199999],[130.535328612,33.577247495],[130.536260558,33.577562225],[130.537052776,33.57750000000001],[130.5375,33.57738360221438],[130.5375,33.575],[130.53125,33.575],[130.53125,33.57600187768531]]]}},{"type":"Feature","id":"40341:503024931","properties":{"id":"40341:503024931","meshCode":"503024931","cityCode":"40341","city":"宇美町","lat":33.5770833,"lon":130.540625,"areaKm2":0.1845146,"populated2020":true,"population2020":null,"populationNote":"境界またぎ・原典収録外のため自治体内人口は未集計"},"geometry":{"type":"Polygon","coordinates":[[[130.5375,33.57738360221438],[130.53863917,33.577391946],[130.538835837,33.577466946],[130.538975551,33.57780416200001],[130.539220272,33.577896108],[130.540509728,33.577965],[130.541243333,33.57780110800001],[130.54164944200002,33.577947775],[130.542753606,33.57811333299999],[130.543029728,33.578283613],[130.543260272,33.5783],[130.54375,33.57816968282372],[130.54375,33.575],[130.5375,33.575],[130.5375,33.57738360221438]]]}},{"type":"Feature","id":"40341:503024932","properties":{"id":"40341:503024932","meshCode":"503024932","cityCode":"40341","city":"宇美町","lat":33.5770833,"lon":130.546875,"areaKm2":0.2548198,"populated2020":true,"population2020":282.9135,"populationNote":"2020年基準の国交省調整値"},"geometry":{"type":"Polygon","coordinates":[[[130.54375,33.57816968282372],[130.54432416300003,33.57842777500001],[130.544789728,33.57851500000001],[130.545442503,33.578762775],[130.545780272,33.578926667],[130.54587499534668,33.579166666666666],[130.55,33.579166666666666],[130.55,33.574999999999996],[130.54375,33.575],[130.54375,33.57816968282372]]]}},{"type":"Feature","id":"40341:503024941","properties":{"id":"40341:503024941","meshCode":"503024941","cityCode":"40341","city":"宇美町","lat":33.5770833,"lon":130.553125,"areaKm2":0.2681176,"populated2020":true,"population2020":2.0248,"populationNote":"2020年基準の国交省調整値"},"geometry":{"type":"Polygon","coordinates":[[[130.55,33.574999999999996],[130.55,33.579166666666666],[130.55625,33.57916666666666],[130.55625,33.574999999999996],[130.55,33.574999999999996]]]}},{"type":"Feature","id":"40341:503024942","properties":{"id":"40341:503024942","meshCode":"503024942","cityCode":"40341","city":"宇美町","lat":33.5770833,"lon":130.559375,"areaKm2":0.2681173,"populated2020":false,"population2020":null,"populationNote":"境界またぎ・原典収録外のため自治体内人口は未集計"},"geometry":{"type":"Polygon","coordinates":[[[130.55625,33.574999999999996],[130.55625,33.57916666666666],[130.5625,33.57916666666666],[130.5625,33.575],[130.55625,33.574999999999996]]]}},{"type":"Feature","id":"40341:503024951","properties":{"id":"40341:503024951","meshCode":"503024951","cityCode":"40341","city":"宇美町","lat":33.5770833,"lon":130.565625,"areaKm2":0.2669041,"populated2020":false,"population2020":null,"populationNote":"境界またぎ・原典収録外のため自治体内人口は未集計"},"geometry":{"type":"Polygon","coordinates":[[[130.568511388,33.579021108],[130.56852166,33.578807495],[130.56875,33.57865613535512],[130.56875,33.575],[130.5625,33.575],[130.5625,33.57916666666666],[130.5683026903708,33.579166666666666],[130.568511388,33.579021108]]]}},{"type":"Feature","id":"40341:503024952","properties":{"id":"40341:503024952","meshCode":"503024952","cityCode":"40341","city":"宇美町","lat":33.5770833,"lon":130.571875,"areaKm2":0.1258805,"populated2020":false,"population2020":null,"populationNote":"境界またぎ・原典収録外のため自治体内人口は未集計"},"geometry":{"type":"Polygon","coordinates":[[[130.56875,33.57865613535512],[130.569289728,33.578282225],[130.570771946,33.577627775],[130.57120166,33.577556666999996],[130.57161917,33.57739694600001],[130.571983061,33.577135829],[130.572706394,33.576941387],[130.573858612,33.576089441],[130.573813061,33.575762225000005],[130.573499442,33.575425829],[130.573433891,33.575198054],[130.57348717300002,33.574999999999996],[130.56875,33.575],[130.56875,33.57865613535512]]]}},{"type":"Feature","id":"40341:503023994","properties":{"id":"40341:503023994","meshCode":"503023994","cityCode":"40341","city":"宇美町","lat":33.580646,"lon":130.4996737,"areaKm2":0.0061049,"populated2020":true,"population2020":null,"populationNote":"境界またぎ・原典収録外のため自治体内人口は未集計"},"geometry":{"type":"Polygon","coordinates":[[[130.5,33.580056387],[130.499118054,33.580467495],[130.499294994,33.58056889200001],[130.49969277600002,33.581138613],[130.5,33.581290829],[130.5,33.580056387]]]}},{"type":"Feature","id":"40341:503024903","properties":{"id":"40341:503024903","meshCode":"503024903","cityCode":"40341","city":"宇美町","lat":33.5802643,"lon":130.5029159,"areaKm2":0.1151141,"populated2020":true,"population2020":null,"populationNote":"境界またぎ・原典収録外のため自治体内人口は未集計"},"geometry":{"type":"Polygon","coordinates":[[[130.50062927685673,33.57916666666666],[130.500363606,33.579910829],[130.5,33.580056387],[130.5,33.581290829],[130.500062776,33.58132194600001],[130.500237497,33.58131889199999],[130.50058000000004,33.58108944100001],[130.501334449,33.58118444099999],[130.501833333,33.58136749500001],[130.502217497,33.581316108],[130.502413061,33.581230829],[130.50267166,33.580936108],[130.504327497,33.581152225],[130.504858327,33.581132495],[130.505074994,33.581008054],[130.505731946,33.58032666700001],[130.50625,33.58009590168732],[130.50625,33.57916666666666],[130.50062927685673,33.57916666666666]]]}},{"type":"Feature","id":"40341:503024904","properties":{"id":"40341:503024904","meshCode":"503024904","cityCode":"40341","city":"宇美町","lat":33.5796139,"lon":130.5067372,"areaKm2":0.0088159,"populated2020":true,"population2020":null,"populationNote":"境界またぎ・原典収録外のため自治体内人口は未集計"},"geometry":{"type":"Polygon","coordinates":[[[130.50625,33.58009590168732],[130.506584994,33.58000222500001],[130.507077782,33.57965805400001],[130.507371115,33.579569721],[130.50785327159647,33.579166666666666],[130.50625,33.57916666666666],[130.50625,33.58009590168732]]]}},{"type":"Feature","id":"40341:503024934","properties":{"id":"40341:503024934","meshCode":"503024934","cityCode":"40341","city":"宇美町","lat":33.58125,"lon":130.546875,"areaKm2":0.1355811,"populated2020":true,"population2020":5.0286,"populationNote":"2020年基準の国交省調整値"},"geometry":{"type":"Polygon","coordinates":[[[130.54587499534668,33.579166666666666],[130.545755551,33.579543333],[130.546035279,33.579766387],[130.546353061,33.579897495000004],[130.546527782,33.580146387],[130.546555551,33.580888333000004],[130.546992218,33.581419162],[130.54802194600003,33.582371667000004],[130.54654639364858,33.58333333333334],[130.55,33.583333333333336],[130.55,33.579166666666666],[130.54587499534668,33.579166666666666]]]}},{"type":"Feature","id":"40341:503024943","properties":{"id":"40341:503024943","meshCode":"503024943","cityCode":"40341","city":"宇美町","lat":33.58125,"lon":130.553125,"areaKm2":0.2681049,"populated2020":true,"population2020":1.0118,"populationNote":"2020年基準の国交省調整値"},"geometry":{"type":"Polygon","coordinates":[[[130.55,33.579166666666666],[130.55,33.583333333333336],[130.55625,33.583333333333336],[130.55625,33.57916666666666],[130.55,33.579166666666666]]]}},{"type":"Feature","id":"40341:503024944","properties":{"id":"40341:503024944","meshCode":"503024944","cityCode":"40341","city":"宇美町","lat":33.58125,"lon":130.559375,"areaKm2":0.2681046,"populated2020":false,"population2020":null,"populationNote":"境界またぎ・原典収録外のため自治体内人口は未集計"},"geometry":{"type":"Polygon","coordinates":[[[130.55625,33.57916666666666],[130.55625,33.583333333333336],[130.5625,33.583333333333336],[130.5625,33.57916666666666],[130.55625,33.57916666666666]]]}},{"type":"Feature","id":"40341:503024953","properties":{"id":"40341:503024953","meshCode":"503024953","cityCode":"40341","city":"宇美町","lat":33.58125,"lon":130.565625,"areaKm2":0.2473142,"populated2020":false,"population2020":null,"populationNote":"境界またぎ・原典収録外のため自治体内人口は未集計"},"geometry":{"type":"Polygon","coordinates":[[[130.567548716,33.58333333299999],[130.56826917,33.582508333],[130.568329728,33.582066946],[130.56827917,33.581257494999996],[130.568329728,33.58100138700001],[130.568653333,33.580536667],[130.568188327,33.579580279],[130.568178327,33.57933833300001],[130.5683026903708,33.579166666666666],[130.5625,33.57916666666666],[130.5625,33.583333333333336],[130.567548716,33.58333333299999]]]}},{"type":"Feature","id":"40341:503034032","properties":{"id":"40341:503034032","meshCode":"503034032","cityCode":"40341","city":"宇美町","lat":33.5854222,"lon":130.5488517,"areaKm2":0.1025043,"populated2020":false,"population2020":null,"populationNote":"境界またぎ・原典収録外のため自治体内人口は未集計"},"geometry":{"type":"Polygon","coordinates":[[[130.54654639364858,33.58333333333334],[130.546359442,33.583588613],[130.546792776,33.58411972100001],[130.546897497,33.584732495],[130.547033891,33.58495527899999],[130.547403061,33.585163333],[130.548227497,33.58591055899999],[130.548353333,33.586397774999995],[130.54817917,33.586626667],[130.54832083,33.586948613],[130.549134721,33.587373333],[130.55,33.587500000000006],[130.55,33.583333333333336],[130.54654639364858,33.58333333333334]]]}},{"type":"Feature","id":"40341:503034041","properties":{"id":"40341:503034041","meshCode":"503034041","cityCode":"40341","city":"宇美町","lat":33.5854167,"lon":130.553125,"areaKm2":0.2680922,"populated2020":false,"population2020":null,"populationNote":"境界またぎ・原典収録外のため自治体内人口は未集計"},"geometry":{"type":"Polygon","coordinates":[[[130.55,33.583333333333336],[130.55,33.587500000000006],[130.55625,33.58749999999999],[130.55625,33.583333333333336],[130.55,33.583333333333336]]]}},{"type":"Feature","id":"40341:503034042","properties":{"id":"40341:503034042","meshCode":"503034042","cityCode":"40341","city":"宇美町","lat":33.5854167,"lon":130.559375,"areaKm2":0.2680919,"populated2020":false,"population2020":null,"populationNote":"境界またぎ・原典収録外のため自治体内人口は未集計"},"geometry":{"type":"Polygon","coordinates":[[[130.55625,33.583333333333336],[130.55625,33.58749999999999],[130.5625,33.5875],[130.5625,33.583333333333336],[130.55625,33.583333333333336]]]}},{"type":"Feature","id":"40341:503034051","properties":{"id":"40341:503034051","meshCode":"503034051","cityCode":"40341","city":"宇美町","lat":33.5854167,"lon":130.565625,"areaKm2":0.1913726,"populated2020":false,"population2020":null,"populationNote":"境界またぎ・原典収録外のため自治体内人口は未集計"},"geometry":{"type":"Polygon","coordinates":[[[130.566597497,33.58749972100001],[130.56651,33.587207495],[130.566542218,33.586627495],[130.56684277600002,33.58597277500001],[130.566928885,33.585484162],[130.56718166,33.584805829],[130.56740917,33.583523333],[130.56754871571093,33.583333333333336],[130.5625,33.583333333333336],[130.5625,33.5875],[130.566597497,33.58749972100001]]]}},{"type":"Feature","id":"40341:503034034","properties":{"id":"40341:503034034","meshCode":"503034034","cityCode":"40341","city":"宇美町","lat":33.5875718,"lon":130.5499295,"areaKm2":0.0002092,"populated2020":false,"population2020":null,"populationNote":"境界またぎ・原典収録外のため自治体内人口は未集計"},"geometry":{"type":"Polygon","coordinates":[[[130.549985837,33.587643613],[130.55,33.587500000000006],[130.5497320906397,33.5875],[130.549985837,33.587643613]]]}},{"type":"Feature","id":"40341:503034043","properties":{"id":"40341:503034043","meshCode":"503034043","cityCode":"40341","city":"宇美町","lat":33.5895575,"lon":130.5547424,"areaKm2":0.1417303,"populated2020":false,"population2020":null,"populationNote":"境界またぎ・原典収録外のため自治体内人口は未集計"},"geometry":{"type":"Polygon","coordinates":[[[130.55,33.587653054],[130.553588327,33.589768613],[130.55402083,33.59044444100001],[130.554835837,33.59111166700001],[130.55599418841547,33.591666666666676],[130.55625,33.591666666666676],[130.55625,33.58749999999999],[130.55,33.587500000000006],[130.55,33.587653054]]]}},{"type":"Feature","id":"40341:503034044","properties":{"id":"40341:503034044","meshCode":"503034044","cityCode":"40341","city":"宇美町","lat":33.5895833,"lon":130.559375,"areaKm2":0.2680792,"populated2020":false,"population2020":null,"populationNote":"境界またぎ・原典収録外のため自治体内人口は未集計"},"geometry":{"type":"Polygon","coordinates":[[[130.55625,33.58749999999999],[130.55625,33.591666666666676],[130.5625,33.59166666666667],[130.5625,33.5875],[130.55625,33.58749999999999]]]}},{"type":"Feature","id":"40341:503034053","properties":{"id":"40341:503034053","meshCode":"503034053","cityCode":"40341","city":"宇美町","lat":33.5895833,"lon":130.565625,"areaKm2":0.179184,"populated2020":false,"population2020":null,"populationNote":"境界またぎ・原典収録外のため自治体内人口は未集計"},"geometry":{"type":"Polygon","coordinates":[[[130.565352218,33.591646387],[130.565960558,33.591085279000005],[130.566135551,33.591039721],[130.566421115,33.59080110800001],[130.566810558,33.58982889199999],[130.567087782,33.589600829],[130.56719,33.589413613],[130.567209442,33.589158054],[130.567006394,33.588134162],[130.56684083,33.587846387000006],[130.5665976928615,33.58749999999999],[130.5625,33.5875],[130.5625,33.59166666666667],[130.565352218,33.591646387]]]}},{"type":"Feature","id":"40341:503034141","properties":{"id":"40341:503034141","meshCode":"503034141","cityCode":"40341","city":"宇美町","lat":33.5917057,"lon":130.5561563,"areaKm2":0.0001739,"populated2020":false,"population2020":null,"populationNote":"境界またぎ・原典収録外のため自治体内人口は未集計"},"geometry":{"type":"Polygon","coordinates":[[[130.555994189,33.591666667],[130.556131115,33.591744721],[130.55625,33.59178295884887],[130.55625,33.591666666666676],[130.555994189,33.591666667]]]}},{"type":"Feature","id":"40341:503034142","properties":{"id":"40341:503034142","meshCode":"503034142","cityCode":"40341","city":"宇美町","lat":33.5925344,"lon":130.5604027,"areaKm2":0.077913,"populated2020":false,"population2020":null,"populationNote":"境界またぎ・原典収録外のため自治体内人口は未集計"},"geometry":{"type":"Polygon","coordinates":[[[130.55625,33.59178295884887],[130.558277497,33.592520559],[130.559799442,33.59335694600001],[130.561747497,33.593428333000006],[130.5625,33.593379624467424],[130.5625,33.59166666666667],[130.55625,33.591666666666676],[130.55625,33.59178295884887]]]}},{"type":"Feature","id":"40341:503034151","properties":{"id":"40341:503034151","meshCode":"503034151","cityCode":"40341","city":"宇美町","lat":33.5926368,"lon":130.5634285,"areaKm2":0.0301849,"populated2020":false,"population2020":null,"populationNote":"境界またぎ・原典収録外のため自治体内人口は未集計"},"geometry":{"type":"Polygon","coordinates":[[[130.5625,33.593379624467424],[130.562909442,33.59332249500001],[130.563208885,33.593127775],[130.563617782,33.593104721],[130.56398778200003,33.592959162],[130.564261946,33.59276916200001],[130.564451946,33.592504441],[130.564884994,33.59170582899999],[130.56520949634586,33.59166666666667],[130.5625,33.59166666666667],[130.5625,33.593379624467424]]]}}]}