{"type":"FeatureCollection","metadata":{"cityCode":"40348","city":"久山町","resolution":1000,"boundaryDate":"2026-01-01","populationLabel":"2020年基準人口（国交省調整値）","method":"標準地域メッシュを行政界で切抜き。中心が区域外のとき区域内代表点を判定点にする。人口不明をゼロにしない。"},"features":[{"type":"Feature","id":"40348:50303369","properties":{"id":"40348:50303369","meshCode":"50303369","cityCode":"40348","city":"久山町","lat":33.6382666,"lon":130.4966776,"areaKm2":0.4640251,"populated2020":true,"population2020":null,"populationNote":"境界またぎ・収録外等のため人口未集計"},"geometry":{"type":"Polygon","coordinates":[[[130.49766138800004,33.634928054],[130.494497782,33.63404861299999],[130.494289831,33.634703081],[130.494727782,33.634805279],[130.49457083,33.635510829000005],[130.49368722400004,33.636262495],[130.493497497,33.636331946000006],[130.49293888500003,33.63630082900001],[130.492814449,33.636514162],[130.49327861200004,33.637741946],[130.493396939,33.638476667],[130.493698612,33.639324721],[130.493757497,33.640502775],[130.493636109,33.640685],[130.49299083,33.641195559],[130.492741946,33.641326946],[130.492317497,33.641281387],[130.4921777170341,33.64166666666667],[130.5,33.641666666666666],[130.5,33.635119694],[130.499523061,33.635228054],[130.498499442,33.634821946],[130.49766138800004,33.634928054]]]}},{"type":"Feature","id":"40348:50303460","properties":{"id":"40348:50303460","meshCode":"50303460","cityCode":"40348","city":"久山町","lat":33.6391501,"lon":130.5056676,"areaKm2":0.6245698,"populated2020":true,"population2020":null,"populationNote":"境界またぎ・収録外等のため人口未集計"},"geometry":{"type":"Polygon","coordinates":[[[130.506142503,33.636813892],[130.505383333,33.63648472100001],[130.504914449,33.636497495],[130.504337224,33.63674249500001],[130.503935837,33.636518333],[130.500258885,33.63506082899999],[130.5,33.635119694],[130.5,33.641666666666666],[130.5125,33.641666666666666],[130.5125,33.637726216075926],[130.512149728,33.637274441],[130.511793333,33.636999721],[130.511180272,33.636804999999995],[130.510914163,33.637312495],[130.510413606,33.63779055900001],[130.509922218,33.638128613],[130.509167497,33.63833582899999],[130.508437224,33.638132775],[130.50812166,33.63792999999999],[130.50667,33.636682775],[130.506142503,33.636813892]]]}},{"type":"Feature","id":"40348:50303462","properties":{"id":"40348:50303462","meshCode":"50303462","cityCode":"40348","city":"久山町","lat":33.639429,"lon":130.5306021,"areaKm2":0.4999958,"populated2020":false,"population2020":null,"populationNote":"境界またぎ・収録外等のため人口未集計"},"geometry":{"type":"Polygon","coordinates":[[[130.52991,33.63656138699999],[130.529368885,33.636383892],[130.528994721,33.636066667],[130.528683606,33.636185000000005],[130.527878054,33.63705055900001],[130.527715837,33.637833054000005],[130.527476667,33.63817138700001],[130.527255837,33.638276946],[130.52688166,33.638243333000005],[130.526588612,33.637968332999996],[130.526313333,33.63784138700001],[130.525783333,33.63786694600001],[130.525670558,33.637964162],[130.525287497,33.638576946],[130.525,33.63877636],[130.525,33.641666666666666],[130.53620564202765,33.641666666666666],[130.536282503,33.64084110799999],[130.536228327,33.63965722500001],[130.536111115,33.638980829],[130.536021115,33.638841108],[130.535388054,33.638387225],[130.534792776,33.63815889199999],[130.534423061,33.637524721],[130.533881946,33.637194721],[130.533023606,33.636861667],[130.532635837,33.636810829000005],[130.531950272,33.636561387],[130.530451115,33.636857494999994],[130.52991,33.63656138699999]]]}},{"type":"Feature","id":"40348:50303461","properties":{"id":"40348:50303461","meshCode":"50303461","cityCode":"40348","city":"久山町","lat":33.6400984,"lon":130.5190727,"areaKm2":0.3831536,"populated2020":true,"population2020":37.7933,"populationNote":"収録500mメッシュ人口の合算（原典収録外は補完しない）"},"geometry":{"type":"Polygon","coordinates":[[[130.525,33.63877636],[130.524282218,33.638983054],[130.523704994,33.63894500000001],[130.521941946,33.637862225],[130.520894449,33.638027225],[130.520637497,33.637942775000006],[130.520326394,33.637642495],[130.520037782,33.63757472100001],[130.519794449,33.637612775],[130.518452503,33.638496108000005],[130.515794449,33.639746946],[130.515221946,33.639780829],[130.514495837,33.639713054],[130.514127497,33.639616387],[130.513874994,33.639451387],[130.513536667,33.638910279],[130.513371388,33.63836138700001],[130.513064721,33.638217495],[130.5125,33.637726216075926],[130.5125,33.641666666666666],[130.525,33.641666666666666],[130.525,33.63877636]]]}},{"type":"Feature","id":"40348:50303379","properties":{"id":"40348:50303379","meshCode":"50303379","cityCode":"40348","city":"久山町","lat":33.6462707,"lon":130.4957275,"areaKm2":0.6656771,"populated2020":true,"population2020":null,"populationNote":"境界またぎ・収録外等のため人口未集計"},"geometry":{"type":"Polygon","coordinates":[[[130.492175837,33.641823054],[130.492751115,33.642184162],[130.492982776,33.64243610799999],[130.49286166,33.643577225],[130.49305444900003,33.644091387],[130.49322083000004,33.644308333],[130.494609728,33.645426387],[130.494903891,33.64599889200001],[130.494390558,33.646455],[130.493404449,33.647003613],[130.49265166,33.647545279000006],[130.49160166000001,33.647986946],[130.491186394,33.648674441000004],[130.490607782,33.64909],[130.490449442,33.649385279],[130.490340558,33.64940889199999],[130.490144449,33.649398054],[130.489783891,33.649226387],[130.48908083,33.648411667000005],[130.4875,33.647358636535834],[130.4875,33.65],[130.5,33.64999999999999],[130.5,33.641666666666666],[130.4921777170341,33.64166666666667],[130.492175837,33.641823054]]]}},{"type":"Feature","id":"40348:50303470","properties":{"id":"40348:50303470","meshCode":"50303470","cityCode":"40348","city":"久山町","lat":33.6458333,"lon":130.50625,"areaKm2":1.0716412,"populated2020":true,"population2020":1758.0957,"populationNote":"収録500mメッシュ人口の合算（原典収録外は補完しない）"},"geometry":{"type":"Polygon","coordinates":[[[130.5125,33.641666666666666],[130.5,33.641666666666666],[130.5,33.64999999999999],[130.5125,33.65],[130.5125,33.641666666666666]]]}},{"type":"Feature","id":"40348:50303471","properties":{"id":"40348:50303471","meshCode":"50303471","cityCode":"40348","city":"久山町","lat":33.6458333,"lon":130.51875,"areaKm2":1.0716384,"populated2020":true,"population2020":1183.2574,"populationNote":"収録500mメッシュ人口の合算（原典収録外は補完しない）"},"geometry":{"type":"Polygon","coordinates":[[[130.525,33.641666666666666],[130.5125,33.641666666666666],[130.5125,33.65],[130.525,33.65],[130.525,33.641666666666666]]]}},{"type":"Feature","id":"40348:50303472","properties":{"id":"40348:50303472","meshCode":"50303472","cityCode":"40348","city":"久山町","lat":33.6459056,"lon":130.5311234,"areaKm2":1.0482889,"populated2020":false,"population2020":null,"populationNote":"境界またぎ・収録外等のため人口未集計"},"geometry":{"type":"Polygon","coordinates":[[[130.5375,33.64389327389979],[130.53711166,33.643729162],[130.536422503,33.643096666999995],[130.53626,33.642728613],[130.53620564202765,33.641666666666666],[130.525,33.641666666666666],[130.525,33.65],[130.5375,33.64999999999999],[130.5375,33.64389327389979]]]}},{"type":"Feature","id":"40348:50303473","properties":{"id":"40348:50303473","meshCode":"50303473","cityCode":"40348","city":"久山町","lat":33.6473422,"lon":130.5421439,"areaKm2":0.5505344,"populated2020":false,"population2020":null,"populationNote":"境界またぎ・収録外等のため人口未集計"},"geometry":{"type":"Polygon","coordinates":[[[130.54305166,33.644344440999994],[130.542231115,33.644361387],[130.541478054,33.644234441],[130.541284163,33.644318891999994],[130.54081083,33.644758892000006],[130.540662218,33.64478416200001],[130.540407782,33.644634162],[130.539857497,33.64397444099999],[130.539469728,33.64373749500001],[130.538297497,33.643348613],[130.537846667,33.643767225],[130.5375,33.64389327389979],[130.5375,33.64999999999999],[130.548046329,33.64999999999999],[130.548164163,33.648822225],[130.547953891,33.648183892000006],[130.547823333,33.647200829],[130.547076109,33.646580279],[130.546906939,33.646346386999994],[130.546383891,33.646350559],[130.545937782,33.64616027900001],[130.54526805400002,33.64600472099999],[130.544334449,33.645129720999996],[130.54410000000001,33.64502389200001],[130.543732503,33.644691108],[130.54305166,33.644344440999994]]]}},{"type":"Feature","id":"40348:50303378","properties":{"id":"40348:50303378","meshCode":"50303378","cityCode":"40348","city":"久山町","lat":33.6492172,"lon":130.4807271,"areaKm2":0.0938579,"populated2020":true,"population2020":null,"populationNote":"境界またぎ・収録外等のため人口未集計"},"geometry":{"type":"MultiPolygon","coordinates":[[[[130.487268885,33.647233892],[130.487029442,33.64721389200001],[130.486162776,33.64797222499999],[130.486047497,33.648893054],[130.485260558,33.648997224999995],[130.484960272,33.649214162],[130.484896394,33.649571667],[130.485047977,33.64999999999999],[130.4875,33.65],[130.4875,33.647358636535834],[130.487268885,33.647233892]]],[[[130.481186109,33.648997495],[130.480462776,33.648494162],[130.479056667,33.648738613],[130.479152607,33.65],[130.483295577,33.65],[130.483182776,33.649646667],[130.482638612,33.649312775],[130.48175333300003,33.648960829],[130.481186109,33.648997495]]]]}},{"type":"Feature","id":"40348:50303388","properties":{"id":"40348:50303388","meshCode":"50303388","cityCode":"40348","city":"久山町","lat":33.6545017,"lon":130.4828568,"areaKm2":0.7513293,"populated2020":true,"population2020":null,"populationNote":"境界またぎ・収録外等のため人口未集計"},"geometry":{"type":"Polygon","coordinates":[[[130.479152607,33.65],[130.479151388,33.650295829],[130.478893333,33.650682225000004],[130.478782776,33.651169161999995],[130.479043891,33.652496387],[130.479595837,33.653774721000005],[130.479580272,33.65414499999999],[130.479323333,33.654952495],[130.479234721,33.655069162],[130.478906667,33.65517499999999],[130.478133606,33.655156667],[130.477866109,33.655229721],[130.477564163,33.656137775],[130.47753917,33.656764721],[130.476676667,33.65772610799999],[130.47600608266617,33.658333333333324],[130.4875,33.658333333333324],[130.4875,33.65],[130.485047977,33.64999999999999],[130.485573061,33.65072389200001],[130.485553061,33.651118054],[130.485321115,33.651307495],[130.48452166,33.651353054],[130.484254163,33.651322224999994],[130.483483061,33.650877225],[130.483295577,33.65],[130.479152607,33.65]]]}},{"type":"Feature","id":"40348:50303389","properties":{"id":"40348:50303389","meshCode":"50303389","cityCode":"40348","city":"久山町","lat":33.6541667,"lon":130.49375,"areaKm2":1.0715422,"populated2020":true,"population2020":657.3623,"populationNote":"収録500mメッシュ人口の合算（原典収録外は補完しない）"},"geometry":{"type":"Polygon","coordinates":[[[130.5,33.64999999999999],[130.4875,33.65],[130.4875,33.658333333333324],[130.5,33.658333333333324],[130.5,33.64999999999999]]]}},{"type":"Feature","id":"40348:50303480","properties":{"id":"40348:50303480","meshCode":"50303480","cityCode":"40348","city":"久山町","lat":33.6541667,"lon":130.50625,"areaKm2":1.0715394,"populated2020":true,"population2020":593.7398,"populationNote":"収録500mメッシュ人口の合算（原典収録外は補完しない）"},"geometry":{"type":"Polygon","coordinates":[[[130.5125,33.65],[130.5,33.64999999999999],[130.5,33.658333333333324],[130.5125,33.65833333333333],[130.5125,33.65]]]}},{"type":"Feature","id":"40348:50303481","properties":{"id":"40348:50303481","meshCode":"50303481","cityCode":"40348","city":"久山町","lat":33.6541667,"lon":130.51875,"areaKm2":1.0715367,"populated2020":true,"population2020":564.7696,"populationNote":"収録500mメッシュ人口の合算（原典収録外は補完しない）"},"geometry":{"type":"Polygon","coordinates":[[[130.525,33.65],[130.5125,33.65],[130.5125,33.65833333333333],[130.525,33.65833333333333],[130.525,33.65]]]}},{"type":"Feature","id":"40348:50303482","properties":{"id":"40348:50303482","meshCode":"50303482","cityCode":"40348","city":"久山町","lat":33.6541667,"lon":130.53125,"areaKm2":1.071534,"populated2020":true,"population2020":0.983,"populationNote":"収録500mメッシュ人口の合算（原典収録外は補完しない）"},"geometry":{"type":"Polygon","coordinates":[[[130.5375,33.64999999999999],[130.525,33.65],[130.525,33.65833333333333],[130.5375,33.65833333333333],[130.5375,33.64999999999999]]]}},{"type":"Feature","id":"40348:50303483","properties":{"id":"40348:50303483","meshCode":"50303483","cityCode":"40348","city":"久山町","lat":33.6543429,"lon":130.5430661,"areaKm2":0.9475056,"populated2020":false,"population2020":null,"populationNote":"境界またぎ・収録外等のため人口未集計"},"geometry":{"type":"Polygon","coordinates":[[[130.548605837,33.654207495],[130.547557497,33.65349],[130.547381946,33.653236666999994],[130.54721527900003,33.65262722500001],[130.547453606,33.652243054],[130.547602218,33.65160999999999],[130.548078612,33.650750828999996],[130.548046329,33.64999999999999],[130.5375,33.64999999999999],[130.5375,33.65833333333333],[130.55,33.65833333333333],[130.55,33.65693310799999],[130.549505551,33.656689441],[130.549100558,33.656364441],[130.548974721,33.65458749500001],[130.548605837,33.654207495]]]}},{"type":"Feature","id":"40348:50303484","properties":{"id":"40348:50303484","meshCode":"50303484","cityCode":"40348","city":"久山町","lat":33.6578341,"lon":130.5511395,"areaKm2":0.026219,"populated2020":false,"population2020":null,"populationNote":"境界またぎ・収録外等のため人口未集計"},"geometry":{"type":"Polygon","coordinates":[[[130.553476109,33.658333333],[130.552324163,33.657840559],[130.55167166,33.657671946],[130.550771388,33.657064441],[130.55,33.65693310799999],[130.55,33.65833333333333],[130.553476109,33.658333333]]]}},{"type":"Feature","id":"40348:50303397","properties":{"id":"40348:50303397","meshCode":"50303397","cityCode":"40348","city":"久山町","lat":33.6644839,"lon":130.4729845,"areaKm2":0.2023413,"populated2020":false,"population2020":null,"populationNote":"境界またぎ・収録外等のため人口未集計"},"geometry":{"type":"Polygon","coordinates":[[[130.474738885,33.65948582900001],[130.474653606,33.66027916200001],[130.47445,33.66084027899999],[130.47411083,33.661268892],[130.473774721,33.661535],[130.473519728,33.662098613000005],[130.472923891,33.662588892],[130.471653333,33.664031108],[130.470897224,33.664286108000006],[130.470626394,33.664492225],[130.470288885,33.665061108],[130.469279442,33.66623722500001],[130.46915499413353,33.666666666666664],[130.475,33.666666666666664],[130.475,33.659228919],[130.474738885,33.65948582900001]]]}},{"type":"Feature","id":"40348:50303398","properties":{"id":"40348:50303398","meshCode":"50303398","cityCode":"40348","city":"久山町","lat":33.6625177,"lon":130.4812771,"areaKm2":1.0665454,"populated2020":true,"population2020":272.8914,"populationNote":"収録500mメッシュ人口の合算（原典収録外は補完しない）"},"geometry":{"type":"Polygon","coordinates":[[[130.47600608266617,33.658333333333324],[130.475,33.659228919],[130.475,33.666666666666664],[130.4875,33.666666666666664],[130.4875,33.658333333333324],[130.47600608266617,33.658333333333324]]]}},{"type":"Feature","id":"40348:50303399","properties":{"id":"40348:50303399","meshCode":"50303399","cityCode":"40348","city":"久山町","lat":33.6625,"lon":130.49375,"areaKm2":1.0714404,"populated2020":true,"population2020":997.3388,"populationNote":"収録500mメッシュ人口の合算（原典収録外は補完しない）"},"geometry":{"type":"Polygon","coordinates":[[[130.5,33.658333333333324],[130.4875,33.658333333333324],[130.4875,33.666666666666664],[130.5,33.666666666666664],[130.5,33.658333333333324]]]}},{"type":"Feature","id":"40348:50303490","properties":{"id":"40348:50303490","meshCode":"50303490","cityCode":"40348","city":"久山町","lat":33.6625,"lon":130.50625,"areaKm2":1.0714375,"populated2020":true,"population2020":632.1788,"populationNote":"収録500mメッシュ人口の合算（原典収録外は補完しない）"},"geometry":{"type":"Polygon","coordinates":[[[130.5125,33.65833333333333],[130.5,33.658333333333324],[130.5,33.666666666666664],[130.5125,33.666666666666664],[130.5125,33.65833333333333]]]}},{"type":"Feature","id":"40348:50303491","properties":{"id":"40348:50303491","meshCode":"50303491","cityCode":"40348","city":"久山町","lat":33.6625,"lon":130.51875,"areaKm2":1.0714348,"populated2020":false,"population2020":null,"populationNote":"境界またぎ・収録外等のため人口未集計"},"geometry":{"type":"Polygon","coordinates":[[[130.525,33.65833333333333],[130.5125,33.65833333333333],[130.5125,33.666666666666664],[130.525,33.666666666666664],[130.525,33.65833333333333]]]}},{"type":"Feature","id":"40348:50303492","properties":{"id":"40348:50303492","meshCode":"50303492","cityCode":"40348","city":"久山町","lat":33.6625,"lon":130.53125,"areaKm2":1.0714321,"populated2020":false,"population2020":null,"populationNote":"境界またぎ・収録外等のため人口未集計"},"geometry":{"type":"Polygon","coordinates":[[[130.5375,33.65833333333333],[130.525,33.65833333333333],[130.525,33.666666666666664],[130.5375,33.666666666666664],[130.5375,33.65833333333333]]]}},{"type":"Feature","id":"40348:50303493","properties":{"id":"40348:50303493","meshCode":"50303493","cityCode":"40348","city":"久山町","lat":33.6625,"lon":130.54375,"areaKm2":1.0714295,"populated2020":false,"population2020":null,"populationNote":"境界またぎ・収録外等のため人口未集計"},"geometry":{"type":"Polygon","coordinates":[[[130.55,33.65833333333333],[130.5375,33.65833333333333],[130.5375,33.666666666666664],[130.55,33.666666666666664],[130.55,33.65833333333333]]]}},{"type":"Feature","id":"40348:50303494","properties":{"id":"40348:50303494","meshCode":"50303494","cityCode":"40348","city":"久山町","lat":33.6632071,"lon":130.5546935,"areaKm2":0.7347385,"populated2020":false,"population2020":null,"populationNote":"境界またぎ・収録外等のため人口未集計"},"geometry":{"type":"Polygon","coordinates":[[[130.556369728,33.66035722499999],[130.555546394,33.659968892],[130.555447497,33.65963138699999],[130.555240272,33.659331667000004],[130.554603333,33.658975278999996],[130.554063333,33.65855305400001],[130.5534761097987,33.658333333333324],[130.55,33.65833333333333],[130.55,33.666666666666664],[130.55946461761192,33.666666666666664],[130.559803891,33.666300829],[130.560694721,33.66640222499999],[130.56096917,33.666246108],[130.561837782,33.666250279],[130.561972776,33.666106667],[130.56204917,33.66574805399999],[130.56183499400004,33.66492444099999],[130.561209728,33.66391138699999],[130.561047782,33.663755279],[130.560714721,33.663645559],[130.560125279,33.663556946],[130.559706667,33.663295279],[130.559414163,33.66296610799999],[130.558518612,33.662569441],[130.557742218,33.66164444099999],[130.556788327,33.66099444100001],[130.556369728,33.66035722499999]]]}},{"type":"Feature","id":"40348:50304307","properties":{"id":"40348:50304307","meshCode":"50304307","cityCode":"40348","city":"久山町","lat":33.6712542,"lon":130.4718394,"areaKm2":0.5159606,"populated2020":false,"population2020":null,"populationNote":"境界またぎ・収録外等のため人口未集計"},"geometry":{"type":"Polygon","coordinates":[[[130.46915499413353,33.666666666666664],[130.468988327,33.667267775],[130.46920472100004,33.66756500000001],[130.469430272,33.667730829],[130.47005083,33.667942495],[130.470726109,33.668635279],[130.47083,33.668784721],[130.470811388,33.669005279000004],[130.470652776,33.669303613],[130.470573333,33.669949721],[130.47045083,33.670150829],[130.469440558,33.67126110800001],[130.469034449,33.671558892],[130.468428054,33.67182499999999],[130.468249442,33.672032775],[130.468082503,33.672434441],[130.467714994,33.67261444100001],[130.467364163,33.672978613],[130.46717,33.673503054],[130.467083995,33.675],[130.475,33.675000000000004],[130.475,33.666666666666664],[130.46915499413353,33.666666666666664]]]}},{"type":"Feature","id":"40348:50304308","properties":{"id":"40348:50304308","meshCode":"50304308","cityCode":"40348","city":"久山町","lat":33.6707661,"lon":130.4811601,"areaKm2":1.0527349,"populated2020":true,"population2020":104.04,"populationNote":"収録500mメッシュ人口の合算（原典収録外は補完しない）"},"geometry":{"type":"Polygon","coordinates":[[[130.4875,33.666666666666664],[130.475,33.666666666666664],[130.475,33.675000000000004],[130.484407134,33.675],[130.485607497,33.674479162000004],[130.48626277600002,33.674113054],[130.48652166,33.674087495],[130.4875,33.67427477128406],[130.4875,33.666666666666664]]]}},{"type":"Feature","id":"40348:50304309","properties":{"id":"40348:50304309","meshCode":"50304309","cityCode":"40348","city":"久山町","lat":33.6707822,"lon":130.4938201,"areaKm2":1.0572663,"populated2020":true,"population2020":140.122,"populationNote":"収録500mメッシュ人口の合算（原典収録外は補完しない）"},"geometry":{"type":"Polygon","coordinates":[[[130.5,33.666666666666664],[130.4875,33.666666666666664],[130.4875,33.67427477128406],[130.488562503,33.674273613000004],[130.489423061,33.674602775],[130.489735837,33.674818333],[130.489863113,33.67499999999999],[130.5,33.675],[130.5,33.666666666666664]]]}},{"type":"Feature","id":"40348:50304400","properties":{"id":"40348:50304400","meshCode":"50304400","cityCode":"40348","city":"久山町","lat":33.6708333,"lon":130.50625,"areaKm2":1.0713357,"populated2020":true,"population2020":563.8482,"populationNote":"収録500mメッシュ人口の合算（原典収録外は補完しない）"},"geometry":{"type":"Polygon","coordinates":[[[130.5125,33.666666666666664],[130.5,33.666666666666664],[130.5,33.675],[130.5125,33.675],[130.5125,33.666666666666664]]]}},{"type":"Feature","id":"40348:50304401","properties":{"id":"40348:50304401","meshCode":"50304401","cityCode":"40348","city":"久山町","lat":33.6708333,"lon":130.51875,"areaKm2":1.0713329,"populated2020":true,"population2020":79.5105,"populationNote":"収録500mメッシュ人口の合算（原典収録外は補完しない）"},"geometry":{"type":"Polygon","coordinates":[[[130.525,33.666666666666664],[130.5125,33.666666666666664],[130.5125,33.675],[130.525,33.675],[130.525,33.666666666666664]]]}},{"type":"Feature","id":"40348:50304402","properties":{"id":"40348:50304402","meshCode":"50304402","cityCode":"40348","city":"久山町","lat":33.6708333,"lon":130.53125,"areaKm2":1.0713303,"populated2020":true,"population2020":1.0316,"populationNote":"収録500mメッシュ人口の合算（原典収録外は補完しない）"},"geometry":{"type":"Polygon","coordinates":[[[130.5375,33.666666666666664],[130.525,33.666666666666664],[130.525,33.675],[130.5375,33.675],[130.5375,33.666666666666664]]]}},{"type":"Feature","id":"40348:50304403","properties":{"id":"40348:50304403","meshCode":"50304403","cityCode":"40348","city":"久山町","lat":33.6707429,"lon":130.5436102,"areaKm2":1.0438017,"populated2020":false,"population2020":null,"populationNote":"境界またぎ・収録外等のため人口未集計"},"geometry":{"type":"Polygon","coordinates":[[[130.55,33.666666666666664],[130.5375,33.666666666666664],[130.5375,33.675],[130.543259533,33.675],[130.543661946,33.674850829],[130.544229105,33.675],[130.5472607,33.675],[130.547862218,33.67491749500001],[130.548065279,33.674809162],[130.548212218,33.674674721],[130.548555279,33.673998613],[130.548950558,33.673785279],[130.549275837,33.673437495],[130.549541946,33.673381667],[130.549699442,33.673266946000005],[130.549747497,33.672911667],[130.55,33.672498667000006],[130.55,33.666666666666664]]]}},{"type":"Feature","id":"40348:50304404","properties":{"id":"40348:50304404","meshCode":"50304404","cityCode":"40348","city":"久山町","lat":33.6694533,"lon":130.5502821,"areaKm2":0.0998074,"populated2020":false,"population2020":null,"populationNote":"境界またぎ・収録外等のため人口未集計"},"geometry":{"type":"Polygon","coordinates":[[[130.556724721,33.666776667],[130.557484994,33.66721555899999],[130.55764250300004,33.667223892],[130.55946461761192,33.666666666666664],[130.55,33.666666666666664],[130.55,33.672498667000006],[130.550178054,33.67208166699999],[130.550314449,33.67116610800001],[130.550751115,33.670495],[130.550793061,33.670285],[130.550264721,33.670081667000005],[130.551309442,33.668079441],[130.551543333,33.668007775],[130.551885551,33.668151108],[130.551966394,33.668092225],[130.551966394,33.667868332999994],[130.552141946,33.667716387000006],[130.552511115,33.667716387000006],[130.553806939,33.668028891999995],[130.555149728,33.66718138700001],[130.55559083,33.666751387],[130.555797782,33.666683613000004],[130.556724721,33.666776667]]]}},{"type":"Feature","id":"40348:50304317","properties":{"id":"40348:50304317","meshCode":"50304317","cityCode":"40348","city":"久山町","lat":33.6765145,"lon":130.4703513,"areaKm2":0.2071321,"populated2020":false,"population2020":null,"populationNote":"境界またぎ・収録外等のため人口未集計"},"geometry":{"type":"Polygon","coordinates":[[[130.467083995,33.675],[130.46708,33.676348613],[130.467541115,33.677126387],[130.467663061,33.67784472099999],[130.467773333,33.677973892000004],[130.468466109,33.678213054],[130.468618327,33.67836582900001],[130.468887497,33.679278892],[130.468892503,33.679431667],[130.468770558,33.679537225],[130.468988054,33.679556387],[130.46937416300003,33.67948972100001],[130.469892218,33.67909972099999],[130.470096109,33.678821387],[130.470298327,33.678300000000014],[130.470649442,33.677967224999996],[130.47132138800004,33.677643892],[130.472128612,33.677102775],[130.472349442,33.67703027900001],[130.472834163,33.677085279],[130.473208327,33.676932225],[130.473574449,33.676622495000004],[130.473652776,33.676242775000006],[130.473783333,33.676119162],[130.475,33.675661468],[130.475,33.675000000000004],[130.467083995,33.675]]]}},{"type":"Feature","id":"40348:50304318","properties":{"id":"40348:50304318","meshCode":"50304318","cityCode":"40348","city":"久山町","lat":33.67536,"lon":130.4794506,"areaKm2":0.0647704,"populated2020":true,"population2020":null,"populationNote":"境界またぎ・収録外等のため人口未集計"},"geometry":{"type":"Polygon","coordinates":[[[130.480205279,33.675829441],[130.482197782,33.67575694600001],[130.482663891,33.675590559],[130.483449728,33.67548694599999],[130.484407134,33.675],[130.475,33.675000000000004],[130.475,33.675661468],[130.475782218,33.675488054],[130.477539442,33.675856667],[130.478563891,33.675713892],[130.480205279,33.675829441]]]}},{"type":"Feature","id":"40348:50304319","properties":{"id":"40348:50304319","meshCode":"50304319","cityCode":"40348","city":"久山町","lat":33.6778553,"lon":130.4962001,"areaKm2":0.4925991,"populated2020":true,"population2020":null,"populationNote":"境界またぎ・収録外等のため人口未集計"},"geometry":{"type":"Polygon","coordinates":[[[130.489863113,33.67499999999999],[130.490130272,33.675604441],[130.490898885,33.675982225000006],[130.491397224,33.676419441],[130.49192,33.677652495000004],[130.492307782,33.67823444100001],[130.493402776,33.679341667],[130.494074721,33.679808333],[130.495174449,33.680157225],[130.49559917,33.680408054000004],[130.496244721,33.681889721],[130.496572503,33.68198000000001],[130.497100272,33.681664441],[130.497659728,33.681466107999995],[130.498232776,33.68169499999999],[130.49864917,33.68154416200001],[130.498816939,33.681599721],[130.498925551,33.681960829000005],[130.499124721,33.682016387000004],[130.5,33.682052802],[130.5,33.675],[130.489863113,33.67499999999999]]]}},{"type":"Feature","id":"40348:50304410","properties":{"id":"40348:50304410","meshCode":"50304410","cityCode":"40348","city":"久山町","lat":33.6790807,"lon":130.5063579,"areaKm2":1.0474932,"populated2020":true,"population2020":52.9725,"populationNote":"収録500mメッシュ人口の合算（原典収録外は補完しない）"},"geometry":{"type":"Polygon","coordinates":[[[130.5125,33.675],[130.5,33.675],[130.5,33.682052802],[130.500091946,33.682098612999994],[130.500211115,33.68244305399999],[130.500389442,33.682607225],[130.500718327,33.68263999999999],[130.501718612,33.682587495],[130.502894163,33.68266944100001],[130.50329569408515,33.68333333333334],[130.5125,33.68333333333334],[130.5125,33.675]]]}},{"type":"Feature","id":"40348:50304411","properties":{"id":"40348:50304411","meshCode":"50304411","cityCode":"40348","city":"久山町","lat":33.6791667,"lon":130.51875,"areaKm2":1.0712311,"populated2020":true,"population2020":2.0273,"populationNote":"収録500mメッシュ人口の合算（原典収録外は補完しない）"},"geometry":{"type":"Polygon","coordinates":[[[130.525,33.675],[130.5125,33.675],[130.5125,33.68333333333334],[130.525,33.68333333333334],[130.525,33.675]]]}},{"type":"Feature","id":"40348:50304412","properties":{"id":"40348:50304412","meshCode":"50304412","cityCode":"40348","city":"久山町","lat":33.6791667,"lon":130.53125,"areaKm2":1.0712283,"populated2020":false,"population2020":null,"populationNote":"境界またぎ・収録外等のため人口未集計"},"geometry":{"type":"Polygon","coordinates":[[[130.5375,33.675],[130.525,33.675],[130.525,33.68333333333334],[130.5375,33.68333333333333],[130.5375,33.675]]]}},{"type":"Feature","id":"40348:50304413","properties":{"id":"40348:50304413","meshCode":"50304413","cityCode":"40348","city":"久山町","lat":33.6786307,"lon":130.5396425,"areaKm2":0.3279036,"populated2020":false,"population2020":null,"populationNote":"境界またぎ・収録外等のため人口未集計"},"geometry":{"type":"MultiPolygon","coordinates":[[[[130.546238054,33.675615279000006],[130.5472607,33.675],[130.544229105,33.675],[130.545811115,33.67556277500001],[130.546238054,33.675615279000006]]],[[[130.541801115,33.678376387],[130.541727782,33.677696667],[130.541542218,33.67721138699999],[130.541538612,33.676794721],[130.541416394,33.676384441],[130.541486394,33.676220279],[130.542153891,33.67535610800001],[130.542378054,33.675231667],[130.542965837,33.67513972100001],[130.543259533,33.675],[130.5375,33.675],[130.5375,33.68333333333333],[130.54081321727855,33.68333333333332],[130.540136109,33.682410559],[130.540074163,33.68210416200001],[130.539815551,33.681759721],[130.539728054,33.681487775],[130.53975972800004,33.681346667],[130.540126667,33.680956108000004],[130.540354163,33.680831387000005],[130.540941946,33.680752495],[130.541074994,33.680667225],[130.540878612,33.67969194599999],[130.540980272,33.67953472100001],[130.541456109,33.679705],[130.541930558,33.679629721],[130.54208083,33.679173892],[130.54206,33.678773613],[130.541801115,33.678376387]]]]}},{"type":"Feature","id":"40348:50304420","properties":{"id":"40348:50304420","meshCode":"50304420","cityCode":"40348","city":"久山町","lat":33.6852515,"lon":130.5097634,"areaKm2":0.212548,"populated2020":false,"population2020":null,"populationNote":"境界またぎ・収録外等のため人口未集計"},"geometry":{"type":"Polygon","coordinates":[[[130.50329569408515,33.68333333333334],[130.50318917,33.683868333],[130.503325551,33.684078332999995],[130.504259442,33.684216108],[130.504964721,33.684441387],[130.505447497,33.684155829000005],[130.506047782,33.683995559],[130.506666939,33.68371666699999],[130.506971115,33.683677225],[130.507177782,33.683726387],[130.507551946,33.683972495000006],[130.50786,33.684005279],[130.508982776,33.68442861300001],[130.509248612,33.684691108],[130.509224163,33.685289441],[130.509003606,33.685607495],[130.508237497,33.686204721],[130.50815,33.68642444099999],[130.50829,33.686887225],[130.508367782,33.68699305399999],[130.508666667,33.686961667],[130.508936109,33.687309441000004],[130.509093333,33.687388333],[130.50939083,33.68746361299999],[130.51026360600002,33.687365279000005],[130.510564449,33.68741777500001],[130.511151946,33.687666946],[130.511603333,33.68808027899999],[130.511833061,33.688832495],[130.51195917,33.688993333],[130.512133891,33.688862225],[130.512385837,33.68841610799999],[130.5125,33.68837342590059],[130.5125,33.68333333333334],[130.50329569408515,33.68333333333334]]]}},{"type":"Feature","id":"40348:50304421","properties":{"id":"40348:50304421","meshCode":"50304421","cityCode":"40348","city":"久山町","lat":33.6872927,"lon":130.5190904,"areaKm2":1.0017984,"populated2020":false,"population2020":null,"populationNote":"境界またぎ・収録外等のため人口未集計"},"geometry":{"type":"Polygon","coordinates":[[[130.525,33.68333333333334],[130.5125,33.68333333333334],[130.5125,33.68837342590059],[130.512704163,33.688340829],[130.513018885,33.688429441000004],[130.513277782,33.688648892],[130.513585551,33.689140829],[130.514166394,33.689465829],[130.51424832700002,33.690028333],[130.514808054,33.69055],[130.515395279,33.691353613],[130.516644163,33.691261946],[130.516865551,33.69130638699999],[130.5174583915172,33.69166666666667],[130.525,33.69166666666666],[130.525,33.68333333333334]]]}},{"type":"Feature","id":"40348:50304422","properties":{"id":"40348:50304422","meshCode":"50304422","cityCode":"40348","city":"久山町","lat":33.6875,"lon":130.53125,"areaKm2":1.0711264,"populated2020":false,"population2020":null,"populationNote":"境界またぎ・収録外等のため人口未集計"},"geometry":{"type":"Polygon","coordinates":[[[130.5375,33.68333333333333],[130.525,33.68333333333334],[130.525,33.69166666666666],[130.5375,33.69166666666666],[130.5375,33.68333333333333]]]}},{"type":"Feature","id":"40348:50304423","properties":{"id":"40348:50304423","meshCode":"50304423","cityCode":"40348","city":"久山町","lat":33.6880728,"lon":130.5401367,"areaKm2":0.4228627,"populated2020":false,"population2020":null,"populationNote":"境界またぎ・収録外等のため人口未集計"},"geometry":{"type":"Polygon","coordinates":[[[130.541704994,33.687033333],[130.541536939,33.686695279],[130.541026109,33.686390279],[130.54097,33.686249161999996],[130.541038327,33.685991386999994],[130.541675279,33.685174440999994],[130.541766109,33.68493833299999],[130.541076939,33.684213054000004],[130.541000272,33.683666946],[130.54081321727855,33.68333333333332],[130.5375,33.68333333333333],[130.5375,33.69166666666666],[130.5445033327545,33.69166666666667],[130.544020272,33.691134162],[130.54383166,33.690478053999996],[130.544302218,33.689957775],[130.544333606,33.689203054000004],[130.544134163,33.689061946],[130.543564163,33.688920829],[130.542166667,33.688283333],[130.541897497,33.687876667000005],[130.541746939,33.68746],[130.541704994,33.687033333]]]}},{"type":"Feature","id":"40348:50304431","properties":{"id":"40348:50304431","meshCode":"50304431","cityCode":"40348","city":"久山町","lat":33.6954286,"lon":130.5223409,"areaKm2":0.4412234,"populated2020":false,"population2020":null,"populationNote":"境界またぎ・収録外等のため人口未集計"},"geometry":{"type":"Polygon","coordinates":[[[130.517729442,33.691850829],[130.518597224,33.691929441],[130.518928885,33.692439441000005],[130.519376667,33.69283305399999],[130.51939083,33.692977495],[130.519184449,33.693276108000006],[130.518659728,33.693541667],[130.518711946,33.693764720999994],[130.519324163,33.694227225000006],[130.519366109,33.694446945999985],[130.518739442,33.695195279],[130.519393606,33.69554638700001],[130.519785279,33.69587749499998],[130.520296109,33.695985828999994],[130.52057944200004,33.696172775],[130.52057944200004,33.696310559],[130.520390272,33.696577775],[130.52033083,33.69697805399999],[130.520673606,33.69781110800001],[130.520637497,33.698520279],[130.521193891,33.69917972100001],[130.521144721,33.7],[130.525,33.699999999999996],[130.525,33.69166666666666],[130.5174583915172,33.69166666666667],[130.517729442,33.691850829]]]}},{"type":"Feature","id":"40348:50304432","properties":{"id":"40348:50304432","meshCode":"50304432","cityCode":"40348","city":"久山町","lat":33.6958333,"lon":130.53125,"areaKm2":1.0710245,"populated2020":false,"population2020":null,"populationNote":"境界またぎ・収録外等のため人口未集計"},"geometry":{"type":"Polygon","coordinates":[[[130.5375,33.69166666666666],[130.525,33.69166666666666],[130.525,33.699999999999996],[130.5375,33.7],[130.5375,33.69166666666666]]]}},{"type":"Feature","id":"40348:50304433","properties":{"id":"40348:50304433","meshCode":"50304433","cityCode":"40348","city":"久山町","lat":33.6951859,"lon":130.5402865,"areaKm2":0.4364296,"populated2020":false,"population2020":null,"populationNote":"境界またぎ・収録外等のため人口未集計"},"geometry":{"type":"Polygon","coordinates":[[[130.543976939,33.694006387],[130.544529728,33.693796387],[130.544886667,33.69382277500001],[130.54506166,33.693619162],[130.545121388,33.693350558999995],[130.545471388,33.692927225],[130.545163333,33.69251027899999],[130.545030558,33.69213944100001],[130.5445033327545,33.69166666666667],[130.5375,33.69166666666666],[130.5375,33.7],[130.541318521,33.7],[130.541318054,33.699445829],[130.541031115,33.69879722499999],[130.54096472100002,33.69834749500001],[130.541751946,33.69718194599999],[130.541786939,33.696706108],[130.542014449,33.696368054],[130.542042503,33.696158054],[130.541923333,33.695820829],[130.542035279,33.69548944100001],[130.541877782,33.694754721],[130.542206667,33.694341108],[130.542752503,33.694032775],[130.54352917,33.693967225],[130.543976939,33.694006387]]]}},{"type":"Feature","id":"40348:50304441","properties":{"id":"40348:50304441","meshCode":"50304441","cityCode":"40348","city":"久山町","lat":33.7008751,"lon":130.5229238,"areaKm2":0.0768892,"populated2020":false,"population2020":null,"populationNote":"境界またぎ・収録外等のため人口未集計"},"geometry":{"type":"Polygon","coordinates":[[[130.521032776,33.700199721],[130.520214721,33.700752225],[130.520092503,33.700952224999995],[130.52027083,33.701172225],[130.520851388,33.701244162],[130.521573891,33.701692775],[130.522637497,33.70155833300001],[130.52309888500002,33.701728892],[130.523992503,33.701800279],[130.524510272,33.70202333300001],[130.525,33.702084973000005],[130.525,33.699999999999996],[130.521144721,33.7],[130.521032776,33.700199721]]]}},{"type":"Feature","id":"40348:50304442","properties":{"id":"40348:50304442","meshCode":"50304442","cityCode":"40348","city":"久山町","lat":33.7037877,"lon":130.5320389,"areaKm2":0.9093069,"populated2020":false,"population2020":null,"populationNote":"境界またぎ・収録外等のため人口未集計"},"geometry":{"type":"Polygon","coordinates":[[[130.525,33.702084973000005],[130.526283891,33.702751667],[130.526157782,33.703361666999996],[130.526493333,33.703971667000005],[130.526382776,33.704753054],[130.52691083,33.70534027899999],[130.527148885,33.70548472099999],[130.527631388,33.705504162],[130.527781946,33.705573054000006],[130.527600272,33.706653333000006],[130.527851946,33.707056946],[130.528184449,33.707125829],[130.52909166,33.706858892],[130.529420272,33.70688499999999],[130.529665279,33.706996667],[130.53042083,33.707721667],[130.53104,33.708154721],[130.531115032292,33.708333333333336],[130.5375,33.708333333333336],[130.5375,33.7],[130.525,33.699999999999996],[130.525,33.702084973000005]]]}},{"type":"Feature","id":"40348:50304443","properties":{"id":"40348:50304443","meshCode":"50304443","cityCode":"40348","city":"久山町","lat":33.7043158,"lon":130.5399737,"areaKm2":0.4164562,"populated2020":false,"population2020":null,"populationNote":"境界またぎ・収録外等のため人口未集計"},"geometry":{"type":"Polygon","coordinates":[[[130.542747782,33.703824162],[130.542681388,33.703248333],[130.542387782,33.703025000000004],[130.542314449,33.702838054],[130.542251388,33.702224441],[130.542464994,33.70162249500001],[130.542426394,33.701228613],[130.54153083,33.70073],[130.541279442,33.700315],[130.541318521,33.7],[130.5375,33.7],[130.5375,33.708333333333336],[130.5444996374438,33.708333333333336],[130.54355917,33.707750829],[130.5433,33.707458892],[130.542383333,33.707435829],[130.54199166,33.707320829],[130.541918327,33.707229162],[130.541625551,33.706207495],[130.542360272,33.705479161999996],[130.542509728,33.705238333],[130.542555279,33.704286946],[130.542747782,33.703824162]]]}},{"type":"Feature","id":"40348:50304452","properties":{"id":"40348:50304452","meshCode":"50304452","cityCode":"40348","city":"久山町","lat":33.7092577,"lon":130.5349313,"areaKm2":0.1022263,"populated2020":false,"population2020":null,"populationNote":"境界またぎ・収録外等のため人口未集計"},"geometry":{"type":"Polygon","coordinates":[[[130.53125,33.70847283500437],[130.532136109,33.70879249499999],[130.53230027200001,33.70911722500001],[130.53286,33.709802495],[130.534105551,33.710117495000006],[130.534511115,33.710425829],[130.535190558,33.710673613],[130.535578885,33.71061777500001],[130.536222503,33.710332225],[130.536749442,33.710224441],[130.5375,33.70994207863271],[130.5375,33.708333333333336],[130.531115032292,33.708333333333336],[130.53125,33.70847283500437]]]}},{"type":"Feature","id":"40348:50304453","properties":{"id":"40348:50304453","meshCode":"50304453","cityCode":"40348","city":"久山町","lat":33.709455,"lon":130.5411672,"areaKm2":0.1649244,"populated2020":false,"population2020":null,"populationNote":"境界またぎ・収録外等のため人口未集計"},"geometry":{"type":"Polygon","coordinates":[[[130.543974721,33.710319999999996],[130.54435610900003,33.710192225],[130.544716394,33.710165829],[130.544901388,33.70896694599999],[130.544757782,33.708527225],[130.5444996374438,33.708333333333336],[130.5375,33.708333333333336],[130.5375,33.70994207863271],[130.540172218,33.71083389199999],[130.540476394,33.711037225],[130.540791388,33.711050559],[130.542214994,33.710762775],[130.543344994,33.710287225],[130.543974721,33.710319999999996]]]}}]}