{"type":"FeatureCollection","metadata":{"cityCode":"40348","city":"久山町","resolution":500,"boundaryDate":"2026-01-01","populationLabel":"2020年基準人口（国交省調整値）","method":"標準地域メッシュを行政界で切抜き。中心が区域外のとき区域内代表点を判定点にする。人口不明をゼロにしない。"},"features":[{"type":"Feature","id":"40348:503033691","properties":{"id":"40348:503033691","meshCode":"503033691","cityCode":"40348","city":"久山町","lat":33.6370943,"lon":130.49338,"areaKm2":0.0097533,"populated2020":true,"population2020":null,"populationNote":"境界またぎ・原典収録外のため自治体内人口は未集計"},"geometry":{"type":"Polygon","coordinates":[[[130.49375,33.636213779696796],[130.493497497,33.636331946000006],[130.49293888500003,33.63630082900001],[130.492826939,33.63641582899999],[130.492909442,33.63684055900001],[130.4931807418168,33.6375],[130.49375,33.6375],[130.49375,33.636213779696796]]]}},{"type":"Feature","id":"40348:503033692","properties":{"id":"40348:503033692","meshCode":"503033692","cityCode":"40348","city":"久山町","lat":33.6354167,"lon":130.496875,"areaKm2":0.1707983,"populated2020":false,"population2020":null,"populationNote":"境界またぎ・原典収録外のため自治体内人口は未集計"},"geometry":{"type":"Polygon","coordinates":[[[130.498499442,33.634821946],[130.49766138800004,33.634928054],[130.494497782,33.63404861299999],[130.494289831,33.634703081],[130.494727782,33.634805279],[130.49464083,33.63528277499999],[130.494488327,33.635622225],[130.49375,33.636213779696796],[130.49375,33.6375],[130.5,33.6375],[130.5,33.635119694],[130.499523061,33.635228054],[130.498499442,33.634821946]]]}},{"type":"Feature","id":"40348:503034601","properties":{"id":"40348:503034601","meshCode":"503034601","cityCode":"40348","city":"久山町","lat":33.6363308,"lon":130.501716,"areaKm2":0.0923125,"populated2020":true,"population2020":null,"populationNote":"境界またぎ・原典収録外のため自治体内人口は未集計"},"geometry":{"type":"Polygon","coordinates":[[[130.506142503,33.636813892],[130.505383333,33.63648472100001],[130.504914449,33.636497495],[130.504337224,33.63674249500001],[130.503935837,33.636518333],[130.500258885,33.63506082899999],[130.5,33.635119694],[130.5,33.6375],[130.50625,33.6375],[130.50625,33.63679130844072],[130.506142503,33.636813892]]]}},{"type":"Feature","id":"40348:503034602","properties":{"id":"40348:503034602","meshCode":"503034602","cityCode":"40348","city":"久山町","lat":33.6372132,"lon":130.5115183,"areaKm2":0.013902,"populated2020":false,"population2020":null,"populationNote":"境界またぎ・原典収録外のため自治体内人口は未集計"},"geometry":{"type":"MultiPolygon","coordinates":[[[[130.512266939,33.637494440999994],[130.512149728,33.637274441],[130.511793333,33.636999721],[130.511180272,33.636804999999995],[130.510914163,33.637312495],[130.51072781476861,33.637499999999996],[130.512266939,33.637494440999994]]],[[[130.50756263310794,33.6375],[130.506863606,33.636792775],[130.50667,33.636682775],[130.50625,33.63679130844072],[130.50625,33.6375],[130.50756263310794,33.6375]]]]}},{"type":"Feature","id":"40348:503034621","properties":{"id":"40348:503034621","meshCode":"503034621","cityCode":"40348","city":"久山町","lat":33.6367812,"lon":130.5292348,"areaKm2":0.0330082,"populated2020":false,"population2020":null,"populationNote":"境界またぎ・原典収録外のため自治体内人口は未集計"},"geometry":{"type":"Polygon","coordinates":[[[130.53125,33.63668647710654],[130.530451115,33.636857494999994],[130.52991,33.63656138699999],[130.529368885,33.636383892],[130.528994721,33.636066667],[130.528543891,33.636282224999995],[130.528261388,33.636691108],[130.527878054,33.63705055900001],[130.52776307827585,33.637499999999996],[130.53125,33.6375],[130.53125,33.63668647710654]]]}},{"type":"Feature","id":"40348:503034622","properties":{"id":"40348:503034622","meshCode":"503034622","cityCode":"40348","city":"久山町","lat":33.6370883,"lon":130.5324288,"areaKm2":0.0197346,"populated2020":false,"population2020":null,"populationNote":"境界またぎ・原典収録外のため自治体内人口は未集計"},"geometry":{"type":"Polygon","coordinates":[[[130.53438741027094,33.637499999999996],[130.533023606,33.636861667],[130.532635837,33.636810829000005],[130.531950272,33.636561387],[130.53125,33.63668647710654],[130.53125,33.6375],[130.53438741027094,33.637499999999996]]]}},{"type":"Feature","id":"40348:503033693","properties":{"id":"40348:503033693","meshCode":"503033693","cityCode":"40348","city":"久山町","lat":33.6410543,"lon":130.4934531,"areaKm2":0.0155867,"populated2020":true,"population2020":null,"populationNote":"境界またぎ・原典収録外のため自治体内人口は未集計"},"geometry":{"type":"MultiPolygon","coordinates":[[[[130.4931807418168,33.6375],[130.493396939,33.638476667],[130.493698612,33.639324721],[130.49375,33.64017473465901],[130.49375,33.6375],[130.4931807418168,33.6375]]],[[[130.49375,33.6405163960493],[130.492741946,33.641326946],[130.492317497,33.641281387],[130.4921777170341,33.64166666666667],[130.49375,33.641666666666666],[130.49375,33.6405163960493]]]]}},{"type":"Feature","id":"40348:503033694","properties":{"id":"40348:503033694","meshCode":"503033694","cityCode":"40348","city":"久山町","lat":33.6395833,"lon":130.496875,"areaKm2":0.2678868,"populated2020":true,"population2020":102.6047,"populationNote":"2020年基準の国交省調整値"},"geometry":{"type":"Polygon","coordinates":[[[130.49375,33.6375],[130.49375,33.641666666666666],[130.5,33.641666666666666],[130.5,33.6375],[130.49375,33.6375]]]}},{"type":"Feature","id":"40348:503034603","properties":{"id":"40348:503034603","meshCode":"503034603","cityCode":"40348","city":"久山町","lat":33.6395833,"lon":130.503125,"areaKm2":0.2679296,"populated2020":true,"population2020":239.1397,"populationNote":"2020年基準の国交省調整値"},"geometry":{"type":"Polygon","coordinates":[[[130.5,33.6375],[130.5,33.641666666666666],[130.50625,33.64166666666667],[130.50625,33.6375],[130.5,33.6375]]]}},{"type":"Feature","id":"40348:503034604","properties":{"id":"40348:503034604","meshCode":"503034604","cityCode":"40348","city":"久山町","lat":33.6395833,"lon":130.509375,"areaKm2":0.2504257,"populated2020":true,"population2020":0.9884,"populationNote":"2020年基準の国交省調整値"},"geometry":{"type":"Polygon","coordinates":[[[130.5122725288422,33.63750000000001],[130.51072781476861,33.637499999999996],[130.509922218,33.638128613],[130.509167497,33.63833582899999],[130.508437224,33.638132775],[130.50756263310794,33.6375],[130.50625,33.6375],[130.50625,33.64166666666667],[130.5125,33.641666666666666],[130.5125,33.637726216075926],[130.5122725288422,33.63750000000001]]]}},{"type":"Feature","id":"40348:503034613","properties":{"id":"40348:503034613","meshCode":"503034613","cityCode":"40348","city":"久山町","lat":33.6396919,"lon":130.5173406,"areaKm2":0.1638434,"populated2020":false,"population2020":null,"populationNote":"境界またぎ・原典収録外のため自治体内人口は未集計"},"geometry":{"type":"Polygon","coordinates":[[[130.51875,33.63833321087283],[130.515794449,33.639746946],[130.515221946,33.639780829],[130.514495837,33.639713054],[130.514127497,33.639616387],[130.513874994,33.639451387],[130.513536667,33.638910279],[130.513371388,33.63836138700001],[130.513064721,33.638217495],[130.5125,33.637726216075926],[130.5125,33.641666666666666],[130.51875,33.641666666666666],[130.51875,33.63833321087283]]]}},{"type":"Feature","id":"40348:503034614","properties":{"id":"40348:503034614","meshCode":"503034614","cityCode":"40348","city":"久山町","lat":33.6395833,"lon":130.521875,"areaKm2":0.2193102,"populated2020":true,"population2020":37.7933,"populationNote":"2020年基準の国交省調整値"},"geometry":{"type":"Polygon","coordinates":[[[130.525,33.63877636],[130.524282218,33.638983054],[130.523704994,33.63894500000001],[130.521941946,33.637862225],[130.520894449,33.638027225],[130.520637497,33.637942775000006],[130.520326394,33.637642495],[130.520037782,33.63757472100001],[130.519794449,33.637612775],[130.51875,33.63833321087283],[130.51875,33.641666666666666],[130.525,33.641666666666666],[130.525,33.63877636]]]}},{"type":"Feature","id":"40348:503034623","properties":{"id":"40348:503034623","meshCode":"503034623","cityCode":"40348","city":"久山町","lat":33.6395833,"lon":130.528125,"areaKm2":0.2502394,"populated2020":false,"population2020":null,"populationNote":"境界またぎ・原典収録外のため自治体内人口は未集計"},"geometry":{"type":"Polygon","coordinates":[[[130.52776083,33.637511667],[130.527611946,33.63799361299999],[130.527476667,33.63817138700001],[130.527255837,33.638276946],[130.52688166,33.638243333000005],[130.526588612,33.637968332999996],[130.526313333,33.63784138700001],[130.525783333,33.63786694600001],[130.52549917,33.638179721],[130.525287497,33.638576946],[130.525,33.63877636],[130.525,33.641666666666666],[130.53125,33.641666666666666],[130.53125,33.6375],[130.52776083,33.637511667]]]}},{"type":"Feature","id":"40348:503034624","properties":{"id":"40348:503034624","meshCode":"503034624","cityCode":"40348","city":"久山町","lat":33.6395833,"lon":130.534375,"areaKm2":0.1970136,"populated2020":false,"population2020":null,"populationNote":"境界またぎ・原典収録外のため自治体内人口は未集計"},"geometry":{"type":"Polygon","coordinates":[[[130.53620564202765,33.641666666666666],[130.536228327,33.63965722500001],[130.536111115,33.638980829],[130.536021115,33.638841108],[130.535388054,33.638387225],[130.534792776,33.63815889199999],[130.534423061,33.637524721],[130.53125,33.6375],[130.53125,33.641666666666666],[130.53620564202765,33.641666666666666]]]}},{"type":"Feature","id":"40348:503033791","properties":{"id":"40348:503033791","meshCode":"503033791","cityCode":"40348","city":"久山町","lat":33.6432826,"lon":130.4933253,"areaKm2":0.0260545,"populated2020":true,"population2020":null,"populationNote":"境界またぎ・原典収録外のため自治体内人口は未集計"},"geometry":{"type":"Polygon","coordinates":[[[130.492177717,33.641666667],[130.492221115,33.641883333],[130.492751115,33.642184162],[130.492982776,33.64243610799999],[130.492895837,33.643755829],[130.493163333,33.644246387],[130.49375,33.64469714913494],[130.49375,33.641666666666666],[130.492177717,33.641666667]]]}},{"type":"Feature","id":"40348:503033792","properties":{"id":"40348:503033792","meshCode":"503033792","cityCode":"40348","city":"久山町","lat":33.64375,"lon":130.496875,"areaKm2":0.2603722,"populated2020":true,"population2020":391.8105,"populationNote":"2020年基準の国交省調整値"},"geometry":{"type":"Polygon","coordinates":[[[130.49375,33.64469714913494],[130.494609728,33.645426387],[130.494859072921,33.645833333333336],[130.5,33.645833333333336],[130.5,33.641666666666666],[130.49375,33.641666666666666],[130.49375,33.64469714913494]]]}},{"type":"Feature","id":"40348:503034701","properties":{"id":"40348:503034701","meshCode":"503034701","cityCode":"40348","city":"久山町","lat":33.64375,"lon":130.503125,"areaKm2":0.2679168,"populated2020":true,"population2020":616.0959,"populationNote":"2020年基準の国交省調整値"},"geometry":{"type":"Polygon","coordinates":[[[130.5,33.641666666666666],[130.5,33.645833333333336],[130.50625,33.645833333333336],[130.50625,33.64166666666667],[130.5,33.641666666666666]]]}},{"type":"Feature","id":"40348:503034702","properties":{"id":"40348:503034702","meshCode":"503034702","cityCode":"40348","city":"久山町","lat":33.64375,"lon":130.509375,"areaKm2":0.2679165,"populated2020":true,"population2020":546.668,"populationNote":"2020年基準の国交省調整値"},"geometry":{"type":"Polygon","coordinates":[[[130.50625,33.64166666666667],[130.50625,33.645833333333336],[130.5125,33.645833333333336],[130.5125,33.641666666666666],[130.50625,33.64166666666667]]]}},{"type":"Feature","id":"40348:503034711","properties":{"id":"40348:503034711","meshCode":"503034711","cityCode":"40348","city":"久山町","lat":33.64375,"lon":130.515625,"areaKm2":0.2679161,"populated2020":true,"population2020":742.6874,"populationNote":"2020年基準の国交省調整値"},"geometry":{"type":"Polygon","coordinates":[[[130.5125,33.641666666666666],[130.5125,33.645833333333336],[130.51875,33.64583333333333],[130.51875,33.641666666666666],[130.5125,33.641666666666666]]]}},{"type":"Feature","id":"40348:503034712","properties":{"id":"40348:503034712","meshCode":"503034712","cityCode":"40348","city":"久山町","lat":33.64375,"lon":130.521875,"areaKm2":0.2679158,"populated2020":false,"population2020":null,"populationNote":"境界またぎ・原典収録外のため自治体内人口は未集計"},"geometry":{"type":"Polygon","coordinates":[[[130.51875,33.641666666666666],[130.51875,33.64583333333333],[130.525,33.64583333333333],[130.525,33.641666666666666],[130.51875,33.641666666666666]]]}},{"type":"Feature","id":"40348:503034721","properties":{"id":"40348:503034721","meshCode":"503034721","cityCode":"40348","city":"久山町","lat":33.64375,"lon":130.528125,"areaKm2":0.2679155,"populated2020":false,"population2020":null,"populationNote":"境界またぎ・原典収録外のため自治体内人口は未集計"},"geometry":{"type":"Polygon","coordinates":[[[130.525,33.641666666666666],[130.525,33.64583333333333],[130.53125,33.645833333333336],[130.53125,33.641666666666666],[130.525,33.641666666666666]]]}},{"type":"Feature","id":"40348:503034722","properties":{"id":"40348:503034722","meshCode":"503034722","cityCode":"40348","city":"久山町","lat":33.64375,"lon":130.534375,"areaKm2":0.2445683,"populated2020":false,"population2020":null,"populationNote":"境界またぎ・原典収録外のため自治体内人口は未集計"},"geometry":{"type":"Polygon","coordinates":[[[130.5375,33.64389327389979],[130.53711166,33.643729162],[130.536422503,33.643096666999995],[130.536318612,33.64291055899999],[130.53620564202765,33.641666666666666],[130.53125,33.641666666666666],[130.53125,33.645833333333336],[130.5375,33.64583333333333],[130.5375,33.64389327389979]]]}},{"type":"Feature","id":"40348:503034731","properties":{"id":"40348:503034731","meshCode":"503034731","cityCode":"40348","city":"久山町","lat":33.6445971,"lon":130.5389415,"areaKm2":0.1098829,"populated2020":false,"population2020":null,"populationNote":"境界またぎ・原典収録外のため自治体内人口は未集計"},"geometry":{"type":"Polygon","coordinates":[[[130.543732503,33.644691108],[130.54305166,33.644344440999994],[130.542231115,33.644361387],[130.541478054,33.644234441],[130.541284163,33.644318891999994],[130.54081083,33.644758892000006],[130.540535837,33.64475444100001],[130.539857497,33.64397444099999],[130.539469728,33.64373749500001],[130.538297497,33.643348613],[130.537846667,33.643767225],[130.5375,33.64389327389979],[130.5375,33.64583333333333],[130.54375,33.64583333333333],[130.543732503,33.644691108]]]}},{"type":"Feature","id":"40348:503034732","properties":{"id":"40348:503034732","meshCode":"503034732","cityCode":"40348","city":"久山町","lat":33.6453072,"lon":130.5441538,"areaKm2":0.0083142,"populated2020":false,"population2020":null,"populationNote":"境界またぎ・原典収録外のため自治体内人口は未集計"},"geometry":{"type":"Polygon","coordinates":[[[130.54478083,33.645484721],[130.54410000000001,33.64502389200001],[130.54375,33.64470683074248],[130.54375,33.64583333333333],[130.5451074690298,33.64583333333334],[130.54478083,33.645484721]]]}},{"type":"Feature","id":"40348:503033783","properties":{"id":"40348:503033783","meshCode":"503033783","cityCode":"40348","city":"久山町","lat":33.6492771,"lon":130.4801724,"areaKm2":0.0293199,"populated2020":true,"population2020":null,"populationNote":"境界またぎ・原典収録外のため自治体内人口は未集計"},"geometry":{"type":"Polygon","coordinates":[[[130.48125,33.648994565421475],[130.480462776,33.648494162],[130.479056667,33.648738613],[130.479152607,33.65],[130.48125,33.65],[130.48125,33.648994565421475]]]}},{"type":"Feature","id":"40348:503033784","properties":{"id":"40348:503033784","meshCode":"503033784","cityCode":"40348","city":"久山町","lat":33.6494703,"lon":130.4820846,"areaKm2":0.064538,"populated2020":false,"population2020":null,"populationNote":"境界またぎ・原典収録外のため自治体内人口は未集計"},"geometry":{"type":"MultiPolygon","coordinates":[[[[130.487496109,33.647356108],[130.487268885,33.647233892],[130.487029442,33.64721389200001],[130.486162776,33.64797222499999],[130.486047497,33.648893054],[130.485260558,33.648997224999995],[130.484960272,33.649214162],[130.484896394,33.649571667],[130.485047977,33.64999999999999],[130.4875,33.65],[130.487496109,33.647356108]]],[[[130.483235837,33.649752494999994],[130.482811115,33.64940055900001],[130.481821946,33.648984721],[130.48125,33.648994565421475],[130.48125,33.65],[130.483295577,33.65],[130.483235837,33.649752494999994]]]]}},{"type":"Feature","id":"40348:503033793","properties":{"id":"40348:503033793","meshCode":"503033793","cityCode":"40348","city":"久山町","lat":33.6483653,"lon":130.4925454,"areaKm2":0.1187628,"populated2020":false,"population2020":null,"populationNote":"境界またぎ・原典収録外のため自治体内人口は未集計"},"geometry":{"type":"Polygon","coordinates":[[[130.493743333,33.646817775],[130.492531946,33.647611108],[130.49160166000001,33.647986946],[130.491186394,33.648674441000004],[130.490607782,33.64909],[130.490449442,33.649385279],[130.490340558,33.64940889199999],[130.490144449,33.649398054],[130.489783891,33.649226387],[130.48908083,33.648411667000005],[130.4875,33.647358636535834],[130.4875,33.65],[130.49375,33.65],[130.493743333,33.646817775]]]}},{"type":"Feature","id":"40348:503033794","properties":{"id":"40348:503033794","meshCode":"503033794","cityCode":"40348","city":"久山町","lat":33.6479167,"lon":130.496875,"areaKm2":0.2604876,"populated2020":true,"population2020":175.4784,"populationNote":"2020年基準の国交省調整値"},"geometry":{"type":"Polygon","coordinates":[[[130.494859072921,33.645833333333336],[130.494858885,33.646057495],[130.494535279,33.64634722499999],[130.49375,33.64681436478925],[130.49375,33.65],[130.5,33.64999999999999],[130.5,33.645833333333336],[130.494859072921,33.645833333333336]]]}},{"type":"Feature","id":"40348:503034703","properties":{"id":"40348:503034703","meshCode":"503034703","cityCode":"40348","city":"久山町","lat":33.6479167,"lon":130.503125,"areaKm2":0.2679041,"populated2020":true,"population2020":178.1466,"populationNote":"2020年基準の国交省調整値"},"geometry":{"type":"Polygon","coordinates":[[[130.5,33.645833333333336],[130.5,33.64999999999999],[130.50625,33.65],[130.50625,33.645833333333336],[130.5,33.645833333333336]]]}},{"type":"Feature","id":"40348:503034704","properties":{"id":"40348:503034704","meshCode":"503034704","cityCode":"40348","city":"久山町","lat":33.6479167,"lon":130.509375,"areaKm2":0.2679038,"populated2020":true,"population2020":417.1852,"populationNote":"2020年基準の国交省調整値"},"geometry":{"type":"Polygon","coordinates":[[[130.50625,33.645833333333336],[130.50625,33.65],[130.5125,33.65],[130.5125,33.645833333333336],[130.50625,33.645833333333336]]]}},{"type":"Feature","id":"40348:503034713","properties":{"id":"40348:503034713","meshCode":"503034713","cityCode":"40348","city":"久山町","lat":33.6479167,"lon":130.515625,"areaKm2":0.2679034,"populated2020":true,"population2020":395.8287,"populationNote":"2020年基準の国交省調整値"},"geometry":{"type":"Polygon","coordinates":[[[130.5125,33.645833333333336],[130.5125,33.65],[130.51875,33.65],[130.51875,33.64583333333333],[130.5125,33.645833333333336]]]}},{"type":"Feature","id":"40348:503034714","properties":{"id":"40348:503034714","meshCode":"503034714","cityCode":"40348","city":"久山町","lat":33.6479167,"lon":130.521875,"areaKm2":0.2679031,"populated2020":true,"population2020":44.7413,"populationNote":"2020年基準の国交省調整値"},"geometry":{"type":"Polygon","coordinates":[[[130.51875,33.64583333333333],[130.51875,33.65],[130.525,33.65],[130.525,33.64583333333333],[130.51875,33.64583333333333]]]}},{"type":"Feature","id":"40348:503034723","properties":{"id":"40348:503034723","meshCode":"503034723","cityCode":"40348","city":"久山町","lat":33.6479167,"lon":130.528125,"areaKm2":0.2679027,"populated2020":false,"population2020":null,"populationNote":"境界またぎ・原典収録外のため自治体内人口は未集計"},"geometry":{"type":"Polygon","coordinates":[[[130.525,33.64583333333333],[130.525,33.65],[130.53125,33.65],[130.53125,33.645833333333336],[130.525,33.64583333333333]]]}},{"type":"Feature","id":"40348:503034724","properties":{"id":"40348:503034724","meshCode":"503034724","cityCode":"40348","city":"久山町","lat":33.6479167,"lon":130.534375,"areaKm2":0.2679024,"populated2020":false,"population2020":null,"populationNote":"境界またぎ・原典収録外のため自治体内人口は未集計"},"geometry":{"type":"Polygon","coordinates":[[[130.53125,33.645833333333336],[130.53125,33.65],[130.5375,33.64999999999999],[130.5375,33.64583333333333],[130.53125,33.645833333333336]]]}},{"type":"Feature","id":"40348:503034733","properties":{"id":"40348:503034733","meshCode":"503034733","cityCode":"40348","city":"久山町","lat":33.6479167,"lon":130.540625,"areaKm2":0.2679021,"populated2020":false,"population2020":null,"populationNote":"境界またぎ・原典収録外のため自治体内人口は未集計"},"geometry":{"type":"Polygon","coordinates":[[[130.5375,33.64583333333333],[130.5375,33.64999999999999],[130.54375,33.65],[130.54375,33.64583333333333],[130.5375,33.64583333333333]]]}},{"type":"Feature","id":"40348:503034734","properties":{"id":"40348:503034734","meshCode":"503034734","cityCode":"40348","city":"久山町","lat":33.6479167,"lon":130.546875,"areaKm2":0.1644352,"populated2020":false,"population2020":null,"populationNote":"境界またぎ・原典収録外のため自治体内人口は未集計"},"geometry":{"type":"Polygon","coordinates":[[[130.548046329,33.64999999999999],[130.548164163,33.648822225],[130.547953891,33.648183892000006],[130.547823333,33.647200829],[130.547076109,33.646580279],[130.546906939,33.646346386999994],[130.54622166,33.646316667],[130.545937782,33.64616027900001],[130.54526805400002,33.64600472099999],[130.5451074690298,33.64583333333334],[130.54375,33.64583333333333],[130.54375,33.65],[130.548046329,33.64999999999999]]]}},{"type":"Feature","id":"40348:503033881","properties":{"id":"40348:503033881","meshCode":"503033881","cityCode":"40348","city":"久山町","lat":33.6518754,"lon":130.4800665,"areaKm2":0.0917269,"populated2020":true,"population2020":null,"populationNote":"境界またぎ・原典収録外のため自治体内人口は未集計"},"geometry":{"type":"Polygon","coordinates":[[[130.479152607,33.65],[130.479151388,33.650295829],[130.478834163,33.650846387],[130.478790558,33.651391667],[130.479043891,33.652496387],[130.479595837,33.653774721000005],[130.47957507008206,33.65416666666667],[130.48125,33.65416666666666],[130.48125,33.65],[130.479152607,33.65]]]}},{"type":"Feature","id":"40348:503033882","properties":{"id":"40348:503033882","meshCode":"503033882","cityCode":"40348","city":"久山町","lat":33.6520833,"lon":130.484375,"areaKm2":0.2420874,"populated2020":true,"population2020":90.7155,"populationNote":"2020年基準の国交省調整値"},"geometry":{"type":"Polygon","coordinates":[[[130.485047977,33.64999999999999],[130.485573061,33.65072389200001],[130.485553061,33.651118054],[130.485321115,33.651307495],[130.48452166,33.651353054],[130.484254163,33.651322224999994],[130.483483061,33.650877225],[130.483295577,33.65],[130.48125,33.65],[130.48125,33.65416666666666],[130.4875,33.65416666666667],[130.4875,33.65],[130.485047977,33.64999999999999]]]}},{"type":"Feature","id":"40348:503033891","properties":{"id":"40348:503033891","meshCode":"503033891","cityCode":"40348","city":"久山町","lat":33.6520833,"lon":130.490625,"areaKm2":0.2678921,"populated2020":false,"population2020":null,"populationNote":"境界またぎ・原典収録外のため自治体内人口は未集計"},"geometry":{"type":"Polygon","coordinates":[[[130.4875,33.65],[130.4875,33.65416666666667],[130.49375,33.65416666666667],[130.49375,33.65],[130.4875,33.65]]]}},{"type":"Feature","id":"40348:503033892","properties":{"id":"40348:503033892","meshCode":"503033892","cityCode":"40348","city":"久山町","lat":33.6520833,"lon":130.496875,"areaKm2":0.2678917,"populated2020":true,"population2020":122.3072,"populationNote":"2020年基準の国交省調整値"},"geometry":{"type":"Polygon","coordinates":[[[130.49375,33.65],[130.49375,33.65416666666667],[130.5,33.654166666666676],[130.5,33.64999999999999],[130.49375,33.65]]]}},{"type":"Feature","id":"40348:503034801","properties":{"id":"40348:503034801","meshCode":"503034801","cityCode":"40348","city":"久山町","lat":33.6520833,"lon":130.503125,"areaKm2":0.2678914,"populated2020":true,"population2020":140.604,"populationNote":"2020年基準の国交省調整値"},"geometry":{"type":"Polygon","coordinates":[[[130.5,33.64999999999999],[130.5,33.654166666666676],[130.50625,33.65416666666666],[130.50625,33.65],[130.5,33.64999999999999]]]}},{"type":"Feature","id":"40348:503034802","properties":{"id":"40348:503034802","meshCode":"503034802","cityCode":"40348","city":"久山町","lat":33.6520833,"lon":130.509375,"areaKm2":0.267891,"populated2020":true,"population2020":190.4965,"populationNote":"2020年基準の国交省調整値"},"geometry":{"type":"Polygon","coordinates":[[[130.50625,33.65],[130.50625,33.65416666666666],[130.5125,33.65416666666666],[130.5125,33.65],[130.50625,33.65]]]}},{"type":"Feature","id":"40348:503034811","properties":{"id":"40348:503034811","meshCode":"503034811","cityCode":"40348","city":"久山町","lat":33.6520833,"lon":130.515625,"areaKm2":0.2678907,"populated2020":true,"population2020":485.9763,"populationNote":"2020年基準の国交省調整値"},"geometry":{"type":"Polygon","coordinates":[[[130.5125,33.65],[130.5125,33.65416666666666],[130.51875,33.65416666666666],[130.51875,33.65],[130.5125,33.65]]]}},{"type":"Feature","id":"40348:503034812","properties":{"id":"40348:503034812","meshCode":"503034812","cityCode":"40348","city":"久山町","lat":33.6520833,"lon":130.521875,"areaKm2":0.2678904,"populated2020":true,"population2020":11.9351,"populationNote":"2020年基準の国交省調整値"},"geometry":{"type":"Polygon","coordinates":[[[130.51875,33.65],[130.51875,33.65416666666666],[130.525,33.65416666666667],[130.525,33.65],[130.51875,33.65]]]}},{"type":"Feature","id":"40348:503034821","properties":{"id":"40348:503034821","meshCode":"503034821","cityCode":"40348","city":"久山町","lat":33.6520833,"lon":130.528125,"areaKm2":0.26789,"populated2020":true,"population2020":0.983,"populationNote":"2020年基準の国交省調整値"},"geometry":{"type":"Polygon","coordinates":[[[130.525,33.65],[130.525,33.65416666666667],[130.53125,33.65416666666667],[130.53125,33.65],[130.525,33.65]]]}},{"type":"Feature","id":"40348:503034822","properties":{"id":"40348:503034822","meshCode":"503034822","cityCode":"40348","city":"久山町","lat":33.6520833,"lon":130.534375,"areaKm2":0.2678897,"populated2020":false,"population2020":null,"populationNote":"境界またぎ・原典収録外のため自治体内人口は未集計"},"geometry":{"type":"Polygon","coordinates":[[[130.53125,33.65],[130.53125,33.65416666666667],[130.5375,33.654166666666676],[130.5375,33.64999999999999],[130.53125,33.65]]]}},{"type":"Feature","id":"40348:503034831","properties":{"id":"40348:503034831","meshCode":"503034831","cityCode":"40348","city":"久山町","lat":33.6520833,"lon":130.540625,"areaKm2":0.2678894,"populated2020":false,"population2020":null,"populationNote":"境界またぎ・原典収録外のため自治体内人口は未集計"},"geometry":{"type":"Polygon","coordinates":[[[130.5375,33.64999999999999],[130.5375,33.654166666666676],[130.54375,33.65416666666667],[130.54375,33.65],[130.5375,33.64999999999999]]]}},{"type":"Feature","id":"40348:503034832","properties":{"id":"40348:503034832","meshCode":"503034832","cityCode":"40348","city":"久山町","lat":33.6520833,"lon":130.546875,"areaKm2":0.1700125,"populated2020":false,"population2020":null,"populationNote":"境界またぎ・原典収録外のため自治体内人口は未集計"},"geometry":{"type":"Polygon","coordinates":[[[130.54854334284767,33.65416666666667],[130.547557497,33.65349],[130.547381946,33.653236666999994],[130.54721527900003,33.65262722500001],[130.547453606,33.652243054],[130.547602218,33.65160999999999],[130.548078612,33.650750828999996],[130.548046329,33.64999999999999],[130.54375,33.65],[130.54375,33.65416666666667],[130.54854334284767,33.65416666666667]]]}},{"type":"Feature","id":"40348:503033883","properties":{"id":"40348:503033883","meshCode":"503033883","cityCode":"40348","city":"久山町","lat":33.65625,"lon":130.478125,"areaKm2":0.1496353,"populated2020":false,"population2020":null,"populationNote":"境界またぎ・原典収録外のため自治体内人口は未集計"},"geometry":{"type":"Polygon","coordinates":[[[130.47957507008206,33.65416666666667],[130.479234721,33.655069162],[130.478906667,33.65517499999999],[130.478133606,33.655156667],[130.477866109,33.655229721],[130.477564163,33.656137775],[130.47753917,33.656764721],[130.476676667,33.65772610799999],[130.47600608266617,33.658333333333324],[130.48125,33.658333333333324],[130.48125,33.65416666666666],[130.47957507008206,33.65416666666667]]]}},{"type":"Feature","id":"40348:503033884","properties":{"id":"40348:503033884","meshCode":"503033884","cityCode":"40348","city":"久山町","lat":33.65625,"lon":130.484375,"areaKm2":0.2678797,"populated2020":true,"population2020":301.6301,"populationNote":"2020年基準の国交省調整値"},"geometry":{"type":"Polygon","coordinates":[[[130.48125,33.65416666666666],[130.48125,33.658333333333324],[130.4875,33.658333333333324],[130.4875,33.65416666666667],[130.48125,33.65416666666666]]]}},{"type":"Feature","id":"40348:503033893","properties":{"id":"40348:503033893","meshCode":"503033893","cityCode":"40348","city":"久山町","lat":33.65625,"lon":130.490625,"areaKm2":0.2678794,"populated2020":true,"population2020":247.3995,"populationNote":"2020年基準の国交省調整値"},"geometry":{"type":"Polygon","coordinates":[[[130.4875,33.65416666666667],[130.4875,33.658333333333324],[130.49375,33.658333333333324],[130.49375,33.65416666666667],[130.4875,33.65416666666667]]]}},{"type":"Feature","id":"40348:503033894","properties":{"id":"40348:503033894","meshCode":"503033894","cityCode":"40348","city":"久山町","lat":33.65625,"lon":130.496875,"areaKm2":0.267879,"populated2020":true,"population2020":287.6556,"populationNote":"2020年基準の国交省調整値"},"geometry":{"type":"Polygon","coordinates":[[[130.49375,33.65416666666667],[130.49375,33.658333333333324],[130.5,33.658333333333324],[130.5,33.654166666666676],[130.49375,33.65416666666667]]]}},{"type":"Feature","id":"40348:503034803","properties":{"id":"40348:503034803","meshCode":"503034803","cityCode":"40348","city":"久山町","lat":33.65625,"lon":130.503125,"areaKm2":0.2678787,"populated2020":true,"population2020":237.8093,"populationNote":"2020年基準の国交省調整値"},"geometry":{"type":"Polygon","coordinates":[[[130.5,33.654166666666676],[130.5,33.658333333333324],[130.50625,33.658333333333324],[130.50625,33.65416666666666],[130.5,33.654166666666676]]]}},{"type":"Feature","id":"40348:503034804","properties":{"id":"40348:503034804","meshCode":"503034804","cityCode":"40348","city":"久山町","lat":33.65625,"lon":130.509375,"areaKm2":0.2678783,"populated2020":true,"population2020":24.83,"populationNote":"2020年基準の国交省調整値"},"geometry":{"type":"Polygon","coordinates":[[[130.50625,33.65416666666666],[130.50625,33.658333333333324],[130.5125,33.65833333333333],[130.5125,33.65416666666666],[130.50625,33.65416666666666]]]}},{"type":"Feature","id":"40348:503034813","properties":{"id":"40348:503034813","meshCode":"503034813","cityCode":"40348","city":"久山町","lat":33.65625,"lon":130.515625,"areaKm2":0.267878,"populated2020":true,"population2020":66.8582,"populationNote":"2020年基準の国交省調整値"},"geometry":{"type":"Polygon","coordinates":[[[130.5125,33.65416666666666],[130.5125,33.65833333333333],[130.51875,33.65833333333333],[130.51875,33.65416666666666],[130.5125,33.65416666666666]]]}},{"type":"Feature","id":"40348:503034814","properties":{"id":"40348:503034814","meshCode":"503034814","cityCode":"40348","city":"久山町","lat":33.65625,"lon":130.521875,"areaKm2":0.2678776,"populated2020":false,"population2020":null,"populationNote":"境界またぎ・原典収録外のため自治体内人口は未集計"},"geometry":{"type":"Polygon","coordinates":[[[130.51875,33.65416666666666],[130.51875,33.65833333333333],[130.525,33.65833333333333],[130.525,33.65416666666667],[130.51875,33.65416666666666]]]}},{"type":"Feature","id":"40348:503034823","properties":{"id":"40348:503034823","meshCode":"503034823","cityCode":"40348","city":"久山町","lat":33.65625,"lon":130.528125,"areaKm2":0.2678773,"populated2020":false,"population2020":null,"populationNote":"境界またぎ・原典収録外のため自治体内人口は未集計"},"geometry":{"type":"Polygon","coordinates":[[[130.525,33.65416666666667],[130.525,33.65833333333333],[130.53125,33.65833333333333],[130.53125,33.65416666666667],[130.525,33.65416666666667]]]}},{"type":"Feature","id":"40348:503034824","properties":{"id":"40348:503034824","meshCode":"503034824","cityCode":"40348","city":"久山町","lat":33.65625,"lon":130.534375,"areaKm2":0.267877,"populated2020":false,"population2020":null,"populationNote":"境界またぎ・原典収録外のため自治体内人口は未集計"},"geometry":{"type":"Polygon","coordinates":[[[130.53125,33.65416666666667],[130.53125,33.65833333333333],[130.5375,33.65833333333333],[130.5375,33.654166666666676],[130.53125,33.65416666666667]]]}},{"type":"Feature","id":"40348:503034833","properties":{"id":"40348:503034833","meshCode":"503034833","cityCode":"40348","city":"久山町","lat":33.65625,"lon":130.540625,"areaKm2":0.2678766,"populated2020":false,"population2020":null,"populationNote":"境界またぎ・原典収録外のため自治体内人口は未集計"},"geometry":{"type":"Polygon","coordinates":[[[130.5375,33.654166666666676],[130.5375,33.65833333333333],[130.54375,33.65833333333333],[130.54375,33.65416666666667],[130.5375,33.654166666666676]]]}},{"type":"Feature","id":"40348:503034834","properties":{"id":"40348:503034834","meshCode":"503034834","cityCode":"40348","city":"久山町","lat":33.65625,"lon":130.546875,"areaKm2":0.2417271,"populated2020":false,"population2020":null,"populationNote":"境界またぎ・原典収録外のため自治体内人口は未集計"},"geometry":{"type":"Polygon","coordinates":[[[130.55,33.65693310799999],[130.549100558,33.656364441],[130.548974721,33.65458749500001],[130.54854334284767,33.65416666666667],[130.54375,33.65416666666667],[130.54375,33.65833333333333],[130.55,33.65833333333333],[130.55,33.65693310799999]]]}},{"type":"Feature","id":"40348:503034843","properties":{"id":"40348:503034843","meshCode":"503034843","cityCode":"40348","city":"久山町","lat":33.6575918,"lon":130.5507571,"areaKm2":0.026219,"populated2020":false,"population2020":null,"populationNote":"境界またぎ・原典収録外のため自治体内人口は未集計"},"geometry":{"type":"Polygon","coordinates":[[[130.553476109,33.658333333],[130.552324163,33.657840559],[130.55167166,33.657671946],[130.550771388,33.657064441],[130.55,33.65693310799999],[130.55,33.65833333333333],[130.553476109,33.658333333]]]}},{"type":"Feature","id":"40348:503033972","properties":{"id":"40348:503033972","meshCode":"503033972","cityCode":"40348","city":"久山町","lat":33.6609104,"lon":130.4747001,"areaKm2":0.0265406,"populated2020":false,"population2020":null,"populationNote":"境界またぎ・原典収録外のため自治体内人口は未集計"},"geometry":{"type":"Polygon","coordinates":[[[130.475,33.659228919],[130.474682776,33.659580559],[130.474653606,33.66027916200001],[130.47445,33.66084027899999],[130.47411083,33.661268892],[130.473774721,33.661535],[130.473519728,33.662098613000005],[130.47303508420322,33.66250000000001],[130.475,33.662499999999994],[130.475,33.659228919]]]}},{"type":"Feature","id":"40348:503033981","properties":{"id":"40348:503033981","meshCode":"503033981","cityCode":"40348","city":"久山町","lat":33.6604167,"lon":130.478125,"areaKm2":0.2629695,"populated2020":false,"population2020":null,"populationNote":"境界またぎ・原典収録外のため自治体内人口は未集計"},"geometry":{"type":"Polygon","coordinates":[[[130.47600608266617,33.658333333333324],[130.475,33.659228919],[130.475,33.662499999999994],[130.48125,33.662499999999994],[130.48125,33.658333333333324],[130.47600608266617,33.658333333333324]]]}},{"type":"Feature","id":"40348:503033982","properties":{"id":"40348:503033982","meshCode":"503033982","cityCode":"40348","city":"久山町","lat":33.6604167,"lon":130.484375,"areaKm2":0.267867,"populated2020":true,"population2020":109.5445,"populationNote":"2020年基準の国交省調整値"},"geometry":{"type":"Polygon","coordinates":[[[130.48125,33.658333333333324],[130.48125,33.662499999999994],[130.4875,33.66250000000001],[130.4875,33.658333333333324],[130.48125,33.658333333333324]]]}},{"type":"Feature","id":"40348:503033991","properties":{"id":"40348:503033991","meshCode":"503033991","cityCode":"40348","city":"久山町","lat":33.6604167,"lon":130.490625,"areaKm2":0.2678666,"populated2020":true,"population2020":482.3471,"populationNote":"2020年基準の国交省調整値"},"geometry":{"type":"Polygon","coordinates":[[[130.4875,33.658333333333324],[130.4875,33.66250000000001],[130.49375,33.6625],[130.49375,33.658333333333324],[130.4875,33.658333333333324]]]}},{"type":"Feature","id":"40348:503033992","properties":{"id":"40348:503033992","meshCode":"503033992","cityCode":"40348","city":"久山町","lat":33.6604167,"lon":130.496875,"areaKm2":0.2678663,"populated2020":true,"population2020":370.6727,"populationNote":"2020年基準の国交省調整値"},"geometry":{"type":"Polygon","coordinates":[[[130.49375,33.658333333333324],[130.49375,33.6625],[130.5,33.662499999999994],[130.5,33.658333333333324],[130.49375,33.658333333333324]]]}},{"type":"Feature","id":"40348:503034901","properties":{"id":"40348:503034901","meshCode":"503034901","cityCode":"40348","city":"久山町","lat":33.6604167,"lon":130.503125,"areaKm2":0.2678659,"populated2020":true,"population2020":52.8826,"populationNote":"2020年基準の国交省調整値"},"geometry":{"type":"Polygon","coordinates":[[[130.5,33.658333333333324],[130.5,33.662499999999994],[130.50625,33.6625],[130.50625,33.658333333333324],[130.5,33.658333333333324]]]}},{"type":"Feature","id":"40348:503034902","properties":{"id":"40348:503034902","meshCode":"503034902","cityCode":"40348","city":"久山町","lat":33.6604167,"lon":130.509375,"areaKm2":0.2678656,"populated2020":true,"population2020":97.3606,"populationNote":"2020年基準の国交省調整値"},"geometry":{"type":"Polygon","coordinates":[[[130.50625,33.658333333333324],[130.50625,33.6625],[130.5125,33.662499999999994],[130.5125,33.65833333333333],[130.50625,33.658333333333324]]]}},{"type":"Feature","id":"40348:503034911","properties":{"id":"40348:503034911","meshCode":"503034911","cityCode":"40348","city":"久山町","lat":33.6604167,"lon":130.515625,"areaKm2":0.2678652,"populated2020":false,"population2020":null,"populationNote":"境界またぎ・原典収録外のため自治体内人口は未集計"},"geometry":{"type":"Polygon","coordinates":[[[130.5125,33.65833333333333],[130.5125,33.662499999999994],[130.51875,33.66250000000001],[130.51875,33.65833333333333],[130.5125,33.65833333333333]]]}},{"type":"Feature","id":"40348:503034912","properties":{"id":"40348:503034912","meshCode":"503034912","cityCode":"40348","city":"久山町","lat":33.6604167,"lon":130.521875,"areaKm2":0.2678649,"populated2020":false,"population2020":null,"populationNote":"境界またぎ・原典収録外のため自治体内人口は未集計"},"geometry":{"type":"Polygon","coordinates":[[[130.51875,33.65833333333333],[130.51875,33.66250000000001],[130.525,33.6625],[130.525,33.65833333333333],[130.51875,33.65833333333333]]]}},{"type":"Feature","id":"40348:503034921","properties":{"id":"40348:503034921","meshCode":"503034921","cityCode":"40348","city":"久山町","lat":33.6604167,"lon":130.528125,"areaKm2":0.2678646,"populated2020":false,"population2020":null,"populationNote":"境界またぎ・原典収録外のため自治体内人口は未集計"},"geometry":{"type":"Polygon","coordinates":[[[130.525,33.65833333333333],[130.525,33.6625],[130.53125,33.6625],[130.53125,33.65833333333333],[130.525,33.65833333333333]]]}},{"type":"Feature","id":"40348:503034922","properties":{"id":"40348:503034922","meshCode":"503034922","cityCode":"40348","city":"久山町","lat":33.6604167,"lon":130.534375,"areaKm2":0.2678642,"populated2020":false,"population2020":null,"populationNote":"境界またぎ・原典収録外のため自治体内人口は未集計"},"geometry":{"type":"Polygon","coordinates":[[[130.53125,33.65833333333333],[130.53125,33.6625],[130.5375,33.6625],[130.5375,33.65833333333333],[130.53125,33.65833333333333]]]}},{"type":"Feature","id":"40348:503034931","properties":{"id":"40348:503034931","meshCode":"503034931","cityCode":"40348","city":"久山町","lat":33.6604167,"lon":130.540625,"areaKm2":0.2678639,"populated2020":false,"population2020":null,"populationNote":"境界またぎ・原典収録外のため自治体内人口は未集計"},"geometry":{"type":"Polygon","coordinates":[[[130.5375,33.65833333333333],[130.5375,33.6625],[130.54375,33.662499999999994],[130.54375,33.65833333333333],[130.5375,33.65833333333333]]]}},{"type":"Feature","id":"40348:503034932","properties":{"id":"40348:503034932","meshCode":"503034932","cityCode":"40348","city":"久山町","lat":33.6604167,"lon":130.546875,"areaKm2":0.2678636,"populated2020":false,"population2020":null,"populationNote":"境界またぎ・原典収録外のため自治体内人口は未集計"},"geometry":{"type":"Polygon","coordinates":[[[130.54375,33.65833333333333],[130.54375,33.662499999999994],[130.55,33.6625],[130.55,33.65833333333333],[130.54375,33.65833333333333]]]}},{"type":"Feature","id":"40348:503034941","properties":{"id":"40348:503034941","meshCode":"503034941","cityCode":"40348","city":"久山町","lat":33.6604167,"lon":130.553125,"areaKm2":0.2425592,"populated2020":false,"population2020":null,"populationNote":"境界またぎ・原典収録外のため自治体内人口は未集計"},"geometry":{"type":"Polygon","coordinates":[[[130.55625,33.660283083943774],[130.555546394,33.659968892],[130.555447497,33.65963138699999],[130.555240272,33.659331667000004],[130.554603333,33.658975278999996],[130.554063333,33.65855305400001],[130.5534761097987,33.658333333333324],[130.55,33.65833333333333],[130.55,33.6625],[130.55625,33.6625],[130.55625,33.660283083943774]]]}},{"type":"Feature","id":"40348:503034942","properties":{"id":"40348:503034942","meshCode":"503034942","cityCode":"40348","city":"久山町","lat":33.6613362,"lon":130.5567408,"areaKm2":0.0249427,"populated2020":false,"population2020":null,"populationNote":"境界またぎ・原典収録外のため自治体内人口は未集計"},"geometry":{"type":"Polygon","coordinates":[[[130.55842857939714,33.662499999999994],[130.557742218,33.66164444099999],[130.556788327,33.66099444100001],[130.556513606,33.660500559000006],[130.55625,33.660283083943774],[130.55625,33.6625],[130.55842857939714,33.662499999999994]]]}},{"type":"Feature","id":"40348:503033974","properties":{"id":"40348:503033974","meshCode":"503033974","cityCode":"40348","city":"久山町","lat":33.6645833,"lon":130.471875,"areaKm2":0.1758007,"populated2020":false,"population2020":null,"populationNote":"境界またぎ・原典収録外のため自治体内人口は未集計"},"geometry":{"type":"Polygon","coordinates":[[[130.47303508420322,33.66250000000001],[130.471653333,33.664031108],[130.470897224,33.664286108000006],[130.470626394,33.664492225],[130.470288885,33.665061108],[130.469279442,33.66623722500001],[130.46915499413353,33.666666666666664],[130.475,33.666666666666664],[130.475,33.662499999999994],[130.47303508420322,33.66250000000001]]]}},{"type":"Feature","id":"40348:503033983","properties":{"id":"40348:503033983","meshCode":"503033983","cityCode":"40348","city":"久山町","lat":33.6645833,"lon":130.478125,"areaKm2":0.2678546,"populated2020":false,"population2020":null,"populationNote":"境界またぎ・原典収録外のため自治体内人口は未集計"},"geometry":{"type":"Polygon","coordinates":[[[130.475,33.662499999999994],[130.475,33.666666666666664],[130.48125,33.666666666666664],[130.48125,33.662499999999994],[130.475,33.662499999999994]]]}},{"type":"Feature","id":"40348:503033984","properties":{"id":"40348:503033984","meshCode":"503033984","cityCode":"40348","city":"久山町","lat":33.6645833,"lon":130.484375,"areaKm2":0.2678543,"populated2020":true,"population2020":163.3469,"populationNote":"2020年基準の国交省調整値"},"geometry":{"type":"Polygon","coordinates":[[[130.48125,33.662499999999994],[130.48125,33.666666666666664],[130.4875,33.666666666666664],[130.4875,33.66250000000001],[130.48125,33.662499999999994]]]}},{"type":"Feature","id":"40348:503033993","properties":{"id":"40348:503033993","meshCode":"503033993","cityCode":"40348","city":"久山町","lat":33.6645833,"lon":130.490625,"areaKm2":0.2678539,"populated2020":true,"population2020":133.3618,"populationNote":"2020年基準の国交省調整値"},"geometry":{"type":"Polygon","coordinates":[[[130.4875,33.66250000000001],[130.4875,33.666666666666664],[130.49375,33.666666666666664],[130.49375,33.6625],[130.4875,33.66250000000001]]]}},{"type":"Feature","id":"40348:503033994","properties":{"id":"40348:503033994","meshCode":"503033994","cityCode":"40348","city":"久山町","lat":33.6645833,"lon":130.496875,"areaKm2":0.2678536,"populated2020":true,"population2020":10.9572,"populationNote":"2020年基準の国交省調整値"},"geometry":{"type":"Polygon","coordinates":[[[130.49375,33.6625],[130.49375,33.666666666666664],[130.5,33.666666666666664],[130.5,33.662499999999994],[130.49375,33.6625]]]}},{"type":"Feature","id":"40348:503034903","properties":{"id":"40348:503034903","meshCode":"503034903","cityCode":"40348","city":"久山町","lat":33.6645833,"lon":130.503125,"areaKm2":0.2678532,"populated2020":true,"population2020":6.9807,"populationNote":"2020年基準の国交省調整値"},"geometry":{"type":"Polygon","coordinates":[[[130.5,33.662499999999994],[130.5,33.666666666666664],[130.50625,33.666666666666664],[130.50625,33.6625],[130.5,33.662499999999994]]]}},{"type":"Feature","id":"40348:503034904","properties":{"id":"40348:503034904","meshCode":"503034904","cityCode":"40348","city":"久山町","lat":33.6645833,"lon":130.509375,"areaKm2":0.2678528,"populated2020":true,"population2020":474.9549,"populationNote":"2020年基準の国交省調整値"},"geometry":{"type":"Polygon","coordinates":[[[130.50625,33.6625],[130.50625,33.666666666666664],[130.5125,33.666666666666664],[130.5125,33.662499999999994],[130.50625,33.6625]]]}},{"type":"Feature","id":"40348:503034913","properties":{"id":"40348:503034913","meshCode":"503034913","cityCode":"40348","city":"久山町","lat":33.6645833,"lon":130.515625,"areaKm2":0.2678525,"populated2020":false,"population2020":null,"populationNote":"境界またぎ・原典収録外のため自治体内人口は未集計"},"geometry":{"type":"Polygon","coordinates":[[[130.5125,33.662499999999994],[130.5125,33.666666666666664],[130.51875,33.666666666666664],[130.51875,33.66250000000001],[130.5125,33.662499999999994]]]}},{"type":"Feature","id":"40348:503034914","properties":{"id":"40348:503034914","meshCode":"503034914","cityCode":"40348","city":"久山町","lat":33.6645833,"lon":130.521875,"areaKm2":0.2678522,"populated2020":false,"population2020":null,"populationNote":"境界またぎ・原典収録外のため自治体内人口は未集計"},"geometry":{"type":"Polygon","coordinates":[[[130.51875,33.66250000000001],[130.51875,33.666666666666664],[130.525,33.666666666666664],[130.525,33.6625],[130.51875,33.66250000000001]]]}},{"type":"Feature","id":"40348:503034923","properties":{"id":"40348:503034923","meshCode":"503034923","cityCode":"40348","city":"久山町","lat":33.6645833,"lon":130.528125,"areaKm2":0.2678518,"populated2020":false,"population2020":null,"populationNote":"境界またぎ・原典収録外のため自治体内人口は未集計"},"geometry":{"type":"Polygon","coordinates":[[[130.525,33.6625],[130.525,33.666666666666664],[130.53125,33.666666666666664],[130.53125,33.6625],[130.525,33.6625]]]}},{"type":"Feature","id":"40348:503034924","properties":{"id":"40348:503034924","meshCode":"503034924","cityCode":"40348","city":"久山町","lat":33.6645833,"lon":130.534375,"areaKm2":0.2678515,"populated2020":false,"population2020":null,"populationNote":"境界またぎ・原典収録外のため自治体内人口は未集計"},"geometry":{"type":"Polygon","coordinates":[[[130.53125,33.6625],[130.53125,33.666666666666664],[130.5375,33.666666666666664],[130.5375,33.6625],[130.53125,33.6625]]]}},{"type":"Feature","id":"40348:503034933","properties":{"id":"40348:503034933","meshCode":"503034933","cityCode":"40348","city":"久山町","lat":33.6645833,"lon":130.540625,"areaKm2":0.2678512,"populated2020":false,"population2020":null,"populationNote":"境界またぎ・原典収録外のため自治体内人口は未集計"},"geometry":{"type":"Polygon","coordinates":[[[130.5375,33.6625],[130.5375,33.666666666666664],[130.54375,33.666666666666664],[130.54375,33.662499999999994],[130.5375,33.6625]]]}},{"type":"Feature","id":"40348:503034934","properties":{"id":"40348:503034934","meshCode":"503034934","cityCode":"40348","city":"久山町","lat":33.6645833,"lon":130.546875,"areaKm2":0.2678508,"populated2020":false,"population2020":null,"populationNote":"境界またぎ・原典収録外のため自治体内人口は未集計"},"geometry":{"type":"Polygon","coordinates":[[[130.54375,33.662499999999994],[130.54375,33.666666666666664],[130.55,33.666666666666664],[130.55,33.6625],[130.54375,33.662499999999994]]]}},{"type":"Feature","id":"40348:503034943","properties":{"id":"40348:503034943","meshCode":"503034943","cityCode":"40348","city":"久山町","lat":33.6645833,"lon":130.553125,"areaKm2":0.2678505,"populated2020":false,"population2020":null,"populationNote":"境界またぎ・原典収録外のため自治体内人口は未集計"},"geometry":{"type":"Polygon","coordinates":[[[130.55,33.6625],[130.55,33.666666666666664],[130.55625,33.666666666666664],[130.55625,33.6625],[130.55,33.6625]]]}},{"type":"Feature","id":"40348:503034944","properties":{"id":"40348:503034944","meshCode":"503034944","cityCode":"40348","city":"久山町","lat":33.6645833,"lon":130.559375,"areaKm2":0.1993861,"populated2020":false,"population2020":null,"populationNote":"境界またぎ・原典収録外のため自治体内人口は未集計"},"geometry":{"type":"Polygon","coordinates":[[[130.559547224,33.666621667],[130.559664449,33.666389721],[130.559803891,33.666300829],[130.560694721,33.66640222499999],[130.56096917,33.666246108],[130.561837782,33.666250279],[130.561972776,33.666106667],[130.56204917,33.66574805399999],[130.56183499400004,33.66492444099999],[130.561209728,33.66391138699999],[130.561047782,33.663755279],[130.559949728,33.663468333],[130.559414163,33.66296610799999],[130.55842857939714,33.662499999999994],[130.55625,33.6625],[130.55625,33.666666666666664],[130.559547224,33.666621667]]]}},{"type":"Feature","id":"40348:503043072","properties":{"id":"40348:503043072","meshCode":"503043072","cityCode":"40348","city":"久山町","lat":33.66875,"lon":130.471875,"areaKm2":0.2107263,"populated2020":false,"population2020":null,"populationNote":"境界またぎ・原典収録外のため自治体内人口は未集計"},"geometry":{"type":"Polygon","coordinates":[[[130.469154994,33.666666667],[130.468968327,33.667130829],[130.469084994,33.66741361300001],[130.469430272,33.667730829],[130.47005083,33.667942495],[130.47083,33.668784721],[130.470579728,33.66960638700001],[130.470573333,33.669949721],[130.46979772861542,33.670833333333334],[130.475,33.67083333333333],[130.475,33.666666666666664],[130.469154994,33.666666667]]]}},{"type":"Feature","id":"40348:503043081","properties":{"id":"40348:503043081","meshCode":"503043081","cityCode":"40348","city":"久山町","lat":33.66875,"lon":130.478125,"areaKm2":0.2678419,"populated2020":false,"population2020":null,"populationNote":"境界またぎ・原典収録外のため自治体内人口は未集計"},"geometry":{"type":"Polygon","coordinates":[[[130.475,33.666666666666664],[130.475,33.67083333333333],[130.48125,33.67083333333333],[130.48125,33.666666666666664],[130.475,33.666666666666664]]]}},{"type":"Feature","id":"40348:503043082","properties":{"id":"40348:503043082","meshCode":"503043082","cityCode":"40348","city":"久山町","lat":33.66875,"lon":130.484375,"areaKm2":0.2678415,"populated2020":true,"population2020":33.7962,"populationNote":"2020年基準の国交省調整値"},"geometry":{"type":"Polygon","coordinates":[[[130.48125,33.666666666666664],[130.48125,33.67083333333333],[130.4875,33.67083333333333],[130.4875,33.666666666666664],[130.48125,33.666666666666664]]]}},{"type":"Feature","id":"40348:503043091","properties":{"id":"40348:503043091","meshCode":"503043091","cityCode":"40348","city":"久山町","lat":33.66875,"lon":130.490625,"areaKm2":0.2678412,"populated2020":true,"population2020":39.7904,"populationNote":"2020年基準の国交省調整値"},"geometry":{"type":"Polygon","coordinates":[[[130.4875,33.666666666666664],[130.4875,33.67083333333333],[130.49375,33.670833333333334],[130.49375,33.666666666666664],[130.4875,33.666666666666664]]]}},{"type":"Feature","id":"40348:503043092","properties":{"id":"40348:503043092","meshCode":"503043092","cityCode":"40348","city":"久山町","lat":33.66875,"lon":130.496875,"areaKm2":0.2678408,"populated2020":false,"population2020":null,"populationNote":"境界またぎ・原典収録外のため自治体内人口は未集計"},"geometry":{"type":"Polygon","coordinates":[[[130.49375,33.666666666666664],[130.49375,33.670833333333334],[130.5,33.67083333333333],[130.5,33.666666666666664],[130.49375,33.666666666666664]]]}},{"type":"Feature","id":"40348:503044001","properties":{"id":"40348:503044001","meshCode":"503044001","cityCode":"40348","city":"久山町","lat":33.66875,"lon":130.503125,"areaKm2":0.2678405,"populated2020":true,"population2020":152.1112,"populationNote":"2020年基準の国交省調整値"},"geometry":{"type":"Polygon","coordinates":[[[130.5,33.666666666666664],[130.5,33.67083333333333],[130.50625,33.670833333333334],[130.50625,33.666666666666664],[130.5,33.666666666666664]]]}},{"type":"Feature","id":"40348:503044002","properties":{"id":"40348:503044002","meshCode":"503044002","cityCode":"40348","city":"久山町","lat":33.66875,"lon":130.509375,"areaKm2":0.2678401,"populated2020":true,"population2020":316.174,"populationNote":"2020年基準の国交省調整値"},"geometry":{"type":"Polygon","coordinates":[[[130.50625,33.666666666666664],[130.50625,33.670833333333334],[130.5125,33.67083333333333],[130.5125,33.666666666666664],[130.50625,33.666666666666664]]]}},{"type":"Feature","id":"40348:503044011","properties":{"id":"40348:503044011","meshCode":"503044011","cityCode":"40348","city":"久山町","lat":33.66875,"lon":130.515625,"areaKm2":0.2678398,"populated2020":true,"population2020":74.4876,"populationNote":"2020年基準の国交省調整値"},"geometry":{"type":"Polygon","coordinates":[[[130.5125,33.666666666666664],[130.5125,33.67083333333333],[130.51875,33.670833333333334],[130.51875,33.666666666666664],[130.5125,33.666666666666664]]]}},{"type":"Feature","id":"40348:503044012","properties":{"id":"40348:503044012","meshCode":"503044012","cityCode":"40348","city":"久山町","lat":33.66875,"lon":130.521875,"areaKm2":0.2678394,"populated2020":false,"population2020":null,"populationNote":"境界またぎ・原典収録外のため自治体内人口は未集計"},"geometry":{"type":"Polygon","coordinates":[[[130.51875,33.666666666666664],[130.51875,33.670833333333334],[130.525,33.670833333333334],[130.525,33.666666666666664],[130.51875,33.666666666666664]]]}},{"type":"Feature","id":"40348:503044021","properties":{"id":"40348:503044021","meshCode":"503044021","cityCode":"40348","city":"久山町","lat":33.66875,"lon":130.528125,"areaKm2":0.2678391,"populated2020":false,"population2020":null,"populationNote":"境界またぎ・原典収録外のため自治体内人口は未集計"},"geometry":{"type":"Polygon","coordinates":[[[130.525,33.666666666666664],[130.525,33.670833333333334],[130.53125,33.67083333333333],[130.53125,33.666666666666664],[130.525,33.666666666666664]]]}},{"type":"Feature","id":"40348:503044022","properties":{"id":"40348:503044022","meshCode":"503044022","cityCode":"40348","city":"久山町","lat":33.66875,"lon":130.534375,"areaKm2":0.2678388,"populated2020":false,"population2020":null,"populationNote":"境界またぎ・原典収録外のため自治体内人口は未集計"},"geometry":{"type":"Polygon","coordinates":[[[130.53125,33.666666666666664],[130.53125,33.67083333333333],[130.5375,33.67083333333333],[130.5375,33.666666666666664],[130.53125,33.666666666666664]]]}},{"type":"Feature","id":"40348:503044031","properties":{"id":"40348:503044031","meshCode":"503044031","cityCode":"40348","city":"久山町","lat":33.66875,"lon":130.540625,"areaKm2":0.2678384,"populated2020":false,"population2020":null,"populationNote":"境界またぎ・原典収録外のため自治体内人口は未集計"},"geometry":{"type":"Polygon","coordinates":[[[130.5375,33.666666666666664],[130.5375,33.67083333333333],[130.54375,33.670833333333334],[130.54375,33.666666666666664],[130.5375,33.666666666666664]]]}},{"type":"Feature","id":"40348:503044032","properties":{"id":"40348:503044032","meshCode":"503044032","cityCode":"40348","city":"久山町","lat":33.66875,"lon":130.546875,"areaKm2":0.2678381,"populated2020":false,"population2020":null,"populationNote":"境界またぎ・原典収録外のため自治体内人口は未集計"},"geometry":{"type":"Polygon","coordinates":[[[130.54375,33.666666666666664],[130.54375,33.670833333333334],[130.55,33.67083333333333],[130.55,33.666666666666664],[130.54375,33.666666666666664]]]}},{"type":"Feature","id":"40348:503044041","properties":{"id":"40348:503044041","meshCode":"503044041","cityCode":"40348","city":"久山町","lat":33.6687286,"lon":130.5504651,"areaKm2":0.0860408,"populated2020":false,"population2020":null,"populationNote":"境界またぎ・原典収録外のため自治体内人口は未集計"},"geometry":{"type":"Polygon","coordinates":[[[130.55051835374525,33.67083333333333],[130.550793061,33.670285],[130.550264721,33.670081667000005],[130.551309442,33.668079441],[130.551543333,33.668007775],[130.551885551,33.668151108],[130.551966394,33.668092225],[130.551966394,33.667868332999994],[130.552141946,33.667716387000006],[130.552511115,33.667716387000006],[130.553806939,33.668028891999995],[130.555149728,33.66718138700001],[130.55559083,33.666751387],[130.555797782,33.666683613000004],[130.55625,33.666761157189214],[130.55625,33.666666666666664],[130.55,33.666666666666664],[130.55,33.67083333333333],[130.55051835374525,33.67083333333333]]]}},{"type":"Feature","id":"40348:503044042","properties":{"id":"40348:503044042","meshCode":"503044042","cityCode":"40348","city":"久山町","lat":33.6669624,"lon":130.5578102,"areaKm2":0.0097627,"populated2020":false,"population2020":null,"populationNote":"境界またぎ・原典収録外のため自治体内人口は未集計"},"geometry":{"type":"Polygon","coordinates":[[[130.55625,33.666761157189214],[130.556724721,33.666776667],[130.557484994,33.66721555899999],[130.55764250300004,33.667223892],[130.55946461761192,33.666666666666664],[130.55625,33.666666666666664],[130.55625,33.666761157189214]]]}},{"type":"Feature","id":"40348:503043073","properties":{"id":"40348:503043073","meshCode":"503043073","cityCode":"40348","city":"久山町","lat":33.6733446,"lon":130.4679839,"areaKm2":0.0429217,"populated2020":false,"population2020":null,"populationNote":"境界またぎ・原典収録外のため自治体内人口は未集計"},"geometry":{"type":"Polygon","coordinates":[[[130.46875,33.67166564731579],[130.468249442,33.672032775],[130.468082503,33.672434441],[130.467603061,33.672702495],[130.467265551,33.67318610800001],[130.467134994,33.673800828999994],[130.467083995,33.675],[130.46875,33.675],[130.46875,33.67166564731579]]]}},{"type":"Feature","id":"40348:503043074","properties":{"id":"40348:503043074","meshCode":"503043074","cityCode":"40348","city":"久山町","lat":33.6729167,"lon":130.471875,"areaKm2":0.2623126,"populated2020":false,"population2020":null,"populationNote":"境界またぎ・原典収録外のため自治体内人口は未集計"},"geometry":{"type":"Polygon","coordinates":[[[130.46979772861542,33.670833333333334],[130.469244994,33.67143722499999],[130.46875,33.67166564731579],[130.46875,33.675],[130.475,33.675000000000004],[130.475,33.67083333333333],[130.46979772861542,33.670833333333334]]]}},{"type":"Feature","id":"40348:503043083","properties":{"id":"40348:503043083","meshCode":"503043083","cityCode":"40348","city":"久山町","lat":33.6729167,"lon":130.478125,"areaKm2":0.2678292,"populated2020":true,"population2020":10.9575,"populationNote":"2020年基準の国交省調整値"},"geometry":{"type":"Polygon","coordinates":[[[130.475,33.67083333333333],[130.475,33.675000000000004],[130.48125,33.675],[130.48125,33.67083333333333],[130.475,33.67083333333333]]]}},{"type":"Feature","id":"40348:503043084","properties":{"id":"40348:503043084","meshCode":"503043084","cityCode":"40348","city":"久山町","lat":33.6729167,"lon":130.484375,"areaKm2":0.2492223,"populated2020":true,"population2020":59.2863,"populationNote":"2020年基準の国交省調整値"},"geometry":{"type":"Polygon","coordinates":[[[130.484407134,33.675],[130.485607497,33.674479162000004],[130.48626277600002,33.674113054],[130.48652166,33.674087495],[130.4875,33.67427477128406],[130.4875,33.67083333333333],[130.48125,33.67083333333333],[130.48125,33.675],[130.484407134,33.675]]]}},{"type":"Feature","id":"40348:503043093","properties":{"id":"40348:503043093","meshCode":"503043093","cityCode":"40348","city":"久山町","lat":33.6729167,"lon":130.490625,"areaKm2":0.2537562,"populated2020":true,"population2020":100.3316,"populationNote":"2020年基準の国交省調整値"},"geometry":{"type":"Polygon","coordinates":[[[130.487529442,33.67427749499999],[130.488562503,33.674273613000004],[130.489423061,33.674602775],[130.489735837,33.674818333],[130.489863113,33.67499999999999],[130.49375,33.675000000000004],[130.49375,33.670833333333334],[130.4875,33.67083333333333],[130.487529442,33.67427749499999]]]}},{"type":"Feature","id":"40348:503043094","properties":{"id":"40348:503043094","meshCode":"503043094","cityCode":"40348","city":"久山町","lat":33.6729167,"lon":130.496875,"areaKm2":0.2678281,"populated2020":false,"population2020":null,"populationNote":"境界またぎ・原典収録外のため自治体内人口は未集計"},"geometry":{"type":"Polygon","coordinates":[[[130.49375,33.670833333333334],[130.49375,33.675000000000004],[130.5,33.675],[130.5,33.67083333333333],[130.49375,33.670833333333334]]]}},{"type":"Feature","id":"40348:503044003","properties":{"id":"40348:503044003","meshCode":"503044003","cityCode":"40348","city":"久山町","lat":33.6729167,"lon":130.503125,"areaKm2":0.2678277,"populated2020":true,"population2020":95.563,"populationNote":"2020年基準の国交省調整値"},"geometry":{"type":"Polygon","coordinates":[[[130.5,33.67083333333333],[130.5,33.675],[130.50625,33.675000000000004],[130.50625,33.670833333333334],[130.5,33.67083333333333]]]}},{"type":"Feature","id":"40348:503044004","properties":{"id":"40348:503044004","meshCode":"503044004","cityCode":"40348","city":"久山町","lat":33.6729167,"lon":130.509375,"areaKm2":0.2678274,"populated2020":false,"population2020":null,"populationNote":"境界またぎ・原典収録外のため自治体内人口は未集計"},"geometry":{"type":"Polygon","coordinates":[[[130.50625,33.670833333333334],[130.50625,33.675000000000004],[130.5125,33.675],[130.5125,33.67083333333333],[130.50625,33.670833333333334]]]}},{"type":"Feature","id":"40348:503044013","properties":{"id":"40348:503044013","meshCode":"503044013","cityCode":"40348","city":"久山町","lat":33.6729167,"lon":130.515625,"areaKm2":0.267827,"populated2020":false,"population2020":null,"populationNote":"境界またぎ・原典収録外のため自治体内人口は未集計"},"geometry":{"type":"Polygon","coordinates":[[[130.5125,33.67083333333333],[130.5125,33.675],[130.51875,33.675000000000004],[130.51875,33.670833333333334],[130.5125,33.67083333333333]]]}},{"type":"Feature","id":"40348:503044014","properties":{"id":"40348:503044014","meshCode":"503044014","cityCode":"40348","city":"久山町","lat":33.6729167,"lon":130.521875,"areaKm2":0.2678267,"populated2020":true,"population2020":5.0229,"populationNote":"2020年基準の国交省調整値"},"geometry":{"type":"Polygon","coordinates":[[[130.51875,33.670833333333334],[130.51875,33.675000000000004],[130.525,33.675],[130.525,33.670833333333334],[130.51875,33.670833333333334]]]}},{"type":"Feature","id":"40348:503044023","properties":{"id":"40348:503044023","meshCode":"503044023","cityCode":"40348","city":"久山町","lat":33.6729167,"lon":130.528125,"areaKm2":0.2678264,"populated2020":true,"population2020":1.0316,"populationNote":"2020年基準の国交省調整値"},"geometry":{"type":"Polygon","coordinates":[[[130.525,33.670833333333334],[130.525,33.675],[130.53125,33.675000000000004],[130.53125,33.67083333333333],[130.525,33.670833333333334]]]}},{"type":"Feature","id":"40348:503044024","properties":{"id":"40348:503044024","meshCode":"503044024","cityCode":"40348","city":"久山町","lat":33.6729167,"lon":130.534375,"areaKm2":0.267826,"populated2020":false,"population2020":null,"populationNote":"境界またぎ・原典収録外のため自治体内人口は未集計"},"geometry":{"type":"Polygon","coordinates":[[[130.53125,33.67083333333333],[130.53125,33.675000000000004],[130.5375,33.675],[130.5375,33.67083333333333],[130.53125,33.67083333333333]]]}},{"type":"Feature","id":"40348:503044033","properties":{"id":"40348:503044033","meshCode":"503044033","cityCode":"40348","city":"久山町","lat":33.6729167,"lon":130.540625,"areaKm2":0.2673181,"populated2020":false,"population2020":null,"populationNote":"境界またぎ・原典収録外のため自治体内人口は未集計"},"geometry":{"type":"Polygon","coordinates":[[[130.543431115,33.674903333],[130.54375,33.674861856960305],[130.54375,33.670833333333334],[130.5375,33.67083333333333],[130.5375,33.675],[130.543259533,33.675],[130.543431115,33.674903333]]]}},{"type":"Feature","id":"40348:503044034","properties":{"id":"40348:503044034","meshCode":"503044034","cityCode":"40348","city":"久山町","lat":33.6729167,"lon":130.546875,"areaKm2":0.2408071,"populated2020":false,"population2020":null,"populationNote":"境界またぎ・原典収録外のため自治体内人口は未集計"},"geometry":{"type":"Polygon","coordinates":[[[130.54375,33.674861856960305],[130.544229105,33.675],[130.5472607,33.675],[130.547862218,33.67491749500001],[130.548065279,33.674809162],[130.548212218,33.674674721],[130.548555279,33.673998613],[130.548950558,33.673785279],[130.549275837,33.673437495],[130.549541946,33.673381667],[130.549699442,33.673266946000005],[130.549747497,33.672911667],[130.55,33.672498667000006],[130.55,33.67083333333333],[130.54375,33.670833333333334],[130.54375,33.674861856960305]]]}},{"type":"Feature","id":"40348:503044043","properties":{"id":"40348:503044043","meshCode":"503044043","cityCode":"40348","city":"久山町","lat":33.6716761,"lon":130.5501053,"areaKm2":0.0040039,"populated2020":false,"population2020":null,"populationNote":"境界またぎ・原典収録外のため自治体内人口は未集計"},"geometry":{"type":"Polygon","coordinates":[[[130.550111388,33.672324441],[130.550233891,33.671438333],[130.55051835374525,33.67083333333333],[130.55,33.67083333333333],[130.55,33.672498667000006],[130.550111388,33.672324441]]]}},{"type":"Feature","id":"40348:503043171","properties":{"id":"40348:503043171","meshCode":"503043171","cityCode":"40348","city":"久山町","lat":33.6769892,"lon":130.468105,"areaKm2":0.0466079,"populated2020":false,"population2020":null,"populationNote":"境界またぎ・原典収録外のため自治体内人口は未集計"},"geometry":{"type":"Polygon","coordinates":[[[130.467083995,33.675],[130.467039728,33.676198054000004],[130.467541115,33.677126387],[130.467663061,33.67784472099999],[130.467773333,33.677973892000004],[130.468549728,33.67828166700001],[130.46875,33.6787620341345],[130.46875,33.675],[130.467083995,33.675]]]}},{"type":"Feature","id":"40348:503043172","properties":{"id":"40348:503043172","meshCode":"503043172","cityCode":"40348","city":"久山町","lat":33.6770833,"lon":130.471875,"areaKm2":0.1577842,"populated2020":false,"population2020":null,"populationNote":"境界またぎ・原典収録外のため自治体内人口は未集計"},"geometry":{"type":"Polygon","coordinates":[[[130.46875,33.6787620341345],[130.4688579664495,33.679166666666674],[130.46982000930083,33.67916666666667],[130.470096109,33.678821387],[130.470298327,33.678300000000014],[130.470649442,33.677967224999996],[130.47132138800004,33.677643892],[130.472128612,33.677102775],[130.472349442,33.67703027900001],[130.472834163,33.677085279],[130.473208327,33.676932225],[130.473574449,33.676622495000004],[130.473652776,33.676242775000006],[130.473783333,33.676119162],[130.475,33.675661468],[130.475,33.675000000000004],[130.46875,33.675],[130.46875,33.6787620341345]]]}},{"type":"Feature","id":"40348:503043181","properties":{"id":"40348:503043181","meshCode":"503043181","cityCode":"40348","city":"久山町","lat":33.675244,"lon":130.478125,"areaKm2":0.047045,"populated2020":false,"population2020":null,"populationNote":"境界またぎ・原典収録外のため自治体内人口は未集計"},"geometry":{"type":"Polygon","coordinates":[[[130.475,33.675661468],[130.47592917,33.67550000000001],[130.477220272,33.675835279],[130.477539442,33.675856667],[130.478563891,33.675713892],[130.479237497,33.675794441],[130.48125,33.675816634136226],[130.48125,33.675],[130.475,33.675000000000004],[130.475,33.675661468]]]}},{"type":"Feature","id":"40348:503043182","properties":{"id":"40348:503043182","meshCode":"503043182","cityCode":"40348","city":"久山町","lat":33.6753735,"lon":130.4824601,"areaKm2":0.0177254,"populated2020":true,"population2020":null,"populationNote":"境界またぎ・原典収録外のため自治体内人口は未集計"},"geometry":{"type":"Polygon","coordinates":[[[130.48125,33.675816634136226],[130.482197782,33.67575694600001],[130.482663891,33.675590559],[130.483449728,33.67548694599999],[130.484407134,33.675],[130.48125,33.675],[130.48125,33.675816634136226]]]}},{"type":"Feature","id":"40348:503043191","properties":{"id":"40348:503043191","meshCode":"503043191","cityCode":"40348","city":"久山町","lat":33.6769838,"lon":130.4926827,"areaKm2":0.0932796,"populated2020":true,"population2020":null,"populationNote":"境界またぎ・原典収録外のため自治体内人口は未集計"},"geometry":{"type":"Polygon","coordinates":[[[130.489863113,33.67499999999999],[130.490048327,33.675539721],[130.490898885,33.675982225000006],[130.491397224,33.676419441],[130.49192,33.677652495000004],[130.492307782,33.67823444100001],[130.49323393997827,33.679166666666674],[130.49375,33.679166666666674],[130.49375,33.675000000000004],[130.489863113,33.67499999999999]]]}},{"type":"Feature","id":"40348:503043192","properties":{"id":"40348:503043192","meshCode":"503043192","cityCode":"40348","city":"久山町","lat":33.6770833,"lon":130.496875,"areaKm2":0.2678153,"populated2020":true,"population2020":109.7361,"populationNote":"2020年基準の国交省調整値"},"geometry":{"type":"Polygon","coordinates":[[[130.49375,33.675000000000004],[130.49375,33.679166666666674],[130.5,33.679166666666674],[130.5,33.675],[130.49375,33.675000000000004]]]}},{"type":"Feature","id":"40348:503044101","properties":{"id":"40348:503044101","meshCode":"503044101","cityCode":"40348","city":"久山町","lat":33.6770833,"lon":130.503125,"areaKm2":0.267815,"populated2020":true,"population2020":52.9725,"populationNote":"2020年基準の国交省調整値"},"geometry":{"type":"Polygon","coordinates":[[[130.5,33.675],[130.5,33.679166666666674],[130.50625,33.679166666666674],[130.50625,33.675000000000004],[130.5,33.675]]]}},{"type":"Feature","id":"40348:503044102","properties":{"id":"40348:503044102","meshCode":"503044102","cityCode":"40348","city":"久山町","lat":33.6770833,"lon":130.509375,"areaKm2":0.2678146,"populated2020":false,"population2020":null,"populationNote":"境界またぎ・原典収録外のため自治体内人口は未集計"},"geometry":{"type":"Polygon","coordinates":[[[130.50625,33.675000000000004],[130.50625,33.679166666666674],[130.5125,33.67916666666667],[130.5125,33.675],[130.50625,33.675000000000004]]]}},{"type":"Feature","id":"40348:503044111","properties":{"id":"40348:503044111","meshCode":"503044111","cityCode":"40348","city":"久山町","lat":33.6770833,"lon":130.515625,"areaKm2":0.2678143,"populated2020":false,"population2020":null,"populationNote":"境界またぎ・原典収録外のため自治体内人口は未集計"},"geometry":{"type":"Polygon","coordinates":[[[130.5125,33.675],[130.5125,33.67916666666667],[130.51875,33.67916666666667],[130.51875,33.675000000000004],[130.5125,33.675]]]}},{"type":"Feature","id":"40348:503044112","properties":{"id":"40348:503044112","meshCode":"503044112","cityCode":"40348","city":"久山町","lat":33.6770833,"lon":130.521875,"areaKm2":0.267814,"populated2020":true,"population2020":2.0273,"populationNote":"2020年基準の国交省調整値"},"geometry":{"type":"Polygon","coordinates":[[[130.51875,33.675000000000004],[130.51875,33.67916666666667],[130.525,33.679166666666674],[130.525,33.675],[130.51875,33.675000000000004]]]}},{"type":"Feature","id":"40348:503044121","properties":{"id":"40348:503044121","meshCode":"503044121","cityCode":"40348","city":"久山町","lat":33.6770833,"lon":130.528125,"areaKm2":0.2678136,"populated2020":false,"population2020":null,"populationNote":"境界またぎ・原典収録外のため自治体内人口は未集計"},"geometry":{"type":"Polygon","coordinates":[[[130.525,33.675],[130.525,33.679166666666674],[130.53125,33.67916666666667],[130.53125,33.675000000000004],[130.525,33.675]]]}},{"type":"Feature","id":"40348:503044122","properties":{"id":"40348:503044122","meshCode":"503044122","cityCode":"40348","city":"久山町","lat":33.6770833,"lon":130.534375,"areaKm2":0.2678133,"populated2020":false,"population2020":null,"populationNote":"境界またぎ・原典収録外のため自治体内人口は未集計"},"geometry":{"type":"Polygon","coordinates":[[[130.53125,33.675000000000004],[130.53125,33.67916666666667],[130.5375,33.679166666666674],[130.5375,33.675],[130.53125,33.675000000000004]]]}},{"type":"Feature","id":"40348:503044131","properties":{"id":"40348:503044131","meshCode":"503044131","cityCode":"40348","city":"久山町","lat":33.6770833,"lon":130.540625,"areaKm2":0.1851848,"populated2020":false,"population2020":null,"populationNote":"境界またぎ・原典収録外のため自治体内人口は未集計"},"geometry":{"type":"Polygon","coordinates":[[[130.54206,33.678773613],[130.541801115,33.678376387],[130.541727782,33.677696667],[130.541542218,33.67721138699999],[130.541538612,33.676794721],[130.541416394,33.676384441],[130.542153891,33.67535610800001],[130.542378054,33.675231667],[130.542965837,33.67513972100001],[130.543259533,33.675],[130.5375,33.675],[130.5375,33.679166666666674],[130.54208045400304,33.67916666666667],[130.54206,33.678773613]]]}},{"type":"Feature","id":"40348:503044132","properties":{"id":"40348:503044132","meshCode":"503044132","cityCode":"40348","city":"久山町","lat":33.6753511,"lon":130.5459247,"areaKm2":0.0101623,"populated2020":false,"population2020":null,"populationNote":"境界またぎ・原典収録外のため自治体内人口は未集計"},"geometry":{"type":"Polygon","coordinates":[[[130.545811115,33.67556277500001],[130.546238054,33.675615279000006],[130.5472607,33.675],[130.544229105,33.675],[130.545811115,33.67556277500001]]]}},{"type":"Feature","id":"40348:503043174","properties":{"id":"40348:503043174","meshCode":"503043174","cityCode":"40348","city":"久山町","lat":33.6793911,"lon":130.4692204,"areaKm2":0.00274,"populated2020":false,"population2020":null,"populationNote":"境界またぎ・原典収録外のため自治体内人口は未集計"},"geometry":{"type":"Polygon","coordinates":[[[130.4688579664495,33.679166666666674],[130.468892503,33.679431667],[130.468770558,33.679537225],[130.468988054,33.679556387],[130.46937416300003,33.67948972100001],[130.46982000930083,33.67916666666667],[130.4688579664495,33.679166666666674]]]}},{"type":"Feature","id":"40348:503043193","properties":{"id":"40348:503043193","meshCode":"503043193","cityCode":"40348","city":"久山町","lat":33.679424,"lon":130.493624,"areaKm2":0.0012887,"populated2020":false,"population2020":null,"populationNote":"境界またぎ・原典収録外のため自治体内人口は未集計"},"geometry":{"type":"Polygon","coordinates":[[[130.49323393997827,33.679166666666674],[130.493593333,33.679506387],[130.49375,33.67961197295708],[130.49375,33.679166666666674],[130.49323393997827,33.679166666666674]]]}},{"type":"Feature","id":"40348:503043194","properties":{"id":"40348:503043194","meshCode":"503043194","cityCode":"40348","city":"久山町","lat":33.68125,"lon":130.496875,"areaKm2":0.1302155,"populated2020":true,"population2020":null,"populationNote":"境界またぎ・原典収録外のため自治体内人口は未集計"},"geometry":{"type":"Polygon","coordinates":[[[130.49375,33.67961197295708],[130.494583061,33.68000805399999],[130.495174449,33.680157225],[130.49559917,33.680408054000004],[130.496105837,33.681652775],[130.496244721,33.681889721],[130.496438612,33.68198],[130.496572503,33.68198000000001],[130.497100272,33.681664441],[130.497659728,33.681466107999995],[130.498232776,33.68169499999999],[130.49864917,33.68154416200001],[130.498816939,33.681599721],[130.498925551,33.681960829000005],[130.499124721,33.682016387000004],[130.5,33.682052802],[130.5,33.679166666666674],[130.49375,33.679166666666674],[130.49375,33.67961197295708]]]}},{"type":"Feature","id":"40348:503044103","properties":{"id":"40348:503044103","meshCode":"503044103","cityCode":"40348","city":"久山町","lat":33.68125,"lon":130.503125,"areaKm2":0.2440617,"populated2020":false,"population2020":null,"populationNote":"境界またぎ・原典収録外のため自治体内人口は未集計"},"geometry":{"type":"Polygon","coordinates":[[[130.50002917,33.682052495],[130.500211115,33.68244305399999],[130.500389442,33.682607225],[130.501302503,33.682649721],[130.501718612,33.682587495],[130.502894163,33.68266944100001],[130.50329569408515,33.68333333333334],[130.50625,33.68333333333334],[130.50625,33.679166666666674],[130.5,33.679166666666674],[130.50002917,33.682052495]]]}},{"type":"Feature","id":"40348:503044104","properties":{"id":"40348:503044104","meshCode":"503044104","cityCode":"40348","city":"久山町","lat":33.68125,"lon":130.509375,"areaKm2":0.2678019,"populated2020":false,"population2020":null,"populationNote":"境界またぎ・原典収録外のため自治体内人口は未集計"},"geometry":{"type":"Polygon","coordinates":[[[130.50625,33.679166666666674],[130.50625,33.68333333333334],[130.5125,33.68333333333334],[130.5125,33.67916666666667],[130.50625,33.679166666666674]]]}},{"type":"Feature","id":"40348:503044113","properties":{"id":"40348:503044113","meshCode":"503044113","cityCode":"40348","city":"久山町","lat":33.68125,"lon":130.515625,"areaKm2":0.2678016,"populated2020":false,"population2020":null,"populationNote":"境界またぎ・原典収録外のため自治体内人口は未集計"},"geometry":{"type":"Polygon","coordinates":[[[130.5125,33.67916666666667],[130.5125,33.68333333333334],[130.51875,33.68333333333334],[130.51875,33.67916666666667],[130.5125,33.67916666666667]]]}},{"type":"Feature","id":"40348:503044114","properties":{"id":"40348:503044114","meshCode":"503044114","cityCode":"40348","city":"久山町","lat":33.68125,"lon":130.521875,"areaKm2":0.2678012,"populated2020":false,"population2020":null,"populationNote":"境界またぎ・原典収録外のため自治体内人口は未集計"},"geometry":{"type":"Polygon","coordinates":[[[130.51875,33.67916666666667],[130.51875,33.68333333333334],[130.525,33.68333333333334],[130.525,33.679166666666674],[130.51875,33.67916666666667]]]}},{"type":"Feature","id":"40348:503044123","properties":{"id":"40348:503044123","meshCode":"503044123","cityCode":"40348","city":"久山町","lat":33.68125,"lon":130.528125,"areaKm2":0.2678009,"populated2020":false,"population2020":null,"populationNote":"境界またぎ・原典収録外のため自治体内人口は未集計"},"geometry":{"type":"Polygon","coordinates":[[[130.525,33.679166666666674],[130.525,33.68333333333334],[130.53125,33.68333333333333],[130.53125,33.67916666666667],[130.525,33.679166666666674]]]}},{"type":"Feature","id":"40348:503044124","properties":{"id":"40348:503044124","meshCode":"503044124","cityCode":"40348","city":"久山町","lat":33.68125,"lon":130.534375,"areaKm2":0.2678005,"populated2020":false,"population2020":null,"populationNote":"境界またぎ・原典収録外のため自治体内人口は未集計"},"geometry":{"type":"Polygon","coordinates":[[[130.53125,33.67916666666667],[130.53125,33.68333333333333],[130.5375,33.68333333333333],[130.5375,33.679166666666674],[130.53125,33.67916666666667]]]}},{"type":"Feature","id":"40348:503044133","properties":{"id":"40348:503044133","meshCode":"503044133","cityCode":"40348","city":"久山町","lat":33.6812514,"lon":130.5386718,"areaKm2":0.1325565,"populated2020":false,"population2020":null,"populationNote":"境界またぎ・原典収録外のため自治体内人口は未集計"},"geometry":{"type":"Polygon","coordinates":[[[130.540813217,33.683333333],[130.540136109,33.682410559],[130.540074163,33.68210416200001],[130.539815551,33.681759721],[130.53975972800004,33.681346667],[130.540126667,33.680956108000004],[130.540354163,33.680831387000005],[130.540941946,33.680752495],[130.541074994,33.680667225],[130.540878612,33.67969194599999],[130.540980272,33.67953472100001],[130.541456109,33.679705],[130.541930558,33.679629721],[130.54208045400304,33.67916666666667],[130.5375,33.679166666666674],[130.5375,33.68333333333333],[130.540813217,33.683333333]]]}},{"type":"Feature","id":"40348:503044201","properties":{"id":"40348:503044201","meshCode":"503044201","cityCode":"40348","city":"久山町","lat":33.6838877,"lon":130.5047259,"areaKm2":0.0262029,"populated2020":false,"population2020":null,"populationNote":"境界またぎ・原典収録外のため自治体内人口は未集計"},"geometry":{"type":"Polygon","coordinates":[[[130.50329569408515,33.68333333333334],[130.50318917,33.683868333],[130.503325551,33.684078332999995],[130.504259442,33.684216108],[130.504964721,33.684441387],[130.505447497,33.684155829000005],[130.50625,33.68390702025606],[130.50625,33.68333333333334],[130.50329569408515,33.68333333333334]]]}},{"type":"Feature","id":"40348:503044202","properties":{"id":"40348:503044202","meshCode":"503044202","cityCode":"40348","city":"久山町","lat":33.6854167,"lon":130.509375,"areaKm2":0.1737163,"populated2020":false,"population2020":null,"populationNote":"境界またぎ・原典収録外のため自治体内人口は未集計"},"geometry":{"type":"Polygon","coordinates":[[[130.506257782,33.68390361299999],[130.506666939,33.68371666699999],[130.506971115,33.683677225],[130.507177782,33.683726387],[130.507551946,33.683972495000006],[130.50786,33.684005279],[130.508982776,33.68442861300001],[130.509168054,33.684569720999995],[130.509248612,33.684691108],[130.509164721,33.685453613],[130.508237497,33.686204721],[130.50815,33.68642444099999],[130.508367782,33.68699305399999],[130.508666667,33.686961667],[130.508936109,33.687309441000004],[130.50939083,33.68746361299999],[130.51026360600002,33.687365279000005],[130.5107867273417,33.68750000000001],[130.5125,33.6875],[130.5125,33.68333333333334],[130.50625,33.68333333333334],[130.506257782,33.68390361299999]]]}},{"type":"Feature","id":"40348:503044211","properties":{"id":"40348:503044211","meshCode":"503044211","cityCode":"40348","city":"久山町","lat":33.6854167,"lon":130.515625,"areaKm2":0.2677888,"populated2020":false,"population2020":null,"populationNote":"境界またぎ・原典収録外のため自治体内人口は未集計"},"geometry":{"type":"Polygon","coordinates":[[[130.5125,33.68333333333334],[130.5125,33.6875],[130.51875,33.6875],[130.51875,33.68333333333334],[130.5125,33.68333333333334]]]}},{"type":"Feature","id":"40348:503044212","properties":{"id":"40348:503044212","meshCode":"503044212","cityCode":"40348","city":"久山町","lat":33.6854167,"lon":130.521875,"areaKm2":0.2677885,"populated2020":false,"population2020":null,"populationNote":"境界またぎ・原典収録外のため自治体内人口は未集計"},"geometry":{"type":"Polygon","coordinates":[[[130.51875,33.68333333333334],[130.51875,33.6875],[130.525,33.68750000000001],[130.525,33.68333333333334],[130.51875,33.68333333333334]]]}},{"type":"Feature","id":"40348:503044221","properties":{"id":"40348:503044221","meshCode":"503044221","cityCode":"40348","city":"久山町","lat":33.6854167,"lon":130.528125,"areaKm2":0.2677881,"populated2020":false,"population2020":null,"populationNote":"境界またぎ・原典収録外のため自治体内人口は未集計"},"geometry":{"type":"Polygon","coordinates":[[[130.525,33.68333333333334],[130.525,33.68750000000001],[130.53125,33.68750000000001],[130.53125,33.68333333333333],[130.525,33.68333333333334]]]}},{"type":"Feature","id":"40348:503044222","properties":{"id":"40348:503044222","meshCode":"503044222","cityCode":"40348","city":"久山町","lat":33.6854167,"lon":130.534375,"areaKm2":0.2677878,"populated2020":false,"population2020":null,"populationNote":"境界またぎ・原典収録外のため自治体内人口は未集計"},"geometry":{"type":"Polygon","coordinates":[[[130.53125,33.68333333333333],[130.53125,33.68750000000001],[130.5375,33.68750000000001],[130.5375,33.68333333333333],[130.53125,33.68333333333333]]]}},{"type":"Feature","id":"40348:503044231","properties":{"id":"40348:503044231","meshCode":"503044231","cityCode":"40348","city":"久山町","lat":33.6854167,"lon":130.540625,"areaKm2":0.164447,"populated2020":false,"population2020":null,"populationNote":"境界またぎ・原典収録外のため自治体内人口は未集計"},"geometry":{"type":"Polygon","coordinates":[[[130.541746939,33.68746],[130.54162083,33.68681999999999],[130.541358612,33.686564162],[130.541026109,33.686390279],[130.54097,33.686249161999996],[130.541038327,33.685991386999994],[130.541675279,33.685174440999994],[130.541766109,33.68493833299999],[130.541076939,33.684213054000004],[130.541000272,33.683666946],[130.54081321727855,33.68333333333332],[130.5375,33.68333333333333],[130.5375,33.68750000000001],[130.541746939,33.68746]]]}},{"type":"Feature","id":"40348:503044204","properties":{"id":"40348:503044204","meshCode":"503044204","cityCode":"40348","city":"久山町","lat":33.6882996,"lon":130.5120921,"areaKm2":0.0126288,"populated2020":false,"population2020":null,"populationNote":"境界またぎ・原典収録外のため自治体内人口は未集計"},"geometry":{"type":"Polygon","coordinates":[[[130.510830272,33.687516108],[130.511151946,33.687666946],[130.511603333,33.68808027899999],[130.511833061,33.688832495],[130.51195917,33.688993333],[130.512133891,33.688862225],[130.512385837,33.68841610799999],[130.5125,33.68837342590059],[130.5125,33.6875],[130.510830272,33.687516108]]]}},{"type":"Feature","id":"40348:503044213","properties":{"id":"40348:503044213","meshCode":"503044213","cityCode":"40348","city":"久山町","lat":33.6895833,"lon":130.515625,"areaKm2":0.1984454,"populated2020":false,"population2020":null,"populationNote":"境界またぎ・原典収録外のため自治体内人口は未集計"},"geometry":{"type":"Polygon","coordinates":[[[130.512543333,33.688357225000004],[130.513018885,33.688429441000004],[130.513277782,33.688648892],[130.513585551,33.689140829],[130.514166394,33.689465829],[130.51424832700002,33.690028333],[130.514808054,33.69055],[130.515339442,33.69132749500001],[130.516644163,33.691261946],[130.516865551,33.69130638699999],[130.5174583915172,33.69166666666667],[130.51875,33.69166666666666],[130.51875,33.6875],[130.5125,33.6875],[130.512543333,33.688357225000004]]]}},{"type":"Feature","id":"40348:503044214","properties":{"id":"40348:503044214","meshCode":"503044214","cityCode":"40348","city":"久山町","lat":33.6895833,"lon":130.521875,"areaKm2":0.2677757,"populated2020":false,"population2020":null,"populationNote":"境界またぎ・原典収録外のため自治体内人口は未集計"},"geometry":{"type":"Polygon","coordinates":[[[130.51875,33.6875],[130.51875,33.69166666666666],[130.525,33.69166666666666],[130.525,33.68750000000001],[130.51875,33.6875]]]}},{"type":"Feature","id":"40348:503044223","properties":{"id":"40348:503044223","meshCode":"503044223","cityCode":"40348","city":"久山町","lat":33.6895833,"lon":130.528125,"areaKm2":0.2677754,"populated2020":false,"population2020":null,"populationNote":"境界またぎ・原典収録外のため自治体内人口は未集計"},"geometry":{"type":"Polygon","coordinates":[[[130.525,33.68750000000001],[130.525,33.69166666666666],[130.53125,33.69166666666668],[130.53125,33.68750000000001],[130.525,33.68750000000001]]]}},{"type":"Feature","id":"40348:503044224","properties":{"id":"40348:503044224","meshCode":"503044224","cityCode":"40348","city":"久山町","lat":33.6895833,"lon":130.534375,"areaKm2":0.2677751,"populated2020":false,"population2020":null,"populationNote":"境界またぎ・原典収録外のため自治体内人口は未集計"},"geometry":{"type":"Polygon","coordinates":[[[130.53125,33.68750000000001],[130.53125,33.69166666666668],[130.5375,33.69166666666666],[130.5375,33.68750000000001],[130.53125,33.68750000000001]]]}},{"type":"Feature","id":"40348:503044233","properties":{"id":"40348:503044233","meshCode":"503044233","cityCode":"40348","city":"久山町","lat":33.6895833,"lon":130.540625,"areaKm2":0.2473282,"populated2020":false,"population2020":null,"populationNote":"境界またぎ・原典収録外のため自治体内人口は未集計"},"geometry":{"type":"Polygon","coordinates":[[[130.54375,33.68897807845435],[130.542166667,33.688283333],[130.541897497,33.687876667000005],[130.54176139255645,33.6875],[130.5375,33.68750000000001],[130.5375,33.69166666666666],[130.54375,33.69166666666666],[130.54375,33.68897807845435]]]}},{"type":"Feature","id":"40348:503044234","properties":{"id":"40348:503044234","meshCode":"503044234","cityCode":"40348","city":"久山町","lat":33.6903844,"lon":130.5438258,"areaKm2":0.0110875,"populated2020":false,"population2020":null,"populationNote":"境界またぎ・原典収録外のため自治体内人口は未集計"},"geometry":{"type":"Polygon","coordinates":[[[130.5445033327545,33.69166666666667],[130.544020272,33.691134162],[130.54383166,33.690478053999996],[130.544302218,33.689957775],[130.544333606,33.689203054000004],[130.544134163,33.689061946],[130.54375,33.68897807845435],[130.54375,33.69166666666666],[130.5445033327545,33.69166666666667]]]}},{"type":"Feature","id":"40348:503044311","properties":{"id":"40348:503044311","meshCode":"503044311","cityCode":"40348","city":"久山町","lat":33.6919032,"lon":130.5185932,"areaKm2":0.003125,"populated2020":false,"population2020":null,"populationNote":"境界またぎ・原典収録外のため自治体内人口は未集計"},"geometry":{"type":"MultiPolygon","coordinates":[[[[130.517458392,33.69166666699999],[130.517890558,33.691896666999995],[130.518597224,33.691929441],[130.51875,33.692150471810386],[130.51875,33.69166666666666],[130.517458392,33.69166666699999]]],[[[130.518659728,33.693541667],[130.518663061,33.693669721],[130.51875,33.693788065603215],[130.51875,33.693474366319506],[130.518659728,33.693541667]]],[[[130.518739442,33.695195279],[130.51875,33.69520094577205],[130.51875,33.69518288161532],[130.518739442,33.695195279]]]]}},{"type":"Feature","id":"40348:503044312","properties":{"id":"40348:503044312","meshCode":"503044312","cityCode":"40348","city":"久山町","lat":33.69375,"lon":130.521875,"areaKm2":0.2538463,"populated2020":false,"population2020":null,"populationNote":"境界またぎ・原典収録外のため自治体内人口は未集計"},"geometry":{"type":"Polygon","coordinates":[[[130.518813606,33.692259162],[130.518928885,33.692439441000005],[130.519324163,33.692731387],[130.51939083,33.692977495],[130.519184449,33.693276108000006],[130.51875,33.693474366319506],[130.51875,33.693788065603215],[130.519247224,33.694141946],[130.519366109,33.694446945999985],[130.51875,33.69520094577205],[130.519393606,33.69554638700001],[130.5197374797475,33.69583333333333],[130.525,33.69583333333333],[130.525,33.69166666666666],[130.51875,33.69166666666666],[130.518813606,33.692259162]]]}},{"type":"Feature","id":"40348:503044321","properties":{"id":"40348:503044321","meshCode":"503044321","cityCode":"40348","city":"久山町","lat":33.69375,"lon":130.528125,"areaKm2":0.2677627,"populated2020":false,"population2020":null,"populationNote":"境界またぎ・原典収録外のため自治体内人口は未集計"},"geometry":{"type":"Polygon","coordinates":[[[130.525,33.69166666666666],[130.525,33.69583333333333],[130.53125,33.69583333333333],[130.53125,33.69166666666668],[130.525,33.69166666666666]]]}},{"type":"Feature","id":"40348:503044322","properties":{"id":"40348:503044322","meshCode":"503044322","cityCode":"40348","city":"久山町","lat":33.69375,"lon":130.534375,"areaKm2":0.2677623,"populated2020":false,"population2020":null,"populationNote":"境界またぎ・原典収録外のため自治体内人口は未集計"},"geometry":{"type":"Polygon","coordinates":[[[130.53125,33.69166666666668],[130.53125,33.69583333333333],[130.5375,33.695833333333326],[130.5375,33.69166666666666],[130.53125,33.69166666666668]]]}},{"type":"Feature","id":"40348:503044331","properties":{"id":"40348:503044331","meshCode":"503044331","cityCode":"40348","city":"久山町","lat":33.69375,"lon":130.540625,"areaKm2":0.2361004,"populated2020":false,"population2020":null,"populationNote":"境界またぎ・原典収録外のため自治体内人口は未集計"},"geometry":{"type":"Polygon","coordinates":[[[130.541923333,33.695820829],[130.542035279,33.69548944100001],[130.541877782,33.694754721],[130.542206667,33.694341108],[130.542752503,33.694032775],[130.54352917,33.693967225],[130.54375,33.69402810512524],[130.54375,33.69166666666666],[130.5375,33.69166666666666],[130.5375,33.695833333333326],[130.541923333,33.695820829]]]}},{"type":"Feature","id":"40348:503044332","properties":{"id":"40348:503044332","meshCode":"503044332","cityCode":"40348","city":"久山町","lat":33.6928206,"lon":130.5445626,"areaKm2":0.0304478,"populated2020":false,"population2020":null,"populationNote":"境界またぎ・原典収録外のため自治体内人口は未集計"},"geometry":{"type":"Polygon","coordinates":[[[130.543766939,33.694032775000004],[130.544529728,33.693796387],[130.544886667,33.69382277500001],[130.54506166,33.693619162],[130.545121388,33.693350558999995],[130.545471388,33.692927225],[130.545163333,33.69251027899999],[130.545030558,33.69213944100001],[130.5445033327545,33.69166666666667],[130.54375,33.69166666666666],[130.543766939,33.694032775000004]]]}},{"type":"Feature","id":"40348:503044314","properties":{"id":"40348:503044314","meshCode":"503044314","cityCode":"40348","city":"久山町","lat":33.6979167,"lon":130.521875,"areaKm2":0.1842521,"populated2020":false,"population2020":null,"populationNote":"境界またぎ・原典収録外のため自治体内人口は未集計"},"geometry":{"type":"Polygon","coordinates":[[[130.5197374797475,33.69583333333333],[130.520453606,33.696051387000004],[130.520600558,33.696235279],[130.520390272,33.696577775],[130.52033083,33.69697805399999],[130.520673606,33.69781110800001],[130.520637497,33.698520279],[130.521193891,33.69917972100001],[130.521144721,33.7],[130.525,33.699999999999996],[130.525,33.69583333333333],[130.5197374797475,33.69583333333333]]]}},{"type":"Feature","id":"40348:503044323","properties":{"id":"40348:503044323","meshCode":"503044323","cityCode":"40348","city":"久山町","lat":33.6979167,"lon":130.528125,"areaKm2":0.2677499,"populated2020":false,"population2020":null,"populationNote":"境界またぎ・原典収録外のため自治体内人口は未集計"},"geometry":{"type":"Polygon","coordinates":[[[130.525,33.69583333333333],[130.525,33.699999999999996],[130.53125,33.7],[130.53125,33.69583333333333],[130.525,33.69583333333333]]]}},{"type":"Feature","id":"40348:503044324","properties":{"id":"40348:503044324","meshCode":"503044324","cityCode":"40348","city":"久山町","lat":33.6979167,"lon":130.534375,"areaKm2":0.2677496,"populated2020":false,"population2020":null,"populationNote":"境界またぎ・原典収録外のため自治体内人口は未集計"},"geometry":{"type":"Polygon","coordinates":[[[130.53125,33.69583333333333],[130.53125,33.7],[130.5375,33.7],[130.5375,33.695833333333326],[130.53125,33.69583333333333]]]}},{"type":"Feature","id":"40348:503044333","properties":{"id":"40348:503044333","meshCode":"503044333","cityCode":"40348","city":"久山町","lat":33.6979167,"lon":130.540625,"areaKm2":0.1698814,"populated2020":false,"population2020":null,"populationNote":"境界またぎ・原典収録外のため自治体内人口は未集計"},"geometry":{"type":"Polygon","coordinates":[[[130.541318521,33.7],[130.541318054,33.699445829],[130.541031115,33.69879722499999],[130.54096472100002,33.69834749500001],[130.541751946,33.69718194599999],[130.541786939,33.696706108],[130.542014449,33.696368054],[130.542042503,33.696158054],[130.54192775183432,33.69583333333333],[130.5375,33.695833333333326],[130.5375,33.7],[130.541318521,33.7]]]}},{"type":"Feature","id":"40348:503044412","properties":{"id":"40348:503044412","meshCode":"503044412","cityCode":"40348","city":"久山町","lat":33.7010622,"lon":130.5225908,"areaKm2":0.0768892,"populated2020":false,"population2020":null,"populationNote":"境界またぎ・原典収録外のため自治体内人口は未集計"},"geometry":{"type":"Polygon","coordinates":[[[130.521032776,33.700199721],[130.520214721,33.700752225],[130.520092503,33.700952224999995],[130.52027083,33.701172225],[130.520851388,33.701244162],[130.521573891,33.701692775],[130.522637497,33.70155833300001],[130.52309888500002,33.701728892],[130.523992503,33.701800279],[130.524510272,33.70202333300001],[130.525,33.702084973000005],[130.525,33.699999999999996],[130.521144721,33.7],[130.521032776,33.700199721]]]}},{"type":"Feature","id":"40348:503044421","properties":{"id":"40348:503044421","meshCode":"503044421","cityCode":"40348","city":"久山町","lat":33.7020833,"lon":130.528125,"areaKm2":0.2441957,"populated2020":false,"population2020":null,"populationNote":"境界またぎ・原典収録外のため自治体内人口は未集計"},"geometry":{"type":"Polygon","coordinates":[[[130.525,33.702084973000005],[130.52551083,33.702377775],[130.526283891,33.702751667],[130.526157782,33.703361666999996],[130.526437497,33.70380777500001],[130.52648875797303,33.70416666666666],[130.53125,33.704166666666666],[130.53125,33.7],[130.525,33.699999999999996],[130.525,33.702084973000005]]]}},{"type":"Feature","id":"40348:503044422","properties":{"id":"40348:503044422","meshCode":"503044422","cityCode":"40348","city":"久山町","lat":33.7020833,"lon":130.534375,"areaKm2":0.2677368,"populated2020":false,"population2020":null,"populationNote":"境界またぎ・原典収録外のため自治体内人口は未集計"},"geometry":{"type":"Polygon","coordinates":[[[130.53125,33.7],[130.53125,33.704166666666666],[130.5375,33.70416666666666],[130.5375,33.7],[130.53125,33.7]]]}},{"type":"Feature","id":"40348:503044431","properties":{"id":"40348:503044431","meshCode":"503044431","cityCode":"40348","city":"久山町","lat":33.7020833,"lon":130.540625,"areaKm2":0.2022938,"populated2020":false,"population2020":null,"populationNote":"境界またぎ・原典収録外のため自治体内人口は未集計"},"geometry":{"type":"Polygon","coordinates":[[[130.542747782,33.703824162],[130.54276166,33.703427225000006],[130.542681388,33.703248333],[130.542387782,33.703025000000004],[130.542314449,33.702838054],[130.542251388,33.702224441],[130.542464994,33.70162249500001],[130.542426394,33.701228613],[130.54153083,33.70073],[130.541279442,33.700315],[130.541318521,33.7],[130.5375,33.7],[130.5375,33.70416666666666],[130.54260531126667,33.704166666666666],[130.542747782,33.703824162]]]}},{"type":"Feature","id":"40348:503044423","properties":{"id":"40348:503044423","meshCode":"503044423","cityCode":"40348","city":"久山町","lat":33.70625,"lon":130.528125,"areaKm2":0.1296503,"populated2020":false,"population2020":null,"populationNote":"境界またぎ・原典収録外のため自治体内人口は未集計"},"geometry":{"type":"Polygon","coordinates":[[[130.52648875797303,33.70416666666666],[130.526382776,33.704753054],[130.52691083,33.70534027899999],[130.527148885,33.70548472099999],[130.527631388,33.705504162],[130.527781946,33.705573054000006],[130.527600272,33.706653333000006],[130.527851946,33.707056946],[130.528184449,33.707125829],[130.52909166,33.706858892],[130.529420272,33.70688499999999],[130.529665279,33.706996667],[130.53042083,33.707721667],[130.53104,33.708154721],[130.531115032292,33.708333333333336],[130.53125,33.708333333333336],[130.53125,33.704166666666666],[130.52648875797303,33.70416666666666]]]}},{"type":"Feature","id":"40348:503044424","properties":{"id":"40348:503044424","meshCode":"503044424","cityCode":"40348","city":"久山町","lat":33.70625,"lon":130.534375,"areaKm2":0.2677241,"populated2020":false,"population2020":null,"populationNote":"境界またぎ・原典収録外のため自治体内人口は未集計"},"geometry":{"type":"Polygon","coordinates":[[[130.53125,33.704166666666666],[130.53125,33.708333333333336],[130.5375,33.708333333333336],[130.5375,33.70416666666666],[130.53125,33.704166666666666]]]}},{"type":"Feature","id":"40348:503044433","properties":{"id":"40348:503044433","meshCode":"503044433","cityCode":"40348","city":"久山町","lat":33.70625,"lon":130.540625,"areaKm2":0.212509,"populated2020":false,"population2020":null,"populationNote":"境界またぎ・原典収録外のため自治体内人口は未集計"},"geometry":{"type":"Polygon","coordinates":[[[130.543726939,33.707862495],[130.5433,33.707458892],[130.54261083,33.707461946],[130.54199166,33.707320829],[130.541608054,33.706292775],[130.542509728,33.705238333],[130.54260531126667,33.704166666666666],[130.5375,33.70416666666666],[130.5375,33.708333333333336],[130.54375,33.70833333333334],[130.543726939,33.707862495]]]}},{"type":"Feature","id":"40348:503044434","properties":{"id":"40348:503044434","meshCode":"503044434","cityCode":"40348","city":"久山町","lat":33.7081499,"lon":130.5439557,"areaKm2":0.0016534,"populated2020":false,"population2020":null,"populationNote":"境界またぎ・原典収録外のため自治体内人口は未集計"},"geometry":{"type":"Polygon","coordinates":[[[130.54449963700003,33.708333333],[130.544296109,33.708258054],[130.54375,33.707876280450435],[130.54375,33.70833333333334],[130.54449963700003,33.708333333]]]}},{"type":"Feature","id":"40348:503044521","properties":{"id":"40348:503044521","meshCode":"503044521","cityCode":"40348","city":"久山町","lat":33.7083883,"lon":130.5312066,"areaKm2":0.000104,"populated2020":false,"population2020":null,"populationNote":"境界またぎ・原典収録外のため自治体内人口は未集計"},"geometry":{"type":"Polygon","coordinates":[[[130.531211388,33.708443333],[130.53125,33.708333333333336],[130.531115032292,33.708333333333336],[130.531211388,33.708443333]]]}},{"type":"Feature","id":"40348:503044522","properties":{"id":"40348:503044522","meshCode":"503044522","cityCode":"40348","city":"久山町","lat":33.7094762,"lon":130.5350375,"areaKm2":0.1021223,"populated2020":false,"population2020":null,"populationNote":"境界またぎ・原典収録外のため自治体内人口は未集計"},"geometry":{"type":"Polygon","coordinates":[[[130.53125,33.70847283500437],[130.532136109,33.70879249499999],[130.53230027200001,33.70911722500001],[130.53286,33.709802495],[130.534105551,33.710117495000006],[130.534511115,33.710425829],[130.535190558,33.710673613],[130.535578885,33.71061777500001],[130.536222503,33.710332225],[130.536749442,33.710224441],[130.5375,33.70994207863271],[130.5375,33.708333333333336],[130.53125,33.708333333333336],[130.53125,33.70847283500437]]]}},{"type":"Feature","id":"40348:503044531","properties":{"id":"40348:503044531","meshCode":"503044531","cityCode":"40348","city":"久山町","lat":33.7104167,"lon":130.540625,"areaKm2":0.1443572,"populated2020":false,"population2020":null,"populationNote":"境界またぎ・原典収録外のため自治体内人口は未集計"},"geometry":{"type":"Polygon","coordinates":[[[130.5375,33.70994207863271],[130.540172218,33.71083389199999],[130.540598885,33.711060279],[130.542214994,33.710762775],[130.543344994,33.710287225],[130.54375,33.71030984730419],[130.54375,33.70833333333334],[130.5375,33.708333333333336],[130.5375,33.70994207863271]]]}},{"type":"Feature","id":"40348:503044532","properties":{"id":"40348:503044532","meshCode":"503044532","cityCode":"40348","city":"久山町","lat":33.7091579,"lon":130.5443208,"areaKm2":0.0205672,"populated2020":false,"population2020":null,"populationNote":"境界またぎ・原典収録外のため自治体内人口は未集計"},"geometry":{"type":"Polygon","coordinates":[[[130.543768327,33.710313613000004],[130.544716394,33.710165829],[130.544901388,33.70896694599999],[130.544757782,33.708527225],[130.5444996374438,33.708333333333336],[130.54375,33.70833333333334],[130.543768327,33.710313613000004]]]}}]}