{"type":"FeatureCollection","metadata":{"cityCode":"40344","city":"須恵町","resolution":500,"boundaryDate":"2026-01-01","populationLabel":"2020年基準人口（国交省調整値）","method":"標準地域メッシュを行政界で切抜き。中心が区域外のとき区域内代表点を判定点にする。人口不明をゼロにしない。"},"features":[{"type":"Feature","id":"40344:503024902","properties":{"id":"40344:503024902","meshCode":"503024902","cityCode":"40344","city":"須恵町","lat":33.5779226,"lon":130.5109599,"areaKm2":0.0710099,"populated2020":true,"population2020":null,"populationNote":"境界またぎ・原典収録外のため自治体内人口は未集計"},"geometry":{"type":"Polygon","coordinates":[[[130.512288885,33.577301387],[130.51229610900003,33.576960829],[130.512156109,33.576613333],[130.51196055800003,33.576613333],[130.510905551,33.57748500000001],[130.510863606,33.57725555900001],[130.510416109,33.577275279000006],[130.509909728,33.577658613],[130.509344721,33.577965279],[130.50785327159647,33.579166666666666],[130.5125,33.57916666666665],[130.5125,33.57735097251452],[130.512288885,33.577301387]]]}},{"type":"Feature","id":"40344:503024911","properties":{"id":"40344:503024911","meshCode":"503024911","cityCode":"40344","city":"須恵町","lat":33.5770833,"lon":130.515625,"areaKm2":0.1708015,"populated2020":true,"population2020":null,"populationNote":"境界またぎ・原典収録外のため自治体内人口は未集計"},"geometry":{"type":"Polygon","coordinates":[[[130.51875,33.57667970358418],[130.516018054,33.57671305400001],[130.515880272,33.576076108],[130.515883891,33.57539610800001],[130.513595551,33.576652775],[130.512596394,33.57737361299999],[130.5125,33.57735097251452],[130.5125,33.57916666666665],[130.51875,33.579166666666666],[130.51875,33.57667970358418]]]}},{"type":"Feature","id":"40344:503024912","properties":{"id":"40344:503024912","meshCode":"503024912","cityCode":"40344","city":"須恵町","lat":33.5770833,"lon":130.521875,"areaKm2":0.2032066,"populated2020":true,"population2020":null,"populationNote":"境界またぎ・原典収録外のため自治体内人口は未集計"},"geometry":{"type":"Polygon","coordinates":[[[130.525,33.575608919],[130.523095279,33.575779721],[130.523004449,33.576005829],[130.522781115,33.57610749500002],[130.52156917,33.576009162],[130.52060917,33.576012225],[130.519701115,33.576113333],[130.51927166,33.57658500000001],[130.51875,33.57667970358418],[130.51875,33.579166666666666],[130.525,33.57916666666666],[130.525,33.575608919]]]}},{"type":"Feature","id":"40344:503024921","properties":{"id":"40344:503024921","meshCode":"503024921","cityCode":"40344","city":"須恵町","lat":33.5770833,"lon":130.528125,"areaKm2":0.2097245,"populated2020":true,"population2020":null,"populationNote":"境界またぎ・原典収録外のため自治体内人口は未集計"},"geometry":{"type":"Polygon","coordinates":[[[130.53125,33.57600187768531],[130.529909728,33.57603527900001],[130.529292503,33.575639162],[130.528890558,33.57580638700001],[130.528338327,33.575711387],[130.527936667,33.57572110800001],[130.52717499400003,33.576265279],[130.525876939,33.575888333],[130.525235551,33.575626387],[130.525,33.575608919],[130.525,33.57916666666666],[130.53125,33.57916666666666],[130.53125,33.57600187768531]]]}},{"type":"Feature","id":"40344:503024922","properties":{"id":"40344:503024922","meshCode":"503024922","cityCode":"40344","city":"須恵町","lat":33.5770833,"lon":130.534375,"areaKm2":0.1491633,"populated2020":true,"population2020":null,"populationNote":"境界またぎ・原典収録外のため自治体内人口は未集計"},"geometry":{"type":"Polygon","coordinates":[[[130.5375,33.57738360221438],[130.537052776,33.57750000000001],[130.536260558,33.577562225],[130.535328612,33.577247495],[130.534633333,33.57726389199999],[130.534423891,33.576982225],[130.534128054,33.576776108],[130.532794449,33.576209162000005],[130.531938327,33.57601249499999],[130.53125,33.57600187768531],[130.53125,33.57916666666666],[130.5375,33.57916666666666],[130.5375,33.57738360221438]]]}},{"type":"Feature","id":"40344:503024931","properties":{"id":"40344:503024931","meshCode":"503024931","cityCode":"40344","city":"須恵町","lat":33.5782394,"lon":130.5402326,"areaKm2":0.0836036,"populated2020":true,"population2020":16.3551,"populationNote":"2020年基準の国交省調整値"},"geometry":{"type":"Polygon","coordinates":[[[130.543728612,33.57816249500001],[130.543260272,33.5783],[130.543029728,33.578283613],[130.542753606,33.57811333299999],[130.54164944200002,33.577947775],[130.541243333,33.57780110800001],[130.540509728,33.577965],[130.539220272,33.577896108],[130.538975551,33.57780416200001],[130.538835837,33.577466946],[130.53863917,33.577391946],[130.5375,33.57738360221438],[130.5375,33.57916666666666],[130.54375,33.579166666666666],[130.543728612,33.57816249500001]]]}},{"type":"Feature","id":"40344:503024932","properties":{"id":"40344:503024932","meshCode":"503024932","cityCode":"40344","city":"須恵町","lat":33.5786989,"lon":130.5445207,"areaKm2":0.013297,"populated2020":true,"population2020":null,"populationNote":"境界またぎ・原典収録外のため自治体内人口は未集計"},"geometry":{"type":"Polygon","coordinates":[[[130.545876109,33.57912889200001],[130.545780272,33.578926667],[130.545442503,33.578762775],[130.544789728,33.57851500000001],[130.54432416300003,33.57842777500001],[130.54375,33.57816968282372],[130.54375,33.579166666666666],[130.545876109,33.57912889200001]]]}},{"type":"Feature","id":"40344:503023994","properties":{"id":"40344:503023994","meshCode":"503023994","cityCode":"40344","city":"須恵町","lat":33.5818801,"lon":130.4986474,"areaKm2":0.0834882,"populated2020":true,"population2020":null,"populationNote":"境界またぎ・原典収録外のため自治体内人口は未集計"},"geometry":{"type":"Polygon","coordinates":[[[130.5,33.581290829],[130.49969277600002,33.581138613],[130.499294994,33.58056889200001],[130.499118054,33.580467495],[130.497663333,33.581654162],[130.496738495,33.58218058600001],[130.496573891,33.582074440999996],[130.496009728,33.581970279000004],[130.495844994,33.582595278999996],[130.495443606,33.583072495],[130.4949504661218,33.58333333333334],[130.5,33.583333333333336],[130.5,33.581290829]]]}},{"type":"Feature","id":"40344:503024903","properties":{"id":"40344:503024903","meshCode":"503024903","cityCode":"40344","city":"須恵町","lat":33.58125,"lon":130.503125,"areaKm2":0.1486836,"populated2020":true,"population2020":null,"populationNote":"境界またぎ・原典収録外のため自治体内人口は未集計"},"geometry":{"type":"Polygon","coordinates":[[[130.50593166,33.580201946],[130.504858327,33.581132495],[130.504327497,33.581152225],[130.50267166,33.580936108],[130.502413061,33.581230829],[130.501833333,33.58136749500001],[130.501334449,33.58118444099999],[130.50058000000004,33.58108944100001],[130.500237497,33.58131889199999],[130.5,33.581290829],[130.5,33.583333333333336],[130.50625,33.58333333333334],[130.50625,33.58009590168732],[130.50593166,33.580201946]]]}},{"type":"Feature","id":"40344:503024904","properties":{"id":"40344:503024904","meshCode":"503024904","cityCode":"40344","city":"須恵町","lat":33.58125,"lon":130.509375,"areaKm2":0.2592923,"populated2020":true,"population2020":1516.1832,"populationNote":"2020年基準の国交省調整値"},"geometry":{"type":"Polygon","coordinates":[[[130.507818327,33.579199441],[130.507371115,33.579569721],[130.507077782,33.57965805400001],[130.506584994,33.58000222500001],[130.50625,33.58009590168732],[130.50625,33.58333333333334],[130.5125,33.583333333333336],[130.5125,33.57916666666665],[130.507818327,33.579199441]]]}},{"type":"Feature","id":"40344:503024913","properties":{"id":"40344:503024913","meshCode":"503024913","cityCode":"40344","city":"須恵町","lat":33.58125,"lon":130.515625,"areaKm2":0.2681069,"populated2020":true,"population2020":1440.7902,"populationNote":"2020年基準の国交省調整値"},"geometry":{"type":"Polygon","coordinates":[[[130.5125,33.57916666666665],[130.5125,33.583333333333336],[130.51875,33.583333333333336],[130.51875,33.579166666666666],[130.5125,33.57916666666665]]]}},{"type":"Feature","id":"40344:503024914","properties":{"id":"40344:503024914","meshCode":"503024914","cityCode":"40344","city":"須恵町","lat":33.58125,"lon":130.521875,"areaKm2":0.2681065,"populated2020":true,"population2020":217.4645,"populationNote":"2020年基準の国交省調整値"},"geometry":{"type":"Polygon","coordinates":[[[130.51875,33.579166666666666],[130.51875,33.583333333333336],[130.525,33.583333333333336],[130.525,33.57916666666666],[130.51875,33.579166666666666]]]}},{"type":"Feature","id":"40344:503024923","properties":{"id":"40344:503024923","meshCode":"503024923","cityCode":"40344","city":"須恵町","lat":33.58125,"lon":130.528125,"areaKm2":0.2681062,"populated2020":true,"population2020":366.427,"populationNote":"2020年基準の国交省調整値"},"geometry":{"type":"Polygon","coordinates":[[[130.525,33.57916666666666],[130.525,33.583333333333336],[130.53125,33.58333333333334],[130.53125,33.57916666666666],[130.525,33.57916666666666]]]}},{"type":"Feature","id":"40344:503024924","properties":{"id":"40344:503024924","meshCode":"503024924","cityCode":"40344","city":"須恵町","lat":33.58125,"lon":130.534375,"areaKm2":0.2681059,"populated2020":true,"population2020":49.0678,"populationNote":"2020年基準の国交省調整値"},"geometry":{"type":"Polygon","coordinates":[[[130.53125,33.57916666666666],[130.53125,33.58333333333334],[130.5375,33.583333333333336],[130.5375,33.57916666666666],[130.53125,33.57916666666666]]]}},{"type":"Feature","id":"40344:503024933","properties":{"id":"40344:503024933","meshCode":"503024933","cityCode":"40344","city":"須恵町","lat":33.58125,"lon":130.540625,"areaKm2":0.2681055,"populated2020":true,"population2020":70.3735,"populationNote":"2020年基準の国交省調整値"},"geometry":{"type":"Polygon","coordinates":[[[130.5375,33.57916666666666],[130.5375,33.583333333333336],[130.54375,33.58333333333333],[130.54375,33.579166666666666],[130.5375,33.57916666666666]]]}},{"type":"Feature","id":"40344:503024934","properties":{"id":"40344:503024934","meshCode":"503024934","cityCode":"40344","city":"須恵町","lat":33.5812242,"lon":130.5452873,"areaKm2":0.132524,"populated2020":true,"population2020":null,"populationNote":"境界またぎ・原典収録外のため自治体内人口は未集計"},"geometry":{"type":"Polygon","coordinates":[[[130.546546394,33.58333333299999],[130.54802194600003,33.582371667000004],[130.546992218,33.581419162],[130.546555551,33.580888333000004],[130.546562503,33.580271108000005],[130.546461388,33.579989162000004],[130.545755551,33.579543333],[130.54587499534668,33.579166666666666],[130.54375,33.579166666666666],[130.54375,33.58333333333333],[130.546546394,33.58333333299999]]]}},{"type":"Feature","id":"40344:503033091","properties":{"id":"40344:503033091","meshCode":"503033091","cityCode":"40344","city":"須恵町","lat":33.5859149,"lon":130.4927684,"areaKm2":0.0403087,"populated2020":true,"population2020":null,"populationNote":"境界またぎ・原典収録外のため自治体内人口は未集計"},"geometry":{"type":"Polygon","coordinates":[[[130.49375,33.58421497739952],[130.492566939,33.585221108],[130.491918054,33.585391946],[130.491785279,33.585572495],[130.491858885,33.586189999999995],[130.49203083,33.586262225000006],[130.492239728,33.586715279],[130.49307138800003,33.58715416199999],[130.49341712425505,33.5875],[130.49375,33.5875],[130.49375,33.58421497739952]]]}},{"type":"Feature","id":"40344:503033092","properties":{"id":"40344:503033092","meshCode":"503033092","cityCode":"40344","city":"須恵町","lat":33.5854167,"lon":130.496875,"areaKm2":0.2640799,"populated2020":true,"population2020":1740.6033,"populationNote":"2020年基準の国交省調整値"},"geometry":{"type":"Polygon","coordinates":[[[130.494943891,33.58333582899999],[130.494239728,33.583643333],[130.49375,33.58421497739952],[130.49375,33.5875],[130.5,33.5875],[130.5,33.583333333333336],[130.494943891,33.58333582899999]]]}},{"type":"Feature","id":"40344:503034001","properties":{"id":"40344:503034001","meshCode":"503034001","cityCode":"40344","city":"須恵町","lat":33.5854167,"lon":130.503125,"areaKm2":0.2680949,"populated2020":true,"population2020":1168.0756,"populationNote":"2020年基準の国交省調整値"},"geometry":{"type":"Polygon","coordinates":[[[130.5,33.583333333333336],[130.5,33.5875],[130.50625,33.5875],[130.50625,33.58333333333334],[130.5,33.583333333333336]]]}},{"type":"Feature","id":"40344:503034002","properties":{"id":"40344:503034002","meshCode":"503034002","cityCode":"40344","city":"須恵町","lat":33.5854167,"lon":130.509375,"areaKm2":0.2680945,"populated2020":true,"population2020":982.215,"populationNote":"2020年基準の国交省調整値"},"geometry":{"type":"Polygon","coordinates":[[[130.50625,33.58333333333334],[130.50625,33.5875],[130.5125,33.5875],[130.5125,33.583333333333336],[130.50625,33.58333333333334]]]}},{"type":"Feature","id":"40344:503034011","properties":{"id":"40344:503034011","meshCode":"503034011","cityCode":"40344","city":"須恵町","lat":33.5854167,"lon":130.515625,"areaKm2":0.2680942,"populated2020":true,"population2020":1443.964,"populationNote":"2020年基準の国交省調整値"},"geometry":{"type":"Polygon","coordinates":[[[130.5125,33.583333333333336],[130.5125,33.5875],[130.51875,33.5875],[130.51875,33.583333333333336],[130.5125,33.583333333333336]]]}},{"type":"Feature","id":"40344:503034012","properties":{"id":"40344:503034012","meshCode":"503034012","cityCode":"40344","city":"須恵町","lat":33.5854167,"lon":130.521875,"areaKm2":0.2680938,"populated2020":true,"population2020":928.8561,"populationNote":"2020年基準の国交省調整値"},"geometry":{"type":"Polygon","coordinates":[[[130.51875,33.583333333333336],[130.51875,33.5875],[130.525,33.587500000000006],[130.525,33.583333333333336],[130.51875,33.583333333333336]]]}},{"type":"Feature","id":"40344:503034021","properties":{"id":"40344:503034021","meshCode":"503034021","cityCode":"40344","city":"須恵町","lat":33.5854167,"lon":130.528125,"areaKm2":0.2680935,"populated2020":true,"population2020":19.2021,"populationNote":"2020年基準の国交省調整値"},"geometry":{"type":"Polygon","coordinates":[[[130.525,33.583333333333336],[130.525,33.587500000000006],[130.53125,33.587500000000006],[130.53125,33.58333333333334],[130.525,33.583333333333336]]]}},{"type":"Feature","id":"40344:503034022","properties":{"id":"40344:503034022","meshCode":"503034022","cityCode":"40344","city":"須恵町","lat":33.5854167,"lon":130.534375,"areaKm2":0.2680932,"populated2020":true,"population2020":10.2309,"populationNote":"2020年基準の国交省調整値"},"geometry":{"type":"Polygon","coordinates":[[[130.53125,33.58333333333334],[130.53125,33.587500000000006],[130.5375,33.587500000000006],[130.5375,33.583333333333336],[130.53125,33.58333333333334]]]}},{"type":"Feature","id":"40344:503034031","properties":{"id":"40344:503034031","meshCode":"503034031","cityCode":"40344","city":"須恵町","lat":33.5854167,"lon":130.540625,"areaKm2":0.2680928,"populated2020":true,"population2020":8.2454,"populationNote":"2020年基準の国交省調整値"},"geometry":{"type":"Polygon","coordinates":[[[130.5375,33.583333333333336],[130.5375,33.587500000000006],[130.54375,33.5875],[130.54375,33.58333333333333],[130.5375,33.583333333333336]]]}},{"type":"Feature","id":"40344:503034032","properties":{"id":"40344:503034032","meshCode":"503034032","cityCode":"40344","city":"須恵町","lat":33.5854167,"lon":130.546875,"areaKm2":0.1655892,"populated2020":false,"population2020":null,"populationNote":"境界またぎ・原典収録外のため自治体内人口は未集計"},"geometry":{"type":"Polygon","coordinates":[[[130.549724721,33.587495829000005],[130.548868885,33.587276108000005],[130.54832083,33.586948613],[130.54817917,33.586626667],[130.548353333,33.586397774999995],[130.548227497,33.58591055899999],[130.547403061,33.585163333],[130.547033891,33.58495527899999],[130.546897497,33.584732495],[130.546792776,33.58411972100001],[130.546359442,33.583588613],[130.54654639364858,33.58333333333334],[130.54375,33.58333333333333],[130.54375,33.5875],[130.549724721,33.587495829000005]]]}},{"type":"Feature","id":"40344:503033093","properties":{"id":"40344:503033093","meshCode":"503033093","cityCode":"40344","city":"須恵町","lat":33.5898261,"lon":130.492363,"areaKm2":0.0950825,"populated2020":true,"population2020":null,"populationNote":"境界またぎ・原典収録外のため自治体内人口は未集計"},"geometry":{"type":"MultiPolygon","coordinates":[[[[130.493418054,33.587500559],[130.493501115,33.587527225],[130.49375,33.58759007490416],[130.49375,33.5875],[130.493418054,33.587500559]]],[[[130.493737224,33.588071387],[130.491526109,33.58924972100001],[130.490685837,33.590076945999996],[130.490110558,33.590088054000006],[130.490405551,33.59048805399999],[130.490784994,33.59066833300001],[130.490694163,33.590942225000006],[130.49005917,33.591028613],[130.489789728,33.591166387],[130.489567224,33.59142944100001],[130.48964055789696,33.591666666666676],[130.49375,33.591666666666676],[130.493737224,33.588071387]]]]}},{"type":"Feature","id":"40344:503033094","properties":{"id":"40344:503033094","meshCode":"503033094","cityCode":"40344","city":"須恵町","lat":33.5895833,"lon":130.496875,"areaKm2":0.2678165,"populated2020":true,"population2020":832.6143,"populationNote":"2020年基準の国交省調整値"},"geometry":{"type":"Polygon","coordinates":[[[130.49375,33.5875],[130.493835837,33.587855279],[130.49375,33.58805702123471],[130.49375,33.591666666666676],[130.5,33.59166666666667],[130.5,33.5875],[130.49375,33.5875]]]}},{"type":"Feature","id":"40344:503034003","properties":{"id":"40344:503034003","meshCode":"503034003","cityCode":"40344","city":"須恵町","lat":33.5895833,"lon":130.503125,"areaKm2":0.2680822,"populated2020":true,"population2020":871.8515,"populationNote":"2020年基準の国交省調整値"},"geometry":{"type":"Polygon","coordinates":[[[130.5,33.5875],[130.5,33.59166666666667],[130.50625,33.591666666666676],[130.50625,33.5875],[130.5,33.5875]]]}},{"type":"Feature","id":"40344:503034004","properties":{"id":"40344:503034004","meshCode":"503034004","cityCode":"40344","city":"須恵町","lat":33.5895833,"lon":130.509375,"areaKm2":0.2680818,"populated2020":true,"population2020":1835.2565,"populationNote":"2020年基準の国交省調整値"},"geometry":{"type":"Polygon","coordinates":[[[130.50625,33.5875],[130.50625,33.591666666666676],[130.5125,33.591666666666676],[130.5125,33.5875],[130.50625,33.5875]]]}},{"type":"Feature","id":"40344:503034013","properties":{"id":"40344:503034013","meshCode":"503034013","cityCode":"40344","city":"須恵町","lat":33.5895833,"lon":130.515625,"areaKm2":0.2680815,"populated2020":true,"population2020":1341.9539,"populationNote":"2020年基準の国交省調整値"},"geometry":{"type":"Polygon","coordinates":[[[130.5125,33.5875],[130.5125,33.591666666666676],[130.51875,33.59166666666667],[130.51875,33.5875],[130.5125,33.5875]]]}},{"type":"Feature","id":"40344:503034014","properties":{"id":"40344:503034014","meshCode":"503034014","cityCode":"40344","city":"須恵町","lat":33.5895833,"lon":130.521875,"areaKm2":0.2680811,"populated2020":true,"population2020":693.2027,"populationNote":"2020年基準の国交省調整値"},"geometry":{"type":"Polygon","coordinates":[[[130.51875,33.5875],[130.51875,33.59166666666667],[130.525,33.591666666666676],[130.525,33.587500000000006],[130.51875,33.5875]]]}},{"type":"Feature","id":"40344:503034023","properties":{"id":"40344:503034023","meshCode":"503034023","cityCode":"40344","city":"須恵町","lat":33.5895833,"lon":130.528125,"areaKm2":0.2680808,"populated2020":true,"population2020":36.7439,"populationNote":"2020年基準の国交省調整値"},"geometry":{"type":"Polygon","coordinates":[[[130.525,33.587500000000006],[130.525,33.591666666666676],[130.53125,33.591666666666676],[130.53125,33.587500000000006],[130.525,33.587500000000006]]]}},{"type":"Feature","id":"40344:503034024","properties":{"id":"40344:503034024","meshCode":"503034024","cityCode":"40344","city":"須恵町","lat":33.5895833,"lon":130.534375,"areaKm2":0.2680805,"populated2020":false,"population2020":null,"populationNote":"境界またぎ・原典収録外のため自治体内人口は未集計"},"geometry":{"type":"Polygon","coordinates":[[[130.53125,33.587500000000006],[130.53125,33.591666666666676],[130.5375,33.59166666666667],[130.5375,33.587500000000006],[130.53125,33.587500000000006]]]}},{"type":"Feature","id":"40344:503034033","properties":{"id":"40344:503034033","meshCode":"503034033","cityCode":"40344","city":"須恵町","lat":33.5895833,"lon":130.540625,"areaKm2":0.2680801,"populated2020":false,"population2020":null,"populationNote":"境界またぎ・原典収録外のため自治体内人口は未集計"},"geometry":{"type":"Polygon","coordinates":[[[130.5375,33.587500000000006],[130.5375,33.59166666666667],[130.54375,33.59166666666667],[130.54375,33.5875],[130.5375,33.587500000000006]]]}},{"type":"Feature","id":"40344:503034034","properties":{"id":"40344:503034034","meshCode":"503034034","cityCode":"40344","city":"須恵町","lat":33.5895833,"lon":130.546875,"areaKm2":0.2678708,"populated2020":false,"population2020":null,"populationNote":"境界またぎ・原典収録外のため自治体内人口は未集計"},"geometry":{"type":"Polygon","coordinates":[[[130.549985837,33.587643613],[130.5497320906397,33.5875],[130.54375,33.5875],[130.54375,33.59166666666667],[130.55,33.591666666666676],[130.549985837,33.587643613]]]}},{"type":"Feature","id":"40344:503034043","properties":{"id":"40344:503034043","meshCode":"503034043","cityCode":"40344","city":"須恵町","lat":33.5895833,"lon":130.553125,"areaKm2":0.126349,"populated2020":false,"population2020":null,"populationNote":"境界またぎ・原典収録外のため自治体内人口は未集計"},"geometry":{"type":"Polygon","coordinates":[[[130.55599418841547,33.591666666666676],[130.554835837,33.59111166700001],[130.554340558,33.590756946],[130.55402083,33.59044444100001],[130.553588327,33.589768613],[130.55,33.587653054],[130.55,33.591666666666676],[130.55599418841547,33.591666666666676]]]}},{"type":"Feature","id":"40344:503033191","properties":{"id":"40344:503033191","meshCode":"503033191","cityCode":"40344","city":"須恵町","lat":33.59375,"lon":130.490625,"areaKm2":0.1616493,"populated2020":true,"population2020":119.1731,"populationNote":"2020年基準の国交省調整値"},"geometry":{"type":"Polygon","coordinates":[[[130.489640558,33.59166666699999],[130.489657782,33.592002775],[130.489504449,33.592425279],[130.489084163,33.592893892000006],[130.488618612,33.59326694600001],[130.488743554,33.593448333000005],[130.489258885,33.593237225],[130.489797497,33.59333472099999],[130.490007224,33.593277775],[130.490428327,33.593000279],[130.490976394,33.592825829000006],[130.49103416300002,33.59301694599999],[130.490299728,33.593437225],[130.489778612,33.594028892000004],[130.490376667,33.59447861300001],[130.490162218,33.594764721],[130.490220272,33.595006946],[130.49118832700003,33.595728892],[130.49108444192953,33.59583333333334],[130.49375,33.59583333333333],[130.49375,33.591666666666676],[130.489640558,33.59166666699999]]]}},{"type":"Feature","id":"40344:503033192","properties":{"id":"40344:503033192","meshCode":"503033192","cityCode":"40344","city":"須恵町","lat":33.59375,"lon":130.496875,"areaKm2":0.2680698,"populated2020":true,"population2020":673.854,"populationNote":"2020年基準の国交省調整値"},"geometry":{"type":"Polygon","coordinates":[[[130.49375,33.591666666666676],[130.49375,33.59583333333333],[130.5,33.59583333333333],[130.5,33.59166666666667],[130.49375,33.591666666666676]]]}},{"type":"Feature","id":"40344:503034101","properties":{"id":"40344:503034101","meshCode":"503034101","cityCode":"40344","city":"須恵町","lat":33.59375,"lon":130.503125,"areaKm2":0.2680695,"populated2020":true,"population2020":1290.4052,"populationNote":"2020年基準の国交省調整値"},"geometry":{"type":"Polygon","coordinates":[[[130.5,33.59166666666667],[130.5,33.59583333333333],[130.50625,33.59583333333333],[130.50625,33.591666666666676],[130.5,33.59166666666667]]]}},{"type":"Feature","id":"40344:503034102","properties":{"id":"40344:503034102","meshCode":"503034102","cityCode":"40344","city":"須恵町","lat":33.59375,"lon":130.509375,"areaKm2":0.2680691,"populated2020":true,"population2020":1682.6992,"populationNote":"2020年基準の国交省調整値"},"geometry":{"type":"Polygon","coordinates":[[[130.50625,33.591666666666676],[130.50625,33.59583333333333],[130.5125,33.59583333333334],[130.5125,33.591666666666676],[130.50625,33.591666666666676]]]}},{"type":"Feature","id":"40344:503034111","properties":{"id":"40344:503034111","meshCode":"503034111","cityCode":"40344","city":"須恵町","lat":33.59375,"lon":130.515625,"areaKm2":0.2680688,"populated2020":true,"population2020":1039.8638,"populationNote":"2020年基準の国交省調整値"},"geometry":{"type":"Polygon","coordinates":[[[130.5125,33.591666666666676],[130.5125,33.59583333333334],[130.51875,33.59583333333334],[130.51875,33.59166666666667],[130.5125,33.591666666666676]]]}},{"type":"Feature","id":"40344:503034112","properties":{"id":"40344:503034112","meshCode":"503034112","cityCode":"40344","city":"須恵町","lat":33.59375,"lon":130.521875,"areaKm2":0.2680684,"populated2020":true,"population2020":171.5722,"populationNote":"2020年基準の国交省調整値"},"geometry":{"type":"Polygon","coordinates":[[[130.51875,33.59166666666667],[130.51875,33.59583333333334],[130.525,33.59583333333333],[130.525,33.591666666666676],[130.51875,33.59166666666667]]]}},{"type":"Feature","id":"40344:503034121","properties":{"id":"40344:503034121","meshCode":"503034121","cityCode":"40344","city":"須恵町","lat":33.59375,"lon":130.528125,"areaKm2":0.2680681,"populated2020":false,"population2020":null,"populationNote":"境界またぎ・原典収録外のため自治体内人口は未集計"},"geometry":{"type":"Polygon","coordinates":[[[130.525,33.591666666666676],[130.525,33.59583333333333],[130.53125,33.59583333333334],[130.53125,33.591666666666676],[130.525,33.591666666666676]]]}},{"type":"Feature","id":"40344:503034122","properties":{"id":"40344:503034122","meshCode":"503034122","cityCode":"40344","city":"須恵町","lat":33.59375,"lon":130.534375,"areaKm2":0.2619416,"populated2020":false,"population2020":null,"populationNote":"境界またぎ・原典収録外のため自治体内人口は未集計"},"geometry":{"type":"Polygon","coordinates":[[[130.53556917,33.595671108],[130.536255279,33.595479441],[130.5375,33.59553529103171],[130.5375,33.59166666666667],[130.53125,33.591666666666676],[130.53125,33.59583333333334],[130.53541360950078,33.59583333333334],[130.53556917,33.595671108]]]}},{"type":"Feature","id":"40344:503034131","properties":{"id":"40344:503034131","meshCode":"503034131","cityCode":"40344","city":"須恵町","lat":33.59375,"lon":130.540625,"areaKm2":0.2625415,"populated2020":false,"population2020":null,"populationNote":"境界またぎ・原典収録外のため自治体内人口は未集計"},"geometry":{"type":"Polygon","coordinates":[[[130.5375,33.59553529103171],[130.538016939,33.595393054000006],[130.53961822163367,33.59583333333334],[130.54375,33.59583333333333],[130.54375,33.59166666666667],[130.5375,33.59166666666667],[130.5375,33.59553529103171]]]}},{"type":"Feature","id":"40344:503034132","properties":{"id":"40344:503034132","meshCode":"503034132","cityCode":"40344","city":"須恵町","lat":33.59375,"lon":130.546875,"areaKm2":0.2680671,"populated2020":false,"population2020":null,"populationNote":"境界またぎ・原典収録外のため自治体内人口は未集計"},"geometry":{"type":"Polygon","coordinates":[[[130.54375,33.59166666666667],[130.54375,33.59583333333333],[130.55,33.59583333333333],[130.55,33.591666666666676],[130.54375,33.59166666666667]]]}},{"type":"Feature","id":"40344:503034141","properties":{"id":"40344:503034141","meshCode":"503034141","cityCode":"40344","city":"須恵町","lat":33.59375,"lon":130.553125,"areaKm2":0.267893,"populated2020":false,"population2020":null,"populationNote":"境界またぎ・原典収録外のため自治体内人口は未集計"},"geometry":{"type":"Polygon","coordinates":[[[130.55625,33.59178295884887],[130.55599418841547,33.591666666666676],[130.55,33.591666666666676],[130.55,33.59583333333333],[130.55625,33.59583333333333],[130.55625,33.59178295884887]]]}},{"type":"Feature","id":"40344:503034142","properties":{"id":"40344:503034142","meshCode":"503034142","cityCode":"40344","city":"須恵町","lat":33.59375,"lon":130.559375,"areaKm2":0.1713553,"populated2020":false,"population2020":null,"populationNote":"境界またぎ・原典収録外のため自治体内人口は未集計"},"geometry":{"type":"Polygon","coordinates":[[[130.56059340842785,33.59583333333333],[130.561953333,33.594442225],[130.5625,33.59401918862468],[130.5625,33.593379624467424],[130.561747497,33.593428333000006],[130.559799442,33.59335694600001],[130.558277497,33.592520559],[130.55625,33.59178295884887],[130.55625,33.59583333333333],[130.56059340842785,33.59583333333333]]]}},{"type":"Feature","id":"40344:503034151","properties":{"id":"40344:503034151","meshCode":"503034151","cityCode":"40344","city":"須恵町","lat":33.5936365,"lon":130.5626805,"areaKm2":0.0021052,"populated2020":false,"population2020":null,"populationNote":"境界またぎ・原典収録外のため自治体内人口は未集計"},"geometry":{"type":"Polygon","coordinates":[[[130.5625,33.59401918862468],[130.562834163,33.593725559],[130.562909442,33.59332249500001],[130.5625,33.593379624467424],[130.5625,33.59401918862468]]]}},{"type":"Feature","id":"40344:503033193","properties":{"id":"40344:503033193","meshCode":"503033193","cityCode":"40344","city":"須恵町","lat":33.5978446,"lon":130.4928272,"areaKm2":0.1096575,"populated2020":true,"population2020":null,"populationNote":"境界またぎ・原典収録外のため自治体内人口は未集計"},"geometry":{"type":"Polygon","coordinates":[[[130.491012776,33.59590500000001],[130.491444721,33.596474162],[130.491847224,33.596446667],[130.49206166,33.596509162],[130.492000558,33.596742495],[130.491732776,33.596907775],[130.491936394,33.598339441],[130.491244449,33.598423892],[130.49124917,33.59884972100001],[130.490167224,33.598895829],[130.490123061,33.599475559],[130.48940572,33.60000000000001],[130.49375,33.6],[130.49375,33.59583333333333],[130.49108444192953,33.59583333333334],[130.491012776,33.59590500000001]]]}},{"type":"Feature","id":"40344:503033194","properties":{"id":"40344:503033194","meshCode":"503033194","cityCode":"40344","city":"須恵町","lat":33.5979167,"lon":130.496875,"areaKm2":0.2680571,"populated2020":true,"population2020":1041.9222,"populationNote":"2020年基準の国交省調整値"},"geometry":{"type":"Polygon","coordinates":[[[130.49375,33.59583333333333],[130.49375,33.6],[130.5,33.60000000000001],[130.5,33.59583333333333],[130.49375,33.59583333333333]]]}},{"type":"Feature","id":"40344:503034103","properties":{"id":"40344:503034103","meshCode":"503034103","cityCode":"40344","city":"須恵町","lat":33.5979167,"lon":130.503125,"areaKm2":0.2680568,"populated2020":true,"population2020":1180.5765,"populationNote":"2020年基準の国交省調整値"},"geometry":{"type":"Polygon","coordinates":[[[130.5,33.59583333333333],[130.5,33.60000000000001],[130.50625,33.6],[130.50625,33.59583333333333],[130.5,33.59583333333333]]]}},{"type":"Feature","id":"40344:503034104","properties":{"id":"40344:503034104","meshCode":"503034104","cityCode":"40344","city":"須恵町","lat":33.5979167,"lon":130.509375,"areaKm2":0.2680564,"populated2020":true,"population2020":1200.1547,"populationNote":"2020年基準の国交省調整値"},"geometry":{"type":"Polygon","coordinates":[[[130.50625,33.59583333333333],[130.50625,33.6],[130.5125,33.6],[130.5125,33.59583333333334],[130.50625,33.59583333333333]]]}},{"type":"Feature","id":"40344:503034113","properties":{"id":"40344:503034113","meshCode":"503034113","cityCode":"40344","city":"須恵町","lat":33.5979167,"lon":130.515625,"areaKm2":0.2680561,"populated2020":true,"population2020":134.6433,"populationNote":"2020年基準の国交省調整値"},"geometry":{"type":"Polygon","coordinates":[[[130.5125,33.59583333333334],[130.5125,33.6],[130.51875,33.60000000000001],[130.51875,33.59583333333334],[130.5125,33.59583333333334]]]}},{"type":"Feature","id":"40344:503034114","properties":{"id":"40344:503034114","meshCode":"503034114","cityCode":"40344","city":"須恵町","lat":33.5979167,"lon":130.521875,"areaKm2":0.2680557,"populated2020":false,"population2020":null,"populationNote":"境界またぎ・原典収録外のため自治体内人口は未集計"},"geometry":{"type":"Polygon","coordinates":[[[130.51875,33.59583333333334],[130.51875,33.60000000000001],[130.525,33.6],[130.525,33.59583333333333],[130.51875,33.59583333333334]]]}},{"type":"Feature","id":"40344:503034123","properties":{"id":"40344:503034123","meshCode":"503034123","cityCode":"40344","city":"須恵町","lat":33.5979167,"lon":130.528125,"areaKm2":0.2680554,"populated2020":false,"population2020":null,"populationNote":"境界またぎ・原典収録外のため自治体内人口は未集計"},"geometry":{"type":"Polygon","coordinates":[[[130.525,33.59583333333333],[130.525,33.6],[130.53125,33.60000000000001],[130.53125,33.59583333333334],[130.525,33.59583333333333]]]}},{"type":"Feature","id":"40344:503034124","properties":{"id":"40344:503034124","meshCode":"503034124","cityCode":"40344","city":"須恵町","lat":33.5978885,"lon":130.5327028,"areaKm2":0.1039113,"populated2020":false,"population2020":null,"populationNote":"境界またぎ・原典収録外のため自治体内人口は未集計"},"geometry":{"type":"Polygon","coordinates":[[[130.531615058,33.6],[130.531933061,33.599534999999996],[130.532067782,33.598871667000004],[130.533031388,33.598621108],[130.533518054,33.598415559],[130.534038885,33.59803222499999],[130.534437782,33.59750277500001],[130.534744449,33.596813613],[130.53541360950078,33.59583333333334],[130.53125,33.59583333333334],[130.53125,33.60000000000001],[130.531615058,33.6]]]}},{"type":"Feature","id":"40344:503034133","properties":{"id":"40344:503034133","meshCode":"503034133","cityCode":"40344","city":"須恵町","lat":33.5965882,"lon":130.5430395,"areaKm2":0.0236202,"populated2020":false,"population2020":null,"populationNote":"境界またぎ・原典収録外のため自治体内人口は未集計"},"geometry":{"type":"Polygon","coordinates":[[[130.539619442,33.595833613],[130.541010558,33.596026946],[130.541482503,33.596163612999995],[130.54375,33.59726467606699],[130.54375,33.59583333333333],[130.539619442,33.595833613]]]}},{"type":"Feature","id":"40344:503034134","properties":{"id":"40344:503034134","meshCode":"503034134","cityCode":"40344","city":"須恵町","lat":33.596549,"lon":130.546875,"areaKm2":0.1238876,"populated2020":false,"population2020":null,"populationNote":"境界またぎ・原典収録外のため自治体内人口は未集計"},"geometry":{"type":"Polygon","coordinates":[[[130.54375,33.59726467606699],[130.545040272,33.597646387],[130.546052503,33.597582495000005],[130.546685279,33.597459162],[130.547571115,33.597513892],[130.547916667,33.597641667],[130.548699728,33.59826249500001],[130.549084163,33.598399441],[130.55,33.59854797300001],[130.55,33.59583333333333],[130.54375,33.59583333333333],[130.54375,33.59726467606699]]]}},{"type":"Feature","id":"40344:503034143","properties":{"id":"40344:503034143","meshCode":"503034143","cityCode":"40344","city":"須恵町","lat":33.5979167,"lon":130.553125,"areaKm2":0.1846744,"populated2020":false,"population2020":null,"populationNote":"境界またぎ・原典収録外のため自治体内人口は未集計"},"geometry":{"type":"Polygon","coordinates":[[[130.550457497,33.598762775],[130.550661946,33.59876277499999],[130.550919728,33.598630559],[130.551591115,33.598671667],[130.553615551,33.598503054],[130.55469083,33.59884972100001],[130.555313891,33.59895027899999],[130.55625,33.59896106883238],[130.55625,33.59583333333333],[130.55,33.59583333333333],[130.55,33.59854797300001],[130.550457497,33.598762775]]]}},{"type":"Feature","id":"40344:503034144","properties":{"id":"40344:503034144","meshCode":"503034144","cityCode":"40344","city":"須恵町","lat":33.5977539,"lon":130.5574876,"areaKm2":0.0992989,"populated2020":false,"population2020":null,"populationNote":"境界またぎ・原典収録外のため自治体内人口は未集計"},"geometry":{"type":"Polygon","coordinates":[[[130.55625,33.59896106883238],[130.557130272,33.59927389199999],[130.557543891,33.599287775],[130.558137497,33.599493054],[130.558181115,33.599077775000005],[130.558424449,33.598721667],[130.558414721,33.59832916199999],[130.558831388,33.597588892000005],[130.55932306100001,33.597182775],[130.55977083,33.59638416199999],[130.560033606,33.596306667],[130.56059340842785,33.59583333333333],[130.55625,33.59583333333333],[130.55625,33.59896106883238]]]}},{"type":"Feature","id":"40344:503033291","properties":{"id":"40344:503033291","meshCode":"503033291","cityCode":"40344","city":"須恵町","lat":33.6020833,"lon":130.490625,"areaKm2":0.2076192,"populated2020":true,"population2020":null,"populationNote":"境界またぎ・原典収録外のため自治体内人口は未集計"},"geometry":{"type":"Polygon","coordinates":[[[130.48940572,33.60000000000001],[130.489166667,33.60050194600001],[130.489070117,33.601222775],[130.489125551,33.601996666999995],[130.488303891,33.602389720999994],[130.488835837,33.603113333],[130.488645551,33.603955279],[130.48902198524084,33.60416666666666],[130.49375,33.60416666666666],[130.49375,33.6],[130.48940572,33.60000000000001]]]}},{"type":"Feature","id":"40344:503033292","properties":{"id":"40344:503033292","meshCode":"503033292","cityCode":"40344","city":"須恵町","lat":33.6020833,"lon":130.496875,"areaKm2":0.2680444,"populated2020":true,"population2020":67.3246,"populationNote":"2020年基準の国交省調整値"},"geometry":{"type":"Polygon","coordinates":[[[130.49375,33.6],[130.49375,33.60416666666666],[130.5,33.60416666666666],[130.5,33.60000000000001],[130.49375,33.6]]]}},{"type":"Feature","id":"40344:503034201","properties":{"id":"40344:503034201","meshCode":"503034201","cityCode":"40344","city":"須恵町","lat":33.6020833,"lon":130.503125,"areaKm2":0.268044,"populated2020":true,"population2020":237.7824,"populationNote":"2020年基準の国交省調整値"},"geometry":{"type":"Polygon","coordinates":[[[130.5,33.60000000000001],[130.5,33.60416666666666],[130.50625,33.60416666666666],[130.50625,33.6],[130.5,33.60000000000001]]]}},{"type":"Feature","id":"40344:503034202","properties":{"id":"40344:503034202","meshCode":"503034202","cityCode":"40344","city":"須恵町","lat":33.6020833,"lon":130.509375,"areaKm2":0.2680437,"populated2020":true,"population2020":184.5321,"populationNote":"2020年基準の国交省調整値"},"geometry":{"type":"Polygon","coordinates":[[[130.50625,33.6],[130.50625,33.60416666666666],[130.5125,33.604166666666664],[130.5125,33.6],[130.50625,33.6]]]}},{"type":"Feature","id":"40344:503034211","properties":{"id":"40344:503034211","meshCode":"503034211","cityCode":"40344","city":"須恵町","lat":33.6020833,"lon":130.515625,"areaKm2":0.2271533,"populated2020":false,"population2020":null,"populationNote":"境界またぎ・原典収録外のため自治体内人口は未集計"},"geometry":{"type":"Polygon","coordinates":[[[130.515706667,33.603853613],[130.516563333,33.603137225],[130.51807166,33.60242972099999],[130.51875,33.6022121876368],[130.51875,33.60000000000001],[130.5125,33.6],[130.5125,33.604166666666664],[130.51549240535138,33.60416666666666],[130.515706667,33.603853613]]]}},{"type":"Feature","id":"40344:503034212","properties":{"id":"40344:503034212","meshCode":"503034212","cityCode":"40344","city":"須恵町","lat":33.6020833,"lon":130.521875,"areaKm2":0.1228151,"populated2020":false,"population2020":null,"populationNote":"境界またぎ・原典収録外のため自治体内人口は未集計"},"geometry":{"type":"Polygon","coordinates":[[[130.51875,33.6022121876368],[130.519777224,33.60208],[130.520872218,33.602289441],[130.521446394,33.602262225],[130.52301472100004,33.60196555900001],[130.523807497,33.601719161999995],[130.524094721,33.60154582900001],[130.524639728,33.600706386999995],[130.525,33.600581135],[130.525,33.6],[130.51875,33.60000000000001],[130.51875,33.6022121876368]]]}},{"type":"Feature","id":"40344:503034221","properties":{"id":"40344:503034221","meshCode":"503034221","cityCode":"40344","city":"須恵町","lat":33.6004546,"lon":130.5261021,"areaKm2":0.03592,"populated2020":false,"population2020":null,"populationNote":"境界またぎ・原典収録外のため自治体内人口は未集計"},"geometry":{"type":"Polygon","coordinates":[[[130.525048612,33.600578613],[130.52548166,33.60092527899999],[130.525983061,33.60094361299999],[130.526343061,33.600815829],[130.526997497,33.600752225],[130.52729917,33.600209162000006],[130.528764163,33.60012222500001],[130.529007224,33.600186108],[130.529177497,33.60032305400001],[130.529493891,33.600793333000006],[130.529689442,33.600885829],[130.52993778200002,33.60076694599999],[130.53052166,33.600662225],[130.531222503,33.600374720999994],[130.53125,33.60000000000001],[130.525,33.6],[130.525048612,33.600578613]]]}},{"type":"Feature","id":"40344:503034222","properties":{"id":"40344:503034222","meshCode":"503034222","cityCode":"40344","city":"須恵町","lat":33.6002297,"lon":130.5313149,"areaKm2":0.0006737,"populated2020":true,"population2020":null,"populationNote":"境界またぎ・原典収録外のため自治体内人口は未集計"},"geometry":{"type":"Polygon","coordinates":[[[130.53125,33.60034937838242],[130.531615058,33.6],[130.53125,33.60000000000001],[130.53125,33.60034937838242]]]}},{"type":"Feature","id":"40344:503033293","properties":{"id":"40344:503033293","meshCode":"503033293","cityCode":"40344","city":"須恵町","lat":33.60625,"lon":130.490625,"areaKm2":0.1942225,"populated2020":true,"population2020":null,"populationNote":"境界またぎ・原典収録外のため自治体内人口は未集計"},"geometry":{"type":"Polygon","coordinates":[[[130.489022218,33.604166946],[130.489276109,33.605000279],[130.489457224,33.605991946],[130.489034163,33.606933613],[130.48926027196697,33.608333333333334],[130.49375,33.608333333333334],[130.49375,33.60416666666666],[130.489022218,33.604166946]]]}},{"type":"Feature","id":"40344:503033294","properties":{"id":"40344:503033294","meshCode":"503033294","cityCode":"40344","city":"須恵町","lat":33.60625,"lon":130.496875,"areaKm2":0.2680317,"populated2020":true,"population2020":89.4424,"populationNote":"2020年基準の国交省調整値"},"geometry":{"type":"Polygon","coordinates":[[[130.49375,33.60416666666666],[130.49375,33.608333333333334],[130.5,33.608333333333334],[130.5,33.60416666666666],[130.49375,33.60416666666666]]]}},{"type":"Feature","id":"40344:503034203","properties":{"id":"40344:503034203","meshCode":"503034203","cityCode":"40344","city":"須恵町","lat":33.60625,"lon":130.503125,"areaKm2":0.2680313,"populated2020":true,"population2020":15.1407,"populationNote":"2020年基準の国交省調整値"},"geometry":{"type":"Polygon","coordinates":[[[130.5,33.60416666666666],[130.5,33.608333333333334],[130.50625,33.608333333333334],[130.50625,33.60416666666666],[130.5,33.60416666666666]]]}},{"type":"Feature","id":"40344:503034204","properties":{"id":"40344:503034204","meshCode":"503034204","cityCode":"40344","city":"須恵町","lat":33.60625,"lon":130.509375,"areaKm2":0.259593,"populated2020":false,"population2020":null,"populationNote":"境界またぎ・原典収録外のため自治体内人口は未集計"},"geometry":{"type":"Polygon","coordinates":[[[130.510779559,33.608333333],[130.511865279,33.60791416200001],[130.512050272,33.607763613],[130.512118327,33.60737110800001],[130.5125,33.606976504133584],[130.5125,33.604166666666664],[130.50625,33.60416666666666],[130.50625,33.608333333333334],[130.510779559,33.608333333]]]}},{"type":"Feature","id":"40344:503034213","properties":{"id":"40344:503034213","meshCode":"503034213","cityCode":"40344","city":"須恵町","lat":33.6055615,"lon":130.513511,"areaKm2":0.0539405,"populated2020":true,"population2020":null,"populationNote":"境界またぎ・原典収録外のため自治体内人口は未集計"},"geometry":{"type":"Polygon","coordinates":[[[130.5125,33.606976504133584],[130.513203606,33.606508612999995],[130.514193606,33.60609082900001],[130.514436939,33.605634441],[130.514972218,33.605146387],[130.51549240535138,33.60416666666666],[130.5125,33.604166666666664],[130.5125,33.606976504133584]]]}},{"type":"Feature","id":"40344:503033391","properties":{"id":"40344:503033391","meshCode":"503033391","cityCode":"40344","city":"須恵町","lat":33.6097489,"lon":130.4917533,"areaKm2":0.0851702,"populated2020":true,"population2020":null,"populationNote":"境界またぎ・原典収録外のため自治体内人口は未集計"},"geometry":{"type":"Polygon","coordinates":[[[130.48926027196697,33.608333333333334],[130.489220272,33.609117495],[130.489311089,33.609536252],[130.489412335,33.60962610800001],[130.49010555100003,33.609853613],[130.490486109,33.609846108],[130.491044994,33.609965559],[130.492314994,33.610400829],[130.492614163,33.610373054],[130.492911946,33.61045582900001],[130.493317224,33.61073305400001],[130.49375,33.61116364445827],[130.49375,33.608333333333334],[130.48926027196697,33.608333333333334]]]}},{"type":"Feature","id":"40344:503033392","properties":{"id":"40344:503033392","meshCode":"503033392","cityCode":"40344","city":"須恵町","lat":33.6104167,"lon":130.496875,"areaKm2":0.2512157,"populated2020":true,"population2020":99.5113,"populationNote":"2020年基準の国交省調整値"},"geometry":{"type":"Polygon","coordinates":[[[130.49375,33.61116364445827],[130.495705551,33.61222055900001],[130.495705551,33.6125],[130.5,33.612500000000004],[130.5,33.608333333333334],[130.49375,33.608333333333334],[130.49375,33.61116364445827]]]}},{"type":"Feature","id":"40344:503034301","properties":{"id":"40344:503034301","meshCode":"503034301","cityCode":"40344","city":"須恵町","lat":33.6104167,"lon":130.503125,"areaKm2":0.2509908,"populated2020":true,"population2020":11.2134,"populationNote":"2020年基準の国交省調整値"},"geometry":{"type":"Polygon","coordinates":[[[130.501362776,33.61249805399999],[130.501888327,33.612208054],[130.503294449,33.612454721000006],[130.503995279,33.612431946],[130.504658612,33.612058613],[130.505612503,33.611793892],[130.50625,33.611434117999885],[130.50625,33.608333333333334],[130.5,33.608333333333334],[130.5,33.612500000000004],[130.501362776,33.61249805399999]]]}},{"type":"Feature","id":"40344:503034302","properties":{"id":"40344:503034302","meshCode":"503034302","cityCode":"40344","city":"須恵町","lat":33.6099236,"lon":130.5069457,"areaKm2":0.0544978,"populated2020":false,"population2020":null,"populationNote":"境界またぎ・原典収録外のため自治体内人口は未集計"},"geometry":{"type":"Polygon","coordinates":[[[130.506259728,33.611428612999994],[130.506643891,33.611195829],[130.506877497,33.610680559],[130.50717917,33.61028805400001],[130.508417782,33.609199441],[130.508719442,33.609030559000004],[130.509814449,33.608816108],[130.51077955828242,33.60833333333333],[130.50625,33.608333333333334],[130.506259728,33.611428612999994]]]}},{"type":"Feature","id":"40344:503033394","properties":{"id":"40344:503033394","meshCode":"503033394","cityCode":"40344","city":"須恵町","lat":33.6145833,"lon":130.496875,"areaKm2":0.1090102,"populated2020":true,"population2020":null,"populationNote":"境界またぎ・原典収録外のため自治体内人口は未集計"},"geometry":{"type":"Polygon","coordinates":[[[130.495705551,33.6125],[130.495716667,33.612763892],[130.495933061,33.613247494999996],[130.495836109,33.613574162000006],[130.495544449,33.613944721],[130.495542114,33.614061],[130.495742114,33.61432236],[130.495494449,33.614911108],[130.496007782,33.615020559],[130.497661946,33.615130829],[130.498713891,33.61477777500001],[130.499076667,33.614934441],[130.499437782,33.614951108],[130.5,33.614587919],[130.5,33.612500000000004],[130.495705551,33.6125]]]}},{"type":"Feature","id":"40344:503034303","properties":{"id":"40344:503034303","meshCode":"503034303","cityCode":"40344","city":"須恵町","lat":33.6134115,"lon":130.5002033,"areaKm2":0.0107825,"populated2020":true,"population2020":null,"populationNote":"境界またぎ・原典収録外のため自治体内人口は未集計"},"geometry":{"type":"Polygon","coordinates":[[[130.5,33.614587919],[130.500297224,33.614162225],[130.500448054,33.613276946],[130.500623061,33.613038892],[130.5013598859015,33.61249999999999],[130.5,33.612500000000004],[130.5,33.614587919]]]}}]}