{"type":"FeatureCollection","metadata":{"cityCode":"40343","city":"志免町","resolution":500,"boundaryDate":"2026-01-01","populationLabel":"2020年基準人口（国交省調整値）","method":"標準地域メッシュを行政界で切抜き。中心が区域外のとき区域内代表点を判定点にする。人口不明をゼロにしない。"},"features":[{"type":"Feature","id":"40343:503023782","properties":{"id":"40343:503023782","meshCode":"503023782","cityCode":"40343","city":"志免町","lat":33.5613471,"lon":130.4861574,"areaKm2":0.0547443,"populated2020":true,"population2020":152.1662,"populationNote":"2020年基準の国交省調整値"},"geometry":{"type":"Polygon","coordinates":[[[130.487499442,33.561650279],[130.486937224,33.560834441000004],[130.486426667,33.560538054000006],[130.485641115,33.560283054],[130.48541917000003,33.560581946],[130.48536083,33.560868613],[130.484867782,33.56151500000001],[130.483986394,33.56207194600001],[130.483583333,33.56221833299999],[130.48320917488144,33.562500000000014],[130.4875,33.56250000000001],[130.487499442,33.561650279]]]}},{"type":"Feature","id":"40343:503023791","properties":{"id":"40343:503023791","meshCode":"503023791","cityCode":"40343","city":"志免町","lat":33.5621085,"lon":130.487589,"areaKm2":0.0018269,"populated2020":true,"population2020":null,"populationNote":"境界またぎ・原典収録外のため自治体内人口は未集計"},"geometry":{"type":"Polygon","coordinates":[[[130.488043606,33.56246861300001],[130.487722503,33.562179721],[130.4875,33.561651680457565],[130.4875,33.56250000000001],[130.488043606,33.56246861300001]]]}},{"type":"Feature","id":"40343:503023784","properties":{"id":"40343:503023784","meshCode":"503023784","cityCode":"40343","city":"志免町","lat":33.5645833,"lon":130.484375,"areaKm2":0.2302438,"populated2020":true,"population2020":856.7955,"populationNote":"2020年基準の国交省調整値"},"geometry":{"type":"Polygon","coordinates":[[[130.48320917488144,33.562500000000014],[130.482578327,33.563308332999995],[130.482542776,33.563899162],[130.482401946,33.56421638700001],[130.481646667,33.56488110800001],[130.481596394,33.566198333],[130.48198197063775,33.56666666666668],[130.4875,33.56666666666668],[130.4875,33.56250000000001],[130.48320917488144,33.562500000000014]]]}},{"type":"Feature","id":"40343:503023793","properties":{"id":"40343:503023793","meshCode":"503023793","cityCode":"40343","city":"志免町","lat":33.5647983,"lon":130.4877905,"areaKm2":0.0216825,"populated2020":true,"population2020":null,"populationNote":"境界またぎ・原典収録外のため自治体内人口は未集計"},"geometry":{"type":"Polygon","coordinates":[[[130.488322503,33.56662166699999],[130.488484721,33.56652666699999],[130.48776083,33.565767495],[130.487685577,33.565492721000005],[130.488018327,33.565169721],[130.488253333,33.564000559],[130.48790083,33.563826387],[130.48776472100002,33.56348249500001],[130.487928327,33.562826108],[130.488113061,33.562527495],[130.4875,33.56250000000001],[130.4875,33.56666666666668],[130.488322503,33.56662166699999]]]}},{"type":"Feature","id":"40343:503023881","properties":{"id":"40343:503023881","meshCode":"503023881","cityCode":"40343","city":"志免町","lat":33.56875,"lon":130.478125,"areaKm2":0.1398469,"populated2020":true,"population2020":null,"populationNote":"境界またぎ・原典収録外のため自治体内人口は未集計"},"geometry":{"type":"Polygon","coordinates":[[[130.477234721,33.568320279000005],[130.477457224,33.568965559],[130.477300272,33.568995828999995],[130.477617497,33.570264721],[130.47793955529582,33.57083333333333],[130.48125,33.57083333333333],[130.48125,33.567693461949894],[130.480696109,33.56760361300001],[130.480100558,33.567212775],[130.47964138800003,33.567032775],[130.479478054,33.56703444099999],[130.478940558,33.56727722499999],[130.478218054,33.567155828999994],[130.47727917,33.56721082899999],[130.477283891,33.567856108],[130.477406939,33.56828972100001],[130.477234721,33.568320279000005]]]}},{"type":"Feature","id":"40343:503023882","properties":{"id":"40343:503023882","meshCode":"503023882","cityCode":"40343","city":"志免町","lat":33.56875,"lon":130.484375,"areaKm2":0.2496345,"populated2020":true,"population2020":858.8105,"populationNote":"2020年基準の国交省調整値"},"geometry":{"type":"Polygon","coordinates":[[[130.48744917,33.568825829],[130.487039728,33.567985559],[130.486966667,33.567521946],[130.487114163,33.566997495],[130.4875,33.56693976168888],[130.4875,33.56666666666668],[130.48198197063775,33.56666666666668],[130.48250917,33.567421667],[130.481606667,33.56774222500001],[130.481438612,33.56776861299999],[130.48125,33.567693461949894],[130.48125,33.57083333333333],[130.4875,33.57083333333334],[130.48744917,33.568825829]]]}},{"type":"Feature","id":"40343:503023891","properties":{"id":"40343:503023891","meshCode":"503023891","cityCode":"40343","city":"志免町","lat":33.5698581,"lon":130.4877842,"areaKm2":0.0157645,"populated2020":true,"population2020":null,"populationNote":"境界またぎ・原典収録外のため自治体内人口は未集計"},"geometry":{"type":"MultiPolygon","coordinates":[[[[130.4894357843508,33.57083333333333],[130.48819,33.570037225],[130.4875,33.568901081139614],[130.4875,33.57083333333334],[130.4894357843508,33.57083333333333]]],[[[130.487515837,33.566940279],[130.487844994,33.566862495],[130.48823328166088,33.56666666666668],[130.4875,33.56666666666668],[130.487515837,33.566940279]]]]}},{"type":"Feature","id":"40343:503023883","properties":{"id":"40343:503023883","meshCode":"503023883","cityCode":"40343","city":"志免町","lat":33.5729669,"lon":130.4802616,"areaKm2":0.1019332,"populated2020":true,"population2020":null,"populationNote":"境界またぎ・原典収録外のため自治体内人口は未集計"},"geometry":{"type":"Polygon","coordinates":[[[130.47793955529582,33.57083333333333],[130.478455551,33.571530559],[130.478573606,33.571947775],[130.479382503,33.572590000000005],[130.479188327,33.573318892],[130.47921083,33.57353916200001],[130.47935166,33.573618892],[130.479330558,33.573805279],[130.47921083,33.574087775],[130.478698327,33.574415559],[130.478736939,33.574882495],[130.478831388,33.575],[130.48125,33.575],[130.48125,33.57083333333333],[130.47793955529582,33.57083333333333]]]}},{"type":"Feature","id":"40343:503023884","properties":{"id":"40343:503023884","meshCode":"503023884","cityCode":"40343","city":"志免町","lat":33.5729167,"lon":130.484375,"areaKm2":0.2681341,"populated2020":true,"population2020":948.1105,"populationNote":"2020年基準の国交省調整値"},"geometry":{"type":"Polygon","coordinates":[[[130.48125,33.57083333333333],[130.48125,33.575],[130.4875,33.575],[130.4875,33.57083333333334],[130.48125,33.57083333333333]]]}},{"type":"Feature","id":"40343:503023893","properties":{"id":"40343:503023893","meshCode":"503023893","cityCode":"40343","city":"志免町","lat":33.5729167,"lon":130.490625,"areaKm2":0.1827258,"populated2020":true,"population2020":null,"populationNote":"境界またぎ・原典収録外のため自治体内人口は未集計"},"geometry":{"type":"Polygon","coordinates":[[[130.49375,33.574221295997546],[130.49345,33.57455722500001],[130.492342503,33.573349721],[130.491443606,33.57267055900001],[130.490544721,33.57185805400001],[130.490346939,33.57157110800001],[130.489731388,33.571136108],[130.4894357843508,33.57083333333333],[130.4875,33.57083333333334],[130.4875,33.575],[130.49375,33.575],[130.49375,33.574221295997546]]]}},{"type":"Feature","id":"40343:503023894","properties":{"id":"40343:503023894","meshCode":"503023894","cityCode":"40343","city":"志免町","lat":33.5729167,"lon":130.496875,"areaKm2":0.1055993,"populated2020":true,"population2020":null,"populationNote":"境界またぎ・原典収録外のため自治体内人口は未集計"},"geometry":{"type":"Polygon","coordinates":[[[130.498394137,33.575],[130.499626109,33.57354000000001],[130.499550272,33.573423892],[130.499116667,33.573424721],[130.497663606,33.572889721],[130.496754163,33.572694721],[130.495876667,33.57267194600001],[130.495324163,33.572892495],[130.494755837,33.57326027900001],[130.493801946,33.574158054],[130.49375,33.575],[130.498394137,33.575]]]}},{"type":"Feature","id":"40343:503023981","properties":{"id":"40343:503023981","meshCode":"503023981","cityCode":"40343","city":"志免町","lat":33.5770833,"lon":130.478125,"areaKm2":0.1613343,"populated2020":true,"population2020":null,"populationNote":"境界またぎ・原典収録外のため自治体内人口は未集計"},"geometry":{"type":"Polygon","coordinates":[[[130.478831388,33.575],[130.47897832700002,33.575260279],[130.478713061,33.57571138699999],[130.478494449,33.575878333],[130.477525837,33.577722775],[130.477043606,33.57769610799999],[130.47585,33.578371946],[130.47575917,33.578749721],[130.47541159443423,33.579166666666666],[130.48125,33.579166666666666],[130.48125,33.575],[130.478831388,33.575]]]}},{"type":"Feature","id":"40343:503023982","properties":{"id":"40343:503023982","meshCode":"503023982","cityCode":"40343","city":"志免町","lat":33.5770833,"lon":130.484375,"areaKm2":0.2681214,"populated2020":true,"population2020":447.5814,"populationNote":"2020年基準の国交省調整値"},"geometry":{"type":"Polygon","coordinates":[[[130.48125,33.575],[130.48125,33.579166666666666],[130.4875,33.57916666666666],[130.4875,33.575],[130.48125,33.575]]]}},{"type":"Feature","id":"40343:503023991","properties":{"id":"40343:503023991","meshCode":"503023991","cityCode":"40343","city":"志免町","lat":33.5770833,"lon":130.490625,"areaKm2":0.268121,"populated2020":true,"population2020":989.0705,"populationNote":"2020年基準の国交省調整値"},"geometry":{"type":"Polygon","coordinates":[[[130.4875,33.575],[130.4875,33.57916666666666],[130.49375,33.57916666666666],[130.49375,33.575],[130.4875,33.575]]]}},{"type":"Feature","id":"40343:503023992","properties":{"id":"40343:503023992","meshCode":"503023992","cityCode":"40343","city":"志免町","lat":33.5770833,"lon":130.496875,"areaKm2":0.1937576,"populated2020":true,"population2020":null,"populationNote":"境界またぎ・原典収録外のため自治体内人口は未集計"},"geometry":{"type":"Polygon","coordinates":[[[130.499903061,33.57831416199999],[130.49947083,33.578016387000005],[130.498873333,33.578334162000004],[130.497776394,33.577341667],[130.496854994,33.576746667],[130.498394137,33.575],[130.49375,33.575],[130.49375,33.57916666666666],[130.5,33.579166666666666],[130.5,33.57830764],[130.499903061,33.57831416199999]]]}},{"type":"Feature","id":"40343:503024901","properties":{"id":"40343:503024901","meshCode":"503024901","cityCode":"40343","city":"志免町","lat":33.5785495,"lon":130.5003627,"areaKm2":0.0063469,"populated2020":true,"population2020":null,"populationNote":"境界またぎ・原典収録外のため自治体内人口は未集計"},"geometry":{"type":"Polygon","coordinates":[[[130.50062927685673,33.57916666666666],[130.500758885,33.578304161999995],[130.500629442,33.578255279000004],[130.5,33.57830764],[130.5,33.579166666666666],[130.50062927685673,33.57916666666666]]]}},{"type":"Feature","id":"40343:503023974","properties":{"id":"40343:503023974","meshCode":"503023974","cityCode":"40343","city":"志免町","lat":33.5822014,"lon":130.4744305,"areaKm2":0.0260457,"populated2020":true,"population2020":null,"populationNote":"境界またぎ・原典収録外のため自治体内人口は未集計"},"geometry":{"type":"Polygon","coordinates":[[[130.474966394,33.580959721000006],[130.474303606,33.581309721],[130.473919728,33.58173694600001],[130.473843606,33.58192277500001],[130.47383610900002,33.582498892],[130.473489662927,33.58333333333334],[130.475,33.583333333333336],[130.474966394,33.580959721000006]]]}},{"type":"Feature","id":"40343:503023983","properties":{"id":"40343:503023983","meshCode":"503023983","cityCode":"40343","city":"志免町","lat":33.58125,"lon":130.478125,"areaKm2":0.2633644,"populated2020":true,"population2020":1825.1549,"populationNote":"2020年基準の国交省調整値"},"geometry":{"type":"Polygon","coordinates":[[[130.47541159443423,33.579166666666666],[130.475133476,33.579724135],[130.475152503,33.579860278999995],[130.475290272,33.579966667],[130.47535,33.580439721000005],[130.475243333,33.580802225],[130.475,33.580944027],[130.475,33.583333333333336],[130.48125,33.58333333333334],[130.48125,33.579166666666666],[130.47541159443423,33.579166666666666]]]}},{"type":"Feature","id":"40343:503023984","properties":{"id":"40343:503023984","meshCode":"503023984","cityCode":"40343","city":"志免町","lat":33.58125,"lon":130.484375,"areaKm2":0.2681087,"populated2020":true,"population2020":1069.2719,"populationNote":"2020年基準の国交省調整値"},"geometry":{"type":"Polygon","coordinates":[[[130.48125,33.579166666666666],[130.48125,33.58333333333334],[130.4875,33.583333333333336],[130.4875,33.57916666666666],[130.48125,33.579166666666666]]]}},{"type":"Feature","id":"40343:503023993","properties":{"id":"40343:503023993","meshCode":"503023993","cityCode":"40343","city":"志免町","lat":33.58125,"lon":130.490625,"areaKm2":0.2681083,"populated2020":true,"population2020":2386.5436,"populationNote":"2020年基準の国交省調整値"},"geometry":{"type":"Polygon","coordinates":[[[130.4875,33.57916666666666],[130.4875,33.583333333333336],[130.49375,33.58333333333334],[130.49375,33.57916666666666],[130.4875,33.57916666666666]]]}},{"type":"Feature","id":"40343:503023994","properties":{"id":"40343:503023994","meshCode":"503023994","cityCode":"40343","city":"志免町","lat":33.58125,"lon":130.496875,"areaKm2":0.1785141,"populated2020":true,"population2020":null,"populationNote":"境界またぎ・原典収録外のため自治体内人口は未集計"},"geometry":{"type":"Polygon","coordinates":[[[130.49495046700002,33.583333333],[130.495443606,33.583072495],[130.495844994,33.582595278999996],[130.496009728,33.581970279000004],[130.496573891,33.582074440999996],[130.496738495,33.58218058600001],[130.497663333,33.581654162],[130.499336667,33.580323332999996],[130.5,33.580056387],[130.5,33.579166666666666],[130.49375,33.57916666666666],[130.49375,33.58333333333334],[130.49495046700002,33.583333333]]]}},{"type":"Feature","id":"40343:503024903","properties":{"id":"40343:503024903","meshCode":"503024903","cityCode":"40343","city":"志免町","lat":33.5794412,"lon":130.5002849,"areaKm2":0.0043104,"populated2020":true,"population2020":null,"populationNote":"境界またぎ・原典収録外のため自治体内人口は未集計"},"geometry":{"type":"Polygon","coordinates":[[[130.5,33.580056387],[130.500363606,33.579910829],[130.500527782,33.579612495],[130.50062927685673,33.57916666666666],[130.5,33.579166666666666],[130.5,33.580056387]]]}},{"type":"Feature","id":"40343:503033071","properties":{"id":"40343:503033071","meshCode":"503033071","cityCode":"40343","city":"志免町","lat":33.5870789,"lon":130.4680286,"areaKm2":0.0101709,"populated2020":true,"population2020":null,"populationNote":"境界またぎ・原典収録外のため自治体内人口は未集計"},"geometry":{"type":"Polygon","coordinates":[[[130.46875,33.58694583909724],[130.467881946,33.586760829],[130.467383606,33.586952775],[130.46705211769728,33.5875],[130.46875,33.5875],[130.46875,33.58694583909724]]]}},{"type":"Feature","id":"40343:503033072","properties":{"id":"40343:503033072","meshCode":"503033072","cityCode":"40343","city":"志免町","lat":33.5854167,"lon":130.471875,"areaKm2":0.1638631,"populated2020":true,"population2020":null,"populationNote":"境界またぎ・原典収録外のため自治体内人口は未集計"},"geometry":{"type":"Polygon","coordinates":[[[130.473489662927,33.58333333333334],[130.473393165,33.583700802],[130.47317917,33.583539721],[130.473048054,33.58358333299999],[130.470971829,33.585803891999994],[130.470529442,33.58619333299999],[130.469848612,33.58654333300001],[130.469276109,33.587124721],[130.46875,33.58694583909724],[130.46875,33.5875],[130.475,33.5875],[130.475,33.583333333333336],[130.473489662927,33.58333333333334]]]}},{"type":"Feature","id":"40343:503033081","properties":{"id":"40343:503033081","meshCode":"503033081","cityCode":"40343","city":"志免町","lat":33.5854167,"lon":130.478125,"areaKm2":0.2680963,"populated2020":true,"population2020":1145.7168,"populationNote":"2020年基準の国交省調整値"},"geometry":{"type":"Polygon","coordinates":[[[130.475,33.583333333333336],[130.475,33.5875],[130.48125,33.5875],[130.48125,33.58333333333334],[130.475,33.583333333333336]]]}},{"type":"Feature","id":"40343:503033082","properties":{"id":"40343:503033082","meshCode":"503033082","cityCode":"40343","city":"志免町","lat":33.5854167,"lon":130.484375,"areaKm2":0.268096,"populated2020":true,"population2020":1789.2214,"populationNote":"2020年基準の国交省調整値"},"geometry":{"type":"Polygon","coordinates":[[[130.48125,33.58333333333334],[130.48125,33.5875],[130.4875,33.5875],[130.4875,33.583333333333336],[130.48125,33.58333333333334]]]}},{"type":"Feature","id":"40343:503033091","properties":{"id":"40343:503033091","meshCode":"503033091","cityCode":"40343","city":"志免町","lat":33.5854167,"lon":130.490625,"areaKm2":0.2277866,"populated2020":true,"population2020":null,"populationNote":"境界またぎ・原典収録外のため自治体内人口は未集計"},"geometry":{"type":"Polygon","coordinates":[[[130.49341712425505,33.5875],[130.49307138800003,33.58715416199999],[130.492239728,33.586715279],[130.49203083,33.586262225000006],[130.491858885,33.586189999999995],[130.491785279,33.585572495],[130.491918054,33.585391946],[130.492566939,33.585221108],[130.493087782,33.584748613],[130.493570272,33.58444694599999],[130.49375,33.58421497739952],[130.49375,33.58333333333334],[130.4875,33.583333333333336],[130.4875,33.5875],[130.49341712425505,33.5875]]]}},{"type":"Feature","id":"40343:503033092","properties":{"id":"40343:503033092","meshCode":"503033092","cityCode":"40343","city":"志免町","lat":33.5837382,"lon":130.4939548,"areaKm2":0.0040161,"populated2020":true,"population2020":null,"populationNote":"境界またぎ・原典収録外のため自治体内人口は未集計"},"geometry":{"type":"Polygon","coordinates":[[[130.49375,33.58421497739952],[130.494239728,33.583643333],[130.4949504661218,33.58333333333334],[130.49375,33.58333333333334],[130.49375,33.58421497739952]]]}},{"type":"Feature","id":"40343:503033073","properties":{"id":"40343:503033073","meshCode":"503033073","cityCode":"40343","city":"志免町","lat":33.5895961,"lon":130.4673192,"areaKm2":0.1406825,"populated2020":true,"population2020":798.2835,"populationNote":"2020年基準の国交省調整値"},"geometry":{"type":"Polygon","coordinates":[[[130.46705211769728,33.5875],[130.46640166,33.588985279],[130.466219442,33.58920222500001],[130.466082244,33.589190972999994],[130.465762555,33.58983005399999],[130.465577782,33.589932775],[130.465024721,33.590026108],[130.46436917,33.590681667000005],[130.463526394,33.59119305400001],[130.46326594015034,33.591666666666676],[130.46875,33.591666666666676],[130.46875,33.5875],[130.46705211769728,33.5875]]]}},{"type":"Feature","id":"40343:503033074","properties":{"id":"40343:503033074","meshCode":"503033074","cityCode":"40343","city":"志免町","lat":33.5895833,"lon":130.471875,"areaKm2":0.268084,"populated2020":true,"population2020":1325.847,"populationNote":"2020年基準の国交省調整値"},"geometry":{"type":"Polygon","coordinates":[[[130.46875,33.5875],[130.46875,33.591666666666676],[130.475,33.59166666666667],[130.475,33.5875],[130.46875,33.5875]]]}},{"type":"Feature","id":"40343:503033083","properties":{"id":"40343:503033083","meshCode":"503033083","cityCode":"40343","city":"志免町","lat":33.5895833,"lon":130.478125,"areaKm2":0.2680836,"populated2020":true,"population2020":2205.3695,"populationNote":"2020年基準の国交省調整値"},"geometry":{"type":"Polygon","coordinates":[[[130.475,33.5875],[130.475,33.59166666666667],[130.48125,33.59166666666667],[130.48125,33.5875],[130.475,33.5875]]]}},{"type":"Feature","id":"40343:503033084","properties":{"id":"40343:503033084","meshCode":"503033084","cityCode":"40343","city":"志免町","lat":33.5895833,"lon":130.484375,"areaKm2":0.2680833,"populated2020":true,"population2020":1185.6905,"populationNote":"2020年基準の国交省調整値"},"geometry":{"type":"Polygon","coordinates":[[[130.48125,33.5875],[130.48125,33.59166666666667],[130.4875,33.59166666666667],[130.4875,33.5875],[130.48125,33.5875]]]}},{"type":"Feature","id":"40343:503033093","properties":{"id":"40343:503033093","meshCode":"503033093","cityCode":"40343","city":"志免町","lat":33.5895833,"lon":130.490625,"areaKm2":0.1729995,"populated2020":true,"population2020":null,"populationNote":"境界またぎ・原典収録外のため自治体内人口は未集計"},"geometry":{"type":"Polygon","coordinates":[[[130.489567224,33.59142944100001],[130.489789728,33.591166387],[130.49005917,33.591028613],[130.490694163,33.590942225000006],[130.490784994,33.59066833300001],[130.490405551,33.59048805399999],[130.490110558,33.590088054000006],[130.490685837,33.590076945999996],[130.491526109,33.58924972100001],[130.493664163,33.58813389200001],[130.49375,33.58805702123471],[130.49375,33.58759007490416],[130.49341712425505,33.5875],[130.4875,33.5875],[130.4875,33.59166666666667],[130.48964055789696,33.591666666666676],[130.489567224,33.59142944100001]]]}},{"type":"Feature","id":"40343:503033094","properties":{"id":"40343:503033094","meshCode":"503033094","cityCode":"40343","city":"志免町","lat":33.5877899,"lon":130.4937851,"areaKm2":0.000266,"populated2020":true,"population2020":null,"populationNote":"境界またぎ・原典収録外のため自治体内人口は未集計"},"geometry":{"type":"Polygon","coordinates":[[[130.49375,33.58805702123471],[130.493835837,33.587855279],[130.49375,33.58759007490416],[130.49375,33.58805702123471]]]}},{"type":"Feature","id":"40343:503033162","properties":{"id":"40343:503033162","meshCode":"503033162","cityCode":"40343","city":"志免町","lat":33.5944574,"lon":130.4616284,"areaKm2":0.0398206,"populated2020":true,"population2020":null,"populationNote":"境界またぎ・原典収録外のため自治体内人口は未集計"},"geometry":{"type":"Polygon","coordinates":[[[130.4625,33.592970584608246],[130.462029728,33.593605278999995],[130.46070083,33.594522225000006],[130.460453333,33.59503916199999],[130.46043,33.595539441],[130.46015222850082,33.59583333333333],[130.4625,33.59583333333333],[130.4625,33.592970584608246]]]}},{"type":"Feature","id":"40343:503033171","properties":{"id":"40343:503033171","meshCode":"503033171","cityCode":"40343","city":"志免町","lat":33.59375,"lon":130.465625,"areaKm2":0.2644098,"populated2020":true,"population2020":1304.0523,"populationNote":"2020年基準の国交省調整値"},"geometry":{"type":"Polygon","coordinates":[[[130.46326594,33.59166666699999],[130.46314499400003,33.59192138699999],[130.462671388,33.592219162],[130.462568612,33.59239638700001],[130.4625,33.592970584608246],[130.4625,33.59583333333333],[130.46875,33.59583333333333],[130.46875,33.591666666666676],[130.46326594,33.59166666699999]]]}},{"type":"Feature","id":"40343:503033172","properties":{"id":"40343:503033172","meshCode":"503033172","cityCode":"40343","city":"志免町","lat":33.59375,"lon":130.471875,"areaKm2":0.2680713,"populated2020":true,"population2020":1774.8076,"populationNote":"2020年基準の国交省調整値"},"geometry":{"type":"Polygon","coordinates":[[[130.46875,33.591666666666676],[130.46875,33.59583333333333],[130.475,33.59583333333333],[130.475,33.59166666666667],[130.46875,33.591666666666676]]]}},{"type":"Feature","id":"40343:503033181","properties":{"id":"40343:503033181","meshCode":"503033181","cityCode":"40343","city":"志免町","lat":33.59375,"lon":130.478125,"areaKm2":0.179683,"populated2020":true,"population2020":524.7,"populationNote":"2020年基準の国交省調整値"},"geometry":{"type":"Polygon","coordinates":[[[130.479472218,33.592805279],[130.479904449,33.593043892],[130.480257497,33.593416387000005],[130.48125,33.59411633197825],[130.48125,33.59166666666667],[130.475,33.59166666666667],[130.475,33.59583333333333],[130.47659818949586,33.59583333333333],[130.479472218,33.592805279]]]}},{"type":"Feature","id":"40343:503033182","properties":{"id":"40343:503033182","meshCode":"503033182","cityCode":"40343","city":"志免町","lat":33.59375,"lon":130.484375,"areaKm2":0.1910277,"populated2020":true,"population2020":119.0855,"populationNote":"2020年基準の国交省調整値"},"geometry":{"type":"Polygon","coordinates":[[[130.481276109,33.594130829],[130.481780272,33.594316387],[130.482574721,33.594840829],[130.484276109,33.594771946],[130.484579728,33.59465805400001],[130.485744994,33.59494805399999],[130.4875,33.59407018130019],[130.4875,33.59166666666667],[130.48125,33.59166666666667],[130.481276109,33.594130829]]]}},{"type":"Feature","id":"40343:503033191","properties":{"id":"40343:503033191","meshCode":"503033191","cityCode":"40343","city":"志免町","lat":33.5928121,"lon":130.4883325,"areaKm2":0.0367263,"populated2020":true,"population2020":null,"populationNote":"境界またぎ・原典収録外のため自治体内人口は未集計"},"geometry":{"type":"Polygon","coordinates":[[[130.4875,33.59407018130019],[130.488743554,33.593448333000005],[130.488618612,33.59326694600001],[130.489084163,33.592893892000006],[130.489504449,33.592425279],[130.489657782,33.592002775],[130.48964055789696,33.591666666666676],[130.4875,33.59166666666667],[130.4875,33.59407018130019]]]}},{"type":"Feature","id":"40343:503033163","properties":{"id":"40343:503033163","meshCode":"503033163","cityCode":"40343","city":"志免町","lat":33.5980535,"lon":130.4552649,"areaKm2":0.0770614,"populated2020":true,"population2020":null,"populationNote":"境界またぎ・原典収録外のため自治体内人口は未集計"},"geometry":{"type":"Polygon","coordinates":[[[130.45623917,33.596663613],[130.456078885,33.596610559000005],[130.456151946,33.59630361300001],[130.45550061,33.596168801999994],[130.455125837,33.597344162],[130.454418327,33.59798527900001],[130.454077497,33.598153053999994],[130.453854449,33.598121667],[130.453678392,33.598741802],[130.452870311,33.60000000000001],[130.45625,33.60000000000001],[130.45623917,33.596663613]]]}},{"type":"Feature","id":"40343:503033164","properties":{"id":"40343:503033164","meshCode":"503033164","cityCode":"40343","city":"志免町","lat":33.5979167,"lon":130.459375,"areaKm2":0.2313822,"populated2020":true,"population2020":null,"populationNote":"境界またぎ・原典収録外のため自治体内人口は未集計"},"geometry":{"type":"Polygon","coordinates":[[[130.460134163,33.595850000000006],[130.459338327,33.596786667],[130.459058054,33.596938333],[130.457591115,33.596947495],[130.456723606,33.59662694599999],[130.45625,33.59666335559818],[130.45625,33.60000000000001],[130.4625,33.6],[130.4625,33.59583333333333],[130.460134163,33.595850000000006]]]}},{"type":"Feature","id":"40343:503033173","properties":{"id":"40343:503033173","meshCode":"503033173","cityCode":"40343","city":"志免町","lat":33.5979167,"lon":130.465625,"areaKm2":0.268059,"populated2020":true,"population2020":1728.6905,"populationNote":"2020年基準の国交省調整値"},"geometry":{"type":"Polygon","coordinates":[[[130.4625,33.59583333333333],[130.4625,33.6],[130.46875,33.60000000000001],[130.46875,33.59583333333333],[130.4625,33.59583333333333]]]}},{"type":"Feature","id":"40343:503033174","properties":{"id":"40343:503033174","meshCode":"503033174","cityCode":"40343","city":"志免町","lat":33.5979167,"lon":130.471875,"areaKm2":0.2435835,"populated2020":true,"population2020":1570.6834,"populationNote":"2020年基準の国交省調整値"},"geometry":{"type":"Polygon","coordinates":[[[130.472842503,33.599866667],[130.474296329,33.59829074799999],[130.474834163,33.598651667000006],[130.475,33.59864099999999],[130.475,33.59583333333333],[130.46875,33.59583333333333],[130.46875,33.60000000000001],[130.473034864,33.6],[130.472842503,33.599866667]]]}},{"type":"Feature","id":"40343:503033183","properties":{"id":"40343:503033183","meshCode":"503033183","cityCode":"40343","city":"志免町","lat":33.5976657,"lon":130.4756048,"areaKm2":0.0403873,"populated2020":true,"population2020":null,"populationNote":"境界またぎ・原典収録外のため自治体内人口は未集計"},"geometry":{"type":"Polygon","coordinates":[[[130.475,33.59864099999999],[130.475209442,33.59866833299999],[130.47695158200003,33.596933027000006],[130.477212503,33.59649082899999],[130.476441634,33.595998279],[130.47659818949586,33.59583333333333],[130.475,33.59583333333333],[130.475,33.59864099999999]]]}},{"type":"Feature","id":"40343:503033252","properties":{"id":"40343:503033252","meshCode":"503033252","cityCode":"40343","city":"志免町","lat":33.6032846,"lon":130.4492838,"areaKm2":0.0222547,"populated2020":true,"population2020":null,"populationNote":"境界またぎ・原典収録外のため自治体内人口は未集計"},"geometry":{"type":"Polygon","coordinates":[[[130.45,33.60277853200001],[130.449366394,33.602693892],[130.448869442,33.602922225],[130.448667224,33.60310833300001],[130.448201388,33.60388972100001],[130.44791028058108,33.604166666666664],[130.45,33.60416666666667],[130.45,33.60277853200001]]]}},{"type":"Feature","id":"40343:503033261","properties":{"id":"40343:503033261","meshCode":"503033261","cityCode":"40343","city":"志免町","lat":33.6020833,"lon":130.453125,"areaKm2":0.231018,"populated2020":true,"population2020":null,"populationNote":"境界またぎ・原典収録外のため自治体内人口は未集計"},"geometry":{"type":"Polygon","coordinates":[[[130.452870311,33.60000000000001],[130.452186667,33.600795278999996],[130.45165583700003,33.60093222500001],[130.451566939,33.601224441],[130.450852218,33.60120249500001],[130.450543606,33.601306107999996],[130.450515837,33.602105829],[130.450635837,33.60224638700001],[130.450640272,33.602394440999994],[130.450439442,33.602677494999995],[130.45,33.60277853200001],[130.45,33.60416666666667],[130.45625,33.60416666666666],[130.45625,33.60000000000001],[130.452870311,33.60000000000001]]]}},{"type":"Feature","id":"40343:503033262","properties":{"id":"40343:503033262","meshCode":"503033262","cityCode":"40343","city":"志免町","lat":33.6020833,"lon":130.459375,"areaKm2":0.2680466,"populated2020":true,"population2020":2440.2749,"populationNote":"2020年基準の国交省調整値"},"geometry":{"type":"Polygon","coordinates":[[[130.45625,33.60000000000001],[130.45625,33.60416666666666],[130.4625,33.604166666666664],[130.4625,33.6],[130.45625,33.60000000000001]]]}},{"type":"Feature","id":"40343:503033271","properties":{"id":"40343:503033271","meshCode":"503033271","cityCode":"40343","city":"志免町","lat":33.6020833,"lon":130.465625,"areaKm2":0.2028444,"populated2020":true,"population2020":null,"populationNote":"境界またぎ・原典収録外のため自治体内人口は未集計"},"geometry":{"type":"Polygon","coordinates":[[[130.46370166,33.604127225],[130.464396939,33.603444161999995],[130.46510166,33.60380222500001],[130.46580083,33.603567225],[130.466015551,33.603446108],[130.466234721,33.603073333],[130.466627782,33.602644162],[130.46737944200004,33.602113613],[130.468461388,33.601682225000005],[130.46875,33.60185886832442],[130.46875,33.60000000000001],[130.4625,33.6],[130.4625,33.604166666666664],[130.46370166,33.604127225]]]}},{"type":"Feature","id":"40343:503033272","properties":{"id":"40343:503033272","meshCode":"503033272","cityCode":"40343","city":"志免町","lat":33.6010208,"lon":130.4720115,"areaKm2":0.0619458,"populated2020":true,"population2020":null,"populationNote":"境界またぎ・原典収録外のため自治体内人口は未集計"},"geometry":{"type":"Polygon","coordinates":[[[130.46875,33.60185886832442],[130.46908111500002,33.602041946],[130.470048885,33.601025279000005],[130.470492218,33.60067110799999],[130.470678327,33.60089305399999],[130.471218612,33.601263892],[130.472083606,33.601453054],[130.473299728,33.600948054],[130.473520272,33.600746108],[130.473486109,33.600312775],[130.473034864,33.6],[130.46875,33.60000000000001],[130.46875,33.60185886832442]]]}},{"type":"Feature","id":"40343:503033253","properties":{"id":"40343:503033253","meshCode":"503033253","cityCode":"40343","city":"志免町","lat":33.6062642,"lon":130.4431267,"areaKm2":0.0131438,"populated2020":true,"population2020":null,"populationNote":"境界またぎ・原典収録外のため自治体内人口は未集計"},"geometry":{"type":"Polygon","coordinates":[[[130.443555811,33.605354000000005],[130.44307917,33.605617225],[130.442984163,33.605732225],[130.443082218,33.60592],[130.442278327,33.60639472100001],[130.44241083,33.606677775],[130.44269083,33.606558891999995],[130.442975837,33.606580829],[130.44375,33.607062518780374],[130.44375,33.60539657387954],[130.443555811,33.605354000000005]]]}},{"type":"Feature","id":"40343:503033254","properties":{"id":"40343:503033254","meshCode":"503033254","cityCode":"40343","city":"志免町","lat":33.60625,"lon":130.446875,"areaKm2":0.1319509,"populated2020":true,"population2020":null,"populationNote":"境界またぎ・原典収録外のため自治体内人口は未集計"},"geometry":{"type":"Polygon","coordinates":[[[130.44791028058108,33.604166666666664],[130.446768885,33.604848333],[130.446517782,33.60489749500001],[130.445398054,33.60481916199999],[130.444784449,33.605038333],[130.444024449,33.605456387],[130.44375,33.60539657387954],[130.44375,33.607062518780374],[130.44442022,33.60752669399999],[130.445773891,33.606432495],[130.446465837,33.606155279],[130.447147224,33.60651694599999],[130.447601115,33.606094721],[130.448408885,33.606579162],[130.44853111500004,33.606438054],[130.448668612,33.606507775],[130.45,33.607349946],[130.45,33.60416666666667],[130.44791028058108,33.604166666666664]]]}},{"type":"Feature","id":"40343:503033263","properties":{"id":"40343:503033263","meshCode":"503033263","cityCode":"40343","city":"志免町","lat":33.60625,"lon":130.453125,"areaKm2":0.2589818,"populated2020":true,"population2020":1979.1753,"populationNote":"2020年基準の国交省調整値"},"geometry":{"type":"Polygon","coordinates":[[[130.45,33.607349946],[130.45170549949924,33.60833333333333],[130.45625,33.60833333333333],[130.45625,33.60416666666666],[130.45,33.60416666666667],[130.45,33.607349946]]]}},{"type":"Feature","id":"40343:503033264","properties":{"id":"40343:503033264","meshCode":"503033264","cityCode":"40343","city":"志免町","lat":33.60625,"lon":130.459375,"areaKm2":0.2220208,"populated2020":true,"population2020":null,"populationNote":"境界またぎ・原典収録外のため自治体内人口は未集計"},"geometry":{"type":"Polygon","coordinates":[[[130.459647782,33.608333333000004],[130.46073,33.607223613],[130.461106667,33.60663916200001],[130.461698612,33.606251667],[130.46189917,33.605999999999995],[130.462047782,33.60563666699999],[130.46227166,33.605405279],[130.46224275,33.60510033300001],[130.4625,33.60490840775518],[130.4625,33.604166666666664],[130.45625,33.60416666666666],[130.45625,33.60833333333333],[130.459647782,33.608333333000004]]]}},{"type":"Feature","id":"40343:503033273","properties":{"id":"40343:503033273","meshCode":"503033273","cityCode":"40343","city":"志免町","lat":33.6046688,"lon":130.4626621,"areaKm2":0.0041092,"populated2020":true,"population2020":null,"populationNote":"境界またぎ・原典収録外のため自治体内人口は未集計"},"geometry":{"type":"Polygon","coordinates":[[[130.4625,33.60490840775518],[130.463028327,33.604529333],[130.4636375275389,33.604166666666664],[130.4625,33.604166666666664],[130.4625,33.60490840775518]]]}},{"type":"Feature","id":"40343:503033361","properties":{"id":"40343:503033361","meshCode":"503033361","cityCode":"40343","city":"志免町","lat":33.6089949,"lon":130.4544839,"areaKm2":0.0535865,"populated2020":true,"population2020":null,"populationNote":"境界またぎ・原典収録外のため自治体内人口は未集計"},"geometry":{"type":"Polygon","coordinates":[[[130.45170549949924,33.60833333333333],[130.45316358,33.609276162],[130.45423083,33.609829721],[130.455454163,33.609968054000014],[130.45625,33.60990228208371],[130.45625,33.60833333333333],[130.45170549949924,33.60833333333333]]]}},{"type":"Feature","id":"40343:503033362","properties":{"id":"40343:503033362","meshCode":"503033362","cityCode":"40343","city":"志免町","lat":33.609139,"lon":130.4573616,"areaKm2":0.0356373,"populated2020":true,"population2020":null,"populationNote":"境界またぎ・原典収録外のため自治体内人口は未集計"},"geometry":{"type":"Polygon","coordinates":[[[130.45625,33.60990228208371],[130.457403606,33.609558613],[130.458039442,33.609670828999995],[130.458683333,33.608936107999995],[130.458949442,33.609066387],[130.4596477816341,33.60833333333333],[130.45625,33.60833333333333],[130.45625,33.60990228208371]]]}}]}