{"type":"FeatureCollection","metadata":{"cityCode":"40344","city":"須恵町","resolution":1000,"boundaryDate":"2026-01-01","populationLabel":"2020年基準人口（国交省調整値）","method":"標準地域メッシュを行政界で切抜き。中心が区域外のとき区域内代表点を判定点にする。人口不明をゼロにしない。"},"features":[{"type":"Feature","id":"40344:50302490","properties":{"id":"40344:50302490","meshCode":"50302490","cityCode":"40344","city":"須恵町","lat":33.5811202,"lon":130.5077453,"areaKm2":0.4789858,"populated2020":true,"population2020":null,"populationNote":"境界またぎ・収録外等のため人口未集計"},"geometry":{"type":"Polygon","coordinates":[[[130.51229610900003,33.576960829],[130.512156109,33.576613333],[130.51196055800003,33.576613333],[130.510905551,33.57748500000001],[130.510863606,33.57725555900001],[130.510416109,33.577275279000006],[130.509909728,33.577658613],[130.509344721,33.577965279],[130.508104994,33.578911108],[130.507465551,33.57951082899999],[130.507077782,33.57965805400001],[130.506584994,33.58000222500001],[130.505731946,33.58032666700001],[130.505074994,33.581008054],[130.504858327,33.581132495],[130.504327497,33.581152225],[130.50267166,33.580936108],[130.502413061,33.581230829],[130.501833333,33.58136749500001],[130.501334449,33.58118444099999],[130.50058000000004,33.58108944100001],[130.500237497,33.58131889199999],[130.5,33.581290829],[130.5,33.583333333333336],[130.5125,33.583333333333336],[130.5125,33.57735097251452],[130.512288885,33.577301387],[130.51229610900003,33.576960829]]]}},{"type":"Feature","id":"40344:50302491","properties":{"id":"40344:50302491","meshCode":"50302491","cityCode":"40344","city":"須恵町","lat":33.5797829,"lon":130.5188951,"areaKm2":0.9102215,"populated2020":true,"population2020":null,"populationNote":"境界またぎ・収録外等のため人口未集計"},"geometry":{"type":"Polygon","coordinates":[[[130.51859083,33.576699721],[130.516018054,33.57671305400001],[130.515880272,33.576076108],[130.515883891,33.57539610800001],[130.513595551,33.576652775],[130.512596394,33.57737361299999],[130.5125,33.57735097251452],[130.5125,33.583333333333336],[130.525,33.583333333333336],[130.525,33.575608919],[130.523095279,33.575779721],[130.523004449,33.576005829],[130.522781115,33.57610749500002],[130.52156917,33.576009162],[130.519952218,33.576061387],[130.519701115,33.576113333],[130.51927166,33.57658500000001],[130.51859083,33.576699721]]]}},{"type":"Feature","id":"40344:50302492","properties":{"id":"40344:50302492","meshCode":"50302492","cityCode":"40344","city":"須恵町","lat":33.5798264,"lon":130.5309612,"areaKm2":0.8950999,"populated2020":true,"population2020":null,"populationNote":"境界またぎ・収録外等のため人口未集計"},"geometry":{"type":"Polygon","coordinates":[[[130.531938327,33.57601249499999],[130.529909728,33.57603527900001],[130.529292503,33.575639162],[130.528890558,33.57580638700001],[130.528338327,33.575711387],[130.527936667,33.57572110800001],[130.52717499400003,33.576265279],[130.525876939,33.575888333],[130.525235551,33.575626387],[130.525,33.575608919],[130.525,33.583333333333336],[130.5375,33.583333333333336],[130.5375,33.57738360221438],[130.537052776,33.57750000000001],[130.536260558,33.577562225],[130.535328612,33.577247495],[130.534633333,33.57726389199999],[130.534423891,33.576982225],[130.534128054,33.576776108],[130.532794449,33.576209162000005],[130.531938327,33.57601249499999]]]}},{"type":"Feature","id":"40344:50302493","properties":{"id":"40344:50302493","meshCode":"50302493","cityCode":"40344","city":"須恵町","lat":33.5807719,"lon":130.5419324,"areaKm2":0.4975301,"populated2020":true,"population2020":null,"populationNote":"境界またぎ・収録外等のため人口未集計"},"geometry":{"type":"Polygon","coordinates":[[[130.543260272,33.5783],[130.543029728,33.578283613],[130.542753606,33.57811333299999],[130.54164944200002,33.577947775],[130.541243333,33.57780110800001],[130.540509728,33.577965],[130.539220272,33.577896108],[130.538975551,33.57780416200001],[130.538835837,33.577466946],[130.53863917,33.577391946],[130.5375,33.57738360221438],[130.5375,33.583333333333336],[130.54654639364858,33.58333333333334],[130.54802194600003,33.582371667000004],[130.546992218,33.581419162],[130.546555551,33.580888333000004],[130.546562503,33.580271108000005],[130.546461388,33.579989162000004],[130.545755551,33.579543333],[130.545872776,33.579241945999996],[130.545780272,33.578926667],[130.545140272,33.578635],[130.54432416300003,33.57842777500001],[130.543728612,33.57816249500001],[130.543260272,33.5783]]]}},{"type":"Feature","id":"40344:50302399","properties":{"id":"40344:50302399","meshCode":"50302399","cityCode":"40344","city":"須恵町","lat":33.5823296,"lon":130.4981537,"areaKm2":0.0834882,"populated2020":true,"population2020":null,"populationNote":"境界またぎ・収録外等のため人口未集計"},"geometry":{"type":"Polygon","coordinates":[[[130.5,33.581290829],[130.49969277600002,33.581138613],[130.499294994,33.58056889200001],[130.499118054,33.580467495],[130.497663333,33.581654162],[130.496738495,33.58218058600001],[130.496573891,33.582074440999996],[130.496009728,33.581970279000004],[130.495844994,33.582595278999996],[130.495443606,33.583072495],[130.4949504661218,33.58333333333334],[130.5,33.583333333333336],[130.5,33.581290829]]]}},{"type":"Feature","id":"40344:50303309","properties":{"id":"40344:50303309","meshCode":"50303309","cityCode":"40344","city":"須恵町","lat":33.5878336,"lon":130.4959918,"areaKm2":0.6672876,"populated2020":true,"population2020":null,"populationNote":"境界またぎ・収録外等のため人口未集計"},"geometry":{"type":"Polygon","coordinates":[[[130.4949504661218,33.58333333333334],[130.494239728,33.583643333],[130.493570272,33.58444694599999],[130.493087782,33.584748613],[130.492566939,33.585221108],[130.491918054,33.585391946],[130.491785279,33.585572495],[130.491858885,33.586189999999995],[130.49203083,33.586262225000006],[130.492239728,33.586715279],[130.49307138800003,33.58715416199999],[130.493418054,33.587500559],[130.493773891,33.587596108],[130.493795279,33.588006108],[130.493284721,33.588361666999994],[130.492496394,33.588694721],[130.491526109,33.58924972100001],[130.490685837,33.590076945999996],[130.490110558,33.590088054000006],[130.490405551,33.59048805399999],[130.490784994,33.59066833300001],[130.490694163,33.590942225000006],[130.49005917,33.591028613],[130.489789728,33.591166387],[130.489567224,33.59142944100001],[130.48964055789696,33.591666666666676],[130.5,33.59166666666667],[130.5,33.583333333333336],[130.4949504661218,33.58333333333334]]]}},{"type":"Feature","id":"40344:50303400","properties":{"id":"40344:50303400","meshCode":"50303400","cityCode":"40344","city":"須恵町","lat":33.5875,"lon":130.50625,"areaKm2":1.0723534,"populated2020":true,"population2020":4857.3986,"populationNote":"収録500mメッシュ人口の合算（原典収録外は補完しない）"},"geometry":{"type":"Polygon","coordinates":[[[130.5125,33.583333333333336],[130.5,33.583333333333336],[130.5,33.59166666666667],[130.5125,33.591666666666676],[130.5125,33.583333333333336]]]}},{"type":"Feature","id":"40344:50303401","properties":{"id":"40344:50303401","meshCode":"50303401","cityCode":"40344","city":"須恵町","lat":33.5875,"lon":130.51875,"areaKm2":1.0723506,"populated2020":true,"population2020":4407.9767,"populationNote":"収録500mメッシュ人口の合算（原典収録外は補完しない）"},"geometry":{"type":"Polygon","coordinates":[[[130.525,33.583333333333336],[130.5125,33.583333333333336],[130.5125,33.591666666666676],[130.525,33.591666666666676],[130.525,33.583333333333336]]]}},{"type":"Feature","id":"40344:50303402","properties":{"id":"40344:50303402","meshCode":"50303402","cityCode":"40344","city":"須恵町","lat":33.5875,"lon":130.53125,"areaKm2":1.072348,"populated2020":true,"population2020":66.1769,"populationNote":"収録500mメッシュ人口の合算（原典収録外は補完しない）"},"geometry":{"type":"Polygon","coordinates":[[[130.5375,33.583333333333336],[130.525,33.583333333333336],[130.525,33.591666666666676],[130.5375,33.59166666666667],[130.5375,33.583333333333336]]]}},{"type":"Feature","id":"40344:50303403","properties":{"id":"40344:50303403","meshCode":"50303403","cityCode":"40344","city":"須恵町","lat":33.5877633,"lon":130.5432297,"areaKm2":0.9696329,"populated2020":true,"population2020":8.2454,"populationNote":"収録500mメッシュ人口の合算（原典収録外は補完しない）"},"geometry":{"type":"Polygon","coordinates":[[[130.549724721,33.587495829000005],[130.548868885,33.587276108000005],[130.54832083,33.586948613],[130.54817917,33.586626667],[130.548353333,33.586397774999995],[130.548227497,33.58591055899999],[130.547403061,33.585163333],[130.547033891,33.58495527899999],[130.546897497,33.584732495],[130.546792776,33.58411972100001],[130.546359442,33.583588613],[130.54654639364858,33.58333333333334],[130.5375,33.583333333333336],[130.5375,33.59166666666667],[130.55,33.591666666666676],[130.55,33.587653054],[130.549724721,33.587495829000005]]]}},{"type":"Feature","id":"40344:50303404","properties":{"id":"40344:50303404","meshCode":"50303404","cityCode":"40344","city":"須恵町","lat":33.5902787,"lon":130.5519711,"areaKm2":0.126349,"populated2020":false,"population2020":null,"populationNote":"境界またぎ・収録外等のため人口未集計"},"geometry":{"type":"Polygon","coordinates":[[[130.55599418841547,33.591666666666676],[130.554835837,33.59111166700001],[130.554340558,33.590756946],[130.55402083,33.59044444100001],[130.553588327,33.589768613],[130.55,33.587653054],[130.55,33.591666666666676],[130.55599418841547,33.591666666666676]]]}},{"type":"Feature","id":"40344:50303319","properties":{"id":"40344:50303319","meshCode":"50303319","cityCode":"40344","city":"須恵町","lat":33.5957072,"lon":130.4952456,"areaKm2":0.8074337,"populated2020":true,"population2020":null,"populationNote":"境界またぎ・収録外等のため人口未集計"},"geometry":{"type":"Polygon","coordinates":[[[130.489665551,33.591887225],[130.489433891,33.592535559000005],[130.488618612,33.59326694600001],[130.488743554,33.593448333000005],[130.489258885,33.593237225],[130.489797497,33.59333472099999],[130.490007224,33.593277775],[130.490428327,33.593000279],[130.490976394,33.592825829000006],[130.49103416300002,33.59301694599999],[130.490299728,33.593437225],[130.489778612,33.594028892000004],[130.490376667,33.59447861300001],[130.490162218,33.594764721],[130.49017166,33.594924441],[130.490743333,33.595445829],[130.49118832700003,33.595728892],[130.491012776,33.59590500000001],[130.491444721,33.596474162],[130.491847224,33.596446667],[130.49206166,33.596509162],[130.492000558,33.596742495],[130.491732776,33.596907775],[130.491936394,33.598339441],[130.491244449,33.598423892],[130.49124917,33.59884972100001],[130.490167224,33.598895829],[130.490123061,33.599475559],[130.48940572,33.60000000000001],[130.5,33.60000000000001],[130.5,33.59166666666667],[130.48964055789696,33.591666666666676],[130.489665551,33.591887225]]]}},{"type":"Feature","id":"40344:50303410","properties":{"id":"40344:50303410","meshCode":"50303410","cityCode":"40344","city":"須恵町","lat":33.5958333,"lon":130.50625,"areaKm2":1.0722518,"populated2020":true,"population2020":5353.8356,"populationNote":"収録500mメッシュ人口の合算（原典収録外は補完しない）"},"geometry":{"type":"Polygon","coordinates":[[[130.5125,33.591666666666676],[130.5,33.59166666666667],[130.5,33.60000000000001],[130.5125,33.6],[130.5125,33.591666666666676]]]}},{"type":"Feature","id":"40344:50303411","properties":{"id":"40344:50303411","meshCode":"50303411","cityCode":"40344","city":"須恵町","lat":33.5958333,"lon":130.51875,"areaKm2":1.072249,"populated2020":true,"population2020":1346.0793,"populationNote":"収録500mメッシュ人口の合算（原典収録外は補完しない）"},"geometry":{"type":"Polygon","coordinates":[[[130.525,33.591666666666676],[130.5125,33.591666666666676],[130.5125,33.6],[130.525,33.6],[130.525,33.591666666666676]]]}},{"type":"Feature","id":"40344:50303412","properties":{"id":"40344:50303412","meshCode":"50303412","cityCode":"40344","city":"須恵町","lat":33.5953852,"lon":130.5304628,"areaKm2":0.9019764,"populated2020":false,"population2020":null,"populationNote":"境界またぎ・収録外等のため人口未集計"},"geometry":{"type":"Polygon","coordinates":[[[130.53556917,33.595671108],[130.536255279,33.595479441],[130.5375,33.59553529103171],[130.5375,33.59166666666667],[130.525,33.591666666666676],[130.525,33.6],[130.531615058,33.6],[130.531933061,33.599534999999996],[130.532067782,33.598871667000004],[130.533031388,33.598621108],[130.533518054,33.598415559],[130.534038885,33.59803222499999],[130.534437782,33.59750277500001],[130.534744449,33.596813613],[130.53556917,33.595671108]]]}},{"type":"Feature","id":"40344:50303413","properties":{"id":"40344:50303413","meshCode":"50303413","cityCode":"40344","city":"須恵町","lat":33.5943859,"lon":130.5443786,"areaKm2":0.6781164,"populated2020":false,"population2020":null,"populationNote":"境界またぎ・収録外等のため人口未集計"},"geometry":{"type":"Polygon","coordinates":[[[130.537946667,33.59540736],[130.539925279,33.595903613],[130.541010558,33.596026946],[130.541482503,33.596163612999995],[130.54320499400004,33.596971667],[130.543384994,33.597131387],[130.544226939,33.597377775000005],[130.54469000000003,33.597591667],[130.545473333,33.597641667],[130.546928612,33.597449999999995],[130.547571115,33.597513892],[130.547916667,33.597641667],[130.548699728,33.59826249500001],[130.549084163,33.598399441],[130.55,33.59854797300001],[130.55,33.591666666666676],[130.5375,33.59166666666667],[130.5375,33.59553529103171],[130.537946667,33.59540736]]]}},{"type":"Feature","id":"40344:50303414","properties":{"id":"40344:50303414","meshCode":"50303414","cityCode":"40344","city":"須恵町","lat":33.5952445,"lon":130.5551056,"areaKm2":0.7232216,"populated2020":false,"population2020":null,"populationNote":"境界またぎ・収録外等のため人口未集計"},"geometry":{"type":"Polygon","coordinates":[[[130.55599418841547,33.591666666666676],[130.55,33.591666666666676],[130.55,33.59854797300001],[130.55057917,33.59878555900001],[130.550919728,33.598630559],[130.551591115,33.598671667],[130.553615551,33.598503054],[130.55506083,33.598913613],[130.556317497,33.59896361300001],[130.557130272,33.59927389199999],[130.557543891,33.599287775],[130.558137497,33.599493054],[130.558181115,33.599077775000005],[130.558424449,33.598721667],[130.558414721,33.59832916199999],[130.558831388,33.597588892000005],[130.55932306100001,33.597182775],[130.55977083,33.59638416199999],[130.560135837,33.596238054000004],[130.560904721,33.595558054],[130.561953333,33.594442225],[130.5625,33.59401918862468],[130.5625,33.593379624467424],[130.561747497,33.593428333000006],[130.559799442,33.59335694600001],[130.558277497,33.592520559],[130.55599418841547,33.591666666666676]]]}},{"type":"Feature","id":"40344:50303415","properties":{"id":"40344:50303415","meshCode":"50303415","cityCode":"40344","city":"須恵町","lat":33.5936032,"lon":130.5626761,"areaKm2":0.0021052,"populated2020":false,"population2020":null,"populationNote":"境界またぎ・収録外等のため人口未集計"},"geometry":{"type":"Polygon","coordinates":[[[130.5625,33.59401918862468],[130.562834163,33.593725559],[130.562909442,33.59332249500001],[130.5625,33.593379624467424],[130.5625,33.59401918862468]]]}},{"type":"Feature","id":"40344:50303329","properties":{"id":"40344:50303329","meshCode":"50303329","cityCode":"40344","city":"須恵町","lat":33.6041484,"lon":130.4945294,"areaKm2":0.9379178,"populated2020":true,"population2020":null,"populationNote":"境界またぎ・収録外等のため人口未集計"},"geometry":{"type":"Polygon","coordinates":[[[130.489166667,33.60050194600001],[130.489056744,33.60144964],[130.489125551,33.601996666999995],[130.488303891,33.602389720999994],[130.488835837,33.603113333],[130.488645551,33.603955279],[130.489022218,33.604166946],[130.489276109,33.605000279],[130.489457224,33.605991946],[130.489034163,33.606933613],[130.48926027196697,33.608333333333334],[130.5,33.608333333333334],[130.5,33.60000000000001],[130.48940572,33.60000000000001],[130.489166667,33.60050194600001]]]}},{"type":"Feature","id":"40344:50303420","properties":{"id":"40344:50303420","meshCode":"50303420","cityCode":"40344","city":"須恵町","lat":33.6041369,"lon":130.5062041,"areaKm2":1.063712,"populated2020":true,"population2020":437.4552,"populationNote":"収録500mメッシュ人口の合算（原典収録外は補完しない）"},"geometry":{"type":"Polygon","coordinates":[[[130.5125,33.6],[130.5,33.60000000000001],[130.5,33.608333333333334],[130.51077955828242,33.60833333333333],[130.511865279,33.60791416200001],[130.512050272,33.607763613],[130.512118327,33.60737110800001],[130.5125,33.606976504133584],[130.5125,33.6]]]}},{"type":"Feature","id":"40344:50303421","properties":{"id":"40344:50303421","meshCode":"50303421","cityCode":"40344","city":"須恵町","lat":33.6020351,"lon":130.5169716,"areaKm2":0.4039089,"populated2020":true,"population2020":null,"populationNote":"境界またぎ・収録外等のため人口未集計"},"geometry":{"type":"Polygon","coordinates":[[[130.519042503,33.60213],[130.520137497,33.602116387],[130.520872218,33.602289441],[130.521446394,33.602262225],[130.52301472100004,33.60196555900001],[130.523807497,33.601719161999995],[130.524094721,33.60154582900001],[130.524639728,33.600706386999995],[130.525,33.600581135],[130.525,33.6],[130.5125,33.6],[130.5125,33.606976504133584],[130.513203606,33.606508612999995],[130.514193606,33.60609082900001],[130.514436939,33.605634441],[130.514972218,33.605146387],[130.515706667,33.603853613],[130.516563333,33.603137225],[130.51807166,33.60242972099999],[130.519042503,33.60213]]]}},{"type":"Feature","id":"40344:50303422","properties":{"id":"40344:50303422","meshCode":"50303422","cityCode":"40344","city":"須恵町","lat":33.6004546,"lon":130.5261021,"areaKm2":0.0365937,"populated2020":true,"population2020":null,"populationNote":"境界またぎ・収録外等のため人口未集計"},"geometry":{"type":"Polygon","coordinates":[[[130.531615058,33.6],[130.525,33.6],[130.525,33.600581135],[130.52548166,33.60092527899999],[130.525983061,33.60094361299999],[130.526343061,33.600815829],[130.526997497,33.600752225],[130.52729917,33.600209162000006],[130.528764163,33.60012222500001],[130.529007224,33.600186108],[130.529177497,33.60032305400001],[130.529493891,33.600793333000006],[130.529689442,33.600885829],[130.530881946,33.600534441],[130.531222503,33.600374720999994],[130.531615058,33.6]]]}},{"type":"Feature","id":"40344:50303339","properties":{"id":"40344:50303339","meshCode":"50303339","cityCode":"40344","city":"須恵町","lat":33.6109568,"lon":130.4962156,"areaKm2":0.4453961,"populated2020":true,"population2020":null,"populationNote":"境界またぎ・収録外等のため人口未集計"},"geometry":{"type":"Polygon","coordinates":[[[130.48926027196697,33.608333333333334],[130.489220272,33.609117495],[130.489311089,33.609536252],[130.489412335,33.60962610800001],[130.49010555100003,33.609853613],[130.490486109,33.609846108],[130.491044994,33.609965559],[130.492314994,33.610400829],[130.492614163,33.610373054],[130.492911946,33.61045582900001],[130.493317224,33.61073305400001],[130.493674449,33.611124162],[130.495705551,33.61222055900001],[130.495716667,33.612763892],[130.495933061,33.613247494999996],[130.495836109,33.613574162000006],[130.495544449,33.613944721],[130.495542114,33.614061],[130.495742114,33.61432236],[130.495494449,33.614911108],[130.496007782,33.615020559],[130.497661946,33.615130829],[130.498713891,33.61477777500001],[130.499076667,33.614934441],[130.499437782,33.614951108],[130.5,33.614587919],[130.5,33.608333333333334],[130.48926027196697,33.608333333333334]]]}},{"type":"Feature","id":"40344:50303430","properties":{"id":"40344:50303430","meshCode":"50303430","cityCode":"40344","city":"須恵町","lat":33.6102146,"lon":130.5037091,"areaKm2":0.3162711,"populated2020":true,"population2020":null,"populationNote":"境界またぎ・収録外等のため人口未集計"},"geometry":{"type":"Polygon","coordinates":[[[130.505612503,33.611793892],[130.506643891,33.611195829],[130.506877497,33.610680559],[130.50717917,33.61028805400001],[130.508417782,33.609199441],[130.508719442,33.609030559000004],[130.509814449,33.608816108],[130.51077955828242,33.60833333333333],[130.5,33.608333333333334],[130.5,33.614587919],[130.500297224,33.614162225],[130.500448054,33.613276946],[130.500623061,33.613038892],[130.501635279,33.612315279],[130.501888327,33.612208054],[130.503294449,33.612454721000006],[130.503995279,33.612431946],[130.504658612,33.612058613],[130.505612503,33.611793892]]]}}]}