{"type":"FeatureCollection","metadata":{"cityCode":"40349","city":"粕屋町","resolution":1000,"boundaryDate":"2026-01-01","populationLabel":"2020年基準人口（国交省調整値）","method":"標準地域メッシュを行政界で切抜き。中心が区域外のとき区域内代表点を判定点にする。人口不明をゼロにしない。"},"features":[{"type":"Feature","id":"40349:50303318","properties":{"id":"40349:50303318","meshCode":"50303318","cityCode":"40349","city":"粕屋町","lat":33.5972322,"lon":130.4816974,"areaKm2":0.6611595,"populated2020":true,"population2020":null,"populationNote":"境界またぎ・収録外等のため人口未集計"},"geometry":{"type":"Polygon","coordinates":[[[130.480981946,33.59396749500001],[130.479904449,33.593043892],[130.479472218,33.592805279],[130.476441634,33.595998279],[130.477212503,33.59649082899999],[130.47695158200003,33.596933027000006],[130.475209442,33.59866833299999],[130.475,33.59864099999999],[130.475,33.599999999999994],[130.4875,33.6],[130.4875,33.59407018130019],[130.485744994,33.59494805399999],[130.484579728,33.59465805400001],[130.484276109,33.594771946],[130.482574721,33.594840829],[130.481780272,33.594316387],[130.480981946,33.59396749500001]]]}},{"type":"Feature","id":"40349:50303319","properties":{"id":"40349:50303319","meshCode":"50303319","cityCode":"40349","city":"粕屋町","lat":33.5968023,"lon":130.4893214,"areaKm2":0.2280947,"populated2020":true,"population2020":null,"populationNote":"境界またぎ・収録外等のため人口未集計"},"geometry":{"type":"Polygon","coordinates":[[[130.49118083,33.595736386999995],[130.490220272,33.595006946],[130.490162218,33.594764721],[130.490376667,33.59447861300001],[130.489778612,33.594028892000004],[130.490299728,33.593437225],[130.49103416300002,33.59301694599999],[130.490976394,33.592825829000006],[130.490428327,33.593000279],[130.48991,33.59331249499999],[130.489196394,33.59325389199999],[130.4875,33.59407018130019],[130.4875,33.6],[130.48940572,33.60000000000001],[130.490123061,33.599475559],[130.490167224,33.598895829],[130.49124917,33.59884972100001],[130.491244449,33.598423892],[130.491936394,33.598339441],[130.491732776,33.596907775],[130.492000558,33.596742495],[130.49206166,33.596509162],[130.491847224,33.596446667],[130.491444721,33.596474162],[130.491012776,33.59590500000001],[130.49118083,33.595736386999995]]]}},{"type":"Feature","id":"40349:50303317","properties":{"id":"40349:50303317","meshCode":"50303317","cityCode":"40349","city":"粕屋町","lat":33.5993459,"lon":130.4741581,"areaKm2":0.0244739,"populated2020":true,"population2020":null,"populationNote":"境界またぎ・収録外等のため人口未集計"},"geometry":{"type":"Polygon","coordinates":[[[130.474955551,33.598643892],[130.474834163,33.598651667000006],[130.474296329,33.59829074799999],[130.472842503,33.599866667],[130.473034864,33.6],[130.475,33.599999999999994],[130.474955551,33.598643892]]]}},{"type":"Feature","id":"40349:50303327","properties":{"id":"40349:50303327","meshCode":"50303327","cityCode":"40349","city":"粕屋町","lat":33.605057,"lon":130.4695216,"areaKm2":0.8032604,"populated2020":true,"population2020":null,"populationNote":"境界またぎ・収録外等のため人口未集計"},"geometry":{"type":"Polygon","coordinates":[[[130.473299728,33.600948054],[130.472182218,33.60142916200001],[130.47197083,33.601451108000006],[130.471218612,33.601263892],[130.470678327,33.60089305399999],[130.470492218,33.60067110799999],[130.470048885,33.601025279000005],[130.46908111500002,33.602041946],[130.468461388,33.601682225000005],[130.467578054,33.60202000000001],[130.466627782,33.602644162],[130.466234721,33.603073333],[130.466015551,33.603446108],[130.46580083,33.603567225],[130.46510166,33.60380222500001],[130.464396939,33.603444161999995],[130.46370166,33.604127225],[130.4625,33.60490840775518],[130.4625,33.60833333333333],[130.475,33.608333333333334],[130.475,33.599999999999994],[130.473034864,33.6],[130.473486109,33.600312775],[130.473520272,33.600746108],[130.473299728,33.600948054]]]}},{"type":"Feature","id":"40349:50303328","properties":{"id":"40349:50303328","meshCode":"50303328","cityCode":"40349","city":"粕屋町","lat":33.6041667,"lon":130.48125,"areaKm2":1.0721558,"populated2020":true,"population2020":2485.0872,"populationNote":"収録500mメッシュ人口の合算（原典収録外は補完しない）"},"geometry":{"type":"Polygon","coordinates":[[[130.4875,33.6],[130.475,33.599999999999994],[130.475,33.608333333333334],[130.4875,33.608333333333334],[130.4875,33.6]]]}},{"type":"Feature","id":"40349:50303329","properties":{"id":"40349:50303329","meshCode":"50303329","cityCode":"40349","city":"粕屋町","lat":33.6042941,"lon":130.488304,"areaKm2":0.1342351,"populated2020":true,"population2020":null,"populationNote":"境界またぎ・収録外等のため人口未集計"},"geometry":{"type":"Polygon","coordinates":[[[130.489022218,33.604166946],[130.488645551,33.603955279],[130.488835837,33.603113333],[130.488303891,33.602389720999994],[130.489125551,33.601996666999995],[130.489056744,33.60144964],[130.489166667,33.60050194600001],[130.48940572,33.60000000000001],[130.4875,33.6],[130.4875,33.608333333333334],[130.48926027196697,33.608333333333334],[130.489034163,33.606933613],[130.489457224,33.605991946],[130.489276109,33.605000279],[130.489022218,33.604166946]]]}},{"type":"Feature","id":"40349:50303325","properties":{"id":"40349:50303325","meshCode":"50303325","cityCode":"40349","city":"粕屋町","lat":33.6074274,"lon":130.4463956,"areaKm2":0.1233736,"populated2020":true,"population2020":null,"populationNote":"境界またぎ・収録外等のため人口未集計"},"geometry":{"type":"Polygon","coordinates":[[[130.45,33.607349946],[130.448668612,33.606507775],[130.44853111500004,33.606438054],[130.448408885,33.606579162],[130.447601115,33.606094721],[130.447147224,33.60651694599999],[130.446465837,33.606155279],[130.445773891,33.606432495],[130.44442022,33.60752669399999],[130.44333083,33.606751667],[130.442845837,33.60654416199999],[130.441734994,33.606921107999995],[130.441934163,33.607193054],[130.442345551,33.60747610799999],[130.443270272,33.607932495],[130.443816939,33.608060279],[130.44395306116604,33.60833333333333],[130.45,33.608333333333334],[130.45,33.607349946]]]}},{"type":"Feature","id":"40349:50303326","properties":{"id":"40349:50303326","meshCode":"50303326","cityCode":"40349","city":"粕屋町","lat":33.6065914,"lon":130.4618276,"areaKm2":0.0550634,"populated2020":true,"population2020":null,"populationNote":"境界またぎ・収録外等のため人口未集計"},"geometry":{"type":"MultiPolygon","coordinates":[[[[130.46224275,33.60510033300001],[130.46227166,33.605405279],[130.462047782,33.60563666699999],[130.461698612,33.606251667],[130.461106667,33.60663916200001],[130.46073,33.607223613],[130.4596477816341,33.60833333333333],[130.4625,33.60833333333333],[130.4625,33.60490840775518],[130.46224275,33.60510033300001]]],[[[130.45166847,33.608308613],[130.450639728,33.60767333300001],[130.45,33.607349946],[130.45,33.608333333333334],[130.45166847,33.608308613]]]]}},{"type":"Feature","id":"40349:50303335","properties":{"id":"40349:50303335","meshCode":"50303335","cityCode":"40349","city":"粕屋町","lat":33.6122352,"lon":130.4466398,"areaKm2":0.5389927,"populated2020":true,"population2020":null,"populationNote":"境界またぎ・収録外等のため人口未集計"},"geometry":{"type":"Polygon","coordinates":[[[130.444028885,33.608485559],[130.444753061,33.608883612999996],[130.44371917,33.60993],[130.443353061,33.610415829],[130.441085551,33.612690829],[130.446395279,33.615848054000004],[130.4475568085263,33.61666666666667],[130.45,33.61666666666667],[130.45,33.608333333333334],[130.44395306116604,33.60833333333333],[130.444028885,33.608485559]]]}},{"type":"Feature","id":"40349:50303336","properties":{"id":"40349:50303336","meshCode":"50303336","cityCode":"40349","city":"粕屋町","lat":33.612819,"lon":130.4562966,"areaKm2":0.9828387,"populated2020":true,"population2020":null,"populationNote":"境界またぎ・収録外等のため人口未集計"},"geometry":{"type":"Polygon","coordinates":[[[130.455745279,33.609964441],[130.45423083,33.609829721],[130.45316358,33.609276162],[130.45170549949924,33.60833333333333],[130.45,33.608333333333334],[130.45,33.61666666666667],[130.4625,33.61666666666667],[130.4625,33.60833333333333],[130.4596477816341,33.60833333333333],[130.458949442,33.609066387],[130.458683333,33.608936107999995],[130.458039442,33.609670828999995],[130.457403606,33.609558613],[130.456859442,33.60976389199999],[130.455745279,33.609964441]]]}},{"type":"Feature","id":"40349:50303337","properties":{"id":"40349:50303337","meshCode":"50303337","cityCode":"40349","city":"粕屋町","lat":33.6125,"lon":130.46875,"areaKm2":1.072057,"populated2020":true,"population2020":9251.0309,"populationNote":"収録500mメッシュ人口の合算（原典収録外は補完しない）"},"geometry":{"type":"Polygon","coordinates":[[[130.475,33.608333333333334],[130.4625,33.60833333333333],[130.4625,33.61666666666667],[130.475,33.61666666666667],[130.475,33.608333333333334]]]}},{"type":"Feature","id":"40349:50303338","properties":{"id":"40349:50303338","meshCode":"50303338","cityCode":"40349","city":"粕屋町","lat":33.6125,"lon":130.48125,"areaKm2":1.0720541,"populated2020":true,"population2020":5893.9552,"populationNote":"収録500mメッシュ人口の合算（原典収録外は補完しない）"},"geometry":{"type":"Polygon","coordinates":[[[130.4875,33.608333333333334],[130.475,33.608333333333334],[130.475,33.61666666666667],[130.4875,33.61666666666667],[130.4875,33.608333333333334]]]}},{"type":"Feature","id":"40349:50303339","properties":{"id":"40349:50303339","meshCode":"50303339","cityCode":"40349","city":"粕屋町","lat":33.6135736,"lon":130.4919096,"areaKm2":0.6196837,"populated2020":true,"population2020":null,"populationNote":"境界またぎ・収録外等のため人口未集計"},"geometry":{"type":"Polygon","coordinates":[[[130.493674449,33.611124162],[130.493156394,33.610606387],[130.492705279,33.610389721],[130.492314994,33.610400829],[130.491044994,33.609965559],[130.490486109,33.609846108],[130.49010555100003,33.609853613],[130.489412335,33.60962610800001],[130.489311089,33.609536252],[130.489220272,33.609117495],[130.48926027196697,33.608333333333334],[130.4875,33.608333333333334],[130.4875,33.61666666666667],[130.49971282705576,33.61666666666667],[130.499590558,33.615881387],[130.499707224,33.615232495],[130.499525279,33.614926946],[130.499076667,33.614934441],[130.498713891,33.61477777500001],[130.497661946,33.615130829],[130.496007782,33.615020559],[130.495494449,33.614911108],[130.495742114,33.61432236],[130.495542114,33.614061],[130.495544449,33.613944721],[130.495836109,33.613574162000006],[130.495933061,33.613247494999996],[130.495716667,33.612763892],[130.495705551,33.61222055900001],[130.493674449,33.611124162]]]}},{"type":"Feature","id":"40349:50303345","properties":{"id":"40349:50303345","meshCode":"50303345","cityCode":"40349","city":"粕屋町","lat":33.6172455,"lon":130.4491773,"areaKm2":0.0220436,"populated2020":true,"population2020":null,"populationNote":"境界またぎ・収録外等のため人口未集計"},"geometry":{"type":"Polygon","coordinates":[[[130.447556809,33.616666667],[130.449259728,33.617850829],[130.45,33.61844841399999],[130.45,33.61666666666667],[130.447556809,33.616666667]]]}},{"type":"Feature","id":"40349:50303346","properties":{"id":"40349:50303346","meshCode":"50303346","cityCode":"40349","city":"粕屋町","lat":33.620468,"lon":130.4571751,"areaKm2":0.888805,"populated2020":true,"population2020":null,"populationNote":"境界またぎ・収録外等のため人口未集計"},"geometry":{"type":"Polygon","coordinates":[[[130.45,33.61844841399999],[130.450365279,33.618674162],[130.450030272,33.619370278999995],[130.450348054,33.619521946000006],[130.450505551,33.619271667],[130.450659728,33.61917861300001],[130.451614695,33.618863721],[130.452466939,33.621483054],[130.453486939,33.62338055899999],[130.454096939,33.624927225],[130.455918054,33.624490829],[130.456044449,33.624804721000004],[130.457101829,33.624484585999994],[130.457328249,33.625],[130.4625,33.62500000000001],[130.4625,33.61666666666667],[130.45,33.61666666666667],[130.45,33.61844841399999]]]}},{"type":"Feature","id":"40349:50303347","properties":{"id":"40349:50303347","meshCode":"50303347","cityCode":"40349","city":"粕屋町","lat":33.6208333,"lon":130.46875,"areaKm2":1.0719554,"populated2020":true,"population2020":6049.5238,"populationNote":"収録500mメッシュ人口の合算（原典収録外は補完しない）"},"geometry":{"type":"Polygon","coordinates":[[[130.475,33.61666666666667],[130.4625,33.61666666666667],[130.4625,33.62500000000001],[130.475,33.62500000000001],[130.475,33.61666666666667]]]}},{"type":"Feature","id":"40349:50303348","properties":{"id":"40349:50303348","meshCode":"50303348","cityCode":"40349","city":"粕屋町","lat":33.6208333,"lon":130.48125,"areaKm2":1.0719523,"populated2020":true,"population2020":4063.2528,"populationNote":"収録500mメッシュ人口の合算（原典収録外は補完しない）"},"geometry":{"type":"Polygon","coordinates":[[[130.4875,33.61666666666667],[130.475,33.61666666666667],[130.475,33.62500000000001],[130.4875,33.62500000000001],[130.4875,33.61666666666667]]]}},{"type":"Feature","id":"40349:50303349","properties":{"id":"40349:50303349","meshCode":"50303349","cityCode":"40349","city":"粕屋町","lat":33.620804,"lon":130.4933634,"areaKm2":1.0019114,"populated2020":true,"population2020":null,"populationNote":"境界またぎ・収録外等のため人口未集計"},"geometry":{"type":"Polygon","coordinates":[[[130.498999728,33.620791946000004],[130.499482218,33.61976027899999],[130.49971282705576,33.61666666666667],[130.4875,33.61666666666667],[130.4875,33.62500000000001],[130.499785058,33.62500000000001],[130.499559442,33.62448527899999],[130.49965583700003,33.624211945999996],[130.499473333,33.624149441],[130.499869728,33.622948892],[130.498433891,33.622576945999995],[130.49766166,33.622697225],[130.497598054,33.622652225],[130.49762083,33.62177389200001],[130.497899728,33.621590829],[130.498138327,33.621182225],[130.498797782,33.620938054],[130.498999728,33.620791946000004]]]}},{"type":"Feature","id":"40349:50303356","properties":{"id":"40349:50303356","meshCode":"50303356","cityCode":"40349","city":"粕屋町","lat":33.6270783,"lon":130.4604903,"areaKm2":0.189764,"populated2020":true,"population2020":null,"populationNote":"境界またぎ・収録外等のため人口未集計"},"geometry":{"type":"Polygon","coordinates":[[[130.45773092100004,33.62615964],[130.45814166,33.626556108],[130.458459442,33.627378613],[130.458954721,33.628071946],[130.459672776,33.62882055899999],[130.460872387,33.629736225],[130.46122302200004,33.62984580199999],[130.461225279,33.63005833300001],[130.461533891,33.630071107999996],[130.462019728,33.629932225],[130.4625,33.63003326361617],[130.4625,33.62500000000001],[130.457328249,33.625],[130.45773092100004,33.62615964]]]}},{"type":"Feature","id":"40349:50303357","properties":{"id":"40349:50303357","meshCode":"50303357","cityCode":"40349","city":"粕屋町","lat":33.6287087,"lon":130.4693488,"areaKm2":0.923888,"populated2020":true,"population2020":null,"populationNote":"境界またぎ・収録外等のため人口未集計"},"geometry":{"type":"Polygon","coordinates":[[[130.475,33.62500000000001],[130.4625,33.62500000000001],[130.4625,33.63003326361617],[130.4638,33.630293333000004],[130.465144163,33.63071361299999],[130.466444994,33.630807495],[130.46671,33.6312],[130.46673166,33.63159999999999],[130.467765577,33.63168636],[130.467789196,33.63211127899999],[130.46818,33.63212777500001],[130.468410558,33.632825278999995],[130.468667497,33.633258054],[130.468374721,33.633203333],[130.46816036257164,33.63333333333333],[130.475,33.63333333333333],[130.475,33.62500000000001]]]}},{"type":"Feature","id":"40349:50303358","properties":{"id":"40349:50303358","meshCode":"50303358","cityCode":"40349","city":"粕屋町","lat":33.6283519,"lon":130.4798049,"areaKm2":0.7153457,"populated2020":true,"population2020":null,"populationNote":"境界またぎ・収録外等のため人口未集計"},"geometry":{"type":"Polygon","coordinates":[[[130.482328054,33.62848972100001],[130.482164449,33.62799833300001],[130.48287,33.627837494999994],[130.483494994,33.627519721],[130.484560272,33.627263892],[130.484532218,33.627136108],[130.485798327,33.626791108],[130.486585551,33.629320279],[130.486672776,33.629400559],[130.486990558,33.629268892],[130.4875,33.628884481428734],[130.4875,33.62500000000001],[130.475,33.62500000000001],[130.475,33.63333333333333],[130.4770481056241,33.633333333333326],[130.477549728,33.632869721],[130.4781464724682,33.63333333333333],[130.47862647180352,33.63333333333333],[130.478765136,33.633098108],[130.478974163,33.633013333],[130.47949,33.633213333],[130.479625551,33.632564721],[130.47973917,33.632389441],[130.48006,33.63222138700001],[130.481112776,33.631893053999995],[130.480637834,33.630749],[130.482493774,33.630278586],[130.482407497,33.630008613],[130.482328054,33.62848972100001]]]}},{"type":"Feature","id":"40349:50303359","properties":{"id":"40349:50303359","meshCode":"50303359","cityCode":"40349","city":"粕屋町","lat":33.6280316,"lon":130.4934151,"areaKm2":0.6184476,"populated2020":true,"population2020":null,"populationNote":"境界またぎ・収録外等のため人口未集計"},"geometry":{"type":"Polygon","coordinates":[[[130.4875,33.628884481428734],[130.488131115,33.628550829],[130.488840558,33.629190559],[130.48940083,33.629329162],[130.489985837,33.629643054],[130.490577224,33.629768892],[130.490815279,33.630075279],[130.491458885,33.630371108000006],[130.492168612,33.630261667],[130.492541946,33.630359999999996],[130.492742776,33.630633333],[130.49367166,33.630626387],[130.493738054,33.63074499999999],[130.493688327,33.631401387],[130.494363606,33.631603892],[130.494497497,33.631742495],[130.49410693900003,33.633160000000004],[130.494318949,33.633211026999994],[130.49427180286418,33.63333333333333],[130.49791374807285,33.63333333333333],[130.497694163,33.63274361300001],[130.49766138800004,33.632360279000004],[130.496936394,33.63129055900001],[130.496211946,33.629788613],[130.496157328,33.628492198],[130.496284721,33.627796946],[130.496519442,33.62738361299999],[130.49766166,33.626896946],[130.497985279,33.62689138700001],[130.49895083,33.627273333],[130.49915111500002,33.627247225],[130.499430999,33.626210801999996],[130.49983917,33.626265829],[130.499979728,33.626087775],[130.499924163,33.625263054],[130.499785058,33.62500000000001],[130.4875,33.62500000000001],[130.4875,33.628884481428734]]]}},{"type":"Feature","id":"40349:50303450","properties":{"id":"40349:50303450","meshCode":"50303450","cityCode":"40349","city":"粕屋町","lat":33.6257815,"lon":130.5000071,"areaKm2":3.1e-05,"populated2020":true,"population2020":null,"populationNote":"境界またぎ・収録外等のため人口未集計"},"geometry":{"type":"Polygon","coordinates":[[[130.5,33.625931468000005],[130.500021388,33.625761108],[130.5,33.625650919],[130.5,33.625931468000005]]]}},{"type":"Feature","id":"40349:50303367","properties":{"id":"40349:50303367","meshCode":"50303367","cityCode":"40349","city":"粕屋町","lat":33.6346331,"lon":130.4717795,"areaKm2":0.1720396,"populated2020":true,"population2020":null,"populationNote":"境界またぎ・収録外等のため人口未集計"},"geometry":{"type":"Polygon","coordinates":[[[130.467768612,33.633645279],[130.46771083,33.633815],[130.467801388,33.634056107999996],[130.468147224,33.63450138699999],[130.468361946,33.634673054],[130.468695279,33.634526946],[130.468874163,33.634837495],[130.468773061,33.63501999999999],[130.469385279,33.635463892000004],[130.469715551,33.635584441],[130.470164449,33.63538889200001],[130.470653333,33.635337775],[130.471206394,33.635465829],[130.471738327,33.636071946],[130.472161946,33.637198613],[130.47232083,33.637140279],[130.472674449,33.63678972099999],[130.47347027200001,33.636519441],[130.473792776,33.636309441],[130.475,33.634443748],[130.475,33.63333333333333],[130.46816036257164,33.63333333333333],[130.467768612,33.633645279]]]}},{"type":"Feature","id":"40349:50303368","properties":{"id":"40349:50303368","meshCode":"50303368","cityCode":"40349","city":"粕屋町","lat":33.6336144,"lon":130.4759191,"areaKm2":0.0107111,"populated2020":true,"population2020":null,"populationNote":"境界またぎ・収録外等のため人口未集計"},"geometry":{"type":"MultiPolygon","coordinates":[[[[130.47849499400002,33.633556387],[130.47862647180352,33.63333333333333],[130.4781464724682,33.63333333333333],[130.478252218,33.633408613],[130.47849499400002,33.633556387]]],[[[130.475328327,33.633976108],[130.475918054,33.63373861299999],[130.476358885,33.633835559],[130.4770481056241,33.633333333333326],[130.475,33.63333333333333],[130.475,33.634443748],[130.475328327,33.633976108]]]]}},{"type":"Feature","id":"40349:50303369","properties":{"id":"40349:50303369","meshCode":"50303369","cityCode":"40349","city":"粕屋町","lat":33.6339936,"lon":130.4960496,"areaKm2":0.0539693,"populated2020":true,"population2020":null,"populationNote":"境界またぎ・収録外等のため人口未集計"},"geometry":{"type":"Polygon","coordinates":[[[130.494145837,33.633616108],[130.493437782,33.634022775000005],[130.493373891,33.634321667],[130.49343917,33.634615559000004],[130.494289831,33.634703081],[130.494497782,33.63404861299999],[130.497754721,33.634943333],[130.49796166,33.63488861300001],[130.497962503,33.634650279],[130.498079442,33.634500279],[130.498394994,33.634328892],[130.49808917,33.63392555899999],[130.49791374807285,33.63333333333333],[130.49427180286418,33.63333333333333],[130.494145837,33.633616108]]]}}]}