{"type":"FeatureCollection","metadata":{"cityCode":"40349","city":"粕屋町","resolution":500,"boundaryDate":"2026-01-01","populationLabel":"2020年基準人口（国交省調整値）","method":"標準地域メッシュを行政界で切抜き。中心が区域外のとき区域内代表点を判定点にする。人口不明をゼロにしない。"},"features":[{"type":"Feature","id":"40349:503033181","properties":{"id":"40349:503033181","meshCode":"503033181","cityCode":"40349","city":"粕屋町","lat":33.5949748,"lon":130.4793315,"areaKm2":0.088387,"populated2020":true,"population2020":null,"populationNote":"境界またぎ・原典収録外のため自治体内人口は未集計"},"geometry":{"type":"Polygon","coordinates":[[[130.48125,33.59411633197825],[130.480257497,33.593416387000005],[130.480126109,33.593212495],[130.479472218,33.592805279],[130.47659818949586,33.59583333333333],[130.48125,33.59583333333334],[130.48125,33.59411633197825]]]}},{"type":"Feature","id":"40349:503033182","properties":{"id":"40349:503033182","meshCode":"503033182","cityCode":"40349","city":"粕屋町","lat":33.5953907,"lon":130.484375,"areaKm2":0.0770428,"populated2020":true,"population2020":null,"populationNote":"境界またぎ・原典収録外のため自治体内人口は未集計"},"geometry":{"type":"Polygon","coordinates":[[[130.4875,33.59407018130019],[130.485744994,33.59494805399999],[130.484579728,33.59465805400001],[130.484276109,33.594771946],[130.482574721,33.594840829],[130.481780272,33.594316387],[130.48125,33.59411633197825],[130.48125,33.59583333333334],[130.4875,33.59583333333333],[130.4875,33.59407018130019]]]}},{"type":"Feature","id":"40349:503033191","properties":{"id":"40349:503033191","meshCode":"503033191","cityCode":"40349","city":"粕屋町","lat":33.5943721,"lon":130.4888526,"areaKm2":0.0696945,"populated2020":true,"population2020":null,"populationNote":"境界またぎ・原典収録外のため自治体内人口は未集計"},"geometry":{"type":"Polygon","coordinates":[[[130.49111,33.595807775],[130.49118832700003,33.595728892],[130.490220272,33.595006946],[130.490162218,33.594764721],[130.490376667,33.59447861300001],[130.489778612,33.594028892000004],[130.490299728,33.593437225],[130.49103416300002,33.59301694599999],[130.490976394,33.592825829000006],[130.490428327,33.593000279],[130.48991,33.59331249499999],[130.489196394,33.59325389199999],[130.4875,33.59407018130019],[130.4875,33.59583333333333],[130.49111,33.595807775]]]}},{"type":"Feature","id":"40349:503033174","properties":{"id":"40349:503033174","meshCode":"503033174","cityCode":"40349","city":"粕屋町","lat":33.5993914,"lon":130.4741397,"areaKm2":0.0244739,"populated2020":true,"population2020":null,"populationNote":"境界またぎ・原典収録外のため自治体内人口は未集計"},"geometry":{"type":"Polygon","coordinates":[[[130.474955551,33.598643892],[130.474834163,33.598651667000006],[130.474296329,33.59829074799999],[130.472842503,33.599866667],[130.473034864,33.6],[130.475,33.599999999999994],[130.474955551,33.598643892]]]}},{"type":"Feature","id":"40349:503033183","properties":{"id":"40349:503033183","meshCode":"503033183","cityCode":"40349","city":"粕屋町","lat":33.5979167,"lon":130.478125,"areaKm2":0.2276719,"populated2020":true,"population2020":44.3304,"populationNote":"2020年基準の国交省調整値"},"geometry":{"type":"Polygon","coordinates":[[[130.476441634,33.595998279],[130.477212503,33.59649082899999],[130.47695158200003,33.596933027000006],[130.475209442,33.59866833299999],[130.475,33.59864099999999],[130.475,33.599999999999994],[130.48125,33.599999999999994],[130.48125,33.59583333333334],[130.47659818949586,33.59583333333333],[130.476441634,33.595998279]]]}},{"type":"Feature","id":"40349:503033184","properties":{"id":"40349:503033184","meshCode":"503033184","cityCode":"40349","city":"粕屋町","lat":33.5979167,"lon":130.484375,"areaKm2":0.2680578,"populated2020":true,"population2020":314.1843,"populationNote":"2020年基準の国交省調整値"},"geometry":{"type":"Polygon","coordinates":[[[130.48125,33.59583333333334],[130.48125,33.599999999999994],[130.4875,33.6],[130.4875,33.59583333333333],[130.48125,33.59583333333334]]]}},{"type":"Feature","id":"40349:503033193","properties":{"id":"40349:503033193","meshCode":"503033193","cityCode":"40349","city":"粕屋町","lat":33.5979167,"lon":130.490625,"areaKm2":0.1584002,"populated2020":true,"population2020":null,"populationNote":"境界またぎ・原典収録外のため自治体内人口は未集計"},"geometry":{"type":"Polygon","coordinates":[[[130.489413891,33.599989162],[130.490123061,33.599475559],[130.490167224,33.598895829],[130.49124917,33.59884972100001],[130.491244449,33.598423892],[130.491936394,33.598339441],[130.491732776,33.596907775],[130.492000558,33.596742495],[130.49206166,33.596509162],[130.491847224,33.596446667],[130.491444721,33.596474162],[130.491012776,33.59590500000001],[130.49108444192953,33.59583333333334],[130.4875,33.59583333333333],[130.4875,33.6],[130.489413891,33.599989162]]]}},{"type":"Feature","id":"40349:503033271","properties":{"id":"40349:503033271","meshCode":"503033271","cityCode":"40349","city":"粕屋町","lat":33.6029854,"lon":130.4675296,"areaKm2":0.065201,"populated2020":true,"population2020":null,"populationNote":"境界またぎ・原典収録外のため自治体内人口は未集計"},"geometry":{"type":"Polygon","coordinates":[[[130.468461388,33.601682225000005],[130.46737944200004,33.602113613],[130.466824994,33.602475279],[130.466383606,33.602897495],[130.465960558,33.603493892],[130.465306667,33.603778333],[130.46510166,33.60380222500001],[130.464396939,33.603444161999995],[130.4636375275389,33.604166666666664],[130.46875,33.604166666666664],[130.46875,33.60185886832442],[130.468461388,33.601682225000005]]]}},{"type":"Feature","id":"40349:503033272","properties":{"id":"40349:503033272","meshCode":"503033272","cityCode":"40349","city":"粕屋町","lat":33.6020833,"lon":130.471875,"areaKm2":0.2061012,"populated2020":true,"population2020":911.8076,"populationNote":"2020年基準の国交省調整値"},"geometry":{"type":"Polygon","coordinates":[[[130.473486109,33.600312775],[130.473520272,33.600746108],[130.473299728,33.600948054],[130.472182218,33.60142916200001],[130.471798612,33.601429161999995],[130.471218612,33.601263892],[130.470678327,33.60089305399999],[130.470492218,33.60067110799999],[130.470048885,33.601025279000005],[130.46908111500002,33.602041946],[130.46875,33.60185886832442],[130.46875,33.604166666666664],[130.475,33.604166666666664],[130.475,33.599999999999994],[130.473034864,33.6],[130.473486109,33.600312775]]]}},{"type":"Feature","id":"40349:503033281","properties":{"id":"40349:503033281","meshCode":"503033281","cityCode":"40349","city":"粕屋町","lat":33.6020833,"lon":130.478125,"areaKm2":0.2680455,"populated2020":true,"population2020":949.905,"populationNote":"2020年基準の国交省調整値"},"geometry":{"type":"Polygon","coordinates":[[[130.475,33.599999999999994],[130.475,33.604166666666664],[130.48125,33.604166666666664],[130.48125,33.599999999999994],[130.475,33.599999999999994]]]}},{"type":"Feature","id":"40349:503033282","properties":{"id":"40349:503033282","meshCode":"503033282","cityCode":"40349","city":"粕屋町","lat":33.6020833,"lon":130.484375,"areaKm2":0.2680451,"populated2020":true,"population2020":366.6832,"populationNote":"2020年基準の国交省調整値"},"geometry":{"type":"Polygon","coordinates":[[[130.48125,33.599999999999994],[130.48125,33.604166666666664],[130.4875,33.60416666666666],[130.4875,33.6],[130.48125,33.599999999999994]]]}},{"type":"Feature","id":"40349:503033291","properties":{"id":"40349:503033291","meshCode":"503033291","cityCode":"40349","city":"粕屋町","lat":33.6020907,"lon":130.4882167,"areaKm2":0.0604257,"populated2020":true,"population2020":null,"populationNote":"境界またぎ・原典収録外のため自治体内人口は未集計"},"geometry":{"type":"Polygon","coordinates":[[[130.48902198524084,33.60416666666666],[130.488645551,33.603955279],[130.488835837,33.603113333],[130.488303891,33.602389720999994],[130.489125551,33.601996666999995],[130.489056744,33.60144964],[130.489166667,33.60050194600001],[130.48940572,33.60000000000001],[130.4875,33.6],[130.4875,33.60416666666666],[130.48902198524084,33.60416666666666]]]}},{"type":"Feature","id":"40349:503033253","properties":{"id":"40349:503033253","meshCode":"503033253","cityCode":"40349","city":"粕屋町","lat":33.6073693,"lon":130.4429683,"areaKm2":0.018567,"populated2020":true,"population2020":null,"populationNote":"境界またぎ・原典収録外のため自治体内人口は未集計"},"geometry":{"type":"Polygon","coordinates":[[[130.44375,33.607062518780374],[130.442845837,33.60654416199999],[130.441734994,33.606921107999995],[130.441934163,33.607193054],[130.442345551,33.60747610799999],[130.443270272,33.607932495],[130.44375,33.60804463193666],[130.44375,33.607062518780374]]]}},{"type":"Feature","id":"40349:503033254","properties":{"id":"40349:503033254","meshCode":"503033254","cityCode":"40349","city":"粕屋町","lat":33.607175,"lon":130.4472684,"areaKm2":0.1048066,"populated2020":true,"population2020":null,"populationNote":"境界またぎ・原典収録外のため自治体内人口は未集計"},"geometry":{"type":"Polygon","coordinates":[[[130.45,33.607349946],[130.448668612,33.606507775],[130.44853111500004,33.606438054],[130.448408885,33.606579162],[130.447601115,33.606094721],[130.447147224,33.60651694599999],[130.446465837,33.606155279],[130.445609442,33.606533333],[130.44442022,33.60752669399999],[130.44375,33.607062518780374],[130.44375,33.60804463193666],[130.44395306116604,33.60833333333333],[130.45,33.608333333333334],[130.45,33.607349946]]]}},{"type":"Feature","id":"40349:503033263","properties":{"id":"40349:503033263","meshCode":"503033263","cityCode":"40349","city":"粕屋町","lat":33.6078156,"lon":130.4504412,"areaKm2":0.0090515,"populated2020":true,"population2020":null,"populationNote":"境界またぎ・原典収録外のため自治体内人口は未集計"},"geometry":{"type":"Polygon","coordinates":[[[130.451705499,33.608333333],[130.450639728,33.60767333300001],[130.45,33.607349946],[130.45,33.608333333333334],[130.451705499,33.608333333]]]}},{"type":"Feature","id":"40349:503033264","properties":{"id":"40349:503033264","meshCode":"503033264","cityCode":"40349","city":"粕屋町","lat":33.6065914,"lon":130.4618276,"areaKm2":0.0460119,"populated2020":true,"population2020":null,"populationNote":"境界またぎ・原典収録外のため自治体内人口は未集計"},"geometry":{"type":"Polygon","coordinates":[[[130.4625,33.60490840775518],[130.46224275,33.60510033300001],[130.46227166,33.605405279],[130.462047782,33.60563666699999],[130.461698612,33.606251667],[130.461106667,33.60663916200001],[130.46073,33.607223613],[130.4596477816341,33.60833333333333],[130.4625,33.60833333333333],[130.4625,33.60490840775518]]]}},{"type":"Feature","id":"40349:503033273","properties":{"id":"40349:503033273","meshCode":"503033273","cityCode":"40349","city":"粕屋町","lat":33.60625,"lon":130.465625,"areaKm2":0.2639251,"populated2020":true,"population2020":144.8274,"populationNote":"2020年基準の国交省調整値"},"geometry":{"type":"Polygon","coordinates":[[[130.4636375275389,33.604166666666664],[130.4625,33.60490840775518],[130.4625,33.60833333333333],[130.46875,33.608333333333334],[130.46875,33.604166666666664],[130.4636375275389,33.604166666666664]]]}},{"type":"Feature","id":"40349:503033274","properties":{"id":"40349:503033274","meshCode":"503033274","cityCode":"40349","city":"粕屋町","lat":33.60625,"lon":130.471875,"areaKm2":0.2680331,"populated2020":true,"population2020":1359.7648,"populationNote":"2020年基準の国交省調整値"},"geometry":{"type":"Polygon","coordinates":[[[130.46875,33.604166666666664],[130.46875,33.608333333333334],[130.475,33.608333333333334],[130.475,33.604166666666664],[130.46875,33.604166666666664]]]}},{"type":"Feature","id":"40349:503033283","properties":{"id":"40349:503033283","meshCode":"503033283","cityCode":"40349","city":"粕屋町","lat":33.60625,"lon":130.478125,"areaKm2":0.2680328,"populated2020":true,"population2020":1132.186,"populationNote":"2020年基準の国交省調整値"},"geometry":{"type":"Polygon","coordinates":[[[130.475,33.604166666666664],[130.475,33.608333333333334],[130.48125,33.60833333333333],[130.48125,33.604166666666664],[130.475,33.604166666666664]]]}},{"type":"Feature","id":"40349:503033284","properties":{"id":"40349:503033284","meshCode":"503033284","cityCode":"40349","city":"粕屋町","lat":33.60625,"lon":130.484375,"areaKm2":0.2680324,"populated2020":true,"population2020":36.313,"populationNote":"2020年基準の国交省調整値"},"geometry":{"type":"Polygon","coordinates":[[[130.48125,33.604166666666664],[130.48125,33.60833333333333],[130.4875,33.608333333333334],[130.4875,33.60416666666666],[130.48125,33.604166666666664]]]}},{"type":"Feature","id":"40349:503033293","properties":{"id":"40349:503033293","meshCode":"503033293","cityCode":"40349","city":"粕屋町","lat":33.6062921,"lon":130.4884233,"areaKm2":0.0738094,"populated2020":true,"population2020":null,"populationNote":"境界またぎ・原典収録外のため自治体内人口は未集計"},"geometry":{"type":"Polygon","coordinates":[[[130.489260272,33.608333333],[130.489034163,33.606933613],[130.489457224,33.605991946],[130.489276109,33.605000279],[130.489022218,33.604166946],[130.4875,33.60416666666666],[130.4875,33.608333333333334],[130.489260272,33.608333333]]]}},{"type":"Feature","id":"40349:503033351","properties":{"id":"40349:503033351","meshCode":"503033351","cityCode":"40349","city":"粕屋町","lat":33.611274,"lon":130.4431278,"areaKm2":0.0317936,"populated2020":true,"population2020":null,"populationNote":"境界またぎ・原典収録外のため自治体内人口は未集計"},"geometry":{"type":"Polygon","coordinates":[[[130.44371917,33.60993],[130.443353061,33.610415829],[130.4412779002821,33.6125],[130.44375,33.61249999999999],[130.44371917,33.60993]]]}},{"type":"Feature","id":"40349:503033352","properties":{"id":"40349:503033352","meshCode":"503033352","cityCode":"40349","city":"粕屋町","lat":33.6104167,"lon":130.446875,"areaKm2":0.2597383,"populated2020":true,"population2020":1770.9097,"populationNote":"2020年基準の国交省調整値"},"geometry":{"type":"Polygon","coordinates":[[[130.444028885,33.608485559],[130.444753061,33.608883612999996],[130.44375,33.60989769995347],[130.44375,33.61249999999999],[130.45,33.6125],[130.45,33.608333333333334],[130.44395306116604,33.60833333333333],[130.444028885,33.608485559]]]}},{"type":"Feature","id":"40349:503033361","properties":{"id":"40349:503033361","meshCode":"503033361","cityCode":"40349","city":"粕屋町","lat":33.6104167,"lon":130.453125,"areaKm2":0.2144361,"populated2020":true,"population2020":null,"populationNote":"境界またぎ・原典収録外のため自治体内人口は未集計"},"geometry":{"type":"Polygon","coordinates":[[[130.456236394,33.609905279],[130.455454163,33.609968054000014],[130.45423083,33.609829721],[130.45316358,33.609276162],[130.45170549949924,33.60833333333333],[130.45,33.608333333333334],[130.45,33.6125],[130.45625,33.6125],[130.456236394,33.609905279]]]}},{"type":"Feature","id":"40349:503033362","properties":{"id":"40349:503033362","meshCode":"503033362","cityCode":"40349","city":"粕屋町","lat":33.6104167,"lon":130.459375,"areaKm2":0.2323852,"populated2020":true,"population2020":null,"populationNote":"境界またぎ・原典収録外のため自治体内人口は未集計"},"geometry":{"type":"Polygon","coordinates":[[[130.4596477816341,33.60833333333333],[130.458949442,33.609066387],[130.458683333,33.608936107999995],[130.458039442,33.609670828999995],[130.457403606,33.609558613],[130.45625,33.60990228208371],[130.45625,33.6125],[130.4625,33.6125],[130.4625,33.60833333333333],[130.4596477816341,33.60833333333333]]]}},{"type":"Feature","id":"40349:503033371","properties":{"id":"40349:503033371","meshCode":"503033371","cityCode":"40349","city":"粕屋町","lat":33.6104167,"lon":130.465625,"areaKm2":0.2680208,"populated2020":true,"population2020":2084.1094,"populationNote":"2020年基準の国交省調整値"},"geometry":{"type":"Polygon","coordinates":[[[130.4625,33.60833333333333],[130.4625,33.6125],[130.46875,33.6125],[130.46875,33.608333333333334],[130.4625,33.60833333333333]]]}},{"type":"Feature","id":"40349:503033372","properties":{"id":"40349:503033372","meshCode":"503033372","cityCode":"40349","city":"粕屋町","lat":33.6104167,"lon":130.471875,"areaKm2":0.2680204,"populated2020":true,"population2020":2644.9238,"populationNote":"2020年基準の国交省調整値"},"geometry":{"type":"Polygon","coordinates":[[[130.46875,33.608333333333334],[130.46875,33.6125],[130.475,33.6125],[130.475,33.608333333333334],[130.46875,33.608333333333334]]]}},{"type":"Feature","id":"40349:503033381","properties":{"id":"40349:503033381","meshCode":"503033381","cityCode":"40349","city":"粕屋町","lat":33.6104167,"lon":130.478125,"areaKm2":0.2680201,"populated2020":true,"population2020":2229.0198,"populationNote":"2020年基準の国交省調整値"},"geometry":{"type":"Polygon","coordinates":[[[130.475,33.608333333333334],[130.475,33.6125],[130.48125,33.6125],[130.48125,33.60833333333333],[130.475,33.608333333333334]]]}},{"type":"Feature","id":"40349:503033382","properties":{"id":"40349:503033382","meshCode":"503033382","cityCode":"40349","city":"粕屋町","lat":33.6104167,"lon":130.484375,"areaKm2":0.2680197,"populated2020":true,"population2020":460.6208,"populationNote":"2020年基準の国交省調整値"},"geometry":{"type":"Polygon","coordinates":[[[130.48125,33.60833333333333],[130.48125,33.6125],[130.4875,33.6125],[130.4875,33.608333333333334],[130.48125,33.60833333333333]]]}},{"type":"Feature","id":"40349:503033391","properties":{"id":"40349:503033391","meshCode":"503033391","cityCode":"40349","city":"粕屋町","lat":33.6104167,"lon":130.490625,"areaKm2":0.1828501,"populated2020":true,"population2020":1.0109,"populationNote":"2020年基準の国交省調整値"},"geometry":{"type":"Polygon","coordinates":[[[130.49375,33.61116364445827],[130.493317224,33.61073305400001],[130.492911946,33.61045582900001],[130.492614163,33.610373054],[130.492314994,33.610400829],[130.491044994,33.609965559],[130.490486109,33.609846108],[130.49010555100003,33.609853613],[130.489412335,33.60962610800001],[130.489311089,33.609536252],[130.489220272,33.609117495],[130.48926027196697,33.608333333333334],[130.4875,33.608333333333334],[130.4875,33.6125],[130.49375,33.6125],[130.49375,33.61116364445827]]]}},{"type":"Feature","id":"40349:503033392","properties":{"id":"40349:503033392","meshCode":"503033392","cityCode":"40349","city":"粕屋町","lat":33.6117825,"lon":130.4943578,"areaKm2":0.0168021,"populated2020":true,"population2020":null,"populationNote":"境界またぎ・原典収録外のため自治体内人口は未集計"},"geometry":{"type":"Polygon","coordinates":[[[130.495705551,33.61222055900001],[130.494410558,33.61146944099999],[130.49375,33.61116364445827],[130.49375,33.6125],[130.495705551,33.6125],[130.495705551,33.61222055900001]]]}},{"type":"Feature","id":"40349:503033353","properties":{"id":"40349:503033353","meshCode":"503033353","cityCode":"40349","city":"粕屋町","lat":33.6133718,"lon":130.442964,"areaKm2":0.0273725,"populated2020":true,"population2020":null,"populationNote":"境界またぎ・原典収録外のため自治体内人口は未集計"},"geometry":{"type":"Polygon","coordinates":[[[130.441085551,33.612690829],[130.441999728,33.613271667],[130.44375,33.61429125048909],[130.44375,33.61249999999999],[130.4412779002821,33.6125],[130.441085551,33.612690829]]]}},{"type":"Feature","id":"40349:503033354","properties":{"id":"40349:503033354","meshCode":"503033354","cityCode":"40349","city":"粕屋町","lat":33.6145833,"lon":130.446875,"areaKm2":0.2200883,"populated2020":true,"population2020":null,"populationNote":"境界またぎ・原典収録外のため自治体内人口は未集計"},"geometry":{"type":"Polygon","coordinates":[[[130.446740558,33.616073613],[130.4475568085263,33.61666666666667],[130.45,33.61666666666667],[130.45,33.6125],[130.44375,33.61249999999999],[130.44375,33.61429125048909],[130.446740558,33.616073613]]]}},{"type":"Feature","id":"40349:503033363","properties":{"id":"40349:503033363","meshCode":"503033363","cityCode":"40349","city":"粕屋町","lat":33.6145833,"lon":130.453125,"areaKm2":0.2680089,"populated2020":true,"population2020":1446.2386,"populationNote":"2020年基準の国交省調整値"},"geometry":{"type":"Polygon","coordinates":[[[130.45,33.6125],[130.45,33.61666666666667],[130.45625,33.61666666666667],[130.45625,33.6125],[130.45,33.6125]]]}},{"type":"Feature","id":"40349:503033364","properties":{"id":"40349:503033364","meshCode":"503033364","cityCode":"40349","city":"粕屋町","lat":33.6145833,"lon":130.459375,"areaKm2":0.2680085,"populated2020":true,"population2020":545.7722,"populationNote":"2020年基準の国交省調整値"},"geometry":{"type":"Polygon","coordinates":[[[130.45625,33.6125],[130.45625,33.61666666666667],[130.4625,33.61666666666667],[130.4625,33.6125],[130.45625,33.6125]]]}},{"type":"Feature","id":"40349:503033373","properties":{"id":"40349:503033373","meshCode":"503033373","cityCode":"40349","city":"粕屋町","lat":33.6145833,"lon":130.465625,"areaKm2":0.2680081,"populated2020":true,"population2020":1793.7083,"populationNote":"2020年基準の国交省調整値"},"geometry":{"type":"Polygon","coordinates":[[[130.4625,33.6125],[130.4625,33.61666666666667],[130.46875,33.616666666666674],[130.46875,33.6125],[130.4625,33.6125]]]}},{"type":"Feature","id":"40349:503033374","properties":{"id":"40349:503033374","meshCode":"503033374","cityCode":"40349","city":"粕屋町","lat":33.6145833,"lon":130.471875,"areaKm2":0.2680077,"populated2020":true,"population2020":2728.2894,"populationNote":"2020年基準の国交省調整値"},"geometry":{"type":"Polygon","coordinates":[[[130.46875,33.6125],[130.46875,33.616666666666674],[130.475,33.61666666666667],[130.475,33.6125],[130.46875,33.6125]]]}},{"type":"Feature","id":"40349:503033383","properties":{"id":"40349:503033383","meshCode":"503033383","cityCode":"40349","city":"粕屋町","lat":33.6145833,"lon":130.478125,"areaKm2":0.2680073,"populated2020":true,"population2020":2043.7834,"populationNote":"2020年基準の国交省調整値"},"geometry":{"type":"Polygon","coordinates":[[[130.475,33.6125],[130.475,33.61666666666667],[130.48125,33.61666666666667],[130.48125,33.6125],[130.475,33.6125]]]}},{"type":"Feature","id":"40349:503033384","properties":{"id":"40349:503033384","meshCode":"503033384","cityCode":"40349","city":"粕屋町","lat":33.6145833,"lon":130.484375,"areaKm2":0.268007,"populated2020":true,"population2020":1160.5312,"populationNote":"2020年基準の国交省調整値"},"geometry":{"type":"Polygon","coordinates":[[[130.48125,33.6125],[130.48125,33.61666666666667],[130.4875,33.61666666666667],[130.4875,33.6125],[130.48125,33.6125]]]}},{"type":"Feature","id":"40349:503033393","properties":{"id":"40349:503033393","meshCode":"503033393","cityCode":"40349","city":"粕屋町","lat":33.6145833,"lon":130.490625,"areaKm2":0.2680066,"populated2020":true,"population2020":126.2118,"populationNote":"2020年基準の国交省調整値"},"geometry":{"type":"Polygon","coordinates":[[[130.4875,33.6125],[130.4875,33.61666666666667],[130.49375,33.61666666666667],[130.49375,33.6125],[130.4875,33.6125]]]}},{"type":"Feature","id":"40349:503033394","properties":{"id":"40349:503033394","meshCode":"503033394","cityCode":"40349","city":"粕屋町","lat":33.6146464,"lon":130.4946782,"areaKm2":0.1520249,"populated2020":true,"population2020":1.9694,"populationNote":"2020年基準の国交省調整値"},"geometry":{"type":"Polygon","coordinates":[[[130.49971282705576,33.61666666666667],[130.499590558,33.615881387],[130.499707224,33.615232495],[130.499525279,33.614926946],[130.499076667,33.614934441],[130.498713891,33.61477777500001],[130.497661946,33.615130829],[130.496007782,33.615020559],[130.495494449,33.614911108],[130.495742114,33.61432236],[130.495542114,33.614061],[130.495544449,33.613944721],[130.495836109,33.613574162000006],[130.495933061,33.613247494999996],[130.495716667,33.612763892],[130.495705551,33.6125],[130.49375,33.6125],[130.49375,33.61666666666667],[130.49971282705576,33.61666666666667]]]}},{"type":"Feature","id":"40349:503033452","properties":{"id":"40349:503033452","meshCode":"503033452","cityCode":"40349","city":"粕屋町","lat":33.6175851,"lon":130.4494321,"areaKm2":0.0220436,"populated2020":true,"population2020":null,"populationNote":"境界またぎ・原典収録外のため自治体内人口は未集計"},"geometry":{"type":"Polygon","coordinates":[[[130.447556809,33.616666667],[130.449259728,33.617850829],[130.45,33.61844841399999],[130.45,33.61666666666667],[130.447556809,33.616666667]]]}},{"type":"Feature","id":"40349:503033461","properties":{"id":"40349:503033461","meshCode":"503033461","cityCode":"40349","city":"粕屋町","lat":33.61875,"lon":130.453125,"areaKm2":0.2320088,"populated2020":true,"population2020":null,"populationNote":"境界またぎ・原典収録外のため自治体内人口は未集計"},"geometry":{"type":"Polygon","coordinates":[[[130.45,33.61844841399999],[130.450365279,33.618674162],[130.450030272,33.619370278999995],[130.450348054,33.619521946000006],[130.450505551,33.619271667],[130.450659728,33.61917861300001],[130.451614695,33.618863721],[130.45224716189256,33.62083333333333],[130.45625,33.62083333333333],[130.45625,33.61666666666667],[130.45,33.61666666666667],[130.45,33.61844841399999]]]}},{"type":"Feature","id":"40349:503033462","properties":{"id":"40349:503033462","meshCode":"503033462","cityCode":"40349","city":"粕屋町","lat":33.61875,"lon":130.459375,"areaKm2":0.2679958,"populated2020":true,"population2020":1698.0738,"populationNote":"2020年基準の国交省調整値"},"geometry":{"type":"Polygon","coordinates":[[[130.45625,33.61666666666667],[130.45625,33.62083333333333],[130.4625,33.62083333333334],[130.4625,33.61666666666667],[130.45625,33.61666666666667]]]}},{"type":"Feature","id":"40349:503033471","properties":{"id":"40349:503033471","meshCode":"503033471","cityCode":"40349","city":"粕屋町","lat":33.61875,"lon":130.465625,"areaKm2":0.2679954,"populated2020":true,"population2020":1304.2192,"populationNote":"2020年基準の国交省調整値"},"geometry":{"type":"Polygon","coordinates":[[[130.4625,33.61666666666667],[130.4625,33.62083333333334],[130.46875,33.62083333333334],[130.46875,33.616666666666674],[130.4625,33.61666666666667]]]}},{"type":"Feature","id":"40349:503033472","properties":{"id":"40349:503033472","meshCode":"503033472","cityCode":"40349","city":"粕屋町","lat":33.61875,"lon":130.471875,"areaKm2":0.267995,"populated2020":true,"population2020":3045.2933,"populationNote":"2020年基準の国交省調整値"},"geometry":{"type":"Polygon","coordinates":[[[130.46875,33.616666666666674],[130.46875,33.62083333333334],[130.475,33.62083333333332],[130.475,33.61666666666667],[130.46875,33.616666666666674]]]}},{"type":"Feature","id":"40349:503033481","properties":{"id":"40349:503033481","meshCode":"503033481","cityCode":"40349","city":"粕屋町","lat":33.61875,"lon":130.478125,"areaKm2":0.2679946,"populated2020":true,"population2020":3134.2724,"populationNote":"2020年基準の国交省調整値"},"geometry":{"type":"Polygon","coordinates":[[[130.475,33.61666666666667],[130.475,33.62083333333332],[130.48125,33.62083333333333],[130.48125,33.61666666666667],[130.475,33.61666666666667]]]}},{"type":"Feature","id":"40349:503033482","properties":{"id":"40349:503033482","meshCode":"503033482","cityCode":"40349","city":"粕屋町","lat":33.61875,"lon":130.484375,"areaKm2":0.2679943,"populated2020":true,"population2020":444.9535,"populationNote":"2020年基準の国交省調整値"},"geometry":{"type":"Polygon","coordinates":[[[130.48125,33.61666666666667],[130.48125,33.62083333333333],[130.4875,33.62083333333333],[130.4875,33.61666666666667],[130.48125,33.61666666666667]]]}},{"type":"Feature","id":"40349:503033491","properties":{"id":"40349:503033491","meshCode":"503033491","cityCode":"40349","city":"粕屋町","lat":33.61875,"lon":130.490625,"areaKm2":0.2679939,"populated2020":true,"population2020":573.7739,"populationNote":"2020年基準の国交省調整値"},"geometry":{"type":"Polygon","coordinates":[[[130.4875,33.61666666666667],[130.4875,33.62083333333333],[130.49375,33.62083333333333],[130.49375,33.61666666666667],[130.4875,33.61666666666667]]]}},{"type":"Feature","id":"40349:503033492","properties":{"id":"40349:503033492","meshCode":"503033492","cityCode":"40349","city":"粕屋町","lat":33.61875,"lon":130.496875,"areaKm2":0.2463068,"populated2020":true,"population2020":1073.8607,"populationNote":"2020年基準の国交省調整値"},"geometry":{"type":"Polygon","coordinates":[[[130.498999728,33.620791946000004],[130.499482218,33.61976027899999],[130.49971282705576,33.61666666666667],[130.49375,33.61666666666667],[130.49375,33.62083333333333],[130.498999728,33.620791946000004]]]}},{"type":"Feature","id":"40349:503033463","properties":{"id":"40349:503033463","meshCode":"503033463","cityCode":"40349","city":"粕屋町","lat":33.6228515,"lon":130.4547131,"areaKm2":0.1247743,"populated2020":true,"population2020":null,"populationNote":"境界またぎ・原典収録外のため自治体内人口は未集計"},"geometry":{"type":"Polygon","coordinates":[[[130.452466939,33.621483054],[130.453486939,33.62338055899999],[130.454096939,33.624927225],[130.455918054,33.624490829],[130.456044449,33.624804721000004],[130.45625,33.6247441089734],[130.45625,33.62083333333333],[130.45224716189256,33.62083333333333],[130.452466939,33.621483054]]]}},{"type":"Feature","id":"40349:503033464","properties":{"id":"40349:503033464","meshCode":"503033464","cityCode":"40349","city":"粕屋町","lat":33.6229167,"lon":130.459375,"areaKm2":0.2640261,"populated2020":true,"population2020":1325.6249,"populationNote":"2020年基準の国交省調整値"},"geometry":{"type":"Polygon","coordinates":[[[130.45625,33.6247441089734],[130.457101829,33.624484585999994],[130.457328249,33.625],[130.4625,33.62500000000001],[130.4625,33.62083333333334],[130.45625,33.62083333333333],[130.45625,33.6247441089734]]]}},{"type":"Feature","id":"40349:503033473","properties":{"id":"40349:503033473","meshCode":"503033473","cityCode":"40349","city":"粕屋町","lat":33.6229167,"lon":130.465625,"areaKm2":0.2679827,"populated2020":true,"population2020":923.4425,"populationNote":"2020年基準の国交省調整値"},"geometry":{"type":"Polygon","coordinates":[[[130.4625,33.62083333333334],[130.4625,33.62500000000001],[130.46875,33.62500000000001],[130.46875,33.62083333333334],[130.4625,33.62083333333334]]]}},{"type":"Feature","id":"40349:503033474","properties":{"id":"40349:503033474","meshCode":"503033474","cityCode":"40349","city":"粕屋町","lat":33.6229167,"lon":130.471875,"areaKm2":0.2679823,"populated2020":true,"population2020":776.5688,"populationNote":"2020年基準の国交省調整値"},"geometry":{"type":"Polygon","coordinates":[[[130.46875,33.62083333333334],[130.46875,33.62500000000001],[130.475,33.62500000000001],[130.475,33.62083333333332],[130.46875,33.62083333333334]]]}},{"type":"Feature","id":"40349:503033483","properties":{"id":"40349:503033483","meshCode":"503033483","cityCode":"40349","city":"粕屋町","lat":33.6229167,"lon":130.478125,"areaKm2":0.2679819,"populated2020":true,"population2020":342.29,"populationNote":"2020年基準の国交省調整値"},"geometry":{"type":"Polygon","coordinates":[[[130.475,33.62083333333332],[130.475,33.62500000000001],[130.48125,33.625],[130.48125,33.62083333333333],[130.475,33.62083333333332]]]}},{"type":"Feature","id":"40349:503033484","properties":{"id":"40349:503033484","meshCode":"503033484","cityCode":"40349","city":"粕屋町","lat":33.6229167,"lon":130.484375,"areaKm2":0.2679815,"populated2020":true,"population2020":141.7369,"populationNote":"2020年基準の国交省調整値"},"geometry":{"type":"Polygon","coordinates":[[[130.48125,33.62083333333333],[130.48125,33.625],[130.4875,33.62500000000001],[130.4875,33.62083333333333],[130.48125,33.62083333333333]]]}},{"type":"Feature","id":"40349:503033493","properties":{"id":"40349:503033493","meshCode":"503033493","cityCode":"40349","city":"粕屋町","lat":33.6229167,"lon":130.490625,"areaKm2":0.2679812,"populated2020":true,"population2020":134.1359,"populationNote":"2020年基準の国交省調整値"},"geometry":{"type":"Polygon","coordinates":[[[130.4875,33.62083333333333],[130.4875,33.62500000000001],[130.49375,33.625000000000014],[130.49375,33.62083333333333],[130.4875,33.62083333333333]]]}},{"type":"Feature","id":"40349:503033494","properties":{"id":"40349:503033494","meshCode":"503033494","cityCode":"40349","city":"粕屋町","lat":33.6229167,"lon":130.496875,"areaKm2":0.2196295,"populated2020":true,"population2020":null,"populationNote":"境界またぎ・原典収録外のため自治体内人口は未集計"},"geometry":{"type":"Polygon","coordinates":[[[130.499785058,33.62500000000001],[130.499559442,33.62448527899999],[130.49965583700003,33.624211945999996],[130.499473333,33.624149441],[130.499869728,33.622948892],[130.498433891,33.622576945999995],[130.49766166,33.622697225],[130.497598054,33.622652225],[130.49762083,33.62177389200001],[130.497899728,33.621590829],[130.498138327,33.621182225],[130.49894252369623,33.62083333333334],[130.49375,33.62083333333333],[130.49375,33.625000000000014],[130.499785058,33.62500000000001]]]}},{"type":"Feature","id":"40349:503033562","properties":{"id":"40349:503033562","meshCode":"503033562","cityCode":"40349","city":"粕屋町","lat":33.6270833,"lon":130.459375,"areaKm2":0.1742406,"populated2020":true,"population2020":null,"populationNote":"境界またぎ・原典収録外のため自治体内人口は未集計"},"geometry":{"type":"Polygon","coordinates":[[[130.457328249,33.625],[130.45773092100004,33.62615964],[130.45814166,33.626556108],[130.458459442,33.627378613],[130.459086939,33.628236108],[130.459928327,33.629021387],[130.46013348315057,33.62916666666667],[130.4625,33.62916666666666],[130.4625,33.62500000000001],[130.457328249,33.625]]]}},{"type":"Feature","id":"40349:503033571","properties":{"id":"40349:503033571","meshCode":"503033571","cityCode":"40349","city":"粕屋町","lat":33.6270833,"lon":130.465625,"areaKm2":0.2679699,"populated2020":true,"population2020":65.848,"populationNote":"2020年基準の国交省調整値"},"geometry":{"type":"Polygon","coordinates":[[[130.4625,33.62500000000001],[130.4625,33.62916666666666],[130.46875,33.62916666666666],[130.46875,33.62500000000001],[130.4625,33.62500000000001]]]}},{"type":"Feature","id":"40349:503033572","properties":{"id":"40349:503033572","meshCode":"503033572","cityCode":"40349","city":"粕屋町","lat":33.6270833,"lon":130.471875,"areaKm2":0.2679696,"populated2020":false,"population2020":null,"populationNote":"境界またぎ・原典収録外のため自治体内人口は未集計"},"geometry":{"type":"Polygon","coordinates":[[[130.46875,33.62500000000001],[130.46875,33.62916666666666],[130.475,33.62916666666667],[130.475,33.62500000000001],[130.46875,33.62500000000001]]]}},{"type":"Feature","id":"40349:503033581","properties":{"id":"40349:503033581","meshCode":"503033581","cityCode":"40349","city":"粕屋町","lat":33.6270833,"lon":130.478125,"areaKm2":0.2679692,"populated2020":true,"population2020":355.8161,"populationNote":"2020年基準の国交省調整値"},"geometry":{"type":"Polygon","coordinates":[[[130.475,33.62500000000001],[130.475,33.62916666666667],[130.48125,33.62916666666666],[130.48125,33.625],[130.475,33.62500000000001]]]}},{"type":"Feature","id":"40349:503033582","properties":{"id":"40349:503033582","meshCode":"503033582","cityCode":"40349","city":"粕屋町","lat":33.6270833,"lon":130.484375,"areaKm2":0.1937205,"populated2020":true,"population2020":113.5395,"populationNote":"2020年基準の国交省調整値"},"geometry":{"type":"Polygon","coordinates":[[[130.482328054,33.62848972100001],[130.482164449,33.62799833300001],[130.48287,33.627837494999994],[130.483494994,33.627519721],[130.484560272,33.627263892],[130.484532218,33.627136108],[130.485798327,33.626791108],[130.48654026362496,33.62916666666666],[130.48712264524627,33.62916666666667],[130.4875,33.628884481428734],[130.4875,33.62500000000001],[130.48125,33.625],[130.48125,33.62916666666666],[130.4823634745704,33.62916666666667],[130.482328054,33.62848972100001]]]}},{"type":"Feature","id":"40349:503033591","properties":{"id":"40349:503033591","meshCode":"503033591","cityCode":"40349","city":"粕屋町","lat":33.6270833,"lon":130.490625,"areaKm2":0.2625258,"populated2020":true,"population2020":429.1762,"populationNote":"2020年基準の国交省調整値"},"geometry":{"type":"Polygon","coordinates":[[[130.487514163,33.628875829],[130.487961946,33.628581108000006],[130.488131115,33.628550829],[130.48881540752095,33.62916666666666],[130.49375,33.62916666666666],[130.49375,33.625000000000014],[130.4875,33.62500000000001],[130.487514163,33.628875829]]]}},{"type":"Feature","id":"40349:503033592","properties":{"id":"40349:503033592","meshCode":"503033592","cityCode":"40349","city":"粕屋町","lat":33.6270833,"lon":130.496875,"areaKm2":0.1815588,"populated2020":true,"population2020":null,"populationNote":"境界またぎ・原典収録外のため自治体内人口は未集計"},"geometry":{"type":"Polygon","coordinates":[[[130.4961904258728,33.62916666666666],[130.496157328,33.628492198],[130.496284721,33.627796946],[130.496519442,33.62738361299999],[130.49766166,33.626896946],[130.497985279,33.62689138700001],[130.49895083,33.627273333],[130.49915111500002,33.627247225],[130.499430999,33.626210801999996],[130.49983917,33.626265829],[130.499979728,33.626087775],[130.5,33.625650919],[130.499785058,33.62500000000001],[130.49375,33.625000000000014],[130.49375,33.62916666666666],[130.4961904258728,33.62916666666666]]]}},{"type":"Feature","id":"40349:503034501","properties":{"id":"40349:503034501","meshCode":"503034501","cityCode":"40349","city":"粕屋町","lat":33.6258292,"lon":130.5000065,"areaKm2":3.1e-05,"populated2020":true,"population2020":null,"populationNote":"境界またぎ・原典収録外のため自治体内人口は未集計"},"geometry":{"type":"Polygon","coordinates":[[[130.5,33.625931468000005],[130.500021388,33.625761108],[130.5,33.625650919],[130.5,33.625931468000005]]]}},{"type":"Feature","id":"40349:503033564","properties":{"id":"40349:503033564","meshCode":"503033564","cityCode":"40349","city":"粕屋町","lat":33.6296234,"lon":130.4616094,"areaKm2":0.0155234,"populated2020":true,"population2020":null,"populationNote":"境界またぎ・原典収録外のため自治体内人口は未集計"},"geometry":{"type":"Polygon","coordinates":[[[130.460142503,33.629173054000006],[130.460872387,33.629736225],[130.46122302200004,33.62984580199999],[130.461225279,33.63005833300001],[130.461533891,33.630071107999996],[130.462019728,33.629932225],[130.4625,33.63003326361617],[130.4625,33.62916666666666],[130.460142503,33.629173054000006]]]}},{"type":"Feature","id":"40349:503033573","properties":{"id":"40349:503033573","meshCode":"503033573","cityCode":"40349","city":"粕屋町","lat":33.6312585,"lon":130.4677347,"areaKm2":0.1199917,"populated2020":true,"population2020":null,"populationNote":"境界またぎ・原典収録外のため自治体内人口は未集計"},"geometry":{"type":"Polygon","coordinates":[[[130.4625,33.63003326361617],[130.4638,33.630293333000004],[130.465144163,33.63071361299999],[130.466444994,33.630807495],[130.46671,33.6312],[130.46673166,33.63159999999999],[130.467765577,33.63168636],[130.467789196,33.63211127899999],[130.46818,33.63212777500001],[130.468410558,33.632825278999995],[130.468667497,33.633258054],[130.468374721,33.633203333],[130.46816036257164,33.63333333333333],[130.46875,33.63333333333334],[130.46875,33.62916666666666],[130.4625,33.62916666666666],[130.4625,33.63003326361617]]]}},{"type":"Feature","id":"40349:503033574","properties":{"id":"40349:503033574","meshCode":"503033574","cityCode":"40349","city":"粕屋町","lat":33.63125,"lon":130.471875,"areaKm2":0.2679568,"populated2020":true,"population2020":223.6061,"populationNote":"2020年基準の国交省調整値"},"geometry":{"type":"Polygon","coordinates":[[[130.46875,33.62916666666666],[130.46875,33.63333333333334],[130.475,33.63333333333333],[130.475,33.62916666666667],[130.46875,33.62916666666666]]]}},{"type":"Feature","id":"40349:503033583","properties":{"id":"40349:503033583","meshCode":"503033583","cityCode":"40349","city":"粕屋町","lat":33.63125,"lon":130.478125,"areaKm2":0.2375982,"populated2020":true,"population2020":6.873,"populationNote":"2020年基準の国交省調整値"},"geometry":{"type":"Polygon","coordinates":[[[130.477048106,33.633333333],[130.477549728,33.632869721],[130.4781464724682,33.63333333333333],[130.47862647180352,33.63333333333333],[130.478765136,33.633098108],[130.478974163,33.633013333],[130.47949,33.633213333],[130.479625551,33.632564721],[130.47973917,33.632389441],[130.48006,33.63222138700001],[130.481112776,33.631893053999995],[130.480637834,33.630749],[130.48125,33.630593837949114],[130.48125,33.62916666666666],[130.475,33.62916666666667],[130.475,33.63333333333333],[130.477048106,33.633333333]]]}},{"type":"Feature","id":"40349:503033584","properties":{"id":"40349:503033584","meshCode":"503033584","cityCode":"40349","city":"粕屋町","lat":33.6298207,"lon":130.4818238,"areaKm2":0.0160578,"populated2020":true,"population2020":null,"populationNote":"境界またぎ・原典収録外のため自治体内人口は未集計"},"geometry":{"type":"MultiPolygon","coordinates":[[[[130.482493774,33.630278586],[130.482407497,33.630008613],[130.4823634745704,33.62916666666667],[130.48125,33.62916666666666],[130.48125,33.630593837949114],[130.482493774,33.630278586]]],[[[130.48654026362496,33.62916666666666],[130.486672776,33.629400559],[130.486791388,33.629369440999994],[130.48712264524627,33.62916666666667],[130.48654026362496,33.62916666666666]]]]}},{"type":"Feature","id":"40349:503033593","properties":{"id":"40349:503033593","meshCode":"503033593","cityCode":"40349","city":"粕屋町","lat":33.6303007,"lon":130.4930448,"areaKm2":0.0455888,"populated2020":true,"population2020":null,"populationNote":"境界またぎ・原典収録外のため自治体内人口は未集計"},"geometry":{"type":"Polygon","coordinates":[[[130.488840558,33.629190559],[130.48940083,33.629329162],[130.489985837,33.629643054],[130.490577224,33.629768892],[130.490815279,33.630075279],[130.491458885,33.630371108000006],[130.492168612,33.630261667],[130.492541946,33.630359999999996],[130.492742776,33.630633333],[130.49367166,33.630626387],[130.493738054,33.63074499999999],[130.493688327,33.631401387],[130.49375,33.63142005128155],[130.49375,33.62916666666666],[130.488840558,33.629190559]]]}},{"type":"Feature","id":"40349:503033594","properties":{"id":"40349:503033594","meshCode":"503033594","cityCode":"40349","city":"粕屋町","lat":33.63125,"lon":130.496875,"areaKm2":0.1287742,"populated2020":true,"population2020":null,"populationNote":"境界またぎ・原典収録外のため自治体内人口は未集計"},"geometry":{"type":"Polygon","coordinates":[[[130.493784721,33.63143055900001],[130.494363606,33.631603892],[130.494497497,33.631742495],[130.49410693900003,33.633160000000004],[130.494318949,33.633211026999994],[130.49427180286418,33.63333333333333],[130.49791374807285,33.63333333333333],[130.497694163,33.63274361300001],[130.49766138800004,33.632360279000004],[130.496936394,33.63129055900001],[130.496211946,33.629788613],[130.4961904258728,33.62916666666666],[130.49375,33.62916666666666],[130.493784721,33.63143055900001]]]}},{"type":"Feature","id":"40349:503033671","properties":{"id":"40349:503033671","meshCode":"503033671","cityCode":"40349","city":"粕屋町","lat":33.6339356,"lon":130.4682531,"areaKm2":0.0108322,"populated2020":true,"population2020":null,"populationNote":"境界またぎ・原典収録外のため自治体内人口は未集計"},"geometry":{"type":"Polygon","coordinates":[[[130.46816036257164,33.63333333333333],[130.467724994,33.633692775],[130.467801388,33.634056107999996],[130.468361946,33.634673054],[130.468667224,33.634516108],[130.46875,33.6345912102103],[130.46875,33.63333333333334],[130.46816036257164,33.63333333333333]]]}},{"type":"Feature","id":"40349:503033672","properties":{"id":"40349:503033672","meshCode":"503033672","cityCode":"40349","city":"粕屋町","lat":33.6354167,"lon":130.471875,"areaKm2":0.1612074,"populated2020":true,"population2020":null,"populationNote":"境界またぎ・原典収録外のため自治体内人口は未集計"},"geometry":{"type":"Polygon","coordinates":[[[130.468762218,33.634605559],[130.468874163,33.634837495],[130.468773061,33.63501999999999],[130.469544163,33.63553694600001],[130.469779442,33.635577225],[130.470164449,33.63538889200001],[130.470653333,33.635337775],[130.471206394,33.635465829],[130.471738327,33.636071946],[130.472093606,33.637050829],[130.472161946,33.637198613],[130.472224449,33.637187775],[130.472674449,33.63678972099999],[130.47347027200001,33.636519441],[130.473847224,33.636245559],[130.475,33.634443748],[130.475,33.63333333333333],[130.46875,33.63333333333334],[130.468762218,33.634605559]]]}},{"type":"Feature","id":"40349:503033681","properties":{"id":"40349:503033681","meshCode":"503033681","cityCode":"40349","city":"粕屋町","lat":33.6338829,"lon":130.4752394,"areaKm2":0.0107111,"populated2020":true,"population2020":null,"populationNote":"境界またぎ・原典収録外のため自治体内人口は未集計"},"geometry":{"type":"MultiPolygon","coordinates":[[[[130.475,33.634443748],[130.475424994,33.633901108],[130.475918054,33.63373861299999],[130.476277782,33.633846387],[130.476522503,33.63376610800001],[130.4770481056241,33.633333333333326],[130.475,33.63333333333333],[130.475,33.634443748]]],[[[130.4781464724682,33.63333333333333],[130.47849499400002,33.633556387],[130.47862647180352,33.63333333333333],[130.4781464724682,33.63333333333333]]]]}},{"type":"Feature","id":"40349:503033691","properties":{"id":"40349:503033691","meshCode":"503033691","cityCode":"40349","city":"粕屋町","lat":33.6342158,"lon":130.4935713,"areaKm2":0.0025398,"populated2020":true,"population2020":null,"populationNote":"境界またぎ・原典収録外のため自治体内人口は未集計"},"geometry":{"type":"Polygon","coordinates":[[[130.493498327,33.633968054],[130.493373891,33.634321667],[130.493397224,33.634575559000005],[130.49375,33.63464226101085],[130.49375,33.633838774984504],[130.493498327,33.633968054]]]}},{"type":"Feature","id":"40349:503033692","properties":{"id":"40349:503033692","meshCode":"503033692","cityCode":"40349","city":"粕屋町","lat":33.6341887,"lon":130.4966989,"areaKm2":0.0514295,"populated2020":false,"population2020":null,"populationNote":"境界またぎ・原典収録外のため自治体内人口は未集計"},"geometry":{"type":"Polygon","coordinates":[[[130.494188444,33.63353789200001],[130.49375,33.633838774984504],[130.49375,33.63464226101085],[130.494289831,33.634703081],[130.494497782,33.63404861299999],[130.497754721,33.634943333],[130.49796166,33.63488861300001],[130.497962503,33.634650279],[130.498079442,33.634500279],[130.498394994,33.634328892],[130.49808917,33.63392555899999],[130.49791374807285,33.63333333333333],[130.49427180286418,33.63333333333333],[130.494188444,33.63353789200001]]]}}]}