{"type":"FeatureCollection","metadata":{"cityCode":"40343","city":"志免町","resolution":1000,"boundaryDate":"2026-01-01","populationLabel":"2020年基準人口（国交省調整値）","method":"標準地域メッシュを行政界で切抜き。中心が区域外のとき区域内代表点を判定点にする。人口不明をゼロにしない。"},"features":[{"type":"Feature","id":"40343:50302378","properties":{"id":"40343:50302378","meshCode":"50302378","cityCode":"40343","city":"志免町","lat":33.5641112,"lon":130.4849993,"areaKm2":0.2849881,"populated2020":true,"population2020":1008.9617,"populationNote":"収録500mメッシュ人口の合算（原典収録外は補完しない）"},"geometry":{"type":"Polygon","coordinates":[[[130.4875,33.561651680457565],[130.486937224,33.560834441000004],[130.486426667,33.560538054000006],[130.485641115,33.560283054],[130.48541917000003,33.560581946],[130.48536083,33.560868613],[130.484867782,33.56151500000001],[130.483986394,33.56207194600001],[130.483448885,33.562301667],[130.48307166,33.562628333],[130.482578327,33.563308332999995],[130.482542776,33.563899162],[130.482401946,33.56421638700001],[130.481646667,33.56488110800001],[130.481596394,33.566198333],[130.48198197063775,33.56666666666668],[130.4875,33.56666666666668],[130.4875,33.561651680457565]]]}},{"type":"Feature","id":"40343:50302379","properties":{"id":"40343:50302379","meshCode":"50302379","cityCode":"40343","city":"志免町","lat":33.5645495,"lon":130.4877783,"areaKm2":0.0235094,"populated2020":true,"population2020":null,"populationNote":"境界またぎ・収録外等のため人口未集計"},"geometry":{"type":"Polygon","coordinates":[[[130.488113061,33.562527495],[130.487633333,33.562037225000005],[130.4875,33.561651680457565],[130.4875,33.56666666666668],[130.48823328166088,33.56666666666668],[130.488484721,33.56652666699999],[130.48776083,33.565767495],[130.487685577,33.565492721000005],[130.488018327,33.565169721],[130.488253333,33.564000559],[130.48790083,33.563826387],[130.48776472100002,33.56348249500001],[130.487928327,33.562826108],[130.488113061,33.562527495]]]}},{"type":"Feature","id":"40343:50302388","properties":{"id":"40343:50302388","meshCode":"50302388","cityCode":"40343","city":"志免町","lat":33.5708443,"lon":130.482865,"areaKm2":0.7595487,"populated2020":true,"population2020":null,"populationNote":"境界またぎ・収録外等のため人口未集計"},"geometry":{"type":"Polygon","coordinates":[[[130.487194721,33.568361945999996],[130.486968327,33.567708054],[130.487023333,33.56718000000001],[130.487114163,33.566997495],[130.4875,33.56693976168888],[130.4875,33.56666666666668],[130.48198197063775,33.56666666666668],[130.48250917,33.567421667],[130.481438612,33.56776861299999],[130.481100272,33.567633892],[130.480696109,33.56760361300001],[130.480100558,33.567212775],[130.47964138800003,33.567032775],[130.479478054,33.56703444099999],[130.478940558,33.56727722499999],[130.478218054,33.567155828999994],[130.47727917,33.56721082899999],[130.477283891,33.567856108],[130.477406939,33.56828972100001],[130.477233891,33.568320279],[130.477457224,33.568965559],[130.477300272,33.568995828999995],[130.477617497,33.570264721],[130.47778083,33.57062055899999],[130.478455551,33.571530559],[130.478507224,33.571866107999995],[130.479382503,33.572590000000005],[130.479188327,33.573318892],[130.47921083,33.57353916200001],[130.479353606,33.573630559],[130.479288612,33.573924721000004],[130.47921083,33.574087775],[130.478698327,33.574415559],[130.478736939,33.574882495],[130.478831388,33.575],[130.4875,33.575],[130.4875,33.568901081139614],[130.487194721,33.568361945999996]]]}},{"type":"Feature","id":"40343:50302389","properties":{"id":"40343:50302389","meshCode":"50302389","cityCode":"40343","city":"志免町","lat":33.5733569,"lon":130.4920725,"areaKm2":0.3040896,"populated2020":true,"population2020":null,"populationNote":"境界またぎ・収録外等のため人口未集計"},"geometry":{"type":"MultiPolygon","coordinates":[[[[130.487844994,33.566862495],[130.48823328100002,33.56666666700001],[130.48823328166088,33.56666666666668],[130.4875,33.56666666666668],[130.4875,33.56693976168888],[130.487844994,33.566862495]]],[[[130.489329728,33.570733333],[130.48819,33.570037225],[130.4875,33.568901081139614],[130.4875,33.575],[130.498394137,33.575],[130.499647782,33.57349610800001],[130.499550272,33.573423892],[130.499116667,33.573424721],[130.497663606,33.572889721],[130.496754163,33.572694721],[130.495876667,33.57267194600001],[130.495324163,33.572892495],[130.494755837,33.57326027900001],[130.49345,33.57455722500001],[130.49262917,33.57362138700001],[130.491443606,33.57267055900001],[130.490544721,33.57185805400001],[130.490346939,33.57157110800001],[130.489731388,33.571136108],[130.489329728,33.570733333]]]]}},{"type":"Feature","id":"40343:50302398","properties":{"id":"40343:50302398","meshCode":"50302398","cityCode":"40343","city":"志免町","lat":33.5794541,"lon":130.4818064,"areaKm2":0.9609288,"populated2020":true,"population2020":null,"populationNote":"境界またぎ・収録外等のため人口未集計"},"geometry":{"type":"Polygon","coordinates":[[[130.478965279,33.57523499999999],[130.478713061,33.57571138699999],[130.478494449,33.575878333],[130.477525837,33.577722775],[130.477043606,33.57769610799999],[130.47585,33.578371946],[130.47575917,33.578749721],[130.475213995,33.579481441],[130.47514166,33.57981055900001],[130.475290272,33.579966667],[130.47535,33.580439721000005],[130.475243333,33.580802225],[130.475,33.580944027],[130.475,33.583333333333336],[130.4875,33.583333333333336],[130.4875,33.575],[130.478831388,33.575],[130.478965279,33.57523499999999]]]}},{"type":"Feature","id":"40343:50302399","properties":{"id":"40343:50302399","meshCode":"50302399","cityCode":"40343","city":"志免町","lat":33.579079,"lon":130.4928909,"areaKm2":0.908501,"populated2020":true,"population2020":null,"populationNote":"境界またぎ・収録外等のため人口未集計"},"geometry":{"type":"Polygon","coordinates":[[[130.5,33.57830764],[130.499903061,33.57831416199999],[130.49947083,33.578016387000005],[130.498873333,33.578334162000004],[130.497776394,33.577341667],[130.496854994,33.576746667],[130.498394137,33.575],[130.4875,33.575],[130.4875,33.583333333333336],[130.4949504661218,33.58333333333334],[130.495132776,33.583264162],[130.495524449,33.582997495],[130.495844994,33.582595278999996],[130.496009728,33.581970279000004],[130.496573891,33.582074440999996],[130.496738495,33.58218058600001],[130.497663333,33.581654162],[130.499336667,33.580323332999996],[130.5,33.580056387],[130.5,33.57830764]]]}},{"type":"Feature","id":"40343:50302490","properties":{"id":"40343:50302490","meshCode":"50302490","cityCode":"40343","city":"志免町","lat":33.5790453,"lon":130.5003154,"areaKm2":0.0106573,"populated2020":true,"population2020":null,"populationNote":"境界またぎ・収録外等のため人口未集計"},"geometry":{"type":"Polygon","coordinates":[[[130.500758885,33.578304161999995],[130.500629442,33.578255279000004],[130.5,33.57830764],[130.5,33.580056387],[130.500363606,33.579910829],[130.500527782,33.579612495],[130.500758885,33.578304161999995]]]}},{"type":"Feature","id":"40343:50302397","properties":{"id":"40343:50302397","meshCode":"50302397","cityCode":"40343","city":"志免町","lat":33.5823473,"lon":130.4744133,"areaKm2":0.0260457,"populated2020":true,"population2020":null,"populationNote":"境界またぎ・収録外等のため人口未集計"},"geometry":{"type":"Polygon","coordinates":[[[130.474966394,33.580959721000006],[130.474303606,33.581309721],[130.473919728,33.58173694600001],[130.473843606,33.58192277500001],[130.47383610900002,33.582498892],[130.473489662927,33.58333333333334],[130.475,33.583333333333336],[130.474966394,33.580959721000006]]]}},{"type":"Feature","id":"40343:50303307","properties":{"id":"40343:50303307","meshCode":"50303307","cityCode":"40343","city":"志免町","lat":33.5885977,"lon":130.4708722,"areaKm2":0.5828005,"populated2020":true,"population2020":null,"populationNote":"境界またぎ・収録外等のため人口未集計"},"geometry":{"type":"Polygon","coordinates":[[[130.473428106,33.583681467999995],[130.473098054,33.583541667],[130.470971829,33.585803891999994],[130.470529442,33.58619333299999],[130.469848612,33.58654333300001],[130.469276109,33.587124721],[130.468533606,33.586872225],[130.467881946,33.586760829],[130.467383606,33.586952775],[130.466691388,33.588209441000004],[130.46640166,33.588985279],[130.466219442,33.58920222500001],[130.466082244,33.589190972999994],[130.465762555,33.58983005399999],[130.465577782,33.589932775],[130.465024721,33.590026108],[130.46436917,33.590681667000005],[130.463526394,33.59119305400001],[130.46326594015034,33.591666666666676],[130.475,33.59166666666667],[130.475,33.583333333333336],[130.473489662927,33.58333333333334],[130.473428106,33.583681467999995]]]}},{"type":"Feature","id":"40343:50303308","properties":{"id":"40343:50303308","meshCode":"50303308","cityCode":"40343","city":"志免町","lat":33.5875,"lon":130.48125,"areaKm2":1.0723592,"populated2020":true,"population2020":6325.9982,"populationNote":"収録500mメッシュ人口の合算（原典収録外は補完しない）"},"geometry":{"type":"Polygon","coordinates":[[[130.4875,33.583333333333336],[130.475,33.583333333333336],[130.475,33.59166666666667],[130.4875,33.59166666666667],[130.4875,33.583333333333336]]]}},{"type":"Feature","id":"40343:50303309","properties":{"id":"40343:50303309","meshCode":"50303309","cityCode":"40343","city":"志免町","lat":33.5869505,"lon":130.4900569,"areaKm2":0.4050682,"populated2020":true,"population2020":null,"populationNote":"境界またぎ・収録外等のため人口未集計"},"geometry":{"type":"Polygon","coordinates":[[[130.493570272,33.58444694599999],[130.494239728,33.583643333],[130.4949504661218,33.58333333333334],[130.4875,33.583333333333336],[130.4875,33.59166666666667],[130.48964055789696,33.591666666666676],[130.489567224,33.59142944100001],[130.489789728,33.591166387],[130.49005917,33.591028613],[130.490694163,33.590942225000006],[130.490784994,33.59066833300001],[130.490405551,33.59048805399999],[130.490110558,33.590088054000006],[130.490685837,33.590076945999996],[130.491526109,33.58924972100001],[130.492496394,33.588694721],[130.493284721,33.588361666999994],[130.493795279,33.588006108],[130.493773891,33.587596108],[130.493418054,33.587500559],[130.49307138800003,33.58715416199999],[130.492271946,33.586749162],[130.49203083,33.586262225000006],[130.491858885,33.586189999999995],[130.491764163,33.585830559],[130.491840272,33.585433892000005],[130.492566939,33.585221108],[130.493087782,33.584748613],[130.493570272,33.58444694599999]]]}},{"type":"Feature","id":"40343:50303316","properties":{"id":"40343:50303316","meshCode":"50303316","cityCode":"40343","city":"志免町","lat":33.597882,"lon":130.4588122,"areaKm2":0.3482642,"populated2020":true,"population2020":null,"populationNote":"境界またぎ・収録外等のため人口未集計"},"geometry":{"type":"Polygon","coordinates":[[[130.4625,33.592970584608246],[130.462029728,33.593605278999995],[130.46070083,33.594522225000006],[130.460453333,33.59503916199999],[130.460476667,33.595415279],[130.46038166,33.595621667],[130.45924166,33.59688000000001],[130.45836,33.596978333],[130.457591115,33.596947495],[130.456723606,33.59662694599999],[130.45623917,33.596663613],[130.456078885,33.596610559000005],[130.456151946,33.59630361300001],[130.45550061,33.596168801999994],[130.455125837,33.597344162],[130.454418327,33.59798527900001],[130.454077497,33.598153053999994],[130.453854449,33.598121667],[130.453678392,33.598741802],[130.452870311,33.60000000000001],[130.4625,33.6],[130.4625,33.592970584608246]]]}},{"type":"Feature","id":"40343:50303317","properties":{"id":"40343:50303317","meshCode":"50303317","cityCode":"40343","city":"志免町","lat":33.5957645,"lon":130.4686442,"areaKm2":1.0441236,"populated2020":true,"population2020":6378.2338,"populationNote":"収録500mメッシュ人口の合算（原典収録外は補完しない）"},"geometry":{"type":"Polygon","coordinates":[[[130.46326594015034,33.591666666666676],[130.463076394,33.591985559],[130.462612218,33.59229055899999],[130.4625,33.592970584608246],[130.4625,33.6],[130.473034864,33.6],[130.472842503,33.599866667],[130.474296329,33.59829074799999],[130.474834163,33.598651667000006],[130.475,33.59864099999999],[130.475,33.59166666666667],[130.46326594015034,33.591666666666676]]]}},{"type":"Feature","id":"40343:50303318","properties":{"id":"40343:50303318","meshCode":"50303318","cityCode":"40343","city":"志免町","lat":33.5935835,"lon":130.4805304,"areaKm2":0.411098,"populated2020":true,"population2020":null,"populationNote":"境界またぎ・収録外等のため人口未集計"},"geometry":{"type":"Polygon","coordinates":[[[130.480981946,33.59396749500001],[130.481780272,33.594316387],[130.482574721,33.594840829],[130.484276109,33.594771946],[130.484579728,33.59465805400001],[130.485744994,33.59494805399999],[130.4875,33.59407018130019],[130.4875,33.59166666666667],[130.475,33.59166666666667],[130.475,33.59864099999999],[130.475209442,33.59866833299999],[130.47695158200003,33.596933027000006],[130.477212503,33.59649082899999],[130.476441634,33.595998279],[130.479472218,33.592805279],[130.480126109,33.593212495],[130.480257497,33.593416387000005],[130.480981946,33.59396749500001]]]}},{"type":"Feature","id":"40343:50303319","properties":{"id":"40343:50303319","meshCode":"50303319","cityCode":"40343","city":"志免町","lat":33.5925878,"lon":130.4883728,"areaKm2":0.0367263,"populated2020":true,"population2020":null,"populationNote":"境界またぎ・収録外等のため人口未集計"},"geometry":{"type":"Polygon","coordinates":[[[130.4875,33.59407018130019],[130.488743554,33.593448333000005],[130.488618612,33.59326694600001],[130.489084163,33.592893892000006],[130.489504449,33.592425279],[130.489657782,33.592002775],[130.48964055789696,33.591666666666676],[130.4875,33.59166666666667],[130.4875,33.59407018130019]]]}},{"type":"Feature","id":"40343:50303325","properties":{"id":"40343:50303325","meshCode":"50303325","cityCode":"40343","city":"志免町","lat":33.6054271,"lon":130.4471011,"areaKm2":0.1673494,"populated2020":true,"population2020":null,"populationNote":"境界またぎ・収録外等のため人口未集計"},"geometry":{"type":"Polygon","coordinates":[[[130.45,33.60277853200001],[130.449366394,33.602693892],[130.448869442,33.602922225],[130.448667224,33.60310833300001],[130.448013061,33.604077775],[130.44697138800004,33.604764441],[130.446517782,33.60489749500001],[130.445398054,33.60481916199999],[130.444784449,33.605038333],[130.444024449,33.605456387],[130.443555811,33.605354000000005],[130.443180921,33.60550899999999],[130.442984163,33.605732225],[130.443082218,33.60592],[130.442278327,33.60639472100001],[130.44241083,33.606677775],[130.44269083,33.606558891999995],[130.442975837,33.606580829],[130.443597224,33.60692610800001],[130.44442022,33.60752669399999],[130.445773891,33.606432495],[130.446465837,33.606155279],[130.447147224,33.60651694599999],[130.447601115,33.606094721],[130.448408885,33.606579162],[130.44853111500004,33.606438054],[130.448668612,33.606507775],[130.45,33.607349946],[130.45,33.60277853200001]]]}},{"type":"Feature","id":"40343:50303326","properties":{"id":"40343:50303326","meshCode":"50303326","cityCode":"40343","city":"志免町","lat":33.6041103,"lon":130.4562522,"areaKm2":0.9800672,"populated2020":true,"population2020":null,"populationNote":"境界またぎ・収録外等のため人口未集計"},"geometry":{"type":"Polygon","coordinates":[[[130.452870311,33.60000000000001],[130.452186667,33.600795278999996],[130.45165583700003,33.60093222500001],[130.451566939,33.601224441],[130.450852218,33.60120249500001],[130.450543606,33.601306107999996],[130.450515837,33.602105829],[130.450635837,33.60224638700001],[130.450640272,33.602394440999994],[130.450439442,33.602677494999995],[130.45,33.60277853200001],[130.45,33.607349946],[130.45170549949924,33.60833333333333],[130.4596477816341,33.60833333333333],[130.46073,33.607223613],[130.461106667,33.60663916200001],[130.461698612,33.606251667],[130.462047782,33.60563666699999],[130.46227166,33.605405279],[130.46224275,33.60510033300001],[130.4625,33.60490840775518],[130.4625,33.6],[130.452870311,33.60000000000001]]]}},{"type":"Feature","id":"40343:50303327","properties":{"id":"40343:50303327","meshCode":"50303327","cityCode":"40343","city":"志免町","lat":33.601507,"lon":130.4664451,"areaKm2":0.2688994,"populated2020":true,"population2020":null,"populationNote":"境界またぎ・収録外等のため人口未集計"},"geometry":{"type":"Polygon","coordinates":[[[130.469043606,33.602043892],[130.470492218,33.60067110799999],[130.470678327,33.60089305399999],[130.471218612,33.601263892],[130.472083606,33.601453054],[130.473299728,33.600948054],[130.473520272,33.600746108],[130.473486109,33.600312775],[130.473034864,33.6],[130.4625,33.6],[130.4625,33.60490840775518],[130.46370166,33.604127225],[130.464396939,33.603444161999995],[130.46510166,33.60380222500001],[130.465306667,33.603778333],[130.465960558,33.603493892],[130.466627782,33.602644162],[130.467578054,33.60202000000001],[130.468461388,33.601682225000005],[130.469043606,33.602043892]]]}},{"type":"Feature","id":"40343:50303336","properties":{"id":"40343:50303336","meshCode":"50303336","cityCode":"40343","city":"志免町","lat":33.6089857,"lon":130.4557372,"areaKm2":0.0892238,"populated2020":true,"population2020":null,"populationNote":"境界またぎ・収録外等のため人口未集計"},"geometry":{"type":"Polygon","coordinates":[[[130.456859442,33.60976389199999],[130.457403606,33.609558613],[130.458039442,33.609670828999995],[130.458683333,33.608936107999995],[130.458949442,33.609066387],[130.4596477816341,33.60833333333333],[130.45170549949924,33.60833333333333],[130.45316358,33.609276162],[130.45423083,33.609829721],[130.455745279,33.609964441],[130.456859442,33.60976389199999]]]}}]}