{"type":"FeatureCollection","metadata":{"cityCode":"40341","city":"宇美町","resolution":1000,"boundaryDate":"2026-01-01","populationLabel":"2020年基準人口（国交省調整値）","method":"標準地域メッシュを行政界で切抜き。中心が区域外のとき区域内代表点を判定点にする。人口不明をゼロにしない。"},"features":[{"type":"Feature","id":"40341:50302431","properties":{"id":"40341:50302431","meshCode":"50302431","cityCode":"40341","city":"宇美町","lat":33.5321137,"lon":130.5199862,"areaKm2":0.2174413,"populated2020":false,"population2020":null,"populationNote":"境界またぎ・収録外等のため人口未集計"},"geometry":{"type":"Polygon","coordinates":[[[130.524720272,33.53274277500001],[130.524314994,33.532205279],[130.524273061,33.53193638700001],[130.52409111500003,33.531805279000004],[130.523553061,33.53167444099999],[130.52332917,33.531549721],[130.522570272,33.531393613],[130.522192776,33.531098613],[130.52208083,33.530672495],[130.521243606,33.530685829],[130.52016,33.529813892],[130.519293333,33.530443054],[130.51888083000003,33.530580829],[130.518498885,33.531176108],[130.51831,33.531300559],[130.517673891,33.531254720999996],[130.517254721,33.530972774999995],[130.516765551,33.530828613000004],[130.51633917,33.530992495],[130.515975551,33.531425279000004],[130.516143333,33.531982495],[130.516102218,33.532228333],[130.515598885,33.532792225],[130.51521306100003,33.53305610799999],[130.514865279,33.533104162],[130.51449199648718,33.53333333333333],[130.525,33.533333333333324],[130.525,33.532923775],[130.524720272,33.53274277500001]]]}},{"type":"Feature","id":"40341:50302432","properties":{"id":"40341:50302432","meshCode":"50302432","cityCode":"40341","city":"宇美町","lat":33.5332094,"lon":130.52535,"areaKm2":0.0019939,"populated2020":false,"population2020":null,"populationNote":"境界またぎ・収録外等のため人口未集計"},"geometry":{"type":"Polygon","coordinates":[[[130.526046913,33.53333333300001],[130.525481946,33.533168892],[130.525,33.532923775],[130.525,33.533333333333324],[130.526046913,33.53333333300001]]]}},{"type":"Feature","id":"40341:50302441","properties":{"id":"40341:50302441","meshCode":"50302441","cityCode":"40341","city":"宇美町","lat":33.5376375,"lon":130.5192519,"areaKm2":0.9821015,"populated2020":true,"population2020":12.1281,"populationNote":"収録500mメッシュ人口の合算（原典収録外は補完しない）"},"geometry":{"type":"Polygon","coordinates":[[[130.514345837,33.53342833300001],[130.513977224,33.534326108],[130.513949442,33.535273333],[130.51420083,33.536016108],[130.51432083,33.536975559000005],[130.514575551,33.53788333300001],[130.513433606,33.538228613],[130.512578885,33.539291387000006],[130.5125,33.53949034339761],[130.5125,33.541666666666664],[130.525,33.541666666666664],[130.525,33.533333333333324],[130.51449199648718,33.53333333333333],[130.514345837,33.53342833300001]]]}},{"type":"Feature","id":"40341:50302442","properties":{"id":"40341:50302442","meshCode":"50302442","cityCode":"40341","city":"宇美町","lat":33.5376998,"lon":130.5266988,"areaKm2":0.2708147,"populated2020":false,"population2020":null,"populationNote":"境界またぎ・収録外等のため人口未集計"},"geometry":{"type":"Polygon","coordinates":[[[130.528631115,33.537254721],[130.529330272,33.53694],[130.529616939,33.536658333],[130.529679728,33.53650110800001],[130.529441946,33.53597666699999],[130.52868,33.53562277499999],[130.528372503,33.53537361299999],[130.527876394,33.535301387],[130.527750558,33.535209721],[130.526886939,33.53442722500001],[130.526621388,33.533896667],[130.526243891,33.53344416200001],[130.5260469135924,33.53333333333333],[130.525,33.533333333333324],[130.525,33.541666666666664],[130.5280947208434,33.54166666666667],[130.528106667,33.541078892],[130.527973891,33.540606667],[130.527624163,33.540252775],[130.52837917,33.53900722499999],[130.52863083,33.53884999999999],[130.528714721,33.538646946],[130.52846333300002,33.53766777500001],[130.528498327,33.53741861300001],[130.528631115,33.537254721]]]}},{"type":"Feature","id":"40341:50302440","properties":{"id":"40341:50302440","meshCode":"50302440","cityCode":"40341","city":"宇美町","lat":33.5410204,"lon":130.5111163,"areaKm2":0.0412732,"populated2020":false,"population2020":null,"populationNote":"境界またぎ・収録外等のため人口未集計"},"geometry":{"type":"Polygon","coordinates":[[[130.512381946,33.539707495],[130.511048054,33.540475279000006],[130.509747782,33.54100222499999],[130.509120272,33.541115829],[130.508691479242,33.54166666666667],[130.5125,33.541666666666664],[130.5125,33.53949034339761],[130.512381946,33.539707495]]]}},{"type":"Feature","id":"40341:50302450","properties":{"id":"40341:50302450","meshCode":"50302450","cityCode":"40341","city":"宇美町","lat":33.5463447,"lon":130.5100129,"areaKm2":0.3796038,"populated2020":false,"population2020":null,"populationNote":"境界またぎ・収録外等のため人口未集計"},"geometry":{"type":"Polygon","coordinates":[[[130.508685837,33.541674441],[130.508306667,33.54229110799999],[130.50829166,33.542666108000006],[130.509074994,33.545016667],[130.509069728,33.54568527899999],[130.509236667,33.545984441],[130.509342776,33.54657944099999],[130.509383333,33.547219721000005],[130.509044721,33.547953892],[130.508943606,33.54805805400001],[130.507115279,33.547953613],[130.50674083000004,33.548181387],[130.50640166,33.54852777499999],[130.505627497,33.549006946],[130.505192503,33.549016386999995],[130.504564994,33.549633333],[130.50394,33.549925279],[130.503599857,33.55],[130.5125,33.55],[130.5125,33.541666666666664],[130.508685837,33.541674441]]]}},{"type":"Feature","id":"40341:50302451","properties":{"id":"40341:50302451","meshCode":"50302451","cityCode":"40341","city":"宇美町","lat":33.5458333,"lon":130.51875,"areaKm2":1.0728586,"populated2020":false,"population2020":null,"populationNote":"境界またぎ・収録外等のため人口未集計"},"geometry":{"type":"Polygon","coordinates":[[[130.525,33.541666666666664],[130.5125,33.541666666666664],[130.5125,33.55],[130.525,33.54999999999999],[130.525,33.541666666666664]]]}},{"type":"Feature","id":"40341:50302452","properties":{"id":"40341:50302452","meshCode":"50302452","cityCode":"40341","city":"宇美町","lat":33.5465637,"lon":130.5304816,"areaKm2":0.842852,"populated2020":false,"population2020":null,"populationNote":"境界またぎ・収録外等のため人口未集計"},"geometry":{"type":"Polygon","coordinates":[[[130.530845551,33.543769162],[130.530573061,33.543592225],[130.52986,33.54335],[130.52969917,33.54303527900001],[130.529545551,33.542917225],[130.528916667,33.542753333],[130.528636939,33.542491108],[130.528497224,33.542110828999995],[130.528169442,33.54182582899999],[130.5280947208434,33.54166666666667],[130.525,33.541666666666664],[130.525,33.54999999999999],[130.5375,33.54999999999999],[130.5375,33.54656234273743],[130.53717,33.546486945999995],[130.53642917,33.546060829000005],[130.536261388,33.54589027899999],[130.536121388,33.545503892],[130.535904721,33.545464441],[130.53565166,33.545303054],[130.534784994,33.544627775],[130.534407497,33.54393277500001],[130.534246667,33.543781946],[130.533659728,33.543618054],[130.533296109,33.543401667],[130.533023606,33.543631108],[130.532743891,33.543736108],[130.531565551,33.54335],[130.531404994,33.543382495],[130.531076394,33.543762775],[130.530845551,33.543769162]]]}},{"type":"Feature","id":"40341:50302455","properties":{"id":"40341:50302455","meshCode":"50302455","cityCode":"40341","city":"宇美町","lat":33.5470834,"lon":130.5695752,"areaKm2":0.7071055,"populated2020":false,"population2020":null,"populationNote":"境界またぎ・収録外等のため人口未集計"},"geometry":{"type":"Polygon","coordinates":[[[130.574778885,33.54416555900001],[130.574733333,33.543790829],[130.574364163,33.54351555900001],[130.574045837,33.54311249500001],[130.573074721,33.54287055900001],[130.572472776,33.54246249500001],[130.57215555100004,33.54247694600001],[130.570765551,33.54343166700001],[130.570596109,33.543633054],[130.570470272,33.544068892],[130.570225551,33.544236108],[130.569830558,33.544324721],[130.568163061,33.544435829],[130.567268327,33.544721108000005],[130.566793061,33.544717774999995],[130.565694721,33.545012494999995],[130.565516667,33.545110828999995],[130.565317224,33.545425559],[130.565216667,33.54593861299999],[130.564944163,33.546325278999994],[130.56455693900003,33.54648861300001],[130.56402917,33.546540559],[130.563508327,33.54683582900001],[130.562690272,33.547006108],[130.5625,33.5472479734544],[130.5625,33.55],[130.575,33.55],[130.575,33.54446444100001],[130.574778885,33.54416555900001]]]}},{"type":"Feature","id":"40341:50302456","properties":{"id":"40341:50302456","meshCode":"50302456","cityCode":"40341","city":"宇美町","lat":33.5482279,"lon":130.5758191,"areaKm2":0.0669442,"populated2020":false,"population2020":null,"populationNote":"境界またぎ・収録外等のため人口未集計"},"geometry":{"type":"Polygon","coordinates":[[[130.575935837,33.547176946],[130.57521917,33.544768054],[130.575,33.54446444100001],[130.575,33.55],[130.577712244,33.550000000000004],[130.577139442,33.54943],[130.576446939,33.54773194599999],[130.575935837,33.547176946]]]}},{"type":"Feature","id":"40341:50302453","properties":{"id":"40341:50302453","meshCode":"50302453","cityCode":"40341","city":"宇美町","lat":33.5487211,"lon":130.53932,"areaKm2":0.1038895,"populated2020":true,"population2020":null,"populationNote":"境界またぎ・収録外等のため人口未集計"},"geometry":{"type":"Polygon","coordinates":[[[130.541681245,33.55],[130.541675551,33.549276387000006],[130.541332776,33.548863333],[130.541367782,33.548417495],[130.540955279,33.547945559],[130.54069,33.547768613],[130.540284449,33.54764416199999],[130.540067782,33.547663892],[130.539553606,33.54750305400001],[130.539022503,33.547470278999995],[130.538966394,33.547267225],[130.538672776,33.547149162000004],[130.538295279,33.547227775],[130.5375,33.54656234273743],[130.5375,33.54999999999999],[130.541681245,33.55]]]}},{"type":"Feature","id":"40341:50302454","properties":{"id":"40341:50302454","meshCode":"50302454","cityCode":"40341","city":"宇美町","lat":33.5490647,"lon":130.5614567,"areaKm2":0.04467,"populated2020":false,"population2020":null,"populationNote":"境界またぎ・収録外等のため人口未集計"},"geometry":{"type":"Polygon","coordinates":[[[130.5625,33.5472479734544],[130.561947782,33.547834162],[130.561895279,33.548050559],[130.561629728,33.54812944100001],[130.561073891,33.548152225],[130.56082917,33.54829],[130.560693333,33.54864],[130.560169442,33.549409441],[130.559854994,33.549645559000005],[130.559563969,33.54999999999999],[130.5625,33.55],[130.5625,33.5472479734544]]]}},{"type":"Feature","id":"40341:50302460","properties":{"id":"40341:50302460","meshCode":"50302460","cityCode":"40341","city":"宇美町","lat":33.5541644,"lon":130.5080187,"areaKm2":0.7668548,"populated2020":true,"population2020":null,"populationNote":"境界またぎ・収録外等のため人口未集計"},"geometry":{"type":"Polygon","coordinates":[[[130.502933061,33.55045222500001],[130.502907497,33.551086108],[130.503028885,33.551513054],[130.503423606,33.552025559],[130.503893891,33.552414721],[130.504277782,33.55310999999999],[130.504131115,33.55396889200001],[130.504338612,33.55422027899999],[130.503893891,33.55507694600001],[130.50364083,33.55578861299999],[130.503478885,33.555964161999995],[130.503373333,33.55655999999999],[130.50344389100002,33.556868613],[130.503008885,33.557978613],[130.5026982226348,33.55833333333334],[130.5125,33.558333333333344],[130.5125,33.55],[130.503599857,33.55],[130.503024163,33.550266946],[130.502933061,33.55045222500001]]]}},{"type":"Feature","id":"40341:50302461","properties":{"id":"40341:50302461","meshCode":"50302461","cityCode":"40341","city":"宇美町","lat":33.5541667,"lon":130.51875,"areaKm2":1.072757,"populated2020":true,"population2020":1172.7978,"populationNote":"収録500mメッシュ人口の合算（原典収録外は補完しない）"},"geometry":{"type":"Polygon","coordinates":[[[130.525,33.54999999999999],[130.5125,33.55],[130.5125,33.558333333333344],[130.525,33.55833333333334],[130.525,33.54999999999999]]]}},{"type":"Feature","id":"40341:50302462","properties":{"id":"40341:50302462","meshCode":"50302462","cityCode":"40341","city":"宇美町","lat":33.5541667,"lon":130.53125,"areaKm2":1.0727544,"populated2020":true,"population2020":2037.2621,"populationNote":"収録500mメッシュ人口の合算（原典収録外は補完しない）"},"geometry":{"type":"Polygon","coordinates":[[[130.5375,33.54999999999999],[130.525,33.54999999999999],[130.525,33.55833333333334],[130.5375,33.55833333333334],[130.5375,33.54999999999999]]]}},{"type":"Feature","id":"40341:50302463","properties":{"id":"40341:50302463","meshCode":"50302463","cityCode":"40341","city":"宇美町","lat":33.5553619,"lon":130.5419277,"areaKm2":0.5566451,"populated2020":true,"population2020":null,"populationNote":"境界またぎ・収録外等のため人口未集計"},"geometry":{"type":"Polygon","coordinates":[[[130.540797782,33.554102225],[130.53971083,33.553074721],[130.539745837,33.552897775],[130.53987166,33.552793054],[130.54066166,33.552616107999995],[130.541066939,33.55228194600001],[130.541640272,33.551980279],[130.541731115,33.551606387],[130.541681245,33.55],[130.5375,33.54999999999999],[130.5375,33.55833333333334],[130.55,33.558333333333344],[130.55,33.55610966700001],[130.54919472100002,33.55644082900001],[130.548726394,33.556365559],[130.54707166,33.555831946],[130.544706667,33.555452225],[130.543893333,33.555141108],[130.543487782,33.55482000000001],[130.543113606,33.554738054],[130.542038327,33.554950829],[130.54096166,33.554905000000005],[130.54078,33.554970559],[130.540465551,33.55457444100001],[130.540797782,33.554102225]]]}},{"type":"Feature","id":"40341:50302464","properties":{"id":"40341:50302464","meshCode":"50302464","cityCode":"40341","city":"宇美町","lat":33.5551237,"lon":130.5575841,"areaKm2":0.7236404,"populated2020":true,"population2020":6.1721,"populationNote":"収録500mメッシュ人口の合算（原典収録外は補完しない）"},"geometry":{"type":"Polygon","coordinates":[[[130.559563969,33.54999999999999],[130.558782218,33.550660279],[130.55863555100004,33.551096387],[130.558056109,33.55156361300001],[130.557703061,33.552012774999994],[130.557458327,33.552137495],[130.55671166,33.552303892000005],[130.55648083,33.552658054],[130.555949442,33.55283166699999],[130.555468612,33.553123054],[130.555251946,33.553378333000005],[130.554968612,33.55349305400001],[130.554465551,33.55385389199999],[130.554389442,33.55441889200001],[130.553826667,33.55490082899999],[130.553263891,33.554887775],[130.551902218,33.555186108],[130.550945279,33.555205828999995],[130.55031,33.555913054],[130.55,33.55610966700001],[130.55,33.558333333333344],[130.5625,33.55833333333334],[130.5625,33.55],[130.559563969,33.54999999999999]]]}},{"type":"Feature","id":"40341:50302465","properties":{"id":"40341:50302465","meshCode":"50302465","cityCode":"40341","city":"宇美町","lat":33.5541667,"lon":130.56875,"areaKm2":1.0727468,"populated2020":false,"population2020":null,"populationNote":"境界またぎ・収録外等のため人口未集計"},"geometry":{"type":"Polygon","coordinates":[[[130.575,33.55],[130.5625,33.55],[130.5625,33.55833333333334],[130.575,33.558333333333344],[130.575,33.55]]]}},{"type":"Feature","id":"40341:50302466","properties":{"id":"40341:50302466","meshCode":"50302466","cityCode":"40341","city":"宇美町","lat":33.5548036,"lon":130.5782725,"areaKm2":0.5008479,"populated2020":true,"population2020":1.048,"populationNote":"収録500mメッシュ人口の合算（原典収録外は補完しない）"},"geometry":{"type":"Polygon","coordinates":[[[130.581186394,33.554070559],[130.580594721,33.55386194599999],[130.580061115,33.553356387],[130.579287497,33.553086108],[130.578847224,33.552246667000006],[130.57863083,33.55106777500001],[130.578170272,33.550749999999994],[130.577882218,33.550423054],[130.577712244,33.550000000000004],[130.575,33.55],[130.575,33.558333333333344],[130.58077827473952,33.55833333333334],[130.58148,33.557559440999995],[130.582106939,33.55713249499999],[130.582536939,33.556368613],[130.584255837,33.555098892],[130.584088885,33.554676667],[130.583704449,33.55468166699999],[130.583219728,33.554497495],[130.582516939,33.554388613],[130.582036394,33.554179721],[130.581186394,33.554070559]]]}},{"type":"Feature","id":"40341:50302378","properties":{"id":"40341:50302378","meshCode":"50302378","cityCode":"40341","city":"宇美町","lat":33.5606084,"lon":130.4867997,"areaKm2":0.0088662,"populated2020":true,"population2020":null,"populationNote":"境界またぎ・収録外等のため人口未集計"},"geometry":{"type":"Polygon","coordinates":[[[130.487486667,33.560753612999996],[130.486601388,33.560117774999995],[130.485669442,33.560186387],[130.485641115,33.560283054],[130.486426667,33.560538054000006],[130.486937224,33.560834441000004],[130.4875,33.561651680457565],[130.487486667,33.560753612999996]]]}},{"type":"Feature","id":"40341:50302379","properties":{"id":"40341:50302379","meshCode":"50302379","cityCode":"40341","city":"宇美町","lat":33.5631529,"lon":130.4937592,"areaKm2":0.8644812,"populated2020":true,"population2020":2297.5201,"populationNote":"収録500mメッシュ人口の合算（原典収録外は補完しない）"},"geometry":{"type":"Polygon","coordinates":[[[130.493355551,33.558974441],[130.49311917,33.55893277500001],[130.491620272,33.560003054],[130.489886394,33.559393613],[130.489106939,33.558588613],[130.488708327,33.558903892],[130.488548327,33.55933249500001],[130.488274721,33.559748054],[130.488550558,33.560265279],[130.488536109,33.560396387],[130.4875,33.56075188835729],[130.4875,33.561651680457565],[130.487722503,33.562179721],[130.488113061,33.562527495],[130.487928327,33.562826108],[130.48776472100002,33.56348249500001],[130.48790083,33.563826387],[130.488253333,33.564000559],[130.488018327,33.565169721],[130.487685577,33.565492721000005],[130.48776083,33.565767495],[130.488484721,33.56652666699999],[130.48823328166088,33.56666666666668],[130.5,33.56666666666668],[130.5,33.56045566699999],[130.498766394,33.560666108],[130.498022776,33.560443333],[130.496419728,33.560200279],[130.496338612,33.560044441],[130.495542503,33.55951389199999],[130.49485917,33.559189162],[130.494479442,33.559211946000005],[130.493894994,33.559076946],[130.493468885,33.55908082900001],[130.493355551,33.558974441]]]}},{"type":"Feature","id":"40341:50302470","properties":{"id":"40341:50302470","meshCode":"50302470","cityCode":"40341","city":"宇美町","lat":33.5626254,"lon":130.5064475,"areaKm2":1.0336092,"populated2020":true,"population2020":2036.6715,"populationNote":"収録500mメッシュ人口の合算（原典収録外は補完しない）"},"geometry":{"type":"Polygon","coordinates":[[[130.502543606,33.558623892],[130.50197917,33.559100559],[130.50185778200003,33.559821667],[130.5,33.56045566699999],[130.5,33.56666666666668],[130.5125,33.56666666666668],[130.5125,33.558333333333344],[130.5026982226348,33.55833333333334],[130.502543606,33.558623892]]]}},{"type":"Feature","id":"40341:50302471","properties":{"id":"40341:50302471","meshCode":"50302471","cityCode":"40341","city":"宇美町","lat":33.5625,"lon":130.51875,"areaKm2":1.0726555,"populated2020":true,"population2020":5103.4315,"populationNote":"収録500mメッシュ人口の合算（原典収録外は補完しない）"},"geometry":{"type":"Polygon","coordinates":[[[130.525,33.55833333333334],[130.5125,33.558333333333344],[130.5125,33.56666666666668],[130.525,33.56666666666668],[130.525,33.55833333333334]]]}},{"type":"Feature","id":"40341:50302472","properties":{"id":"40341:50302472","meshCode":"50302472","cityCode":"40341","city":"宇美町","lat":33.5625,"lon":130.53125,"areaKm2":1.0726528,"populated2020":true,"population2020":2427.7601,"populationNote":"収録500mメッシュ人口の合算（原典収録外は補完しない）"},"geometry":{"type":"Polygon","coordinates":[[[130.5375,33.55833333333334],[130.525,33.55833333333334],[130.525,33.56666666666668],[130.5375,33.56666666666668],[130.5375,33.55833333333334]]]}},{"type":"Feature","id":"40341:50302473","properties":{"id":"40341:50302473","meshCode":"50302473","cityCode":"40341","city":"宇美町","lat":33.5625,"lon":130.54375,"areaKm2":1.07265,"populated2020":true,"population2020":1138.3603,"populationNote":"収録500mメッシュ人口の合算（原典収録外は補完しない）"},"geometry":{"type":"Polygon","coordinates":[[[130.55,33.558333333333344],[130.5375,33.55833333333334],[130.5375,33.56666666666668],[130.55,33.56666666666668],[130.55,33.558333333333344]]]}},{"type":"Feature","id":"40341:50302474","properties":{"id":"40341:50302474","meshCode":"50302474","cityCode":"40341","city":"宇美町","lat":33.5625,"lon":130.55625,"areaKm2":1.0726476,"populated2020":true,"population2020":6.2112,"populationNote":"収録500mメッシュ人口の合算（原典収録外は補完しない）"},"geometry":{"type":"Polygon","coordinates":[[[130.5625,33.55833333333334],[130.55,33.558333333333344],[130.55,33.56666666666668],[130.5625,33.56666666666668],[130.5625,33.55833333333334]]]}},{"type":"Feature","id":"40341:50302475","properties":{"id":"40341:50302475","meshCode":"50302475","cityCode":"40341","city":"宇美町","lat":33.5625,"lon":130.56875,"areaKm2":1.0726452,"populated2020":false,"population2020":null,"populationNote":"境界またぎ・収録外等のため人口未集計"},"geometry":{"type":"Polygon","coordinates":[[[130.575,33.558333333333344],[130.5625,33.55833333333334],[130.5625,33.56666666666668],[130.575,33.56666666666668],[130.575,33.558333333333344]]]}},{"type":"Feature","id":"40341:50302476","properties":{"id":"40341:50302476","meshCode":"50302476","cityCode":"40341","city":"宇美町","lat":33.562203,"lon":130.5775958,"areaKm2":0.4362862,"populated2020":false,"population2020":null,"populationNote":"境界またぎ・収録外等のため人口未集計"},"geometry":{"type":"Polygon","coordinates":[[[130.580484994,33.56238166699999],[130.580884449,33.561741108],[130.580939728,33.561312225],[130.580762776,33.560814162],[130.580767782,33.560510559],[130.580464449,33.559723054],[130.580540272,33.559353333],[130.580414163,33.558757225],[130.58077827473952,33.55833333333334],[130.575,33.558333333333344],[130.575,33.56666666666668],[130.57794758849616,33.56666666666668],[130.578478885,33.56629972100001],[130.578918885,33.565825279],[130.579377782,33.565495279],[130.579554721,33.56473166699999],[130.579539442,33.564352225],[130.580054994,33.563538892],[130.580484994,33.56238166699999]]]}},{"type":"Feature","id":"40341:50302388","properties":{"id":"40341:50302388","meshCode":"50302388","cityCode":"40341","city":"宇美町","lat":33.5677443,"lon":130.4872816,"areaKm2":0.0076367,"populated2020":true,"population2020":null,"populationNote":"境界またぎ・収録外等のため人口未集計"},"geometry":{"type":"Polygon","coordinates":[[[130.4875,33.56693976168888],[130.487114163,33.566997495],[130.487023333,33.56718000000001],[130.486968327,33.567708054],[130.487194721,33.568361945999996],[130.4875,33.568901081139614],[130.4875,33.56693976168888]]]}},{"type":"Feature","id":"40341:50302389","properties":{"id":"40341:50302389","meshCode":"50302389","cityCode":"40341","city":"宇美町","lat":33.5698347,"lon":130.4944138,"areaKm2":0.7684695,"populated2020":true,"population2020":null,"populationNote":"境界またぎ・収録外等のため人口未集計"},"geometry":{"type":"Polygon","coordinates":[[[130.487631115,33.566942225],[130.4875,33.56693976168888],[130.4875,33.568901081139614],[130.48819,33.570037225],[130.489329728,33.570733333],[130.489731388,33.571136108],[130.490346939,33.57157110800001],[130.490544721,33.57185805400001],[130.491443606,33.57267055900001],[130.49262917,33.57362138700001],[130.49345,33.57455722500001],[130.494755837,33.57326027900001],[130.495636939,33.572761108],[130.496198054,33.57265694600001],[130.496754163,33.572694721],[130.497663606,33.572889721],[130.499116667,33.573424721],[130.499604994,33.57345333300001],[130.499647782,33.57349610800001],[130.49947166,33.573742775],[130.498394137,33.575],[130.5,33.575],[130.5,33.56666666666668],[130.48823328166088,33.56666666666668],[130.487631115,33.566942225]]]}},{"type":"Feature","id":"40341:50302480","properties":{"id":"40341:50302480","meshCode":"50302480","cityCode":"40341","city":"宇美町","lat":33.5708333,"lon":130.50625,"areaKm2":1.0725566,"populated2020":true,"population2020":3939.16,"populationNote":"収録500mメッシュ人口の合算（原典収録外は補完しない）"},"geometry":{"type":"Polygon","coordinates":[[[130.5125,33.56666666666668],[130.5,33.56666666666668],[130.5,33.575],[130.5125,33.575],[130.5125,33.56666666666668]]]}},{"type":"Feature","id":"40341:50302481","properties":{"id":"40341:50302481","meshCode":"50302481","cityCode":"40341","city":"宇美町","lat":33.5708333,"lon":130.51875,"areaKm2":1.0725539,"populated2020":true,"population2020":5029.5239,"populationNote":"収録500mメッシュ人口の合算（原典収録外は補完しない）"},"geometry":{"type":"Polygon","coordinates":[[[130.525,33.56666666666668],[130.5125,33.56666666666668],[130.5125,33.575],[130.525,33.575],[130.525,33.56666666666668]]]}},{"type":"Feature","id":"40341:50302482","properties":{"id":"40341:50302482","meshCode":"50302482","cityCode":"40341","city":"宇美町","lat":33.5708333,"lon":130.53125,"areaKm2":1.0725512,"populated2020":true,"population2020":4370.3638,"populationNote":"収録500mメッシュ人口の合算（原典収録外は補完しない）"},"geometry":{"type":"Polygon","coordinates":[[[130.5375,33.56666666666668],[130.525,33.56666666666668],[130.525,33.575],[130.5375,33.575],[130.5375,33.56666666666668]]]}},{"type":"Feature","id":"40341:50302483","properties":{"id":"40341:50302483","meshCode":"50302483","cityCode":"40341","city":"宇美町","lat":33.5708333,"lon":130.54375,"areaKm2":1.0725484,"populated2020":true,"population2020":535.1892,"populationNote":"収録500mメッシュ人口の合算（原典収録外は補完しない）"},"geometry":{"type":"Polygon","coordinates":[[[130.55,33.56666666666668],[130.5375,33.56666666666668],[130.5375,33.575],[130.55,33.574999999999996],[130.55,33.56666666666668]]]}},{"type":"Feature","id":"40341:50302484","properties":{"id":"40341:50302484","meshCode":"50302484","cityCode":"40341","city":"宇美町","lat":33.5708333,"lon":130.55625,"areaKm2":1.072546,"populated2020":false,"population2020":null,"populationNote":"境界またぎ・収録外等のため人口未集計"},"geometry":{"type":"Polygon","coordinates":[[[130.5625,33.56666666666668],[130.55,33.56666666666668],[130.55,33.574999999999996],[130.5625,33.575],[130.5625,33.56666666666668]]]}},{"type":"Feature","id":"40341:50302485","properties":{"id":"40341:50302485","meshCode":"50302485","cityCode":"40341","city":"宇美町","lat":33.5707417,"lon":130.5684881,"areaKm2":1.0259759,"populated2020":false,"population2020":null,"populationNote":"境界またぎ・収録外等のため人口未集計"},"geometry":{"type":"Polygon","coordinates":[[[130.574647497,33.570733892],[130.574718327,33.569792494999994],[130.575,33.569284946],[130.575,33.568903613],[130.574753891,33.56851166700001],[130.574758885,33.568275829],[130.575,33.56804064],[130.575,33.56666666666668],[130.5625,33.56666666666668],[130.5625,33.575],[130.57348717300002,33.574999999999996],[130.573732218,33.574291946],[130.574015279,33.573929162],[130.573813061,33.573028054],[130.574116394,33.572610829],[130.574202503,33.572255],[130.57413166,33.57205582900001],[130.574440272,33.57161638699999],[130.574455279,33.571255829],[130.574647497,33.570733892]]]}},{"type":"Feature","id":"40341:50302486","properties":{"id":"40341:50302486","meshCode":"50302486","cityCode":"40341","city":"宇美町","lat":33.5671328,"lon":130.5760405,"areaKm2":0.0220347,"populated2020":false,"population2020":null,"populationNote":"境界またぎ・収録外等のため人口未集計"},"geometry":{"type":"MultiPolygon","coordinates":[[[[130.575,33.56804064],[130.576003061,33.56761666700001],[130.576769442,33.56719138700001],[130.577472503,33.567063333],[130.57794758849616,33.56666666666668],[130.575,33.56666666666668],[130.575,33.56804064]]],[[[130.575067497,33.569000278999994],[130.575,33.568903613],[130.575,33.569284946],[130.575036939,33.569208892],[130.575067497,33.569000278999994]]]]}},{"type":"Feature","id":"40341:50302399","properties":{"id":"40341:50302399","meshCode":"50302399","cityCode":"40341","city":"宇美町","lat":33.5768744,"lon":130.4988805,"areaKm2":0.0804689,"populated2020":true,"population2020":null,"populationNote":"境界またぎ・収録外等のため人口未集計"},"geometry":{"type":"MultiPolygon","coordinates":[[[[130.498394137,33.575],[130.496854994,33.576746667],[130.497776394,33.577341667],[130.498873333,33.578334162000004],[130.49947083,33.578016387000005],[130.499903061,33.57831416199999],[130.5,33.57830764],[130.5,33.575],[130.498394137,33.575]]],[[[130.5,33.580056387],[130.499118054,33.580467495],[130.499294994,33.58056889200001],[130.49969277600002,33.581138613],[130.5,33.581290829],[130.5,33.580056387]]]]}},{"type":"Feature","id":"40341:50302490","properties":{"id":"40341:50302490","meshCode":"50302490","cityCode":"40341","city":"宇美町","lat":33.5775633,"lon":130.5051296,"areaKm2":0.5828119,"populated2020":true,"population2020":null,"populationNote":"境界またぎ・収録外等のため人口未集計"},"geometry":{"type":"Polygon","coordinates":[[[130.500758885,33.578304161999995],[130.500527782,33.579612495],[130.500363606,33.579910829],[130.5,33.580056387],[130.5,33.581290829],[130.500237497,33.58131889199999],[130.50058000000004,33.58108944100001],[130.501334449,33.58118444099999],[130.501833333,33.58136749500001],[130.502413061,33.581230829],[130.50267166,33.580936108],[130.504327497,33.581152225],[130.504858327,33.581132495],[130.505074994,33.581008054],[130.505731946,33.58032666700001],[130.506584994,33.58000222500001],[130.507077782,33.57965805400001],[130.507465551,33.57951082899999],[130.508104994,33.578911108],[130.509344721,33.577965279],[130.509909728,33.577658613],[130.510416109,33.577275279000006],[130.510863606,33.57725555900001],[130.510905551,33.57748500000001],[130.51196055800003,33.576613333],[130.512156109,33.576613333],[130.51229610900003,33.576960829],[130.512288885,33.577301387],[130.5125,33.57735097251452],[130.5125,33.575],[130.5,33.575],[130.5,33.57830764],[130.500629442,33.578255279000004],[130.500758885,33.578304161999995]]]}},{"type":"Feature","id":"40341:50302491","properties":{"id":"40341:50302491","meshCode":"50302491","cityCode":"40341","city":"宇美町","lat":33.575709,"lon":130.5179359,"areaKm2":0.1622308,"populated2020":true,"population2020":null,"populationNote":"境界またぎ・収録外等のため人口未集計"},"geometry":{"type":"Polygon","coordinates":[[[130.51927166,33.57658500000001],[130.519701115,33.576113333],[130.519952218,33.576061387],[130.52156917,33.576009162],[130.522781115,33.57610749500002],[130.523004449,33.576005829],[130.523095279,33.575779721],[130.525,33.575608919],[130.525,33.575],[130.5125,33.575],[130.5125,33.57735097251452],[130.512596394,33.57737361299999],[130.513595551,33.576652775],[130.515883891,33.57539610800001],[130.515880272,33.576076108],[130.516018054,33.57671305400001],[130.51859083,33.576699721],[130.51927166,33.57658500000001]]]}},{"type":"Feature","id":"40341:50302492","properties":{"id":"40341:50302492","meshCode":"50302492","cityCode":"40341","city":"宇美町","lat":33.575837,"lon":130.5327075,"areaKm2":0.1773496,"populated2020":true,"population2020":null,"populationNote":"境界またぎ・収録外等のため人口未集計"},"geometry":{"type":"Polygon","coordinates":[[[130.525235551,33.575626387],[130.525876939,33.575888333],[130.52717499400003,33.576265279],[130.527936667,33.57572110800001],[130.528338327,33.575711387],[130.528890558,33.57580638700001],[130.529292503,33.575639162],[130.529909728,33.57603527900001],[130.531938327,33.57601249499999],[130.532794449,33.576209162000005],[130.534128054,33.576776108],[130.534423891,33.576982225],[130.534633333,33.57726389199999],[130.535328612,33.577247495],[130.536260558,33.577562225],[130.537052776,33.57750000000001],[130.5375,33.57738360221438],[130.5375,33.575],[130.525,33.575],[130.525,33.575608919],[130.525235551,33.575626387]]]}},{"type":"Feature","id":"40341:50302493","properties":{"id":"40341:50302493","meshCode":"50302493","cityCode":"40341","city":"宇美町","lat":33.5777775,"lon":130.545323,"areaKm2":0.5749155,"populated2020":true,"population2020":null,"populationNote":"境界またぎ・収録外等のため人口未集計"},"geometry":{"type":"Polygon","coordinates":[[[130.538087224,33.577424441],[130.538408327,33.577346108],[130.538835837,33.577466946],[130.538975551,33.57780416200001],[130.539220272,33.577896108],[130.540509728,33.577965],[130.541243333,33.57780110800001],[130.54164944200002,33.577947775],[130.542753606,33.57811333299999],[130.543029728,33.578283613],[130.543260272,33.5783],[130.543728612,33.57816249500001],[130.54432416300003,33.57842777500001],[130.545140272,33.578635],[130.545780272,33.578926667],[130.545872776,33.579241945999996],[130.545755551,33.579543333],[130.546461388,33.579989162000004],[130.546562503,33.580271108000005],[130.546555551,33.580888333000004],[130.546992218,33.581419162],[130.54802194600003,33.582371667000004],[130.54654639364858,33.58333333333334],[130.55,33.583333333333336],[130.55,33.574999999999996],[130.5375,33.575],[130.5375,33.57738360221438],[130.538087224,33.577424441]]]}},{"type":"Feature","id":"40341:50302494","properties":{"id":"40341:50302494","meshCode":"50302494","cityCode":"40341","city":"宇美町","lat":33.5791667,"lon":130.55625,"areaKm2":1.0724444,"populated2020":true,"population2020":3.0366,"populationNote":"収録500mメッシュ人口の合算（原典収録外は補完しない）"},"geometry":{"type":"Polygon","coordinates":[[[130.5625,33.575],[130.55,33.574999999999996],[130.55,33.583333333333336],[130.5625,33.583333333333336],[130.5625,33.575]]]}},{"type":"Feature","id":"40341:50302495","properties":{"id":"40341:50302495","meshCode":"50302495","cityCode":"40341","city":"宇美町","lat":33.5785313,"lon":130.566554,"areaKm2":0.6400988,"populated2020":false,"population2020":null,"populationNote":"境界またぎ・収録外等のため人口未集計"},"geometry":{"type":"Polygon","coordinates":[[[130.569108327,33.578418613000004],[130.570771946,33.577627775],[130.57120166,33.577556666999996],[130.57161917,33.57739694600001],[130.571983061,33.577135829],[130.572706394,33.576941387],[130.573858612,33.576089441],[130.573813061,33.575762225000005],[130.573499442,33.575425829],[130.573433891,33.575198054],[130.57348717300002,33.574999999999996],[130.5625,33.575],[130.5625,33.583333333333336],[130.56754871571093,33.583333333333336],[130.56826917,33.582508333],[130.568329728,33.582066946],[130.56827917,33.581257494999996],[130.568329728,33.58100138700001],[130.568653333,33.580536667],[130.568188327,33.579580279],[130.568178327,33.57933833300001],[130.568511388,33.579021108],[130.56852166,33.578807495],[130.569108327,33.578418613000004]]]}},{"type":"Feature","id":"40341:50303403","properties":{"id":"40341:50303403","meshCode":"50303403","cityCode":"40341","city":"宇美町","lat":33.585014,"lon":130.5486619,"areaKm2":0.1027135,"populated2020":false,"population2020":null,"populationNote":"境界またぎ・収録外等のため人口未集計"},"geometry":{"type":"Polygon","coordinates":[[[130.546359442,33.583588613],[130.546792776,33.58411972100001],[130.546897497,33.584732495],[130.547033891,33.58495527899999],[130.547403061,33.585163333],[130.548227497,33.58591055899999],[130.548353333,33.586397774999995],[130.54817917,33.586626667],[130.54832083,33.586948613],[130.548868885,33.587276108000005],[130.549724721,33.587495829000005],[130.55,33.587653054],[130.55,33.583333333333336],[130.54654639364858,33.58333333333334],[130.546359442,33.583588613]]]}},{"type":"Feature","id":"40341:50303404","properties":{"id":"40341:50303404","meshCode":"50303404","cityCode":"40341","city":"宇美町","lat":33.5871289,"lon":130.5568215,"areaKm2":0.9459936,"populated2020":false,"population2020":null,"populationNote":"境界またぎ・収録外等のため人口未集計"},"geometry":{"type":"Polygon","coordinates":[[[130.5625,33.583333333333336],[130.55,33.583333333333336],[130.55,33.587653054],[130.553588327,33.589768613],[130.55402083,33.59044444100001],[130.554340558,33.590756946],[130.554835837,33.59111166700001],[130.55599418841547,33.591666666666676],[130.5625,33.59166666666667],[130.5625,33.583333333333336]]]}},{"type":"Feature","id":"40341:50303405","properties":{"id":"40341:50303405","meshCode":"50303405","cityCode":"40341","city":"宇美町","lat":33.5873354,"lon":130.5646824,"areaKm2":0.3705566,"populated2020":false,"population2020":null,"populationNote":"境界またぎ・収録外等のため人口未集計"},"geometry":{"type":"Polygon","coordinates":[[[130.56651,33.587207495],[130.566542218,33.586627495],[130.56684277600002,33.58597277500001],[130.566928885,33.585484162],[130.56718166,33.584805829],[130.56740917,33.583523333],[130.56754871571093,33.583333333333336],[130.5625,33.583333333333336],[130.5625,33.59166666666667],[130.565352218,33.591646387],[130.565960558,33.591085279000005],[130.566135551,33.591039721],[130.566421115,33.59080110800001],[130.566810558,33.58982889199999],[130.567087782,33.589600829],[130.56719,33.589413613],[130.567209442,33.589158054],[130.567006394,33.588134162],[130.566597497,33.58749972100001],[130.56651,33.587207495]]]}},{"type":"Feature","id":"40341:50303414","properties":{"id":"40341:50303414","meshCode":"50303414","cityCode":"40341","city":"宇美町","lat":33.5924049,"lon":130.5601724,"areaKm2":0.0780869,"populated2020":false,"population2020":null,"populationNote":"境界またぎ・収録外等のため人口未集計"},"geometry":{"type":"Polygon","coordinates":[[[130.55599418841547,33.591666666666676],[130.558277497,33.592520559],[130.559799442,33.59335694600001],[130.561747497,33.593428333000006],[130.5625,33.593379624467424],[130.5625,33.59166666666667],[130.55599418841547,33.591666666666676]]]}},{"type":"Feature","id":"40341:50303415","properties":{"id":"40341:50303415","meshCode":"50303415","cityCode":"40341","city":"宇美町","lat":33.5923595,"lon":130.5634695,"areaKm2":0.0301849,"populated2020":false,"population2020":null,"populationNote":"境界またぎ・収録外等のため人口未集計"},"geometry":{"type":"Polygon","coordinates":[[[130.5625,33.593379624467424],[130.562909442,33.59332249500001],[130.563208885,33.593127775],[130.563617782,33.593104721],[130.56398778200003,33.592959162],[130.564261946,33.59276916200001],[130.564451946,33.592504441],[130.564884994,33.59170582899999],[130.56520949634586,33.59166666666667],[130.5625,33.59166666666667],[130.5625,33.593379624467424]]]}}]}