{"type":"FeatureCollection","metadata":{"cityCode":"40384","city":"遠賀町","resolution":1000,"boundaryDate":"2026-01-01","populationLabel":"2020年基準人口（国交省調整値）","method":"標準地域メッシュを行政界で切抜き。中心が区域外のとき区域内代表点を判定点にする。人口不明をゼロにしない。"},"features":[{"type":"Feature","id":"40384:50305570","properties":{"id":"40384:50305570","meshCode":"50305570","cityCode":"40384","city":"遠賀町","lat":33.812241,"lon":130.6369773,"areaKm2":0.0224625,"populated2020":false,"population2020":null,"populationNote":"境界またぎ・収録外等のため人口未集計"},"geometry":{"type":"Polygon","coordinates":[[[130.63750000000002,33.81061384642826],[130.63596722400004,33.812746108],[130.636458885,33.813017495],[130.63750000000002,33.81334608871233],[130.63750000000002,33.81061384642826]]]}},{"type":"Feature","id":"40384:50305571","properties":{"id":"40384:50305571","meshCode":"50305571","cityCode":"40384","city":"遠賀町","lat":33.8126221,"lon":130.6446998,"areaKm2":0.7526436,"populated2020":false,"population2020":null,"populationNote":"境界またぎ・収録外等のため人口未集計"},"geometry":{"type":"Polygon","coordinates":[[[130.643058885,33.808833613],[130.641424163,33.809069162],[130.640938327,33.809484999999995],[130.639589728,33.809892775],[130.639200558,33.810162225000006],[130.63750000000002,33.81061384642826],[130.63750000000002,33.81334608871233],[130.638312503,33.813370559],[130.639127782,33.81308110799999],[130.639693333,33.812968333],[130.641072218,33.81327999999999],[130.641356109,33.813546946],[130.641741388,33.814291387],[130.642189442,33.814492494999996],[130.64246,33.81482277500001],[130.642388327,33.815224721],[130.642752503,33.815803054],[130.642858327,33.816443054],[130.64306922179898,33.81666666666667],[130.65,33.81666666666667],[130.65,33.81021894599999],[130.649005837,33.809636667],[130.648450558,33.809478613],[130.647359728,33.80933194599999],[130.645764721,33.80951833300001],[130.645519442,33.80949416200001],[130.645435279,33.809364162],[130.645046667,33.80917722499999],[130.644683891,33.80913861300001],[130.644085837,33.808864721],[130.643058885,33.808833613]]]}},{"type":"Feature","id":"40384:50305572","properties":{"id":"40384:50305572","meshCode":"50305572","cityCode":"40384","city":"遠賀町","lat":33.8141218,"lon":130.6514378,"areaKm2":0.1654638,"populated2020":false,"population2020":null,"populationNote":"境界またぎ・収録外等のため人口未集計"},"geometry":{"type":"Polygon","coordinates":[[[130.651868054,33.811846387],[130.65137,33.81119722500001],[130.65,33.81021894599999],[130.65,33.81666666666667],[130.6540871330442,33.81666666666667],[130.653631115,33.816384441],[130.653206939,33.815868892],[130.653138885,33.815627495],[130.65342917,33.81517916200001],[130.653156109,33.814726107999995],[130.653266667,33.814192225000006],[130.65305083,33.813723333],[130.651868054,33.811846387]]]}},{"type":"Feature","id":"40384:50305581","properties":{"id":"40384:50305581","meshCode":"50305581","cityCode":"40384","city":"遠賀町","lat":33.8209027,"lon":130.646787,"areaKm2":0.5478092,"populated2020":true,"population2020":null,"populationNote":"境界またぎ・収録外等のため人口未集計"},"geometry":{"type":"Polygon","coordinates":[[[130.64306922179898,33.81666666666667],[130.643610558,33.81785],[130.644064449,33.81830361299999],[130.644160272,33.819734721],[130.643966667,33.820540829],[130.643578327,33.820717495],[130.643506394,33.820832225],[130.643510558,33.821195279],[130.643673891,33.82151916200001],[130.643693333,33.822335559],[130.643201388,33.823730279],[130.643094721,33.824306387],[130.64292166,33.824724721],[130.642592114,33.825],[130.65,33.825],[130.65,33.81666666666667],[130.64306922179898,33.81666666666667]]]}},{"type":"Feature","id":"40384:50305582","properties":{"id":"40384:50305582","meshCode":"50305582","cityCode":"40384","city":"遠賀町","lat":33.8213954,"lon":130.6555981,"areaKm2":0.8934936,"populated2020":true,"population2020":null,"populationNote":"境界またぎ・収録外等のため人口未集計"},"geometry":{"type":"Polygon","coordinates":[[[130.65523166,33.817049162],[130.6540871330442,33.81666666666667],[130.65,33.81666666666667],[130.65,33.825],[130.6625,33.824999999999996],[130.6625,33.82000881533978],[130.661708327,33.820011666999996],[130.661118054,33.81987972100001],[130.659934449,33.819366386999995],[130.658726939,33.819183333],[130.658272503,33.81920749499999],[130.657990558,33.819146667000005],[130.657514994,33.818721667],[130.65523166,33.817049162]]]}},{"type":"Feature","id":"40384:50305583","properties":{"id":"40384:50305583","meshCode":"50305583","cityCode":"40384","city":"遠賀町","lat":33.8222402,"lon":130.6661003,"areaKm2":0.4047433,"populated2020":true,"population2020":null,"populationNote":"境界またぎ・収録外等のため人口未集計"},"geometry":{"type":"Polygon","coordinates":[[[130.668263606,33.819114721],[130.667021388,33.81897055900001],[130.665423061,33.818917775],[130.664000558,33.81972582900001],[130.6625,33.82000881533978],[130.6625,33.824999999999996],[130.672312503,33.825],[130.669968885,33.823986387],[130.668464163,33.823218333],[130.66871083,33.822536387],[130.66881083,33.821440279],[130.669004721,33.820636667],[130.669752218,33.819585559],[130.669051388,33.819285279000006],[130.668263606,33.819114721]]]}},{"type":"Feature","id":"40384:50305591","properties":{"id":"40384:50305591","meshCode":"50305591","cityCode":"40384","city":"遠賀町","lat":33.8290718,"lon":130.6460669,"areaKm2":0.6711571,"populated2020":true,"population2020":null,"populationNote":"境界またぎ・収録外等のため人口未集計"},"geometry":{"type":"Polygon","coordinates":[[[130.642035279,33.82540110800001],[130.641848054,33.825648892],[130.64179166,33.826453054],[130.64159,33.827096946],[130.641762218,33.827714441000005],[130.641601115,33.828215279],[130.642188612,33.829009162],[130.642439728,33.829499721],[130.642421388,33.830090279],[130.642088612,33.830785829],[130.642111115,33.831134721],[130.64240166,33.831923613],[130.642898327,33.83264222500001],[130.642984449,33.832951946],[130.64294097294297,33.833333333333336],[130.65,33.833333333333336],[130.65,33.825],[130.642592114,33.825],[130.642035279,33.82540110800001]]]}},{"type":"Feature","id":"40384:50305592","properties":{"id":"40384:50305592","meshCode":"50305592","cityCode":"40384","city":"遠賀町","lat":33.8291667,"lon":130.65625,"areaKm2":1.0693674,"populated2020":true,"population2020":128.9809,"populationNote":"収録500mメッシュ人口の合算（原典収録外は補完しない）"},"geometry":{"type":"Polygon","coordinates":[[[130.6625,33.824999999999996],[130.65,33.825],[130.65,33.833333333333336],[130.6625,33.833333333333336],[130.6625,33.824999999999996]]]}},{"type":"Feature","id":"40384:50305593","properties":{"id":"40384:50305593","meshCode":"50305593","cityCode":"40384","city":"遠賀町","lat":33.8292373,"lon":130.6686527,"areaKm2":1.0496043,"populated2020":true,"population2020":2004.3202,"populationNote":"収録500mメッシュ人口の合算（原典収録外は補完しない）"},"geometry":{"type":"Polygon","coordinates":[[[130.675,33.826236532],[130.674544163,33.826097775],[130.674588885,33.825850279],[130.674250272,33.825647225],[130.67378166,33.825856387],[130.67270111500002,33.825509441],[130.672312503,33.825],[130.6625,33.824999999999996],[130.6625,33.833333333333336],[130.675,33.833333333333336],[130.675,33.826236532]]]}},{"type":"Feature","id":"40384:50305594","properties":{"id":"40384:50305594","meshCode":"50305594","cityCode":"40384","city":"遠賀町","lat":33.8316308,"lon":130.6801059,"areaKm2":0.3727742,"populated2020":true,"population2020":null,"populationNote":"境界またぎ・収録外等のため人口未集計"},"geometry":{"type":"Polygon","coordinates":[[[130.676938885,33.829575279],[130.675206394,33.826751387],[130.67530166,33.826349441],[130.675,33.826236532],[130.675,33.833333333333336],[130.6875,33.833333333333336],[130.6875,33.83231146879709],[130.687112776,33.832394441],[130.68673055800002,33.83173694600001],[130.686377497,33.831495279],[130.685631946,33.831377495],[130.685534449,33.831263613000004],[130.685385279,33.830622774999995],[130.685143891,33.830517225],[130.684819442,33.830683613],[130.682986667,33.830689441000004],[130.682726939,33.830926946],[130.680195837,33.830516946],[130.679524994,33.830776946],[130.679241115,33.830803333],[130.67777166,33.830697775],[130.67723,33.830549721000004],[130.67720083,33.829642225],[130.676938885,33.829575279]]]}},{"type":"Feature","id":"40384:50305595","properties":{"id":"40384:50305595","meshCode":"50305595","cityCode":"40384","city":"遠賀町","lat":33.8330026,"lon":130.6885728,"areaKm2":0.0156135,"populated2020":true,"population2020":null,"populationNote":"境界またぎ・収録外等のため人口未集計"},"geometry":{"type":"Polygon","coordinates":[[[130.690232776,33.833333333],[130.689145279,33.83262389200001],[130.688105551,33.832794441],[130.687619728,33.83232138699999],[130.6875,33.83231146879709],[130.6875,33.833333333333336],[130.690232776,33.833333333]]]}},{"type":"Feature","id":"40384:50306501","properties":{"id":"40384:50306501","meshCode":"50306501","cityCode":"40384","city":"遠賀町","lat":33.8365849,"lon":130.6473715,"areaKm2":0.3887156,"populated2020":true,"population2020":6.0707,"populationNote":"収録500mメッシュ人口の合算（原典収録外は補完しない）"},"geometry":{"type":"Polygon","coordinates":[[[130.64294097294297,33.833333333333336],[130.642527224,33.833941108000005],[130.642343891,33.834634441000006],[130.642831946,33.834958613],[130.643896667,33.835077775],[130.644405279,33.835205],[130.644812218,33.835553613],[130.645477782,33.836952775],[130.645272503,33.837298892],[130.644928054,33.837592225],[130.644982218,33.837787495],[130.64561389100004,33.838340559],[130.646131946,33.838364440999996],[130.646715837,33.838273613],[130.646844163,33.839219162],[130.6480592218921,33.84166666666667],[130.65,33.84166666666667],[130.65,33.833333333333336],[130.64294097294297,33.833333333333336]]]}},{"type":"Feature","id":"40384:50306502","properties":{"id":"40384:50306502","meshCode":"50306502","cityCode":"40384","city":"遠賀町","lat":33.8375,"lon":130.65625,"areaKm2":1.069265,"populated2020":true,"population2020":328.0514,"populationNote":"収録500mメッシュ人口の合算（原典収録外は補完しない）"},"geometry":{"type":"Polygon","coordinates":[[[130.6625,33.833333333333336],[130.65,33.833333333333336],[130.65,33.84166666666667],[130.6625,33.84166666666667],[130.6625,33.833333333333336]]]}},{"type":"Feature","id":"40384:50306503","properties":{"id":"40384:50306503","meshCode":"50306503","cityCode":"40384","city":"遠賀町","lat":33.8375,"lon":130.66875,"areaKm2":1.0692632,"populated2020":true,"population2020":1496.3285,"populationNote":"収録500mメッシュ人口の合算（原典収録外は補完しない）"},"geometry":{"type":"Polygon","coordinates":[[[130.675,33.833333333333336],[130.6625,33.833333333333336],[130.6625,33.84166666666667],[130.675,33.84166666666667],[130.675,33.833333333333336]]]}},{"type":"Feature","id":"40384:50306504","properties":{"id":"40384:50306504","meshCode":"50306504","cityCode":"40384","city":"遠賀町","lat":33.8374565,"lon":130.6811747,"areaKm2":1.0557151,"populated2020":true,"population2020":158.2677,"populationNote":"収録500mメッシュ人口の合算（原典収録外は補完しない）"},"geometry":{"type":"Polygon","coordinates":[[[130.6875,33.833333333333336],[130.675,33.833333333333336],[130.675,33.84166666666667],[130.68635919614803,33.84166666666667],[130.6875,33.839334692007164],[130.6875,33.833333333333336]]]}},{"type":"Feature","id":"40384:50306505","properties":{"id":"40384:50306505","meshCode":"50306505","cityCode":"40384","city":"遠賀町","lat":33.8352135,"lon":130.6887591,"areaKm2":0.1075891,"populated2020":true,"population2020":null,"populationNote":"境界またぎ・収録外等のため人口未集計"},"geometry":{"type":"Polygon","coordinates":[[[130.6875,33.839334692007164],[130.688796939,33.83660222499999],[130.689105551,33.836172225],[130.691267782,33.83410416200001],[130.69023277653068,33.83333333333334],[130.6875,33.833333333333336],[130.6875,33.839334692007164]]]}},{"type":"Feature","id":"40384:50306511","properties":{"id":"40384:50306511","meshCode":"50306511","cityCode":"40384","city":"遠賀町","lat":33.8496364,"lon":130.6470074,"areaKm2":0.1042192,"populated2020":true,"population2020":null,"populationNote":"境界またぎ・収録外等のため人口未集計"},"geometry":{"type":"MultiPolygon","coordinates":[[[[130.64825083000002,33.842307775],[130.648141388,33.842871108],[130.64768083,33.843303612999996],[130.647731946,33.843539162],[130.648738327,33.84459944099999],[130.649115551,33.844651946000006],[130.65,33.844431694],[130.65,33.84166666666667],[130.6480592218921,33.84166666666667],[130.64825083000002,33.842307775]]],[[[130.640247224,33.849703054],[130.640044163,33.84927416200001],[130.639435551,33.848713333000006],[130.638587497,33.848664721],[130.638430272,33.84875527900001],[130.63835166,33.849469721000006],[130.638036667,33.849872495],[130.638025837,33.85],[130.640287562,33.85],[130.640247224,33.849703054]]],[[[130.649138885,33.849735829],[130.647610272,33.84930889200001],[130.646876667,33.849248333],[130.645163061,33.849652774999996],[130.644590026,33.85],[130.6496493,33.85],[130.649138885,33.849735829]]],[[[130.64251555100003,33.849888054],[130.64198939,33.85],[130.642736615,33.849999999999994],[130.64251555100003,33.849888054]]]]}},{"type":"Feature","id":"40384:50306512","properties":{"id":"40384:50306512","meshCode":"50306512","cityCode":"40384","city":"遠賀町","lat":33.8455792,"lon":130.6570652,"areaKm2":0.9157707,"populated2020":true,"population2020":null,"populationNote":"境界またぎ・収録外等のため人口未集計"},"geometry":{"type":"Polygon","coordinates":[[[130.65,33.844431694],[130.651162776,33.844652225000004],[130.651705837,33.844569721],[130.652408612,33.844911946],[130.652999442,33.84652722500001],[130.652797497,33.848342224999996],[130.652761025,33.85],[130.6625,33.85],[130.6625,33.84166666666667],[130.65,33.84166666666667],[130.65,33.844431694]]]}},{"type":"Feature","id":"40384:50306513","properties":{"id":"40384:50306513","meshCode":"50306513","cityCode":"40384","city":"遠賀町","lat":33.8458333,"lon":130.66875,"areaKm2":1.0691608,"populated2020":true,"population2020":1788.5994,"populationNote":"収録500mメッシュ人口の合算（原典収録外は補完しない）"},"geometry":{"type":"Polygon","coordinates":[[[130.675,33.84166666666667],[130.6625,33.84166666666667],[130.6625,33.85],[130.675,33.849999999999994],[130.675,33.84166666666667]]]}},{"type":"Feature","id":"40384:50306514","properties":{"id":"40384:50306514","meshCode":"50306514","cityCode":"40384","city":"遠賀町","lat":33.845569,"lon":130.6797775,"areaKm2":0.8074869,"populated2020":true,"population2020":null,"populationNote":"境界またぎ・収録外等のため人口未集計"},"geometry":{"type":"Polygon","coordinates":[[[130.684466939,33.84555944099999],[130.68635919614803,33.84166666666667],[130.675,33.84166666666667],[130.675,33.849999999999994],[130.682741829,33.85],[130.684466939,33.84555944099999]]]}},{"type":"Feature","id":"40384:50306521","properties":{"id":"40384:50306521","meshCode":"50306521","cityCode":"40384","city":"遠賀町","lat":33.8539139,"lon":130.6449036,"areaKm2":0.8515128,"populated2020":true,"population2020":220.4484,"populationNote":"収録500mメッシュ人口の合算（原典収録外は補完しない）"},"geometry":{"type":"Polygon","coordinates":[[[130.644213606,33.850238053999995],[130.64308,33.850481946],[130.642953333,33.850407495],[130.642736615,33.849999999999994],[130.64198939,33.85],[130.641092218,33.850329162],[130.640808612,33.850331108],[130.640423333,33.850151667],[130.640287562,33.85],[130.638025837,33.85],[130.638132503,33.850424162],[130.638694163,33.85083722500001],[130.638481946,33.851615],[130.638621946,33.85184444099999],[130.639183333,33.852241387],[130.639424449,33.852680559],[130.639492776,33.854336387],[130.639974994,33.854670829],[130.639935551,33.855577225000005],[130.640476939,33.856318613],[130.640848612,33.856602775],[130.64150917,33.856717495],[130.641718327,33.856828333],[130.642180272,33.857269721],[130.642466939,33.857844721],[130.642501115,33.858013892],[130.64240335891031,33.85833333333334],[130.65,33.858333333333334],[130.65,33.850181279],[130.6496493,33.85],[130.644590026,33.85],[130.644213606,33.850238053999995]]]}},{"type":"Feature","id":"40384:50306522","properties":{"id":"40384:50306522","meshCode":"50306522","cityCode":"40384","city":"遠賀町","lat":33.8542876,"lon":130.6564184,"areaKm2":1.0321588,"populated2020":true,"population2020":null,"populationNote":"境界またぎ・収録外等のため人口未集計"},"geometry":{"type":"Polygon","coordinates":[[[130.652731946,33.85085110799999],[130.651774163,33.85197805400001],[130.65162527900003,33.852032495],[130.650800558,33.851523054],[130.650465279,33.850478054],[130.65,33.850181279],[130.65,33.858333333333334],[130.6625,33.858333333333334],[130.6625,33.85],[130.652761025,33.85],[130.652731946,33.85085110799999]]]}},{"type":"Feature","id":"40384:50306523","properties":{"id":"40384:50306523","meshCode":"50306523","cityCode":"40384","city":"遠賀町","lat":33.8541667,"lon":130.66875,"areaKm2":1.0690584,"populated2020":true,"population2020":3765.1543,"populationNote":"収録500mメッシュ人口の合算（原典収録外は補完しない）"},"geometry":{"type":"Polygon","coordinates":[[[130.675,33.849999999999994],[130.6625,33.85],[130.6625,33.858333333333334],[130.675,33.858333333333334],[130.675,33.849999999999994]]]}},{"type":"Feature","id":"40384:50306524","properties":{"id":"40384:50306524","meshCode":"50306524","cityCode":"40384","city":"遠賀町","lat":33.8538732,"lon":130.6781931,"areaKm2":0.5380695,"populated2020":true,"population2020":null,"populationNote":"境界またぎ・収録外等のため人口未集計"},"geometry":{"type":"Polygon","coordinates":[[[130.681431388,33.853451387],[130.682741829,33.85],[130.675,33.849999999999994],[130.675,33.858333333333334],[130.68020435799065,33.85833333333334],[130.68047,33.856589721000006],[130.681431388,33.853451387]]]}},{"type":"Feature","id":"40384:50306531","properties":{"id":"40384:50306531","meshCode":"50306531","cityCode":"40384","city":"遠賀町","lat":33.8622776,"lon":130.6466747,"areaKm2":0.56287,"populated2020":true,"population2020":null,"populationNote":"境界またぎ・収録外等のため人口未集計"},"geometry":{"type":"Polygon","coordinates":[[[130.642317224,33.85902],[130.642659728,33.85992610800001],[130.642983061,33.860514441],[130.643460272,33.861096946],[130.643411115,33.861487775],[130.643106109,33.861993333],[130.643653891,33.863639721],[130.643772776,33.863742495],[130.644437224,33.863825],[130.64461055800004,33.864048612999994],[130.644496939,33.86435889199999],[130.644216109,33.864749162],[130.643681946,33.865147775000004],[130.643769728,33.865513613000005],[130.644280272,33.86618055900001],[130.64423272410116,33.86666666666666],[130.65,33.86666666666667],[130.65,33.858333333333334],[130.64240335891031,33.85833333333334],[130.642317224,33.85902]]]}},{"type":"Feature","id":"40384:50306532","properties":{"id":"40384:50306532","meshCode":"50306532","cityCode":"40384","city":"遠賀町","lat":33.8625,"lon":130.65625,"areaKm2":1.068958,"populated2020":true,"population2020":479.6288,"populationNote":"収録500mメッシュ人口の合算（原典収録外は補完しない）"},"geometry":{"type":"Polygon","coordinates":[[[130.6625,33.858333333333334],[130.65,33.858333333333334],[130.65,33.86666666666667],[130.6625,33.866666666666674],[130.6625,33.858333333333334]]]}},{"type":"Feature","id":"40384:50306533","properties":{"id":"40384:50306533","meshCode":"50306533","cityCode":"40384","city":"遠賀町","lat":33.8625,"lon":130.66875,"areaKm2":1.068956,"populated2020":true,"population2020":615.898,"populationNote":"収録500mメッシュ人口の合算（原典収録外は補完しない）"},"geometry":{"type":"Polygon","coordinates":[[[130.675,33.858333333333334],[130.6625,33.858333333333334],[130.6625,33.866666666666674],[130.675,33.86666666666667],[130.675,33.858333333333334]]]}},{"type":"Feature","id":"40384:50306534","properties":{"id":"40384:50306534","meshCode":"50306534","cityCode":"40384","city":"遠賀町","lat":33.8623968,"lon":130.6774347,"areaKm2":0.4156483,"populated2020":true,"population2020":96.4527,"populationNote":"収録500mメッシュ人口の合算（原典収録外は補完しない）"},"geometry":{"type":"Polygon","coordinates":[[[130.67948802903607,33.86666666666667],[130.68020435799065,33.85833333333334],[130.675,33.858333333333334],[130.675,33.86666666666667],[130.67948802903607,33.86666666666667]]]}},{"type":"Feature","id":"40384:50306541","properties":{"id":"40384:50306541","meshCode":"50306541","cityCode":"40384","city":"遠賀町","lat":33.8683988,"lon":130.6473079,"areaKm2":0.2092308,"populated2020":true,"population2020":null,"populationNote":"境界またぎ・収録外等のため人口未集計"},"geometry":{"type":"Polygon","coordinates":[[[130.643489442,33.86751277500001],[130.643328612,33.868020279],[130.64374,33.868415829],[130.648403333,33.870669721],[130.649452218,33.871089441],[130.649584994,33.871015559],[130.65,33.87114677500001],[130.65,33.86666666666667],[130.64423272410116,33.86666666666666],[130.643725279,33.867416108],[130.643489442,33.86751277500001]]]}},{"type":"Feature","id":"40384:50306542","properties":{"id":"40384:50306542","meshCode":"50306542","cityCode":"40384","city":"遠賀町","lat":33.8689972,"lon":130.6563924,"areaKm2":0.5888128,"populated2020":true,"population2020":null,"populationNote":"境界またぎ・収録外等のため人口未集計"},"geometry":{"type":"Polygon","coordinates":[[[130.653734721,33.87105166700001],[130.656930558,33.870536108],[130.65742917,33.870197225000005],[130.657658885,33.870155],[130.658130558,33.870235],[130.658193061,33.87152610799999],[130.658373333,33.871560829],[130.658676109,33.871430000000004],[130.658919442,33.87143833300001],[130.659109728,33.87175944100001],[130.659503891,33.871810559],[130.659526394,33.872176946],[130.65976555100002,33.872303892],[130.66021083,33.87234694600001],[130.660394721,33.872211946],[130.660708327,33.871672775],[130.660890272,33.871616387],[130.661924994,33.87169861299999],[130.662002218,33.871836667],[130.662301946,33.871864441],[130.6625,33.87213580825527],[130.6625,33.866666666666674],[130.65,33.86666666666667],[130.65,33.87114677500001],[130.650141115,33.871431107999996],[130.650242503,33.871478333],[130.65035805400004,33.871367775],[130.650199442,33.871222225],[130.65026083,33.871170279],[130.650548327,33.871254162],[130.650584721,33.871161946],[130.651545551,33.871048333],[130.651646667,33.871180279],[130.651633333,33.871864162],[130.652122218,33.871728892],[130.653734721,33.87105166700001]]]}},{"type":"Feature","id":"40384:50306543","properties":{"id":"40384:50306543","meshCode":"50306543","cityCode":"40384","city":"遠賀町","lat":33.8705009,"lon":130.6692221,"areaKm2":0.9608533,"populated2020":true,"population2020":531.7963,"populationNote":"収録500mメッシュ人口の合算（原典収録外は補完しない）"},"geometry":{"type":"Polygon","coordinates":[[[130.675,33.86666666666667],[130.6625,33.866666666666674],[130.66254166,33.872204162],[130.662719442,33.872266667000005],[130.663054994,33.87213582900001],[130.663400558,33.872449162],[130.663854449,33.87252],[130.664230558,33.872474161999996],[130.664443891,33.872336108],[130.666499442,33.87288194600001],[130.666431946,33.874144441000006],[130.666526109,33.874373892],[130.66685917,33.874559162],[130.667751115,33.874772775000004],[130.667844163,33.874832225],[130.66786489,33.875],[130.675,33.875],[130.675,33.86666666666667]]]}},{"type":"Feature","id":"40384:50306544","properties":{"id":"40384:50306544","meshCode":"50306544","cityCode":"40384","city":"遠賀町","lat":33.8706611,"lon":130.6770223,"areaKm2":0.3440705,"populated2020":true,"population2020":28.2109,"populationNote":"収録500mメッシュ人口の合算（原典収録外は補完しない）"},"geometry":{"type":"Polygon","coordinates":[[[130.678534384,33.875],[130.67948802903607,33.86666666666667],[130.675,33.86666666666667],[130.675,33.875],[130.678534384,33.875]]]}},{"type":"Feature","id":"40384:50306553","properties":{"id":"40384:50306553","meshCode":"50306553","cityCode":"40384","city":"遠賀町","lat":33.8784446,"lon":130.6726184,"areaKm2":0.3701453,"populated2020":true,"population2020":null,"populationNote":"境界またぎ・収録外等のため人口未集計"},"geometry":{"type":"Polygon","coordinates":[[[130.667837782,33.875152775],[130.66883861200003,33.87569500000001],[130.669104721,33.875977495],[130.669235279,33.876544721],[130.669368612,33.87674444099999],[130.669750272,33.876863054000005],[130.670113606,33.876829162],[130.670527782,33.87830610799999],[130.670601388,33.880093333],[130.670984994,33.88087082900001],[130.671440558,33.881491108],[130.67213083,33.882035829],[130.673128327,33.882590829],[130.67354328116897,33.88333333333333],[130.675,33.883333333333326],[130.675,33.875],[130.66786489,33.875],[130.667837782,33.875152775]]]}},{"type":"Feature","id":"40384:50306554","properties":{"id":"40384:50306554","meshCode":"50306554","cityCode":"40384","city":"遠賀町","lat":33.8789331,"lon":130.6765262,"areaKm2":0.2585347,"populated2020":true,"population2020":null,"populationNote":"境界またぎ・収録外等のため人口未集計"},"geometry":{"type":"Polygon","coordinates":[[[130.67750555095338,33.88333333333333],[130.678534384,33.875],[130.675,33.875],[130.675,33.883333333333326],[130.67750555095338,33.88333333333333]]]}},{"type":"Feature","id":"40384:50306563","properties":{"id":"40384:50306563","meshCode":"50306563","cityCode":"40384","city":"遠賀町","lat":33.8841208,"lon":130.6743942,"areaKm2":0.0278511,"populated2020":true,"population2020":null,"populationNote":"境界またぎ・収録外等のため人口未集計"},"geometry":{"type":"MultiPolygon","coordinates":[[[[130.67354328116897,33.88333333333333],[130.673807782,33.884224162],[130.673757497,33.884803613],[130.675,33.885021495],[130.675,33.883333333333326],[130.67354328116897,33.88333333333333]]],[[[130.675,33.88539466700001],[130.674619728,33.888290279],[130.674654449,33.888485829],[130.675,33.888875306],[130.675,33.88539466700001]]]]}},{"type":"Feature","id":"40384:50306564","properties":{"id":"40384:50306564","meshCode":"50306564","cityCode":"40384","city":"遠賀町","lat":33.8863242,"lon":130.6760871,"areaKm2":0.1366952,"populated2020":true,"population2020":null,"populationNote":"境界またぎ・収録外等のため人口未集計"},"geometry":{"type":"Polygon","coordinates":[[[130.675,33.883333333333326],[130.675,33.888875306],[130.676571388,33.89049861299999],[130.67750555095338,33.88333333333333],[130.675,33.883333333333326]]]}}]}