{"type":"FeatureCollection","metadata":{"cityCode":"40381","city":"芦屋町","resolution":1000,"boundaryDate":"2026-01-01","populationLabel":"2020年基準人口（国交省調整値）","method":"標準地域メッシュを行政界で切抜き。中心が区域外のとき区域内代表点を判定点にする。人口不明をゼロにしない。"},"features":[{"type":"Feature","id":"40381:50306541","properties":{"id":"40381:50306541","meshCode":"50306541","cityCode":"40381","city":"芦屋町","lat":33.872339,"lon":130.6464788,"areaKm2":0.3380078,"populated2020":true,"population2020":null,"populationNote":"境界またぎ・収録外等のため人口未集計"},"geometry":{"type":"Polygon","coordinates":[[[130.64374,33.868415829],[130.643328612,33.868020279],[130.64324166,33.86865722499999],[130.643312218,33.869173333],[130.643826667,33.870333892000005],[130.643924449,33.87109972100001],[130.64353083,33.872446108],[130.643413061,33.873226387],[130.643490558,33.873905558999994],[130.643809442,33.87495138700001],[130.65,33.875],[130.65,33.87114677500001],[130.649584994,33.871015559],[130.649452218,33.871089441],[130.648403333,33.870669721],[130.64408166000004,33.8686],[130.64374,33.868415829]]]}},{"type":"Feature","id":"40381:50306542","properties":{"id":"40381:50306542","meshCode":"50306542","cityCode":"40381","city":"芦屋町","lat":33.8730855,"lon":130.6560753,"areaKm2":0.4800427,"populated2020":true,"population2020":null,"populationNote":"境界またぎ・収録外等のため人口未集計"},"geometry":{"type":"Polygon","coordinates":[[[130.658193061,33.87152610799999],[130.658130558,33.870235],[130.657658885,33.870155],[130.657245279,33.870291387],[130.656930558,33.870536108],[130.653734721,33.87105166700001],[130.652122218,33.871728892],[130.651633333,33.871864162],[130.651646667,33.871180279],[130.651545551,33.871048333],[130.650584721,33.871161946],[130.650548327,33.871254162],[130.65026083,33.871170279],[130.650199442,33.871222225],[130.65035805400004,33.871367775],[130.650242503,33.871478333],[130.650141115,33.871431107999996],[130.65,33.87114677500001],[130.65,33.875],[130.6625,33.875],[130.6625,33.87213580825527],[130.662301946,33.871864441],[130.662002218,33.871836667],[130.661924994,33.87169861299999],[130.66078,33.87162361299999],[130.660394721,33.872211946],[130.66021083,33.87234694600001],[130.65976555100002,33.872303892],[130.659526394,33.872176946],[130.659503891,33.871810559],[130.659109728,33.87175944100001],[130.658919442,33.87143833300001],[130.658676109,33.871430000000004],[130.658373333,33.871560829],[130.658193061,33.87152610799999]]]}},{"type":"Feature","id":"40381:50306543","properties":{"id":"40381:50306543","meshCode":"50306543","cityCode":"40381","city":"芦屋町","lat":33.8737911,"lon":130.6645498,"areaKm2":0.1079997,"populated2020":true,"population2020":null,"populationNote":"境界またぎ・収録外等のため人口未集計"},"geometry":{"type":"Polygon","coordinates":[[[130.667873061,33.874971386999995],[130.667751115,33.874772775000004],[130.66685917,33.874559162],[130.666526109,33.874373892],[130.666431946,33.874144441000006],[130.666499442,33.87288194600001],[130.664443891,33.872336108],[130.664045279,33.872521108],[130.663591946,33.872499162],[130.663302218,33.872396945999995],[130.663054994,33.87213582900001],[130.662618612,33.872269721],[130.6625,33.87213580825527],[130.6625,33.875],[130.667873061,33.874971386999995]]]}},{"type":"Feature","id":"40381:50306551","properties":{"id":"40381:50306551","meshCode":"50306551","cityCode":"40381","city":"芦屋町","lat":33.8798591,"lon":130.6460529,"areaKm2":0.6132709,"populated2020":false,"population2020":null,"populationNote":"境界またぎ・収録外等のため人口未集計"},"geometry":{"type":"Polygon","coordinates":[[[130.645252776,33.87508444099999],[130.645211388,33.876631667000005],[130.644982218,33.87676999999999],[130.644293606,33.876924441],[130.644081946,33.877071667],[130.64380083,33.877865829],[130.64367917,33.878581387],[130.642738885,33.881131667],[130.642581946,33.881293054],[130.640739728,33.88173694599999],[130.63750000000002,33.88288713276439],[130.63750000000002,33.88333333333333],[130.65,33.88333333333333],[130.65,33.875],[130.644453281,33.875],[130.645252776,33.87508444099999]]]}},{"type":"Feature","id":"40381:50306552","properties":{"id":"40381:50306552","meshCode":"50306552","cityCode":"40381","city":"芦屋町","lat":33.8791667,"lon":130.65625,"areaKm2":1.0687531,"populated2020":true,"population2020":110.0245,"populationNote":"収録500mメッシュ人口の合算（原典収録外は補完しない）"},"geometry":{"type":"Polygon","coordinates":[[[130.6625,33.875],[130.65,33.875],[130.65,33.88333333333333],[130.6625,33.88333333333333],[130.6625,33.875]]]}},{"type":"Feature","id":"40381:50306553","properties":{"id":"40381:50306553","meshCode":"50306553","cityCode":"40381","city":"芦屋町","lat":33.8795492,"lon":130.6667004,"areaKm2":0.6986055,"populated2020":true,"population2020":null,"populationNote":"境界またぎ・収録外等のため人口未集計"},"geometry":{"type":"Polygon","coordinates":[[[130.66883861200003,33.87569500000001],[130.66791444900002,33.87524694599999],[130.667837782,33.875152775],[130.66786489,33.875],[130.6625,33.875],[130.6625,33.88333333333333],[130.67354328116897,33.88333333333333],[130.673128327,33.882590829],[130.67213083,33.882035829],[130.67164917,33.88168166700001],[130.670841946,33.880621108],[130.670601388,33.880093333],[130.670527782,33.87830610799999],[130.670113606,33.876829162],[130.669750272,33.876863054000005],[130.669368612,33.87674444099999],[130.669235279,33.876544721],[130.669104721,33.875977495],[130.66883861200003,33.87569500000001]]]}},{"type":"Feature","id":"40381:50306550","properties":{"id":"40381:50306550","meshCode":"50306550","cityCode":"40381","city":"芦屋町","lat":33.8831767,"lon":130.6371796,"areaKm2":0.0023014,"populated2020":false,"population2020":null,"populationNote":"境界またぎ・収録外等のため人口未集計"},"geometry":{"type":"Polygon","coordinates":[[[130.637492503,33.882889721],[130.636865837,33.883127775],[130.63664693867565,33.883333333333326],[130.63750000000002,33.88333333333333],[130.637492503,33.882889721]]]}},{"type":"Feature","id":"40381:50306560","properties":{"id":"40381:50306560","meshCode":"50306560","cityCode":"40381","city":"芦屋町","lat":33.8846824,"lon":130.6367919,"areaKm2":0.0357463,"populated2020":false,"population2020":null,"populationNote":"境界またぎ・収録外等のため人口未集計"},"geometry":{"type":"Polygon","coordinates":[[[130.63664693867565,33.883333333333326],[130.635642568,33.885425874000006],[130.63750000000002,33.8860351456443],[130.63750000000002,33.88333333333333],[130.63664693867565,33.883333333333326]]]}},{"type":"Feature","id":"40381:50306561","properties":{"id":"40381:50306561","meshCode":"50306561","cityCode":"40381","city":"芦屋町","lat":33.886216,"lon":130.6448462,"areaKm2":0.6765778,"populated2020":false,"population2020":null,"populationNote":"境界またぎ・収録外等のため人口未集計"},"geometry":{"type":"Polygon","coordinates":[[[130.638027056,33.886286891999994],[130.639910947,33.886863586000004],[130.64080345,33.88729474800001],[130.641484254,33.887526198],[130.642827562,33.88822127899999],[130.643596744,33.888395306],[130.644148833,33.888604162],[130.645345525,33.889267919],[130.646141505,33.889575559],[130.648677198,33.890814999999996],[130.649477328,33.891426027],[130.65,33.891666666666666],[130.65,33.88333333333333],[130.63750000000002,33.88333333333333],[130.63750000000002,33.8860351456443],[130.638027056,33.886286891999994]]]}},{"type":"Feature","id":"40381:50306562","properties":{"id":"40381:50306562","meshCode":"50306562","cityCode":"40381","city":"芦屋町","lat":33.8875,"lon":130.65625,"areaKm2":1.0686506,"populated2020":true,"population2020":422.1725,"populationNote":"収録500mメッシュ人口の合算（原典収録外は補完しない）"},"geometry":{"type":"Polygon","coordinates":[[[130.6625,33.88333333333333],[130.65,33.88333333333333],[130.65,33.891666666666666],[130.6625,33.89166666666667],[130.6625,33.88333333333333]]]}},{"type":"Feature","id":"40381:50306563","properties":{"id":"40381:50306563","meshCode":"50306563","cityCode":"40381","city":"芦屋町","lat":33.887566,"lon":130.6685959,"areaKm2":1.0407984,"populated2020":true,"population2020":3588.5911,"populationNote":"収録500mメッシュ人口の合算（原典収録外は補完しない）"},"geometry":{"type":"Polygon","coordinates":[[[130.674619728,33.888290279],[130.675,33.88539466700001],[130.67499,33.884987775],[130.673757497,33.884803613],[130.673807782,33.884224162],[130.67354328116897,33.88333333333333],[130.6625,33.88333333333333],[130.6625,33.89166666666667],[130.675,33.89166666666667],[130.675,33.888875306],[130.674654449,33.888485829],[130.674619728,33.888290279]]]}},{"type":"Feature","id":"40381:50306564","properties":{"id":"40381:50306564","meshCode":"50306564","cityCode":"40381","city":"芦屋町","lat":33.8907576,"lon":130.6795238,"areaKm2":0.143074,"populated2020":true,"population2020":null,"populationNote":"境界またぎ・収録外等のため人口未集計"},"geometry":{"type":"MultiPolygon","coordinates":[[[[130.675012776,33.885323613],[130.675,33.885021495],[130.675,33.88539466700001],[130.675012776,33.885323613]]],[[[130.6841114787931,33.891666666666666],[130.682767224,33.889671108],[130.681669442,33.888811667],[130.680062776,33.890680829],[130.676571388,33.89049861299999],[130.675,33.888875306],[130.675,33.89166666666667],[130.6841114787931,33.891666666666666]]]]}},{"type":"Feature","id":"40381:50306571","properties":{"id":"40381:50306571","meshCode":"50306571","cityCode":"40381","city":"芦屋町","lat":33.8988165,"lon":130.6495436,"areaKm2":0.0007497,"populated2020":false,"population2020":null,"populationNote":"境界またぎ・収録外等のため人口未集計"},"geometry":{"type":"MultiPolygon","coordinates":[[[[130.65,33.891716865],[130.65,33.891666666666666],[130.64991907846309,33.89166666666667],[130.649919079,33.891666667],[130.65,33.891716865]]],[[[130.649003943,33.898721802],[130.65,33.89898399999999],[130.65,33.89891641399999],[130.649700039,33.89880384700001],[130.649025694,33.898662351000006],[130.649003943,33.898721802]]]]}},{"type":"Feature","id":"40381:50306572","properties":{"id":"40381:50306572","meshCode":"50306572","cityCode":"40381","city":"芦屋町","lat":33.8950616,"lon":130.6578828,"areaKm2":0.6850862,"populated2020":true,"population2020":978.8168,"populationNote":"収録500mメッシュ人口の合算（原典収録外は補完しない）"},"geometry":{"type":"MultiPolygon","coordinates":[[[[130.650538716,33.892022847],[130.651123606,33.892112649],[130.651649455,33.892413297],[130.651904514,33.89296852300001],[130.65262710800002,33.893437514000006],[130.653027108,33.89395374800001],[130.653441154,33.894794144],[130.653667302,33.89592786499999],[130.653552607,33.896536685],[130.653097665,33.897277802],[130.652403761,33.897881739],[130.653848599,33.898261657999996],[130.653734643,33.89848202699999],[130.654376252,33.897646613],[130.655068612,33.898013441],[130.656410506,33.896837333],[130.658358975,33.898267775],[130.657021115,33.9],[130.657279585,33.899740027],[130.657877276,33.900000000000006],[130.65740428,33.899747324],[130.658307601,33.898571495],[130.660066304,33.899513586000005],[130.660260415,33.89925809],[130.66089821,33.89959516199999],[130.660585863,33.89999999999999],[130.66070214,33.89999999999999],[130.660945992,33.89967750499999],[130.661447484,33.89999999999999],[130.6625,33.89999999999999],[130.6625,33.89166666666667],[130.65,33.891666666666666],[130.650538716,33.892022847]]],[[[130.65399376100004,33.899986838],[130.65437097300003,33.89999999999999],[130.65,33.89891641399999],[130.65,33.89898399999999],[130.65399376100004,33.899986838]]]]}},{"type":"Feature","id":"40381:50306573","properties":{"id":"40381:50306573","meshCode":"50306573","cityCode":"40381","city":"芦屋町","lat":33.8958333,"lon":130.66875,"areaKm2":1.0685463,"populated2020":true,"population2020":1892.9586,"populationNote":"収録500mメッシュ人口の合算（原典収録外は補完しない）"},"geometry":{"type":"Polygon","coordinates":[[[130.675,33.89166666666667],[130.6625,33.89166666666667],[130.6625,33.89999999999999],[130.675,33.900000000000006],[130.675,33.89166666666667]]]}},{"type":"Feature","id":"40381:50306574","properties":{"id":"40381:50306574","meshCode":"50306574","cityCode":"40381","city":"芦屋町","lat":33.8957852,"lon":130.6797806,"areaKm2":0.8130828,"populated2020":true,"population2020":null,"populationNote":"境界またぎ・収録外等のため人口未集計"},"geometry":{"type":"Polygon","coordinates":[[[130.684883891,33.896247225],[130.684455279,33.895331108],[130.684180558,33.895107775],[130.684071115,33.89490166699999],[130.684045837,33.89456444100001],[130.684701388,33.893721946],[130.685228612,33.893359721],[130.6841114787931,33.891666666666666],[130.675,33.89166666666667],[130.675,33.900000000000006],[130.682019442,33.899954441000006],[130.682530272,33.900000000000006],[130.682824449,33.899786108],[130.682985837,33.899387495],[130.683365279,33.899419721],[130.683948612,33.89962416200001],[130.684088612,33.899483333],[130.68413055800002,33.899272495000005],[130.683770558,33.898538333],[130.683938885,33.89818527900001],[130.68441917,33.898025279],[130.684606394,33.898084162],[130.684814994,33.898360279],[130.685061388,33.89842555900001],[130.685407782,33.898056946],[130.68551917,33.89775361299999],[130.685455279,33.89721666700001],[130.684917497,33.896645558999985],[130.684883891,33.896247225]]]}},{"type":"Feature","id":"40381:50306582","properties":{"id":"40381:50306582","meshCode":"50306582","cityCode":"40381","city":"芦屋町","lat":33.9002151,"lon":130.6621427,"areaKm2":0.0725604,"populated2020":true,"population2020":6.9235,"populationNote":"収録500mメッシュ人口の合算（原典収録外は補完しない）"},"geometry":{"type":"MultiPolygon","coordinates":[[[[130.657021115,33.9],[130.657046304,33.900042468],[130.657079053,33.9],[130.657021115,33.9]]],[[[130.658333333,33.900243613],[130.657877276,33.900000000000006],[130.657768106,33.9],[130.658305577,33.90028602699999],[130.658333333,33.900243613]]],[[[130.658884604,33.90045868499999],[130.660270259,33.900484242999994],[130.66070214,33.89999999999999],[130.660585863,33.89999999999999],[130.660291699,33.900380559],[130.65888061,33.90041108100001],[130.658884604,33.90045868499999]]],[[[130.658298314,33.901062234],[130.658834501,33.90139182],[130.65889096,33.90133246800001],[130.658342361,33.900989946],[130.65437097300003,33.89999999999999],[130.654046459,33.9],[130.658298314,33.901062234]]],[[[130.658640052,33.908276532],[130.65858221793286,33.908333333333324],[130.65864044098427,33.908333333333324],[130.658640052,33.908276532]]],[[[130.661447484,33.89999999999999],[130.6625,33.900669947336716],[130.6625,33.89999999999999],[130.661447484,33.89999999999999]]],[[[130.662378859,33.902112081000006],[130.662380337,33.90241382899999],[130.66205,33.902461161999994],[130.661908301,33.902595973],[130.661813891,33.903010054],[130.66188978,33.903336586],[130.661815331,33.903399721],[130.661641089,33.903319],[130.66155345,33.903361162],[130.66135594,33.903864973],[130.661009689,33.90397897300001],[130.660909637,33.904066225],[130.66089978,33.904228252],[130.660810078,33.90423022499999],[130.66072489,33.90434989199999],[130.660888197,33.904356829],[130.661274578,33.90408266699999],[130.661280143,33.904228],[130.661416446,33.904135667],[130.66151355400004,33.904155919],[130.661588859,33.904246387],[130.66146594,33.904336252],[130.661636939,33.90434700000001],[130.661773165,33.904542162],[130.661920752,33.90490964000001],[130.661837224,33.905052865],[130.662031634,33.905522333],[130.661961608,33.905582441],[130.662076498,33.90567777500001],[130.662130726,33.90597630600001],[130.662074086,33.906752532],[130.660915746,33.907431198],[130.660409442,33.907472865],[130.660159611,33.907328721000006],[130.660056329,33.907396559],[130.660095888,33.907487892000006],[130.659899442,33.907462946],[130.659747497,33.907532495],[130.65985869,33.90738849499999],[130.65969655,33.907387027000006],[130.659351608,33.907702891999996],[130.658930143,33.907690252],[130.658718781,33.908223441],[130.658747639,33.908275559],[130.658844112,33.908231775],[130.65883683511305,33.908333333333324],[130.66061182852926,33.908333333333324],[130.661676135,33.90757674799999],[130.6625,33.90817603048555],[130.6625,33.90181879851676],[130.662378859,33.902112081000006]]]]}},{"type":"Feature","id":"40381:50306583","properties":{"id":"40381:50306583","meshCode":"50306583","cityCode":"40381","city":"芦屋町","lat":33.9041795,"lon":130.6687786,"areaKm2":1.0633545,"populated2020":true,"population2020":2221.4018,"populationNote":"収録500mメッシュ人口の合算（原典収録外は補完しない）"},"geometry":{"type":"Polygon","coordinates":[[[130.66314511,33.90123336],[130.663125136,33.901498613],[130.662686861,33.90162074799999],[130.6625,33.90181879851676],[130.6625,33.90817603048555],[130.66271625245832,33.90833333333333],[130.675,33.908333333333324],[130.675,33.900000000000006],[130.6625,33.89999999999999],[130.6625,33.900669947336716],[130.663241997,33.901142252],[130.66314511,33.90123336]]]}},{"type":"Feature","id":"40381:50306584","properties":{"id":"40381:50306584","meshCode":"50306584","cityCode":"40381","city":"芦屋町","lat":33.9027548,"lon":130.6774772,"areaKm2":0.308207,"populated2020":true,"population2020":null,"populationNote":"境界またぎ・収録外等のため人口未集計"},"geometry":{"type":"MultiPolygon","coordinates":[[[[130.682297004,33.900000000000006],[130.682323891,33.900012495],[130.682530272,33.900000000000006],[130.682297004,33.900000000000006]]],[[[130.68148166,33.901970559],[130.681510272,33.90137277499999],[130.681288054,33.900757225],[130.681601946,33.900200829000006],[130.681845227,33.9],[130.675,33.900000000000006],[130.675,33.908333333333324],[130.67637275071337,33.908333333333324],[130.675433606,33.90807110800001],[130.675226109,33.907914721],[130.675208327,33.90724944099999],[130.675468612,33.906783613],[130.675809728,33.90653638700001],[130.676385837,33.90633361300001],[130.676891946,33.905842495],[130.678464994,33.905068892],[130.679846667,33.903684721],[130.67991917,33.90355833300001],[130.679895837,33.9032],[130.679730558,33.90296500000001],[130.679349442,33.90272777500001],[130.679264163,33.902529441000006],[130.679415551,33.902247224999996],[130.679932776,33.901720279],[130.680225551,33.901629721000006],[130.680615279,33.901747775],[130.681311115,33.90211],[130.68148166,33.901970559]]]]}},{"type":"Feature","id":"40381:50306592","properties":{"id":"40381:50306592","meshCode":"50306592","cityCode":"40381","city":"芦屋町","lat":33.9092157,"lon":130.658232,"areaKm2":0.0702563,"populated2020":false,"population2020":null,"populationNote":"境界またぎ・収録外等のため人口未集計"},"geometry":{"type":"MultiPolygon","coordinates":[[[[130.658800415,33.908485135],[130.658650363,33.908458360000004],[130.65858221793286,33.908333333333324],[130.65815428,33.90885589199999],[130.657988444,33.90887010800001],[130.657849274,33.908985198],[130.657718885,33.908972108],[130.657547665,33.90910380199999],[130.657257198,33.90955766700001],[130.657360506,33.909562775],[130.657305162,33.909806829000004],[130.657361284,33.909905613],[130.657814163,33.90953964],[130.657794137,33.90966780200001],[130.658006304,33.909803775],[130.65826725,33.909575694000004],[130.658283891,33.909657693999996],[130.658403891,33.909691775],[130.658826913,33.909422225],[130.658979053,33.909218640000006],[130.65925489,33.909099946],[130.65928738,33.908993811],[130.660711725,33.910096739],[130.660763281,33.91004716199999],[130.659508755,33.909119162],[130.66061182852926,33.908333333333324],[130.65883683511305,33.908333333333324],[130.658800415,33.908485135]]],[[[130.657743307,33.90969344100001],[130.657446615,33.909956306],[130.657305253,33.910176694],[130.657329883,33.910264829],[130.65741703,33.91019416200001],[130.657683217,33.910195892000004],[130.657895188,33.909985198000015],[130.657984968,33.909984892000004],[130.657743307,33.90969344100001]]],[[[130.657627691,33.910506468],[130.658060869,33.911813505000005],[130.658168236,33.91179036],[130.657735383,33.910483144],[130.657627691,33.910506468]]],[[[130.660247056,33.914144198],[130.660044137,33.914221559],[130.659968301,33.914165108],[130.659915253,33.914213278999995],[130.660071025,33.91429155899999],[130.660247056,33.914144198]]],[[[130.659488521,33.914671467999995],[130.659414254,33.914748360000004],[130.659533969,33.914682387000006],[130.659488521,33.914671467999995]]],[[[130.66049703,33.915356081],[130.660945357,33.914578829],[130.66094455300004,33.914183306],[130.660572477,33.914332865],[130.660354384,33.91435064],[130.660307302,33.91428333299999],[130.659721219,33.91473713500001],[130.659626083,33.91497064000001],[130.659725616,33.914965973],[130.659764034,33.915218532],[130.659624034,33.91533208100001],[130.659910973,33.915531135],[130.660353774,33.915247468],[130.66042703,33.915241613000006],[130.66049703,33.915356081]]],[[[130.659524501,33.915070135000015],[130.659392996,33.91519986499999],[130.659409416,33.915241946],[130.659535136,33.91511474800001],[130.659524501,33.915070135000015]]],[[[130.659206083,33.915586495],[130.65932192,33.91574036],[130.659393476,33.915745667],[130.659489079,33.915516694],[130.659342114,33.915477108000005],[130.659206083,33.915586495]]],[[[130.659167121,33.91576100900001],[130.658951466,33.915817036],[130.658872231,33.916051595],[130.658889222,33.91618355],[130.659121764,33.916206919],[130.659040259,33.916303441000004],[130.659300661,33.916117703],[130.659169715,33.915949099],[130.659469507,33.91586616200001],[130.659167121,33.91576100900001]]],[[[130.661907367,33.909420892],[130.662310856,33.909713468],[130.6625,33.90953293878918],[130.6625,33.9088571514948],[130.661907367,33.909420892]]],[[[130.661619351,33.911763009000005],[130.660015979,33.911097703],[130.65998332,33.91115369400001],[130.661584747,33.91181835999999],[130.661619351,33.911763009000005]]],[[[130.662347173,33.91204986499999],[130.662487108,33.912007081000006],[130.662499416,33.911985973],[130.662352114,33.911996829],[130.662347173,33.91204986499999]]],[[[130.662022412,33.91259897300001],[130.661848223,33.91273472100001],[130.661980778,33.912728829],[130.662022412,33.91259897300001]]],[[[130.661941725,33.91301861299999],[130.662205357,33.912886694],[130.662363022,33.91253544100002],[130.662035084,33.912730973],[130.662063943,33.91290977500001],[130.661941725,33.91301861299999]]],[[[130.661798716,33.912984667],[130.661934423,33.912941054],[130.661966161,33.912869748000006],[130.661883606,33.912898],[130.661798716,33.912984667]]],[[[130.660874773,33.913023306],[130.661014332,33.913080387],[130.661115058,33.912986946],[130.661027691,33.91295064],[130.660874773,33.913023306]]],[[[130.662385084,33.91274369400001],[130.662271284,33.91341819800001],[130.662211971,33.91344727900001],[130.662137782,33.91335186500001],[130.661956057,33.91360125200001],[130.661895772,33.91358705399999],[130.66149786,33.913969640000005],[130.661386329,33.91420864],[130.661437185,33.914390793],[130.661295746,33.914452027],[130.661230506,33.914619045],[130.661286706,33.914694622000006],[130.661156174,33.91470218],[130.661083865,33.914827279],[130.661129948,33.915017802],[130.660796446,33.915330495],[130.660837134,33.915369225],[130.661302412,33.915218829],[130.661638444,33.914913801999994],[130.661549598,33.91485031500001],[130.66172428,33.914820081],[130.661825966,33.91470955900001],[130.661799805,33.914597883],[130.66191917,33.914612279],[130.662001803,33.914531],[130.661999235,33.914313703],[130.662084384,33.914202135],[130.66223312600002,33.914244171],[130.662085447,33.914873613],[130.662088807,33.915249973],[130.662213178,33.915426225],[130.662140661,33.915454440999994],[130.662084864,33.915699973],[130.662203515,33.915789000000004],[130.662139079,33.91598182900001],[130.662279663,33.916126252],[130.662189416,33.916288153],[130.66229496800003,33.916448712],[130.66214751,33.916589793],[130.66217639372263,33.91666666666666],[130.6625,33.91666666666667],[130.6625,33.912610938068546],[130.662385084,33.91274369400001]]],[[[130.660378755,33.915729613],[130.660427173,33.91577564],[130.660595694,33.91571380199999],[130.660796329,33.91544580200001],[130.660512438,33.915526721],[130.660378755,33.915729613]]]]}},{"type":"Feature","id":"40381:50306593","properties":{"id":"40381:50306593","meshCode":"50306593","cityCode":"40381","city":"芦屋町","lat":33.9123495,"lon":130.66935,"areaKm2":0.9254508,"populated2020":true,"population2020":546.7579,"populationNote":"収録500mメッシュ人口の合算（原典収録外は補完しない）"},"geometry":{"type":"MultiPolygon","coordinates":[[[[130.663307756,33.908761973],[130.663473165,33.908881945999994],[130.663644462,33.908718973],[130.664308314,33.90918973],[130.663412996,33.91004113500001],[130.664376874,33.909188649],[130.664931401,33.909524215999994],[130.665071699,33.910382829],[130.664944968,33.910721108],[130.664200661,33.91119916200001],[130.66389642,33.911217801999996],[130.663810272,33.911286135],[130.663615357,33.911487108],[130.663671141,33.911652108],[130.663502724,33.911706613],[130.663261725,33.911551333],[130.663057523,33.911620387],[130.662720272,33.912343081],[130.6625,33.912610938068546],[130.6625,33.91666666666667],[130.662826848,33.916648423],[130.662883982,33.91645494600001],[130.663051582,33.916425387],[130.663071115,33.91626346799999],[130.663219196,33.916195640000005],[130.663249805,33.916058586],[130.663485901,33.916013576999994],[130.663492348,33.915822784],[130.663686446,33.915775865],[130.663743761,33.915552729999995],[130.663966161,33.915446586],[130.663972607,33.91529878400001],[130.664222802,33.91522769400001],[130.664220506,33.914893559],[130.664413385,33.914837721],[130.66450939,33.914909721],[130.664617082,33.914838973],[130.664572088,33.915033333],[130.664631141,33.915073919],[130.664901556,33.914775586000005],[130.665030661,33.914757613],[130.665071505,33.914826613],[130.664939222,33.91495182900001],[130.664952244,33.915078414],[130.665466446,33.914623387],[130.667225266,33.914967072],[130.667230649,33.915080991],[130.667693917,33.91536858600001],[130.668206057,33.915864694],[130.668266861,33.916017],[130.668479105,33.91607594600001],[130.668507302,33.916437829],[130.668686329,33.916422198],[130.66889143962445,33.91666666666666],[130.675,33.916666666666664],[130.675,33.908333333333324],[130.66271625245832,33.90833333333333],[130.662905772,33.908471162],[130.6625,33.9088571514948],[130.6625,33.90953293878918],[130.663307756,33.908761973]]],[[[130.66420917,33.915464667],[130.664272438,33.915523441],[130.664263696,33.915431198],[130.66420917,33.915464667]]],[[[130.664102866,33.915645468],[130.664134228,33.91554],[130.664129105,33.91552766699999],[130.664082555,33.915568441],[130.664102866,33.915645468]]],[[[130.667875084,33.916362532],[130.667881855,33.916435279000005],[130.667981193,33.91641994599999],[130.668230272,33.916097694],[130.667875084,33.916362532]]],[[[130.663663061,33.916656387],[130.663777782,33.916594441],[130.663831946,33.91644222499999],[130.663744163,33.916408333],[130.663663061,33.916656387]]],[[[130.66336786,33.916555198],[130.66315503228242,33.91666666666667],[130.6633843319915,33.916666666666664],[130.66336786,33.916555198]]]]}},{"type":"Feature","id":"40381:50306594","properties":{"id":"40381:50306594","meshCode":"50306594","cityCode":"40381","city":"芦屋町","lat":33.9125074,"lon":130.6761474,"areaKm2":0.1909497,"populated2020":true,"population2020":null,"populationNote":"境界またぎ・収録外等のため人口未集計"},"geometry":{"type":"Polygon","coordinates":[[[130.677436939,33.91237972100001],[130.67788917,33.912409162],[130.677964994,33.912248892],[130.677363061,33.910916387],[130.677122218,33.90998166699999],[130.676883061,33.909496946],[130.676922218,33.90886638700001],[130.676854163,33.908628054],[130.67637275071337,33.908333333333324],[130.675,33.908333333333324],[130.675,33.916666666666664],[130.67604572073674,33.916666666666664],[130.67655499400004,33.916379441],[130.677311946,33.915178613],[130.677616667,33.914537775],[130.67725166,33.912904162],[130.677244994,33.912556946],[130.677436939,33.91237972100001]]]}},{"type":"Feature","id":"40381:50307502","properties":{"id":"40381:50307502","meshCode":"50307502","cityCode":"40381","city":"芦屋町","lat":33.9168705,"lon":130.6623234,"areaKm2":0.0026619,"populated2020":false,"population2020":null,"populationNote":"境界またぎ・収録外等のため人口未集計"},"geometry":{"type":"MultiPolygon","coordinates":[[[[130.66217639372263,33.91666666666666],[130.662175058,33.917025721],[130.662314189,33.91707205400001],[130.662469429,33.916958279],[130.662446861,33.916887739],[130.6625,33.91691171190702],[130.6625,33.91666666666667],[130.66217639372263,33.91666666666666]]],[[[130.659571115,33.917236667000005],[130.659719728,33.91704500000001],[130.659719728,33.916915279],[130.659456109,33.917022495],[130.659206394,33.917326667],[130.659192776,33.91746194600001],[130.659571115,33.917236667000005]]],[[[130.662364254,33.917404973],[130.662265499,33.917389694],[130.662227639,33.917470054],[130.662364254,33.917404973]]],[[[130.662245136,33.917556387],[130.662318301,33.91754136000001],[130.66231175100003,33.91753400000001],[130.662245136,33.917556387]]],[[[130.6622207,33.91758025200001],[130.66215537,33.91760991899999],[130.662116809,33.917678604],[130.662205681,33.917630882999994],[130.6622207,33.91758025200001]]]]}},{"type":"Feature","id":"40381:50307503","properties":{"id":"40381:50307503","meshCode":"50307503","cityCode":"40381","city":"芦屋町","lat":33.9175398,"lon":130.6712293,"areaKm2":0.1020523,"populated2020":false,"population2020":null,"populationNote":"境界またぎ・収録外等のため人口未集計"},"geometry":{"type":"MultiPolygon","coordinates":[[[[130.662751647,33.916674108],[130.6627845147735,33.916666666666664],[130.66266805193226,33.91666666666666],[130.662751647,33.916674108]]],[[[130.663155032,33.91666666700001],[130.663147082,33.91674874800001],[130.663384747,33.916682919],[130.6633843319915,33.916666666666664],[130.663155032,33.91666666700001]]],[[[130.66264723685282,33.916666666666664],[130.6625,33.91666666666667],[130.662515357,33.916918640000006],[130.662691842,33.916766964000004],[130.66264723685282,33.916666666666664]]],[[[130.662914773,33.916965721],[130.663088949,33.916933333],[130.663069416,33.916838892],[130.66288214,33.91691244100001],[130.662914773,33.916965721]]],[[[130.663528054,33.916842225],[130.663433333,33.917005829],[130.663446939,33.91712972100001],[130.663615837,33.917022775],[130.663622503,33.916859162],[130.663528054,33.916842225]]],[[[130.662547588,33.917248892],[130.662680272,33.917167333],[130.662790752,33.917062081],[130.662532309,33.917194413999994],[130.662547588,33.917248892]]],[[[130.662541946,33.91749055900001],[130.662663606,33.91743972100001],[130.662616394,33.917366387],[130.662514994,33.917422775],[130.662541946,33.91749055900001]]],[[[130.663021388,33.917766667],[130.66329166,33.917281945999996],[130.663156667,33.91724805399999],[130.662879728,33.917670828999995],[130.662893061,33.91779472099999],[130.663021388,33.917766667]]],[[[130.669043761,33.916959387],[130.668853761,33.917139514],[130.668669844,33.917517252],[130.66816657600003,33.918006928],[130.66827585,33.918052477],[130.668243917,33.91816942300001],[130.668335551,33.918219081],[130.668125227,33.918491622],[130.668203346,33.918620586],[130.668147004,33.918729703],[130.668267484,33.918675847],[130.668242516,33.91883735099999],[130.668925707,33.918668685],[130.668835214,33.918858144000005],[130.669185045,33.918699955],[130.669579274,33.918468657999995],[130.669977834,33.918011973],[130.669990687,33.918074757],[130.670229079,33.91795286499999],[130.670342309,33.91764427],[130.670595979,33.917741153],[130.670500908,33.918166559],[130.670898975,33.917808865000005],[130.671777536,33.918158063],[130.671632088,33.918323576999995],[130.671664423,33.918631928],[130.671988301,33.918303432],[130.672131297,33.918309865],[130.672360272,33.918459999999996],[130.672063061,33.918876946000005],[130.672103606,33.918989721],[130.672245279,33.919040559],[130.672434449,33.918972775],[130.672793061,33.918658333],[130.673197847,33.91868045],[130.673706939,33.91789],[130.674454721,33.917299441],[130.675,33.917112495],[130.675,33.916666666666664],[130.66889143962445,33.91666666666666],[130.669043761,33.916959387]]]]}},{"type":"Feature","id":"40381:50307504","properties":{"id":"40381:50307504","meshCode":"50307504","cityCode":"40381","city":"芦屋町","lat":33.91683,"lon":130.675358,"areaKm2":0.0026922,"populated2020":false,"population2020":null,"populationNote":"境界またぎ・収録外等のため人口未集計"},"geometry":{"type":"Polygon","coordinates":[[[130.675,33.917112495],[130.675265551,33.917062775000005],[130.67604572073674,33.916666666666664],[130.675,33.916666666666664],[130.675,33.917112495]]]}}]}