{"type":"FeatureCollection","metadata":{"cityCode":"40384","city":"遠賀町","resolution":500,"boundaryDate":"2026-01-01","populationLabel":"2020年基準人口（国交省調整値）","method":"標準地域メッシュを行政界で切抜き。中心が区域外のとき区域内代表点を判定点にする。人口不明をゼロにしない。"},"features":[{"type":"Feature","id":"40384:503055702","properties":{"id":"40384:503055702","meshCode":"503055702","cityCode":"40384","city":"遠賀町","lat":33.8110983,"lon":130.6373128,"areaKm2":0.0134904,"populated2020":false,"population2020":null,"populationNote":"境界またぎ・原典収録外のため自治体内人口は未集計"},"geometry":{"type":"Polygon","coordinates":[[[130.637452503,33.81063361300001],[130.636798885,33.811563054],[130.6361402325232,33.81249999999999],[130.63750000000002,33.81249999999999],[130.637452503,33.81063361300001]]]}},{"type":"Feature","id":"40384:503055711","properties":{"id":"40384:503055711","meshCode":"503055711","cityCode":"40384","city":"遠賀町","lat":33.8104167,"lon":130.640625,"areaKm2":0.1880234,"populated2020":false,"population2020":null,"populationNote":"境界またぎ・原典収録外のため自治体内人口は未集計"},"geometry":{"type":"Polygon","coordinates":[[[130.643701115,33.808823613],[130.643058885,33.808833613],[130.641424163,33.809069162],[130.640938327,33.809484999999995],[130.639589728,33.809892775],[130.639200558,33.810162225000006],[130.63750000000002,33.81061384642826],[130.63750000000002,33.81249999999999],[130.64375,33.81249999999999],[130.643701115,33.808823613]]]}},{"type":"Feature","id":"40384:503055712","properties":{"id":"40384:503055712","meshCode":"503055712","cityCode":"40384","city":"遠賀町","lat":33.8104167,"lon":130.646875,"areaKm2":0.1978215,"populated2020":false,"population2020":null,"populationNote":"境界またぎ・原典収録外のため自治体内人口は未集計"},"geometry":{"type":"Polygon","coordinates":[[[130.65,33.81021894599999],[130.649005837,33.809636667],[130.648450558,33.809478613],[130.647359728,33.80933194599999],[130.645764721,33.80951833300001],[130.645519442,33.80949416200001],[130.645435279,33.809364162],[130.645046667,33.80917722499999],[130.644683891,33.80913861300001],[130.644085837,33.808864721],[130.64375,33.808828836419984],[130.64375,33.81249999999999],[130.65,33.8125],[130.65,33.81021894599999]]]}},{"type":"Feature","id":"40384:503055721","properties":{"id":"40384:503055721","meshCode":"503055721","cityCode":"40384","city":"遠賀町","lat":33.8112896,"lon":130.6507306,"areaKm2":0.0320436,"populated2020":false,"population2020":null,"populationNote":"境界またぎ・原典収録外のため自治体内人口は未集計"},"geometry":{"type":"Polygon","coordinates":[[[130.65227051996143,33.8125],[130.65137,33.81119722500001],[130.65,33.81021894599999],[130.65,33.8125],[130.65227051996143,33.8125]]]}},{"type":"Feature","id":"40384:503055704","properties":{"id":"40384:503055704","meshCode":"503055704","cityCode":"40384","city":"遠賀町","lat":33.8129299,"lon":130.636889,"areaKm2":0.0089721,"populated2020":false,"population2020":null,"populationNote":"境界またぎ・原典収録外のため自治体内人口は未集計"},"geometry":{"type":"Polygon","coordinates":[[[130.63596722400004,33.812746108],[130.636458885,33.813017495],[130.63750000000002,33.81334608871233],[130.63750000000002,33.81249999999999],[130.6361402325232,33.81249999999999],[130.63596722400004,33.812746108]]]}},{"type":"Feature","id":"40384:503055713","properties":{"id":"40384:503055713","meshCode":"503055713","cityCode":"40384","city":"遠賀町","lat":33.8145889,"lon":130.6430117,"areaKm2":0.0994117,"populated2020":false,"population2020":null,"populationNote":"境界またぎ・原典収録外のため自治体内人口は未集計"},"geometry":{"type":"Polygon","coordinates":[[[130.637523333,33.813354162],[130.638312503,33.813370559],[130.639127782,33.81308110799999],[130.639693333,33.812968333],[130.641072218,33.81327999999999],[130.641356109,33.813546946],[130.641741388,33.814291387],[130.642189442,33.814492494999996],[130.64246,33.81482277500001],[130.642388327,33.815224721],[130.642752503,33.815803054],[130.642858327,33.816443054],[130.64306922179898,33.81666666666667],[130.64375,33.81666666666667],[130.64375,33.81249999999999],[130.63750000000002,33.81249999999999],[130.637523333,33.813354162]]]}},{"type":"Feature","id":"40384:503055714","properties":{"id":"40384:503055714","meshCode":"503055714","cityCode":"40384","city":"遠賀町","lat":33.8145833,"lon":130.646875,"areaKm2":0.267387,"populated2020":false,"population2020":null,"populationNote":"境界またぎ・原典収録外のため自治体内人口は未集計"},"geometry":{"type":"Polygon","coordinates":[[[130.64375,33.81249999999999],[130.64375,33.81666666666667],[130.65,33.81666666666667],[130.65,33.8125],[130.64375,33.81249999999999]]]}},{"type":"Feature","id":"40384:503055723","properties":{"id":"40384:503055723","meshCode":"503055723","cityCode":"40384","city":"遠賀町","lat":33.8145833,"lon":130.653125,"areaKm2":0.1334202,"populated2020":false,"population2020":null,"populationNote":"境界またぎ・原典収録外のため自治体内人口は未集計"},"geometry":{"type":"Polygon","coordinates":[[[130.6540871330442,33.81666666666667],[130.653631115,33.816384441],[130.653206939,33.815868892],[130.653138885,33.815627495],[130.65342917,33.81517916200001],[130.653156109,33.814726107999995],[130.653266667,33.814192225000006],[130.65305083,33.813723333],[130.65227051996143,33.8125],[130.65,33.8125],[130.65,33.81666666666667],[130.6540871330442,33.81666666666667]]]}},{"type":"Feature","id":"40384:503055811","properties":{"id":"40384:503055811","meshCode":"503055811","cityCode":"40384","city":"遠賀町","lat":33.8174829,"lon":130.6435747,"areaKm2":0.0057593,"populated2020":true,"population2020":null,"populationNote":"境界またぎ・原典収録外のため自治体内人口は未集計"},"geometry":{"type":"MultiPolygon","coordinates":[[[[130.643069222,33.81666666700001],[130.643295837,33.817314720999995],[130.64375,33.81799670431367],[130.64375,33.81666666666667],[130.643069222,33.81666666700001]]],[[[130.64375,33.82063709507257],[130.64350616018052,33.82083333333333],[130.64375,33.82083333333333],[130.64375,33.82063709507257]]]]}},{"type":"Feature","id":"40384:503055812","properties":{"id":"40384:503055812","meshCode":"503055812","cityCode":"40384","city":"遠賀町","lat":33.81875,"lon":130.646875,"areaKm2":0.258915,"populated2020":false,"population2020":null,"populationNote":"境界またぎ・原典収録外のため自治体内人口は未集計"},"geometry":{"type":"Polygon","coordinates":[[[130.643770558,33.818018333],[130.644064449,33.81830361299999],[130.644160272,33.819734721],[130.643966667,33.820540829],[130.64375,33.82063709507257],[130.64375,33.82083333333333],[130.65,33.82083333333333],[130.65,33.81666666666667],[130.64375,33.81666666666667],[130.643770558,33.818018333]]]}},{"type":"Feature","id":"40384:503055821","properties":{"id":"40384:503055821","meshCode":"503055821","cityCode":"40384","city":"遠賀町","lat":33.81875,"lon":130.653125,"areaKm2":0.2576797,"populated2020":true,"population2020":66.2442,"populationNote":"2020年基準の国交省調整値"},"geometry":{"type":"Polygon","coordinates":[[[130.65625,33.817775824169495],[130.654986394,33.816923333000005],[130.6540871330442,33.81666666666667],[130.65,33.81666666666667],[130.65,33.82083333333333],[130.65625,33.82083333333334],[130.65625,33.817775824169495]]]}},{"type":"Feature","id":"40384:503055822","properties":{"id":"40384:503055822","meshCode":"503055822","cityCode":"40384","city":"遠賀町","lat":33.8192968,"lon":130.6579034,"areaKm2":0.1010919,"populated2020":true,"population2020":null,"populationNote":"境界またぎ・原典収録外のため自治体内人口は未集計"},"geometry":{"type":"Polygon","coordinates":[[[130.6625,33.82000881533978],[130.661708327,33.820011666999996],[130.661118054,33.81987972100001],[130.659711388,33.819321667],[130.657990558,33.819146667000005],[130.65625,33.817775824169495],[130.65625,33.82083333333334],[130.6625,33.82083333333333],[130.6625,33.82000881533978]]]}},{"type":"Feature","id":"40384:503055831","properties":{"id":"40384:503055831","meshCode":"503055831","cityCode":"40384","city":"遠賀町","lat":33.8198869,"lon":130.6659444,"areaKm2":0.099227,"populated2020":true,"population2020":null,"populationNote":"境界またぎ・原典収録外のため自治体内人口は未集計"},"geometry":{"type":"Polygon","coordinates":[[[130.66875,33.81920254878006],[130.667021388,33.81897055900001],[130.665423061,33.818917775],[130.664000558,33.81972582900001],[130.6625,33.82000881533978],[130.6625,33.82083333333333],[130.66875,33.82083333333333],[130.66875,33.81920254878006]]]}},{"type":"Feature","id":"40384:503055832","properties":{"id":"40384:503055832","meshCode":"503055832","cityCode":"40384","city":"遠賀町","lat":33.8199762,"lon":130.6691383,"areaKm2":0.009771,"populated2020":true,"population2020":null,"populationNote":"境界またぎ・原典収録外のため自治体内人口は未集計"},"geometry":{"type":"Polygon","coordinates":[[[130.668970272,33.820786667],[130.669004721,33.820636667],[130.669752218,33.819585559],[130.66875,33.81920254878006],[130.66875,33.82083333333333],[130.668970272,33.820786667]]]}},{"type":"Feature","id":"40384:503055813","properties":{"id":"40384:503055813","meshCode":"503055813","cityCode":"40384","city":"遠賀町","lat":33.8227479,"lon":130.6436506,"areaKm2":0.0157735,"populated2020":true,"population2020":null,"populationNote":"境界またぎ・原典収録外のため自治体内人口は未集計"},"geometry":{"type":"Polygon","coordinates":[[[130.64350616018052,33.82083333333333],[130.643510558,33.821195279],[130.643673891,33.82151916200001],[130.643693333,33.822335559],[130.643201388,33.823730279],[130.643094721,33.824306387],[130.64292166,33.824724721],[130.642592114,33.825],[130.64375,33.824999999999996],[130.64375,33.82083333333333],[130.64350616018052,33.82083333333333]]]}},{"type":"Feature","id":"40384:503055814","properties":{"id":"40384:503055814","meshCode":"503055814","cityCode":"40384","city":"遠賀町","lat":33.8229167,"lon":130.646875,"areaKm2":0.2673614,"populated2020":false,"population2020":null,"populationNote":"境界またぎ・原典収録外のため自治体内人口は未集計"},"geometry":{"type":"Polygon","coordinates":[[[130.64375,33.82083333333333],[130.64375,33.824999999999996],[130.65,33.825],[130.65,33.82083333333333],[130.64375,33.82083333333333]]]}},{"type":"Feature","id":"40384:503055823","properties":{"id":"40384:503055823","meshCode":"503055823","cityCode":"40384","city":"遠賀町","lat":33.8229167,"lon":130.653125,"areaKm2":0.2673611,"populated2020":true,"population2020":123.6861,"populationNote":"2020年基準の国交省調整値"},"geometry":{"type":"Polygon","coordinates":[[[130.65,33.82083333333333],[130.65,33.825],[130.65625,33.825],[130.65625,33.82083333333334],[130.65,33.82083333333333]]]}},{"type":"Feature","id":"40384:503055824","properties":{"id":"40384:503055824","meshCode":"503055824","cityCode":"40384","city":"遠賀町","lat":33.8229167,"lon":130.659375,"areaKm2":0.2673609,"populated2020":true,"population2020":467.1124,"populationNote":"2020年基準の国交省調整値"},"geometry":{"type":"Polygon","coordinates":[[[130.65625,33.82083333333334],[130.65625,33.825],[130.6625,33.824999999999996],[130.6625,33.82083333333333],[130.65625,33.82083333333334]]]}},{"type":"Feature","id":"40384:503055833","properties":{"id":"40384:503055833","meshCode":"503055833","cityCode":"40384","city":"遠賀町","lat":33.8229167,"lon":130.665625,"areaKm2":0.265734,"populated2020":true,"population2020":270.0923,"populationNote":"2020年基準の国交省調整値"},"geometry":{"type":"Polygon","coordinates":[[[130.66875,33.823381904911585],[130.668439728,33.82316555900001],[130.66875,33.822279433991824],[130.66875,33.82083333333333],[130.6625,33.82083333333333],[130.6625,33.824999999999996],[130.66875,33.825],[130.66875,33.823381904911585]]]}},{"type":"Feature","id":"40384:503055834","properties":{"id":"40384:503055834","meshCode":"503055834","cityCode":"40384","city":"遠賀町","lat":33.8241888,"lon":130.669599,"areaKm2":0.0300113,"populated2020":true,"population2020":null,"populationNote":"境界またぎ・原典収録外のため自治体内人口は未集計"},"geometry":{"type":"MultiPolygon","coordinates":[[[[130.672296939,33.824986108000004],[130.670111946,33.824052495],[130.66875,33.823381904911585],[130.66875,33.825],[130.672296939,33.824986108000004]]],[[[130.66875,33.822279433991824],[130.668766394,33.821736667],[130.66895663402522,33.82083333333333],[130.66875,33.82083333333333],[130.66875,33.822279433991824]]]]}},{"type":"Feature","id":"40384:503055911","properties":{"id":"40384:503055911","meshCode":"503055911","cityCode":"40384","city":"遠賀町","lat":33.8269926,"lon":130.6426892,"areaKm2":0.0817508,"populated2020":true,"population2020":null,"populationNote":"境界またぎ・原典収録外のため自治体内人口は未集計"},"geometry":{"type":"Polygon","coordinates":[[[130.642592114,33.825],[130.641964994,33.82546222500001],[130.641848054,33.825648892],[130.64179166,33.826453054],[130.64159,33.827096946],[130.641762218,33.827714441000005],[130.641601115,33.828215279],[130.64226562229885,33.829166666666666],[130.64375,33.829166666666666],[130.64375,33.824999999999996],[130.642592114,33.825]]]}},{"type":"Feature","id":"40384:503055912","properties":{"id":"40384:503055912","meshCode":"503055912","cityCode":"40384","city":"遠賀町","lat":33.8270833,"lon":130.646875,"areaKm2":0.2673486,"populated2020":false,"population2020":null,"populationNote":"境界またぎ・原典収録外のため自治体内人口は未集計"},"geometry":{"type":"Polygon","coordinates":[[[130.64375,33.824999999999996],[130.64375,33.829166666666666],[130.65,33.829166666666666],[130.65,33.825],[130.64375,33.824999999999996]]]}},{"type":"Feature","id":"40384:503055921","properties":{"id":"40384:503055921","meshCode":"503055921","cityCode":"40384","city":"遠賀町","lat":33.8270833,"lon":130.653125,"areaKm2":0.2673484,"populated2020":true,"population2020":12.1378,"populationNote":"2020年基準の国交省調整値"},"geometry":{"type":"Polygon","coordinates":[[[130.65,33.825],[130.65,33.829166666666666],[130.65625,33.829166666666666],[130.65625,33.825],[130.65,33.825]]]}},{"type":"Feature","id":"40384:503055922","properties":{"id":"40384:503055922","meshCode":"503055922","cityCode":"40384","city":"遠賀町","lat":33.8270833,"lon":130.659375,"areaKm2":0.2673481,"populated2020":true,"population2020":3.0502,"populationNote":"2020年基準の国交省調整値"},"geometry":{"type":"Polygon","coordinates":[[[130.65625,33.825],[130.65625,33.829166666666666],[130.6625,33.82916666666666],[130.6625,33.824999999999996],[130.65625,33.825]]]}},{"type":"Feature","id":"40384:503055931","properties":{"id":"40384:503055931","meshCode":"503055931","cityCode":"40384","city":"遠賀町","lat":33.8270833,"lon":130.665625,"areaKm2":0.2673479,"populated2020":true,"population2020":364.9353,"populationNote":"2020年基準の国交省調整値"},"geometry":{"type":"Polygon","coordinates":[[[130.6625,33.824999999999996],[130.6625,33.82916666666666],[130.66875,33.829166666666666],[130.66875,33.825],[130.6625,33.824999999999996]]]}},{"type":"Feature","id":"40384:503055932","properties":{"id":"40384:503055932","meshCode":"503055932","cityCode":"40384","city":"遠賀町","lat":33.8270833,"lon":130.671875,"areaKm2":0.2475864,"populated2020":true,"population2020":408.0301,"populationNote":"2020年基準の国交省調整値"},"geometry":{"type":"Polygon","coordinates":[[[130.674574721,33.82611610800001],[130.674588885,33.825850279],[130.674422503,33.825704161999994],[130.674250272,33.825647225],[130.67378166,33.825856387],[130.673649728,33.825833892],[130.67270111500002,33.825509441],[130.672312503,33.825],[130.66875,33.825],[130.66875,33.829166666666666],[130.675,33.82916666666667],[130.675,33.826236532],[130.674574721,33.82611610800001]]]}},{"type":"Feature","id":"40384:503055941","properties":{"id":"40384:503055941","meshCode":"503055941","cityCode":"40384","city":"遠賀町","lat":33.827735,"lon":130.6753774,"areaKm2":0.0239409,"populated2020":false,"population2020":null,"populationNote":"境界またぎ・原典収録外のため自治体内人口は未集計"},"geometry":{"type":"Polygon","coordinates":[[[130.67667693900003,33.82915500000001],[130.675780272,33.82779110800001],[130.675206394,33.826751387],[130.67530166,33.826349441],[130.675,33.826236532],[130.675,33.82916666666667],[130.67667693900003,33.82915500000001]]]}},{"type":"Feature","id":"40384:503055913","properties":{"id":"40384:503055913","meshCode":"503055913","cityCode":"40384","city":"遠賀町","lat":33.8312599,"lon":130.6429485,"areaKm2":0.0547219,"populated2020":false,"population2020":null,"populationNote":"境界またぎ・原典収録外のため自治体内人口は未集計"},"geometry":{"type":"Polygon","coordinates":[[[130.64226562229885,33.829166666666666],[130.642466394,33.829758054],[130.642341946,33.830338613],[130.642088612,33.830785829],[130.642182776,33.831385000000004],[130.64240166,33.831923613],[130.642898327,33.83264222500001],[130.642984449,33.832951946],[130.64294097294297,33.833333333333336],[130.64375,33.833333333333336],[130.64375,33.829166666666666],[130.64226562229885,33.829166666666666]]]}},{"type":"Feature","id":"40384:503055914","properties":{"id":"40384:503055914","meshCode":"503055914","cityCode":"40384","city":"遠賀町","lat":33.83125,"lon":130.646875,"areaKm2":0.2673358,"populated2020":false,"population2020":null,"populationNote":"境界またぎ・原典収録外のため自治体内人口は未集計"},"geometry":{"type":"Polygon","coordinates":[[[130.64375,33.829166666666666],[130.64375,33.833333333333336],[130.65,33.833333333333336],[130.65,33.829166666666666],[130.64375,33.829166666666666]]]}},{"type":"Feature","id":"40384:503055923","properties":{"id":"40384:503055923","meshCode":"503055923","cityCode":"40384","city":"遠賀町","lat":33.83125,"lon":130.653125,"areaKm2":0.2673356,"populated2020":true,"population2020":66.4454,"populationNote":"2020年基準の国交省調整値"},"geometry":{"type":"Polygon","coordinates":[[[130.65,33.829166666666666],[130.65,33.833333333333336],[130.65625,33.833333333333336],[130.65625,33.829166666666666],[130.65,33.829166666666666]]]}},{"type":"Feature","id":"40384:503055924","properties":{"id":"40384:503055924","meshCode":"503055924","cityCode":"40384","city":"遠賀町","lat":33.83125,"lon":130.659375,"areaKm2":0.2673353,"populated2020":true,"population2020":47.3475,"populationNote":"2020年基準の国交省調整値"},"geometry":{"type":"Polygon","coordinates":[[[130.65625,33.829166666666666],[130.65625,33.833333333333336],[130.6625,33.833333333333336],[130.6625,33.82916666666666],[130.65625,33.829166666666666]]]}},{"type":"Feature","id":"40384:503055933","properties":{"id":"40384:503055933","meshCode":"503055933","cityCode":"40384","city":"遠賀町","lat":33.83125,"lon":130.665625,"areaKm2":0.2673351,"populated2020":true,"population2020":503.3797,"populationNote":"2020年基準の国交省調整値"},"geometry":{"type":"Polygon","coordinates":[[[130.6625,33.82916666666666],[130.6625,33.833333333333336],[130.66875,33.833333333333336],[130.66875,33.829166666666666],[130.6625,33.82916666666666]]]}},{"type":"Feature","id":"40384:503055934","properties":{"id":"40384:503055934","meshCode":"503055934","cityCode":"40384","city":"遠賀町","lat":33.83125,"lon":130.671875,"areaKm2":0.2673349,"populated2020":true,"population2020":727.9751,"populationNote":"2020年基準の国交省調整値"},"geometry":{"type":"Polygon","coordinates":[[[130.66875,33.829166666666666],[130.66875,33.833333333333336],[130.675,33.833333333333336],[130.675,33.82916666666667],[130.66875,33.829166666666666]]]}},{"type":"Feature","id":"40384:503055943","properties":{"id":"40384:503055943","meshCode":"503055943","cityCode":"40384","city":"遠賀町","lat":33.83125,"lon":130.678125,"areaKm2":0.2027293,"populated2020":false,"population2020":null,"populationNote":"境界またぎ・原典収録外のため自治体内人口は未集計"},"geometry":{"type":"Polygon","coordinates":[[[130.68125000000003,33.830683559913844],[130.680195837,33.830516946],[130.679524994,33.830776946],[130.679241115,33.830803333],[130.677583061,33.830653053999995],[130.67723,33.830549721000004],[130.67720083,33.829642225],[130.676938885,33.829575279],[130.6766868791143,33.829166666666666],[130.675,33.82916666666667],[130.675,33.833333333333336],[130.68125000000003,33.83333333333334],[130.68125000000003,33.830683559913844]]]}},{"type":"Feature","id":"40384:503055944","properties":{"id":"40384:503055944","meshCode":"503055944","cityCode":"40384","city":"遠賀町","lat":33.83125,"lon":130.684375,"areaKm2":0.146104,"populated2020":true,"population2020":null,"populationNote":"境界またぎ・原典収録外のため自治体内人口は未集計"},"geometry":{"type":"Polygon","coordinates":[[[130.6875,33.83231146879709],[130.687112776,33.832394441],[130.68673055800002,33.83173694600001],[130.686377497,33.831495279],[130.685631946,33.831377495],[130.685534449,33.831263613000004],[130.685385279,33.830622774999995],[130.685143891,33.830517225],[130.684819442,33.830683613],[130.682986667,33.830689441000004],[130.682726939,33.830926946],[130.68125000000003,33.830683559913844],[130.68125000000003,33.83333333333334],[130.6875,33.833333333333336],[130.6875,33.83231146879709]]]}},{"type":"Feature","id":"40384:503055953","properties":{"id":"40384:503055953","meshCode":"503055953","cityCode":"40384","city":"遠賀町","lat":33.832831,"lon":130.6884667,"areaKm2":0.0156135,"populated2020":true,"population2020":null,"populationNote":"境界またぎ・原典収録外のため自治体内人口は未集計"},"geometry":{"type":"Polygon","coordinates":[[[130.690232776,33.833333333],[130.689145279,33.83262389200001],[130.688105551,33.832794441],[130.687619728,33.83232138699999],[130.6875,33.83231146879709],[130.6875,33.833333333333336],[130.690232776,33.833333333]]]}},{"type":"Feature","id":"40384:503065011","properties":{"id":"40384:503065011","meshCode":"503065011","cityCode":"40384","city":"遠賀町","lat":33.834259,"lon":130.6430781,"areaKm2":0.0202548,"populated2020":false,"population2020":null,"populationNote":"境界またぎ・原典収録外のため自治体内人口は未集計"},"geometry":{"type":"Polygon","coordinates":[[[130.642933891,33.833374721],[130.642527224,33.833941108000005],[130.642343891,33.834634441000006],[130.642831946,33.834958613],[130.64375,33.835059354969715],[130.64375,33.833333333333336],[130.642933891,33.833374721]]]}},{"type":"Feature","id":"40384:503065012","properties":{"id":"40384:503065012","meshCode":"503065012","cityCode":"40384","city":"遠賀町","lat":33.8354167,"lon":130.646875,"areaKm2":0.2347725,"populated2020":true,"population2020":6.0707,"populationNote":"2020年基準の国交省調整値"},"geometry":{"type":"Polygon","coordinates":[[[130.64375,33.835059354969715],[130.644405279,33.835205],[130.64467166,33.835381387000005],[130.64532917,33.836601387],[130.645477782,33.836952775],[130.645413333,33.837127775],[130.64503924493957,33.8375],[130.65,33.83749999999999],[130.65,33.833333333333336],[130.64375,33.833333333333336],[130.64375,33.835059354969715]]]}},{"type":"Feature","id":"40384:503065021","properties":{"id":"40384:503065021","meshCode":"503065021","cityCode":"40384","city":"遠賀町","lat":33.8354167,"lon":130.653125,"areaKm2":0.2673228,"populated2020":true,"population2020":19.1866,"populationNote":"2020年基準の国交省調整値"},"geometry":{"type":"Polygon","coordinates":[[[130.65,33.833333333333336],[130.65,33.83749999999999],[130.65625,33.8375],[130.65625,33.833333333333336],[130.65,33.833333333333336]]]}},{"type":"Feature","id":"40384:503065022","properties":{"id":"40384:503065022","meshCode":"503065022","cityCode":"40384","city":"遠賀町","lat":33.8354167,"lon":130.659375,"areaKm2":0.2673225,"populated2020":true,"population2020":71.4199,"populationNote":"2020年基準の国交省調整値"},"geometry":{"type":"Polygon","coordinates":[[[130.65625,33.833333333333336],[130.65625,33.8375],[130.6625,33.8375],[130.6625,33.833333333333336],[130.65625,33.833333333333336]]]}},{"type":"Feature","id":"40384:503065031","properties":{"id":"40384:503065031","meshCode":"503065031","cityCode":"40384","city":"遠賀町","lat":33.8354167,"lon":130.665625,"areaKm2":0.2673223,"populated2020":true,"population2020":509.8755,"populationNote":"2020年基準の国交省調整値"},"geometry":{"type":"Polygon","coordinates":[[[130.6625,33.833333333333336],[130.6625,33.8375],[130.66875,33.83749999999999],[130.66875,33.833333333333336],[130.6625,33.833333333333336]]]}},{"type":"Feature","id":"40384:503065032","properties":{"id":"40384:503065032","meshCode":"503065032","cityCode":"40384","city":"遠賀町","lat":33.8354167,"lon":130.671875,"areaKm2":0.2673221,"populated2020":true,"population2020":136.6441,"populationNote":"2020年基準の国交省調整値"},"geometry":{"type":"Polygon","coordinates":[[[130.66875,33.833333333333336],[130.66875,33.83749999999999],[130.675,33.8375],[130.675,33.833333333333336],[130.66875,33.833333333333336]]]}},{"type":"Feature","id":"40384:503065041","properties":{"id":"40384:503065041","meshCode":"503065041","cityCode":"40384","city":"遠賀町","lat":33.8354167,"lon":130.678125,"areaKm2":0.2673218,"populated2020":true,"population2020":25.2521,"populationNote":"2020年基準の国交省調整値"},"geometry":{"type":"Polygon","coordinates":[[[130.675,33.833333333333336],[130.675,33.8375],[130.68125000000003,33.8375],[130.68125000000003,33.83333333333334],[130.675,33.833333333333336]]]}},{"type":"Feature","id":"40384:503065042","properties":{"id":"40384:503065042","meshCode":"503065042","cityCode":"40384","city":"遠賀町","lat":33.8354167,"lon":130.684375,"areaKm2":0.2673216,"populated2020":true,"population2020":109.799,"populationNote":"2020年基準の国交省調整値"},"geometry":{"type":"Polygon","coordinates":[[[130.68125000000003,33.83333333333334],[130.68125000000003,33.8375],[130.6875,33.8375],[130.6875,33.833333333333336],[130.68125000000003,33.83333333333334]]]}},{"type":"Feature","id":"40384:503065051","properties":{"id":"40384:503065051","meshCode":"503065051","cityCode":"40384","city":"遠賀町","lat":33.8353896,"lon":130.6887308,"areaKm2":0.099155,"populated2020":true,"population2020":null,"populationNote":"境界またぎ・原典収録外のため自治体内人口は未集計"},"geometry":{"type":"Polygon","coordinates":[[[130.6883629111664,33.8375],[130.688796939,33.83660222499999],[130.689105551,33.836172225],[130.691267782,33.83410416200001],[130.69023277653068,33.83333333333334],[130.6875,33.833333333333336],[130.6875,33.8375],[130.6883629111664,33.8375]]]}},{"type":"Feature","id":"40384:503065014","properties":{"id":"40384:503065014","meshCode":"503065014","cityCode":"40384","city":"遠賀町","lat":33.8397976,"lon":130.6485827,"areaKm2":0.1336883,"populated2020":false,"population2020":null,"populationNote":"境界またぎ・原典収録外のため自治体内人口は未集計"},"geometry":{"type":"Polygon","coordinates":[[[130.645004449,33.83753],[130.644928054,33.837592225],[130.644982218,33.837787495],[130.64561389100004,33.838340559],[130.646131946,33.838364440999996],[130.646715837,33.838273613],[130.646844163,33.839219162],[130.6480592218921,33.84166666666667],[130.65,33.84166666666667],[130.65,33.83749999999999],[130.645004449,33.83753]]]}},{"type":"Feature","id":"40384:503065023","properties":{"id":"40384:503065023","meshCode":"503065023","cityCode":"40384","city":"遠賀町","lat":33.8395833,"lon":130.653125,"areaKm2":0.26731,"populated2020":true,"population2020":34.278,"populationNote":"2020年基準の国交省調整値"},"geometry":{"type":"Polygon","coordinates":[[[130.65,33.83749999999999],[130.65,33.84166666666667],[130.65625,33.84166666666667],[130.65625,33.8375],[130.65,33.83749999999999]]]}},{"type":"Feature","id":"40384:503065024","properties":{"id":"40384:503065024","meshCode":"503065024","cityCode":"40384","city":"遠賀町","lat":33.8395833,"lon":130.659375,"areaKm2":0.2673097,"populated2020":true,"population2020":203.1669,"populationNote":"2020年基準の国交省調整値"},"geometry":{"type":"Polygon","coordinates":[[[130.65625,33.8375],[130.65625,33.84166666666667],[130.6625,33.84166666666667],[130.6625,33.8375],[130.65625,33.8375]]]}},{"type":"Feature","id":"40384:503065033","properties":{"id":"40384:503065033","meshCode":"503065033","cityCode":"40384","city":"遠賀町","lat":33.8395833,"lon":130.665625,"areaKm2":0.2673095,"populated2020":true,"population2020":654.3063,"populationNote":"2020年基準の国交省調整値"},"geometry":{"type":"Polygon","coordinates":[[[130.6625,33.8375],[130.6625,33.84166666666667],[130.66875,33.84166666666666],[130.66875,33.83749999999999],[130.6625,33.8375]]]}},{"type":"Feature","id":"40384:503065034","properties":{"id":"40384:503065034","meshCode":"503065034","cityCode":"40384","city":"遠賀町","lat":33.8395833,"lon":130.671875,"areaKm2":0.2673093,"populated2020":true,"population2020":195.5026,"populationNote":"2020年基準の国交省調整値"},"geometry":{"type":"Polygon","coordinates":[[[130.66875,33.83749999999999],[130.66875,33.84166666666666],[130.675,33.84166666666667],[130.675,33.8375],[130.66875,33.83749999999999]]]}},{"type":"Feature","id":"40384:503065043","properties":{"id":"40384:503065043","meshCode":"503065043","cityCode":"40384","city":"遠賀町","lat":33.8395833,"lon":130.678125,"areaKm2":0.267309,"populated2020":true,"population2020":14.1173,"populationNote":"2020年基準の国交省調整値"},"geometry":{"type":"Polygon","coordinates":[[[130.675,33.8375],[130.675,33.84166666666667],[130.68125000000003,33.841666666666676],[130.68125000000003,33.8375],[130.675,33.8375]]]}},{"type":"Feature","id":"40384:503065044","properties":{"id":"40384:503065044","meshCode":"503065044","cityCode":"40384","city":"遠賀町","lat":33.8395833,"lon":130.684375,"areaKm2":0.2537627,"populated2020":true,"population2020":9.0993,"populationNote":"2020年基準の国交省調整値"},"geometry":{"type":"Polygon","coordinates":[[[130.68635919614803,33.84166666666667],[130.6875,33.839334692007164],[130.6875,33.8375],[130.68125000000003,33.8375],[130.68125000000003,33.841666666666676],[130.68635919614803,33.84166666666667]]]}},{"type":"Feature","id":"40384:503065053","properties":{"id":"40384:503065053","meshCode":"503065053","cityCode":"40384","city":"遠賀町","lat":33.8384463,"lon":130.6877181,"areaKm2":0.0084341,"populated2020":true,"population2020":null,"populationNote":"境界またぎ・原典収録外のため自治体内人口は未集計"},"geometry":{"type":"Polygon","coordinates":[[[130.6875,33.839334692007164],[130.68822194600003,33.837885279000005],[130.6883629111664,33.8375],[130.6875,33.8375],[130.6875,33.839334692007164]]]}},{"type":"Feature","id":"40384:503065112","properties":{"id":"40384:503065112","meshCode":"503065112","cityCode":"40384","city":"遠賀町","lat":33.8431218,"lon":130.6489571,"areaKm2":0.0562658,"populated2020":true,"population2020":null,"populationNote":"境界またぎ・原典収録外のため自治体内人口は未集計"},"geometry":{"type":"Polygon","coordinates":[[[130.648059222,33.841666667],[130.64825083000002,33.842307775],[130.648223891,33.842687775],[130.647992503,33.843046108],[130.64768083,33.843303612999996],[130.647677782,33.843462495],[130.648738327,33.84459944099999],[130.649115551,33.844651946000006],[130.65,33.844431694],[130.65,33.84166666666667],[130.648059222,33.841666667]]]}},{"type":"Feature","id":"40384:503065121","properties":{"id":"40384:503065121","meshCode":"503065121","cityCode":"40384","city":"遠賀町","lat":33.84375,"lon":130.653125,"areaKm2":0.2358107,"populated2020":true,"population2020":null,"populationNote":"境界またぎ・原典収録外のため自治体内人口は未集計"},"geometry":{"type":"Polygon","coordinates":[[[130.650019728,33.84442889200001],[130.65094083,33.84464],[130.651705837,33.844569721],[130.652408612,33.844911946],[130.65273870864795,33.845833333333324],[130.65625,33.84583333333333],[130.65625,33.84166666666667],[130.65,33.84166666666667],[130.650019728,33.84442889200001]]]}},{"type":"Feature","id":"40384:503065122","properties":{"id":"40384:503065122","meshCode":"503065122","cityCode":"40384","city":"遠賀町","lat":33.84375,"lon":130.659375,"areaKm2":0.267297,"populated2020":true,"population2020":200.7355,"populationNote":"2020年基準の国交省調整値"},"geometry":{"type":"Polygon","coordinates":[[[130.65625,33.84166666666667],[130.65625,33.84583333333333],[130.6625,33.845833333333324],[130.6625,33.84166666666667],[130.65625,33.84166666666667]]]}},{"type":"Feature","id":"40384:503065131","properties":{"id":"40384:503065131","meshCode":"503065131","cityCode":"40384","city":"遠賀町","lat":33.84375,"lon":130.665625,"areaKm2":0.2672967,"populated2020":true,"population2020":219.937,"populationNote":"2020年基準の国交省調整値"},"geometry":{"type":"Polygon","coordinates":[[[130.6625,33.84166666666667],[130.6625,33.845833333333324],[130.66875,33.845833333333324],[130.66875,33.84166666666666],[130.6625,33.84166666666667]]]}},{"type":"Feature","id":"40384:503065132","properties":{"id":"40384:503065132","meshCode":"503065132","cityCode":"40384","city":"遠賀町","lat":33.84375,"lon":130.671875,"areaKm2":0.2672965,"populated2020":false,"population2020":null,"populationNote":"境界またぎ・原典収録外のため自治体内人口は未集計"},"geometry":{"type":"Polygon","coordinates":[[[130.66875,33.84166666666666],[130.66875,33.845833333333324],[130.675,33.84583333333333],[130.675,33.84166666666667],[130.66875,33.84166666666666]]]}},{"type":"Feature","id":"40384:503065141","properties":{"id":"40384:503065141","meshCode":"503065141","cityCode":"40384","city":"遠賀町","lat":33.84375,"lon":130.678125,"areaKm2":0.2672962,"populated2020":true,"population2020":1.9981,"populationNote":"2020年基準の国交省調整値"},"geometry":{"type":"Polygon","coordinates":[[[130.675,33.84166666666667],[130.675,33.84583333333333],[130.68125000000003,33.84583333333334],[130.68125000000003,33.841666666666676],[130.675,33.84166666666667]]]}},{"type":"Feature","id":"40384:503065142","properties":{"id":"40384:503065142","meshCode":"503065142","cityCode":"40384","city":"遠賀町","lat":33.84375,"lon":130.684375,"areaKm2":0.174867,"populated2020":true,"population2020":54.4214,"populationNote":"2020年基準の国交省調整値"},"geometry":{"type":"Polygon","coordinates":[[[130.68435983713056,33.84583333333333],[130.68635919614803,33.84166666666667],[130.68125000000003,33.841666666666676],[130.68125000000003,33.84583333333334],[130.68435983713056,33.84583333333333]]]}},{"type":"Feature","id":"40384:503065113","properties":{"id":"40384:503065113","meshCode":"503065113","cityCode":"40384","city":"遠賀町","lat":33.8493225,"lon":130.6392192,"areaKm2":0.0235316,"populated2020":true,"population2020":null,"populationNote":"境界またぎ・原典収録外のため自治体内人口は未集計"},"geometry":{"type":"MultiPolygon","coordinates":[[[[130.642736615,33.849999999999994],[130.64251555100003,33.849888054],[130.64198939,33.85],[130.642736615,33.849999999999994]]],[[[130.640274449,33.849978613000005],[130.640247224,33.849703054],[130.640044163,33.84927416200001],[130.639435551,33.848713333000006],[130.638798612,33.84864249500001],[130.638430272,33.84875527900001],[130.63835166,33.849469721000006],[130.638036667,33.849872495],[130.638025837,33.85],[130.640274449,33.849978613000005]]]]}},{"type":"Feature","id":"40384:503065114","properties":{"id":"40384:503065114","meshCode":"503065114","cityCode":"40384","city":"遠賀町","lat":33.8496364,"lon":130.6470074,"areaKm2":0.0244218,"populated2020":true,"population2020":null,"populationNote":"境界またぎ・原典収録外のため自治体内人口は未集計"},"geometry":{"type":"Polygon","coordinates":[[[130.6496493,33.85],[130.649138885,33.849735829],[130.647610272,33.84930889200001],[130.64706166,33.84924027900001],[130.645163061,33.849652774999996],[130.644590026,33.85],[130.6496493,33.85]]]}},{"type":"Feature","id":"40384:503065123","properties":{"id":"40384:503065123","meshCode":"503065123","cityCode":"40384","city":"遠賀町","lat":33.8479167,"lon":130.653125,"areaKm2":0.1453788,"populated2020":true,"population2020":null,"populationNote":"境界またぎ・原典収録外のため自治体内人口は未集計"},"geometry":{"type":"Polygon","coordinates":[[[130.65273870864795,33.845833333333324],[130.652999442,33.84652722500001],[130.652797497,33.848342224999996],[130.652761025,33.85],[130.65625,33.85000000000001],[130.65625,33.84583333333333],[130.65273870864795,33.845833333333324]]]}},{"type":"Feature","id":"40384:503065124","properties":{"id":"40384:503065124","meshCode":"503065124","cityCode":"40384","city":"遠賀町","lat":33.8479167,"lon":130.659375,"areaKm2":0.2672842,"populated2020":true,"population2020":581.0852,"populationNote":"2020年基準の国交省調整値"},"geometry":{"type":"Polygon","coordinates":[[[130.65625,33.84583333333333],[130.65625,33.85000000000001],[130.6625,33.85],[130.6625,33.845833333333324],[130.65625,33.84583333333333]]]}},{"type":"Feature","id":"40384:503065133","properties":{"id":"40384:503065133","meshCode":"503065133","cityCode":"40384","city":"遠賀町","lat":33.8479167,"lon":130.665625,"areaKm2":0.2672839,"populated2020":true,"population2020":632.797,"populationNote":"2020年基準の国交省調整値"},"geometry":{"type":"Polygon","coordinates":[[[130.6625,33.845833333333324],[130.6625,33.85],[130.66875,33.849999999999994],[130.66875,33.845833333333324],[130.6625,33.845833333333324]]]}},{"type":"Feature","id":"40384:503065134","properties":{"id":"40384:503065134","meshCode":"503065134","cityCode":"40384","city":"遠賀町","lat":33.8479167,"lon":130.671875,"areaKm2":0.2672837,"populated2020":true,"population2020":935.8654,"populationNote":"2020年基準の国交省調整値"},"geometry":{"type":"Polygon","coordinates":[[[130.66875,33.845833333333324],[130.66875,33.849999999999994],[130.675,33.849999999999994],[130.675,33.84583333333333],[130.66875,33.845833333333324]]]}},{"type":"Feature","id":"40384:503065143","properties":{"id":"40384:503065143","meshCode":"503065143","cityCode":"40384","city":"遠賀町","lat":33.8479167,"lon":130.678125,"areaKm2":0.2672835,"populated2020":true,"population2020":289.8938,"populationNote":"2020年基準の国交省調整値"},"geometry":{"type":"Polygon","coordinates":[[[130.675,33.84583333333333],[130.675,33.849999999999994],[130.68125000000003,33.849999999999994],[130.68125000000003,33.84583333333334],[130.675,33.84583333333333]]]}},{"type":"Feature","id":"40384:503065144","properties":{"id":"40384:503065144","meshCode":"503065144","cityCode":"40384","city":"遠賀町","lat":33.8480899,"lon":130.6823665,"areaKm2":0.0980402,"populated2020":true,"population2020":null,"populationNote":"境界またぎ・原典収録外のため自治体内人口は未集計"},"geometry":{"type":"Polygon","coordinates":[[[130.682741829,33.85],[130.68435983713056,33.84583333333333],[130.68125000000003,33.84583333333334],[130.68125000000003,33.849999999999994],[130.682741829,33.85]]]}},{"type":"Feature","id":"40384:503065211","properties":{"id":"40384:503065211","meshCode":"503065211","cityCode":"40384","city":"遠賀町","lat":33.8520833,"lon":130.640625,"areaKm2":0.1982425,"populated2020":true,"population2020":102.9762,"populationNote":"2020年基準の国交省調整値"},"geometry":{"type":"Polygon","coordinates":[[[130.643736109,33.850358054],[130.64308,33.850481946],[130.642953333,33.850407495],[130.642736615,33.849999999999994],[130.64198939,33.85],[130.641092218,33.850329162],[130.640808612,33.850331108],[130.640423333,33.850151667],[130.640287562,33.85],[130.638025837,33.85],[130.638132503,33.850424162],[130.638694163,33.85083722500001],[130.638481946,33.851615],[130.638621946,33.85184444099999],[130.639183333,33.852241387],[130.639424449,33.852680559],[130.63948519554452,33.85416666666666],[130.64375,33.85416666666667],[130.643736109,33.850358054]]]}},{"type":"Feature","id":"40384:503065212","properties":{"id":"40384:503065212","meshCode":"503065212","cityCode":"40384","city":"遠賀町","lat":33.8520833,"lon":130.646875,"areaKm2":0.2650186,"populated2020":true,"population2020":71.3863,"populationNote":"2020年基準の国交省調整値"},"geometry":{"type":"Polygon","coordinates":[[[130.6496493,33.85],[130.644590026,33.85],[130.644213606,33.850238053999995],[130.64375,33.85035543819523],[130.64375,33.85416666666667],[130.65,33.854166666666664],[130.65,33.850181279],[130.6496493,33.85]]]}},{"type":"Feature","id":"40384:503065221","properties":{"id":"40384:503065221","meshCode":"503065221","cityCode":"40384","city":"遠賀町","lat":33.8520833,"lon":130.653125,"areaKm2":0.23037,"populated2020":true,"population2020":null,"populationNote":"境界またぎ・原典収録外のため自治体内人口は未集計"},"geometry":{"type":"Polygon","coordinates":[[[130.652761025,33.85],[130.652731946,33.85085110799999],[130.651774163,33.85197805400001],[130.65162527900003,33.852032495],[130.650800558,33.851523054],[130.650465279,33.850478054],[130.65,33.850181279],[130.65,33.854166666666664],[130.65625,33.854166666666664],[130.65625,33.85000000000001],[130.652761025,33.85]]]}},{"type":"Feature","id":"40384:503065222","properties":{"id":"40384:503065222","meshCode":"503065222","cityCode":"40384","city":"遠賀町","lat":33.8520833,"lon":130.659375,"areaKm2":0.2672714,"populated2020":true,"population2020":146.8117,"populationNote":"2020年基準の国交省調整値"},"geometry":{"type":"Polygon","coordinates":[[[130.65625,33.85000000000001],[130.65625,33.854166666666664],[130.6625,33.85416666666666],[130.6625,33.85],[130.65625,33.85000000000001]]]}},{"type":"Feature","id":"40384:503065231","properties":{"id":"40384:503065231","meshCode":"503065231","cityCode":"40384","city":"遠賀町","lat":33.8520833,"lon":130.665625,"areaKm2":0.2672711,"populated2020":true,"population2020":776.3268,"populationNote":"2020年基準の国交省調整値"},"geometry":{"type":"Polygon","coordinates":[[[130.6625,33.85],[130.6625,33.85416666666666],[130.66875,33.85416666666665],[130.66875,33.849999999999994],[130.6625,33.85]]]}},{"type":"Feature","id":"40384:503065232","properties":{"id":"40384:503065232","meshCode":"503065232","cityCode":"40384","city":"遠賀町","lat":33.8520833,"lon":130.671875,"areaKm2":0.2672709,"populated2020":true,"population2020":947.8057,"populationNote":"2020年基準の国交省調整値"},"geometry":{"type":"Polygon","coordinates":[[[130.66875,33.849999999999994],[130.66875,33.85416666666665],[130.675,33.854166666666664],[130.675,33.849999999999994],[130.66875,33.849999999999994]]]}},{"type":"Feature","id":"40384:503065241","properties":{"id":"40384:503065241","meshCode":"503065241","cityCode":"40384","city":"遠賀町","lat":33.8520833,"lon":130.678125,"areaKm2":0.2672431,"populated2020":true,"population2020":450.4796,"populationNote":"2020年基準の国交省調整値"},"geometry":{"type":"Polygon","coordinates":[[[130.68120886591237,33.854166666666664],[130.68125000000003,33.849999999999994],[130.675,33.849999999999994],[130.675,33.854166666666664],[130.68120886591237,33.854166666666664]]]}},{"type":"Feature","id":"40384:503065242","properties":{"id":"40384:503065242","meshCode":"503065242","cityCode":"40384","city":"遠賀町","lat":33.8521311,"lon":130.6815977,"areaKm2":0.0304855,"populated2020":true,"population2020":null,"populationNote":"境界またぎ・原典収録外のため自治体内人口は未集計"},"geometry":{"type":"Polygon","coordinates":[[[130.68125000000003,33.85403719710174],[130.681758612,33.852551387],[130.682741829,33.85],[130.68125000000003,33.849999999999994],[130.68125000000003,33.85403719710174]]]}},{"type":"Feature","id":"40384:503065213","properties":{"id":"40384:503065213","meshCode":"503065213","cityCode":"40384","city":"遠賀町","lat":33.85625,"lon":130.640625,"areaKm2":0.1209926,"populated2020":true,"population2020":4.0034,"populationNote":"2020年基準の国交省調整値"},"geometry":{"type":"Polygon","coordinates":[[[130.639492776,33.854336387],[130.639974994,33.854670829],[130.639935551,33.855577225000005],[130.640476939,33.856318613],[130.640848612,33.856602775],[130.64150917,33.856717495],[130.641718327,33.856828333],[130.642180272,33.857269721],[130.642466939,33.857844721],[130.642501115,33.858013892],[130.64240335891031,33.85833333333334],[130.64375,33.858333333333334],[130.64375,33.85416666666667],[130.63948519554452,33.85416666666666],[130.639492776,33.854336387]]]}},{"type":"Feature","id":"40384:503065214","properties":{"id":"40384:503065214","meshCode":"503065214","cityCode":"40384","city":"遠賀町","lat":33.85625,"lon":130.646875,"areaKm2":0.2672591,"populated2020":true,"population2020":42.0825,"populationNote":"2020年基準の国交省調整値"},"geometry":{"type":"Polygon","coordinates":[[[130.64375,33.85416666666667],[130.64375,33.858333333333334],[130.65,33.858333333333334],[130.65,33.854166666666664],[130.64375,33.85416666666667]]]}},{"type":"Feature","id":"40384:503065223","properties":{"id":"40384:503065223","meshCode":"503065223","cityCode":"40384","city":"遠賀町","lat":33.85625,"lon":130.653125,"areaKm2":0.2672588,"populated2020":true,"population2020":1625.9828,"populationNote":"2020年基準の国交省調整値"},"geometry":{"type":"Polygon","coordinates":[[[130.65,33.854166666666664],[130.65,33.858333333333334],[130.65625,33.858333333333334],[130.65625,33.854166666666664],[130.65,33.854166666666664]]]}},{"type":"Feature","id":"40384:503065224","properties":{"id":"40384:503065224","meshCode":"503065224","cityCode":"40384","city":"遠賀町","lat":33.85625,"lon":130.659375,"areaKm2":0.2672586,"populated2020":true,"population2020":414.1351,"populationNote":"2020年基準の国交省調整値"},"geometry":{"type":"Polygon","coordinates":[[[130.65625,33.854166666666664],[130.65625,33.858333333333334],[130.6625,33.858333333333334],[130.6625,33.85416666666666],[130.65625,33.854166666666664]]]}},{"type":"Feature","id":"40384:503065233","properties":{"id":"40384:503065233","meshCode":"503065233","cityCode":"40384","city":"遠賀町","lat":33.85625,"lon":130.665625,"areaKm2":0.2672583,"populated2020":true,"population2020":1115.4169,"populationNote":"2020年基準の国交省調整値"},"geometry":{"type":"Polygon","coordinates":[[[130.6625,33.85416666666666],[130.6625,33.858333333333334],[130.66875,33.858333333333334],[130.66875,33.85416666666665],[130.6625,33.85416666666666]]]}},{"type":"Feature","id":"40384:503065234","properties":{"id":"40384:503065234","meshCode":"503065234","cityCode":"40384","city":"遠賀町","lat":33.85625,"lon":130.671875,"areaKm2":0.2672581,"populated2020":true,"population2020":925.6049,"populationNote":"2020年基準の国交省調整値"},"geometry":{"type":"Polygon","coordinates":[[[130.66875,33.85416666666665],[130.66875,33.858333333333334],[130.675,33.858333333333334],[130.675,33.854166666666664],[130.66875,33.85416666666665]]]}},{"type":"Feature","id":"40384:503065243","properties":{"id":"40384:503065243","meshCode":"503065243","cityCode":"40384","city":"遠賀町","lat":33.85625,"lon":130.678125,"areaKm2":0.2403409,"populated2020":true,"population2020":261.4965,"populationNote":"2020年基準の国交省調整値"},"geometry":{"type":"Polygon","coordinates":[[[130.680204358,33.858333333],[130.68047,33.856589721000006],[130.68120886591237,33.854166666666664],[130.675,33.854166666666664],[130.675,33.858333333333334],[130.680204358,33.858333333]]]}},{"type":"Feature","id":"40384:503065311","properties":{"id":"40384:503065311","meshCode":"503065311","cityCode":"40384","city":"遠賀町","lat":33.8602203,"lon":130.6432857,"areaKm2":0.0371064,"populated2020":false,"population2020":null,"populationNote":"境界またぎ・原典収録外のため自治体内人口は未集計"},"geometry":{"type":"Polygon","coordinates":[[[130.64240335891031,33.85833333333334],[130.642317224,33.85902],[130.642659728,33.85992610800001],[130.642983061,33.860514441],[130.643460272,33.861096946],[130.643411115,33.861487775],[130.643106109,33.861993333],[130.64323115643754,33.8625],[130.64375,33.86249999999999],[130.64375,33.858333333333334],[130.64240335891031,33.85833333333334]]]}},{"type":"Feature","id":"40384:503065312","properties":{"id":"40384:503065312","meshCode":"503065312","cityCode":"40384","city":"遠賀町","lat":33.8604167,"lon":130.646875,"areaKm2":0.2672463,"populated2020":true,"population2020":146.9524,"populationNote":"2020年基準の国交省調整値"},"geometry":{"type":"Polygon","coordinates":[[[130.64375,33.858333333333334],[130.64375,33.86249999999999],[130.65,33.86249999999999],[130.65,33.858333333333334],[130.64375,33.858333333333334]]]}},{"type":"Feature","id":"40384:503065321","properties":{"id":"40384:503065321","meshCode":"503065321","cityCode":"40384","city":"遠賀町","lat":33.8604167,"lon":130.653125,"areaKm2":0.267246,"populated2020":true,"population2020":358.1649,"populationNote":"2020年基準の国交省調整値"},"geometry":{"type":"Polygon","coordinates":[[[130.65,33.858333333333334],[130.65,33.86249999999999],[130.65625,33.86249999999999],[130.65625,33.858333333333334],[130.65,33.858333333333334]]]}},{"type":"Feature","id":"40384:503065322","properties":{"id":"40384:503065322","meshCode":"503065322","cityCode":"40384","city":"遠賀町","lat":33.8604167,"lon":130.659375,"areaKm2":0.2672458,"populated2020":true,"population2020":95.2991,"populationNote":"2020年基準の国交省調整値"},"geometry":{"type":"Polygon","coordinates":[[[130.65625,33.858333333333334],[130.65625,33.86249999999999],[130.6625,33.8625],[130.6625,33.858333333333334],[130.65625,33.858333333333334]]]}},{"type":"Feature","id":"40384:503065331","properties":{"id":"40384:503065331","meshCode":"503065331","cityCode":"40384","city":"遠賀町","lat":33.8604167,"lon":130.665625,"areaKm2":0.2672455,"populated2020":true,"population2020":265.3439,"populationNote":"2020年基準の国交省調整値"},"geometry":{"type":"Polygon","coordinates":[[[130.6625,33.858333333333334],[130.6625,33.8625],[130.66875,33.86249999999999],[130.66875,33.858333333333334],[130.6625,33.858333333333334]]]}},{"type":"Feature","id":"40384:503065332","properties":{"id":"40384:503065332","meshCode":"503065332","cityCode":"40384","city":"遠賀町","lat":33.8604167,"lon":130.671875,"areaKm2":0.2672453,"populated2020":true,"population2020":176.1653,"populationNote":"2020年基準の国交省調整値"},"geometry":{"type":"Polygon","coordinates":[[[130.66875,33.858333333333334],[130.66875,33.86249999999999],[130.675,33.8625],[130.675,33.858333333333334],[130.66875,33.858333333333334]]]}},{"type":"Feature","id":"40384:503065341","properties":{"id":"40384:503065341","meshCode":"503065341","cityCode":"40384","city":"遠賀町","lat":33.8604167,"lon":130.678125,"areaKm2":0.2154708,"populated2020":true,"population2020":5.0225,"populationNote":"2020年基準の国交省調整値"},"geometry":{"type":"Polygon","coordinates":[[[130.67985422373002,33.86249999999999],[130.68020435799065,33.85833333333334],[130.675,33.858333333333334],[130.675,33.8625],[130.67985422373002,33.86249999999999]]]}},{"type":"Feature","id":"40384:503065313","properties":{"id":"40384:503065313","meshCode":"503065313","cityCode":"40384","city":"遠賀町","lat":33.8632378,"lon":130.6436309,"areaKm2":0.0037348,"populated2020":true,"population2020":null,"populationNote":"境界またぎ・原典収録外のため自治体内人口は未集計"},"geometry":{"type":"MultiPolygon","coordinates":[[[[130.64323115643754,33.8625],[130.643653891,33.863639721],[130.64375,33.86372280554698],[130.64375,33.86249999999999],[130.64323115643754,33.8625]]],[[[130.64375,33.86507144490621],[130.643681946,33.865147775000004],[130.64375,33.86542051909839],[130.64375,33.86507144490621]]]]}},{"type":"Feature","id":"40384:503065314","properties":{"id":"40384:503065314","meshCode":"503065314","cityCode":"40384","city":"遠賀町","lat":33.8645833,"lon":130.646875,"areaKm2":0.2547825,"populated2020":true,"population2020":165.9073,"populationNote":"2020年基準の国交省調整値"},"geometry":{"type":"Polygon","coordinates":[[[130.643772776,33.863742495],[130.644437224,33.863825],[130.64461055800004,33.864048612999994],[130.644496939,33.86435889199999],[130.644216109,33.864749162],[130.64375,33.86507144490621],[130.643769728,33.865513613000005],[130.644280272,33.86618055900001],[130.64423272410116,33.86666666666666],[130.65,33.86666666666667],[130.65,33.86249999999999],[130.64375,33.86249999999999],[130.643772776,33.863742495]]]}},{"type":"Feature","id":"40384:503065323","properties":{"id":"40384:503065323","meshCode":"503065323","cityCode":"40384","city":"遠賀町","lat":33.8645833,"lon":130.653125,"areaKm2":0.2672332,"populated2020":true,"population2020":6.0816,"populationNote":"2020年基準の国交省調整値"},"geometry":{"type":"Polygon","coordinates":[[[130.65,33.86249999999999],[130.65,33.86666666666667],[130.65625,33.86666666666667],[130.65625,33.86249999999999],[130.65,33.86249999999999]]]}},{"type":"Feature","id":"40384:503065324","properties":{"id":"40384:503065324","meshCode":"503065324","cityCode":"40384","city":"遠賀町","lat":33.8645833,"lon":130.659375,"areaKm2":0.267233,"populated2020":true,"population2020":20.0832,"populationNote":"2020年基準の国交省調整値"},"geometry":{"type":"Polygon","coordinates":[[[130.65625,33.86249999999999],[130.65625,33.86666666666667],[130.6625,33.866666666666674],[130.6625,33.8625],[130.65625,33.86249999999999]]]}},{"type":"Feature","id":"40384:503065333","properties":{"id":"40384:503065333","meshCode":"503065333","cityCode":"40384","city":"遠賀町","lat":33.8645833,"lon":130.665625,"areaKm2":0.2672327,"populated2020":true,"population2020":104.217,"populationNote":"2020年基準の国交省調整値"},"geometry":{"type":"Polygon","coordinates":[[[130.6625,33.8625],[130.6625,33.866666666666674],[130.66875,33.86666666666667],[130.66875,33.86249999999999],[130.6625,33.8625]]]}},{"type":"Feature","id":"40384:503065334","properties":{"id":"40384:503065334","meshCode":"503065334","cityCode":"40384","city":"遠賀町","lat":33.8645833,"lon":130.671875,"areaKm2":0.2672325,"populated2020":true,"population2020":70.1718,"populationNote":"2020年基準の国交省調整値"},"geometry":{"type":"Polygon","coordinates":[[[130.66875,33.86249999999999],[130.66875,33.86666666666667],[130.675,33.86666666666667],[130.675,33.8625],[130.66875,33.86249999999999]]]}},{"type":"Feature","id":"40384:503065343","properties":{"id":"40384:503065343","meshCode":"503065343","cityCode":"40384","city":"遠賀町","lat":33.8645833,"lon":130.678125,"areaKm2":0.2001775,"populated2020":true,"population2020":91.4302,"populationNote":"2020年基準の国交省調整値"},"geometry":{"type":"Polygon","coordinates":[[[130.67948802903607,33.86666666666667],[130.67985422373002,33.86249999999999],[130.675,33.8625],[130.675,33.86666666666667],[130.67948802903607,33.86666666666667]]]}},{"type":"Feature","id":"40384:503065411","properties":{"id":"40384:503065411","meshCode":"503065411","cityCode":"40384","city":"遠賀町","lat":33.8678793,"lon":130.6435476,"areaKm2":0.0029868,"populated2020":true,"population2020":null,"populationNote":"境界またぎ・原典収録外のため自治体内人口は未集計"},"geometry":{"type":"Polygon","coordinates":[[[130.643725279,33.867416108],[130.643419728,33.867591387],[130.643328612,33.868020279],[130.64375,33.86842124313782],[130.643725279,33.867416108]]]}},{"type":"Feature","id":"40384:503065412","properties":{"id":"40384:503065412","meshCode":"503065412","cityCode":"40384","city":"遠賀町","lat":33.86875,"lon":130.646875,"areaKm2":0.2041758,"populated2020":true,"population2020":null,"populationNote":"境界またぎ・原典収録外のため自治体内人口は未集計"},"geometry":{"type":"Polygon","coordinates":[[[130.644232724,33.866666667],[130.64375,33.86738198700597],[130.64375,33.86842124313782],[130.648761388,33.870823333],[130.65,33.87083333333333],[130.65,33.86666666666667],[130.644232724,33.866666667]]]}},{"type":"Feature","id":"40384:503065421","properties":{"id":"40384:503065421","meshCode":"503065421","cityCode":"40384","city":"遠賀町","lat":33.86875,"lon":130.653125,"areaKm2":0.26583,"populated2020":true,"population2020":161.2468,"populationNote":"2020年基準の国交省調整値"},"geometry":{"type":"Polygon","coordinates":[[[130.65496250517765,33.87083333333332],[130.65625,33.870634134174466],[130.65625,33.86666666666667],[130.65,33.86666666666667],[130.65,33.87083333333333],[130.65496250517765,33.87083333333332]]]}},{"type":"Feature","id":"40384:503065422","properties":{"id":"40384:503065422","meshCode":"503065422","cityCode":"40384","city":"遠賀町","lat":33.86875,"lon":130.659375,"areaKm2":0.2581139,"populated2020":true,"population2020":378.5397,"populationNote":"2020年基準の国交省調整値"},"geometry":{"type":"Polygon","coordinates":[[[130.65625,33.870634134174466],[130.656930558,33.870536108],[130.657245279,33.870291387],[130.657658885,33.870155],[130.658130558,33.870235],[130.65816595060335,33.87083333333332],[130.6625,33.87083333333333],[130.6625,33.866666666666674],[130.65625,33.86666666666667],[130.65625,33.870634134174466]]]}},{"type":"Feature","id":"40384:503065431","properties":{"id":"40384:503065431","meshCode":"503065431","cityCode":"40384","city":"遠賀町","lat":33.86875,"lon":130.665625,"areaKm2":0.2672199,"populated2020":true,"population2020":313.2372,"populationNote":"2020年基準の国交省調整値"},"geometry":{"type":"Polygon","coordinates":[[[130.6625,33.866666666666674],[130.6625,33.87083333333333],[130.66875,33.87083333333333],[130.66875,33.86666666666667],[130.6625,33.866666666666674]]]}},{"type":"Feature","id":"40384:503065432","properties":{"id":"40384:503065432","meshCode":"503065432","cityCode":"40384","city":"遠賀町","lat":33.86875,"lon":130.671875,"areaKm2":0.2672197,"populated2020":true,"population2020":134.9825,"populationNote":"2020年基準の国交省調整値"},"geometry":{"type":"Polygon","coordinates":[[[130.66875,33.86666666666667],[130.66875,33.87083333333333],[130.675,33.87083333333333],[130.675,33.86666666666667],[130.66875,33.86666666666667]]]}},{"type":"Feature","id":"40384:503065441","properties":{"id":"40384:503065441","meshCode":"503065441","cityCode":"40384","city":"遠賀町","lat":33.86875,"lon":130.678125,"areaKm2":0.1828182,"populated2020":true,"population2020":28.2109,"populationNote":"2020年基準の国交省調整値"},"geometry":{"type":"Polygon","coordinates":[[[130.679034994,33.87082694600001],[130.67948802903607,33.86666666666667],[130.675,33.86666666666667],[130.675,33.87083333333333],[130.679034994,33.87082694600001]]]}},{"type":"Feature","id":"40384:503065414","properties":{"id":"40384:503065414","meshCode":"503065414","cityCode":"40384","city":"遠賀町","lat":33.8709951,"lon":130.6496345,"areaKm2":0.0020682,"populated2020":true,"population2020":null,"populationNote":"境界またぎ・原典収録外のため自治体内人口は未集計"},"geometry":{"type":"Polygon","coordinates":[[[130.648883891,33.870837495],[130.649452218,33.871089441],[130.649584994,33.871015559],[130.65,33.87114677500001],[130.65,33.87083333333333],[130.648883891,33.870837495]]]}},{"type":"Feature","id":"40384:503065423","properties":{"id":"40384:503065423","meshCode":"503065423","cityCode":"40384","city":"遠賀町","lat":33.8713499,"lon":130.6523518,"areaKm2":0.0210911,"populated2020":true,"population2020":null,"populationNote":"境界またぎ・原典収録外のため自治体内人口は未集計"},"geometry":{"type":"Polygon","coordinates":[[[130.65,33.87083333333333],[130.650141115,33.871431107999996],[130.650242503,33.871478333],[130.65035805400004,33.871367775],[130.650199442,33.871222225],[130.65026083,33.871170279],[130.650548327,33.871254162],[130.650584721,33.871161946],[130.651545551,33.871048333],[130.651646667,33.871180279],[130.651633333,33.871864162],[130.652122218,33.871728892],[130.653734721,33.87105166700001],[130.65496250517765,33.87083333333332],[130.65,33.87083333333333]]]}},{"type":"Feature","id":"40384:503065424","properties":{"id":"40384:503065424","meshCode":"503065424","cityCode":"40384","city":"遠賀町","lat":33.8715886,"lon":130.6607453,"areaKm2":0.0437778,"populated2020":true,"population2020":null,"populationNote":"境界またぎ・原典収録外のため自治体内人口は未集計"},"geometry":{"type":"Polygon","coordinates":[[[130.65816595060335,33.87083333333332],[130.658193061,33.87152610799999],[130.658373333,33.871560829],[130.658676109,33.871430000000004],[130.658919442,33.87143833300001],[130.659109728,33.87175944100001],[130.659503891,33.871810559],[130.659526394,33.872176946],[130.65976555100002,33.872303892],[130.66021083,33.87234694600001],[130.660394721,33.872211946],[130.660708327,33.871672775],[130.660890272,33.871616387],[130.661924994,33.87169861299999],[130.662002218,33.871836667],[130.662301946,33.871864441],[130.6625,33.87213580825527],[130.6625,33.87083333333333],[130.65816595060335,33.87083333333332]]]}},{"type":"Feature","id":"40384:503065433","properties":{"id":"40384:503065433","meshCode":"503065433","cityCode":"40384","city":"遠賀町","lat":33.8729111,"lon":130.6676271,"areaKm2":0.1592068,"populated2020":true,"population2020":45.3459,"populationNote":"2020年基準の国交省調整値"},"geometry":{"type":"Polygon","coordinates":[[[130.66254166,33.872204162],[130.662719442,33.872266667000005],[130.663054994,33.87213582900001],[130.663400558,33.872449162],[130.663854449,33.87252],[130.664230558,33.872474161999996],[130.664443891,33.872336108],[130.666499442,33.87288194600001],[130.666431946,33.874144441000006],[130.666526109,33.874373892],[130.66685917,33.874559162],[130.667751115,33.874772775000004],[130.667844163,33.874832225],[130.66786489,33.875],[130.66875,33.875],[130.66875,33.87083333333333],[130.6625,33.87083333333333],[130.66254166,33.872204162]]]}},{"type":"Feature","id":"40384:503065434","properties":{"id":"40384:503065434","meshCode":"503065434","cityCode":"40384","city":"遠賀町","lat":33.8729167,"lon":130.671875,"areaKm2":0.2672069,"populated2020":true,"population2020":38.2307,"populationNote":"2020年基準の国交省調整値"},"geometry":{"type":"Polygon","coordinates":[[[130.66875,33.87083333333333],[130.66875,33.875],[130.675,33.875],[130.675,33.87083333333333],[130.66875,33.87083333333333]]]}},{"type":"Feature","id":"40384:503065443","properties":{"id":"40384:503065443","meshCode":"503065443","cityCode":"40384","city":"遠賀町","lat":33.8729167,"lon":130.678125,"areaKm2":0.1612523,"populated2020":false,"population2020":null,"populationNote":"境界またぎ・原典収録外のため自治体内人口は未集計"},"geometry":{"type":"Polygon","coordinates":[[[130.678536109,33.87498972099999],[130.67903449367014,33.87083333333333],[130.675,33.87083333333333],[130.675,33.875],[130.678536109,33.87498972099999]]]}},{"type":"Feature","id":"40384:503065531","properties":{"id":"40384:503065531","meshCode":"503065531","cityCode":"40384","city":"遠賀町","lat":33.8753082,"lon":130.6683972,"areaKm2":0.0039391,"populated2020":true,"population2020":null,"populationNote":"境界またぎ・原典収録外のため自治体内人口は未集計"},"geometry":{"type":"Polygon","coordinates":[[[130.66786489,33.875],[130.66791444900002,33.87524694599999],[130.66875,33.875648787142325],[130.66875,33.875],[130.66786489,33.875]]]}},{"type":"Feature","id":"40384:503065532","properties":{"id":"40384:503065532","meshCode":"503065532","cityCode":"40384","city":"遠賀町","lat":33.8770833,"lon":130.671875,"areaKm2":0.2226999,"populated2020":true,"population2020":5.0527,"populationNote":"2020年基準の国交省調整値"},"geometry":{"type":"Polygon","coordinates":[[[130.668794994,33.875672225],[130.669104721,33.875977495],[130.669235279,33.876544721],[130.669368612,33.87674444099999],[130.669750272,33.876863054000005],[130.670113606,33.876829162],[130.670527782,33.87830610799999],[130.67057992874072,33.87916666666667],[130.675,33.87916666666667],[130.675,33.875],[130.66875,33.875],[130.668794994,33.875672225]]]}},{"type":"Feature","id":"40384:503065541","properties":{"id":"40384:503065541","meshCode":"503065541","cityCode":"40384","city":"遠賀町","lat":33.8770833,"lon":130.678125,"areaKm2":0.1401889,"populated2020":true,"population2020":null,"populationNote":"境界またぎ・原典収録外のため自治体内人口は未集計"},"geometry":{"type":"Polygon","coordinates":[[[130.6780231493481,33.87916666666667],[130.678534384,33.875],[130.675,33.875],[130.675,33.87916666666667],[130.6780231493481,33.87916666666667]]]}},{"type":"Feature","id":"40384:503065534","properties":{"id":"40384:503065534","meshCode":"503065534","cityCode":"40384","city":"遠賀町","lat":33.88125,"lon":130.671875,"areaKm2":0.1435063,"populated2020":true,"population2020":null,"populationNote":"境界またぎ・原典収録外のため自治体内人口は未集計"},"geometry":{"type":"Polygon","coordinates":[[[130.67057992874072,33.87916666666667],[130.670601388,33.880093333],[130.670841946,33.880621108],[130.67164917,33.88168166700001],[130.67213083,33.882035829],[130.673128327,33.882590829],[130.67354328116897,33.88333333333333],[130.675,33.883333333333326],[130.675,33.87916666666667],[130.67057992874072,33.87916666666667]]]}},{"type":"Feature","id":"40384:503065543","properties":{"id":"40384:503065543","meshCode":"503065543","cityCode":"40384","city":"遠賀町","lat":33.8812036,"lon":130.6763944,"areaKm2":0.1183458,"populated2020":true,"population2020":null,"populationNote":"境界またぎ・原典収録外のため自治体内人口は未集計"},"geometry":{"type":"Polygon","coordinates":[[[130.677505551,33.883333333],[130.6780231493481,33.87916666666667],[130.675,33.87916666666667],[130.675,33.883333333333326],[130.677505551,33.883333333]]]}},{"type":"Feature","id":"40384:503065632","properties":{"id":"40384:503065632","meshCode":"503065632","cityCode":"40384","city":"遠賀町","lat":33.8841208,"lon":130.6743942,"areaKm2":0.0235555,"populated2020":true,"population2020":null,"populationNote":"境界またぎ・原典収録外のため自治体内人口は未集計"},"geometry":{"type":"MultiPolygon","coordinates":[[[[130.67355693900004,33.883360279],[130.673807782,33.884224162],[130.673757497,33.884803613],[130.675,33.885021495],[130.675,33.883333333333326],[130.67355693900004,33.883360279]]],[[[130.675,33.88539466700001],[130.674851946,33.886348892],[130.67470261269563,33.88750000000001],[130.675,33.8875],[130.675,33.88539466700001]]]]}},{"type":"Feature","id":"40384:503065641","properties":{"id":"40384:503065641","meshCode":"503065641","cityCode":"40384","city":"遠賀町","lat":33.8855776,"lon":130.6761082,"areaKm2":0.0954281,"populated2020":false,"population2020":null,"populationNote":"境界またぎ・原典収録外のため自治体内人口は未集計"},"geometry":{"type":"Polygon","coordinates":[[[130.675,33.883333333333326],[130.675,33.8875],[130.67696105049535,33.88750000000001],[130.67750555095338,33.88333333333333],[130.675,33.883333333333326]]]}},{"type":"Feature","id":"40384:503065634","properties":{"id":"40384:503065634","meshCode":"503065634","cityCode":"40384","city":"遠賀町","lat":33.8881844,"lon":130.6748117,"areaKm2":0.0042956,"populated2020":true,"population2020":null,"populationNote":"境界またぎ・原典収録外のため自治体内人口は未集計"},"geometry":{"type":"Polygon","coordinates":[[[130.67470261269563,33.88750000000001],[130.674654449,33.888485829],[130.675,33.888875306],[130.675,33.8875],[130.67470261269563,33.88750000000001]]]}},{"type":"Feature","id":"40384:503065643","properties":{"id":"40384:503065643","meshCode":"503065643","cityCode":"40384","city":"遠賀町","lat":33.8891169,"lon":130.6759906,"areaKm2":0.0412671,"populated2020":true,"population2020":null,"populationNote":"境界またぎ・原典収録外のため自治体内人口は未集計"},"geometry":{"type":"Polygon","coordinates":[[[130.675024994,33.888899441],[130.676571388,33.89049861299999],[130.67696105049535,33.88750000000001],[130.675,33.8875],[130.675024994,33.888899441]]]}}]}