{"type":"FeatureCollection","metadata":{"cityCode":"40382","city":"水巻町","resolution":1000,"boundaryDate":"2026-01-01","populationLabel":"2020年基準人口（国交省調整値）","method":"標準地域メッシュを行政界で切抜き。中心が区域外のとき区域内代表点を判定点にする。人口不明をゼロにしない。"},"features":[{"type":"Feature","id":"40382:50305595","properties":{"id":"40382:50305595","meshCode":"50305595","cityCode":"40382","city":"水巻町","lat":33.8322132,"lon":130.6958639,"areaKm2":0.1293903,"populated2020":true,"population2020":null,"populationNote":"境界またぎ・収録外等のため人口未集計"},"geometry":{"type":"Polygon","coordinates":[[[130.6988064719067,33.833333333333336],[130.699045668,33.832033829],[130.697624527,33.831854387],[130.697669144,33.83147655900001],[130.695674721,33.830110279],[130.69211455262345,33.833333333333336],[130.6988064719067,33.833333333333336]]]}},{"type":"Feature","id":"40382:50306505","properties":{"id":"40382:50306505","meshCode":"50306505","cityCode":"40382","city":"水巻町","lat":33.8378279,"lon":130.6942811,"areaKm2":0.9450179,"populated2020":true,"population2020":null,"populationNote":"境界またぎ・収録外等のため人口未集計"},"geometry":{"type":"Polygon","coordinates":[[[130.69211455262345,33.833333333333336],[130.689105551,33.836172225],[130.688796939,33.83660222499999],[130.6875,33.839334692007164],[130.6875,33.84166666666667],[130.7,33.84166666666667],[130.7,33.834071495],[130.699602218,33.834221108],[130.699275551,33.83420889200001],[130.698808327,33.833693892],[130.6988064719067,33.833333333333336],[130.69211455262345,33.833333333333336]]]}},{"type":"Feature","id":"40382:50306506","properties":{"id":"40382:50306506","meshCode":"50306506","cityCode":"40382","city":"水巻町","lat":33.8388949,"lon":130.7109582,"areaKm2":0.4611591,"populated2020":true,"population2020":null,"populationNote":"境界またぎ・収録外等のため人口未集計"},"geometry":{"type":"MultiPolygon","coordinates":[[[[130.70170433206377,33.84166666666667],[130.702793061,33.834943613],[130.703120558,33.834046666999996],[130.703045279,33.833894441000005],[130.702619442,33.833744441],[130.701169442,33.833651108],[130.7,33.834071495],[130.7,33.84166666666667],[130.70170433206377,33.84166666666667]]],[[[130.712014449,33.837321945999996],[130.712068054,33.83703055899999],[130.71142891100004,33.836757027000004],[130.711506278,33.836599639999996],[130.710540078,33.836102135000004],[130.710386693,33.836147720999996],[130.710182944,33.836036586000006],[130.709925888,33.836120748],[130.710019196,33.836274748],[130.709742218,33.836241667],[130.709131556,33.836448225],[130.70851269800002,33.836309721],[130.70845214,33.836423865],[130.708976109,33.836625829],[130.70903406,33.836781720999994],[130.70889725000004,33.83712419799999],[130.708607613,33.837326162],[130.708913061,33.837418387],[130.709492309,33.837780613],[130.709465279,33.837912225],[130.709133606,33.838213892],[130.709433891,33.838839721],[130.709227224,33.83922249500001],[130.708503061,33.839517775],[130.708085279,33.839842225000005],[130.707846667,33.839838054],[130.707729442,33.839741667000006],[130.707672218,33.839266108],[130.707575837,33.839035829],[130.707483891,33.839000279000004],[130.707310272,33.83895],[130.706696667,33.83906110800001],[130.70631166,33.83922],[130.706012776,33.839446387],[130.705693891,33.84022916200001],[130.70525083000004,33.840533333],[130.705384721,33.840740559000004],[130.705108612,33.841061108],[130.703954721,33.84162],[130.70334325666752,33.84166666666667],[130.7125,33.84166666666667],[130.7125,33.837522494939975],[130.712014449,33.837321945999996]]]]}},{"type":"Feature","id":"40382:50306507","properties":{"id":"40382:50306507","meshCode":"50306507","cityCode":"40382","city":"水巻町","lat":33.8385632,"lon":130.71689,"areaKm2":0.4495877,"populated2020":true,"population2020":null,"populationNote":"境界またぎ・収録外等のため人口未集計"},"geometry":{"type":"Polygon","coordinates":[[[130.718258054,33.835135559],[130.718150558,33.834970559000006],[130.718458054,33.834449441],[130.718332776,33.834326946],[130.717821946,33.83403944100001],[130.716826109,33.833713333000006],[130.716577497,33.83371944099999],[130.7163,33.833938892],[130.71598166,33.834598333],[130.716392335,33.835103252],[130.71655418900002,33.835520829],[130.716566615,33.835907441],[130.716398171,33.836380721],[130.716617134,33.836287441],[130.717353333,33.83653233300001],[130.717251505,33.83687391899999],[130.716591414,33.83735413499999],[130.715973774,33.837261694],[130.715435305,33.83735036],[130.715222555,33.837037198],[130.714604916,33.836967414],[130.714552892,33.83710322499999],[130.714699948,33.837248495],[130.714132335,33.83779305400001],[130.713602698,33.837512613],[130.71333347600003,33.83787666700001],[130.7125,33.837522494939975],[130.7125,33.84166666666667],[130.7194246693391,33.84166666666667],[130.719574449,33.84151944100001],[130.719714994,33.841221108000006],[130.719733891,33.840895278999994],[130.72011749700002,33.84025249500001],[130.720125837,33.840061387],[130.719873606,33.839300279],[130.71985917,33.838579441],[130.720062776,33.83849110800001],[130.720701946,33.839113054],[130.720859442,33.839138333],[130.720895279,33.839031108],[130.720921388,33.838161108],[130.720617224,33.836370558999995],[130.720626667,33.836243613],[130.720952218,33.83607305400001],[130.720974449,33.835916108],[130.720773891,33.835610279],[130.720611115,33.83554],[130.72016083,33.835616387],[130.719814994,33.83551389200001],[130.719253061,33.83519777499999],[130.71846917,33.835195829],[130.718258054,33.835135559]]]}},{"type":"Feature","id":"40382:50306504","properties":{"id":"40382:50306504","meshCode":"50306504","cityCode":"40382","city":"水巻町","lat":33.8408924,"lon":130.6871212,"areaKm2":0.0135453,"populated2020":true,"population2020":null,"populationNote":"境界またぎ・収録外等のため人口未集計"},"geometry":{"type":"Polygon","coordinates":[[[130.6875,33.839334692007164],[130.687171115,33.840041946],[130.68635919614803,33.84166666666667],[130.6875,33.84166666666667],[130.6875,33.839334692007164]]]}},{"type":"Feature","id":"40382:50306514","properties":{"id":"40382:50306514","meshCode":"50306514","cityCode":"40382","city":"水巻町","lat":33.8466489,"lon":130.6857938,"areaKm2":0.2616719,"populated2020":true,"population2020":null,"populationNote":"境界またぎ・収録外等のため人口未集計"},"geometry":{"type":"Polygon","coordinates":[[[130.68635919614803,33.84166666666667],[130.684239728,33.84606110800001],[130.682741829,33.85],[130.6875,33.849999999999994],[130.6875,33.84166666666667],[130.68635919614803,33.84166666666667]]]}},{"type":"Feature","id":"40382:50306515","properties":{"id":"40382:50306515","meshCode":"50306515","cityCode":"40382","city":"水巻町","lat":33.8458333,"lon":130.69375,"areaKm2":1.0691572,"populated2020":true,"population2020":3018.7314,"populationNote":"収録500mメッシュ人口の合算（原典収録外は補完しない）"},"geometry":{"type":"Polygon","coordinates":[[[130.7,33.84166666666667],[130.6875,33.84166666666667],[130.6875,33.849999999999994],[130.7,33.85],[130.7,33.84166666666667]]]}},{"type":"Feature","id":"40382:50306516","properties":{"id":"40382:50306516","meshCode":"50306516","cityCode":"40382","city":"水巻町","lat":33.8458281,"lon":130.7062331,"areaKm2":1.0587787,"populated2020":true,"population2020":3225.3193,"populationNote":"収録500mメッシュ人口の合算（原典収録外は補完しない）"},"geometry":{"type":"Polygon","coordinates":[[[130.70334325666752,33.84166666666667],[130.702974449,33.841929721],[130.70212917,33.84197361300001],[130.701654449,33.84192749499999],[130.70170433206377,33.84166666666667],[130.7,33.84166666666667],[130.7,33.85],[130.711228249,33.85],[130.711634994,33.849805279],[130.711695551,33.849328333],[130.7125,33.84935404588008],[130.7125,33.84166666666667],[130.70334325666752,33.84166666666667]]]}},{"type":"Feature","id":"40382:50306517","properties":{"id":"40382:50306517","meshCode":"50306517","cityCode":"40382","city":"水巻町","lat":33.8438896,"lon":130.7152209,"areaKm2":0.2713534,"populated2020":true,"population2020":null,"populationNote":"境界またぎ・収録外等のため人口未集計"},"geometry":{"type":"Polygon","coordinates":[[[130.71846250300004,33.844152225],[130.719262776,33.842559721],[130.719302503,33.84183666700001],[130.7194246693391,33.84166666666667],[130.7125,33.84166666666667],[130.7125,33.84935404588008],[130.712711388,33.849246387],[130.713118885,33.848796666999995],[130.712610558,33.84820499999999],[130.713768885,33.847583054000005],[130.713114994,33.84670222500001],[130.715048885,33.845702225],[130.715432218,33.845986108],[130.71551639400002,33.845868333],[130.715468054,33.84561416199999],[130.715545551,33.845361946],[130.715793606,33.845357775],[130.716302776,33.844960559],[130.71670166,33.84482610800001],[130.716816394,33.844694162],[130.717293061,33.844929162],[130.717942776,33.844665],[130.718663333,33.84448],[130.718672503,33.844246946],[130.71846250300004,33.844152225]]]}},{"type":"Feature","id":"40382:50306524","properties":{"id":"40382:50306524","meshCode":"50306524","cityCode":"40382","city":"水巻町","lat":33.854464,"lon":130.6843477,"areaKm2":0.5309872,"populated2020":true,"population2020":null,"populationNote":"境界またぎ・収録外等のため人口未集計"},"geometry":{"type":"Polygon","coordinates":[[[130.682741829,33.85],[130.681497497,33.853261387],[130.680919728,33.85502305400001],[130.68047,33.856589721000006],[130.68020435799065,33.85833333333334],[130.6875,33.858333333333334],[130.6875,33.849999999999994],[130.682741829,33.85]]]}},{"type":"Feature","id":"40382:50306525","properties":{"id":"40382:50306525","meshCode":"50306525","cityCode":"40382","city":"水巻町","lat":33.8541667,"lon":130.69375,"areaKm2":1.0690548,"populated2020":true,"population2020":2530.961,"populationNote":"収録500mメッシュ人口の合算（原典収録外は補完しない）"},"geometry":{"type":"Polygon","coordinates":[[[130.7,33.85],[130.6875,33.849999999999994],[130.6875,33.858333333333334],[130.7,33.858333333333334],[130.7,33.85]]]}},{"type":"Feature","id":"40382:50306526","properties":{"id":"40382:50306526","meshCode":"50306526","cityCode":"40382","city":"水巻町","lat":33.8532041,"lon":130.7034714,"areaKm2":0.4797389,"populated2020":true,"population2020":null,"populationNote":"境界またぎ・収録外等のため人口未集計"},"geometry":{"type":"Polygon","coordinates":[[[130.706570558,33.852573054],[130.707981115,33.85203916200001],[130.708069442,33.851581108],[130.70828917,33.851414721000005],[130.70920917,33.851063892],[130.709846109,33.85091610800001],[130.710138054,33.85100416200002],[130.710591388,33.850278054],[130.711228249,33.85],[130.7,33.85],[130.7,33.858333333333334],[130.70009263279658,33.858333333333334],[130.700184163,33.858183333],[130.700470272,33.85755],[130.701455551,33.857771108],[130.70169472100002,33.85741444100001],[130.702774449,33.857763891999994],[130.703136939,33.856840559],[130.70415749700004,33.85761249499999],[130.704715551,33.857265829000006],[130.704706109,33.856868333],[130.70484083,33.856506667],[130.70529917,33.856531667],[130.705396939,33.855566387],[130.70541,33.85401527900001],[130.703635837,33.853931387],[130.703696667,33.853561387],[130.704245551,33.85227555899999],[130.70479083,33.852346108000006],[130.705981388,33.852724441],[130.706570558,33.852573054]]]}},{"type":"Feature","id":"40382:50306534","properties":{"id":"40382:50306534","meshCode":"50306534","cityCode":"40382","city":"水巻町","lat":33.8625657,"lon":130.6836774,"areaKm2":0.6533056,"populated2020":true,"population2020":null,"populationNote":"境界またぎ・収録外等のため人口未集計"},"geometry":{"type":"Polygon","coordinates":[[[130.68020435799065,33.85833333333334],[130.67948802903607,33.86666666666667],[130.6875,33.86666666666667],[130.6875,33.858333333333334],[130.68020435799065,33.85833333333334]]]}},{"type":"Feature","id":"40382:50306535","properties":{"id":"40382:50306535","meshCode":"50306535","cityCode":"40382","city":"水巻町","lat":33.8621283,"lon":130.6928418,"areaKm2":0.8882703,"populated2020":true,"population2020":null,"populationNote":"境界またぎ・収録外等のため人口未集計"},"geometry":{"type":"Polygon","coordinates":[[[130.699078885,33.86230833300001],[130.699053061,33.860980559],[130.699217224,33.86078499999999],[130.7,33.860477468],[130.7,33.859671973],[130.699485279,33.859506108000005],[130.699532503,33.859247225],[130.7,33.85848513500001],[130.7,33.858333333333334],[130.6875,33.858333333333334],[130.6875,33.86666666666667],[130.69576199723954,33.86666666666667],[130.696205837,33.866305279],[130.696011946,33.866097495],[130.695920558,33.865265],[130.695341388,33.864389721],[130.69561166,33.86411305400001],[130.696389728,33.864096108000005],[130.696433333,33.86382582900001],[130.696233606,33.86366166700001],[130.696271388,33.863506107999996],[130.697054449,33.862551387],[130.698061946,33.863201387],[130.698364994,33.863065829],[130.699078885,33.86230833300001]]]}},{"type":"Feature","id":"40382:50306536","properties":{"id":"40382:50306536","meshCode":"50306536","cityCode":"40382","city":"水巻町","lat":33.8599719,"lon":130.7001044,"areaKm2":0.0016855,"populated2020":true,"population2020":null,"populationNote":"境界またぎ・収録外等のため人口未集計"},"geometry":{"type":"MultiPolygon","coordinates":[[[[130.7,33.858333333333334],[130.7,33.85848513500001],[130.70009263279658,33.858333333333334],[130.7,33.858333333333334]]],[[[130.70017166,33.860368333],[130.700274721,33.85976666700001],[130.7,33.859671973],[130.7,33.860477468],[130.70017166,33.860368333]]]]}},{"type":"Feature","id":"40382:50306544","properties":{"id":"40382:50306544","meshCode":"50306544","cityCode":"40382","city":"水巻町","lat":33.8709151,"lon":130.683257,"areaKm2":0.724781,"populated2020":true,"population2020":null,"populationNote":"境界またぎ・収録外等のため人口未集計"},"geometry":{"type":"Polygon","coordinates":[[[130.67948802903607,33.86666666666667],[130.678534384,33.875],[130.6875,33.875],[130.6875,33.86666666666667],[130.67948802903607,33.86666666666667]]]}},{"type":"Feature","id":"40382:50306545","properties":{"id":"40382:50306545","meshCode":"50306545","cityCode":"40382","city":"水巻町","lat":33.8709263,"lon":130.691068,"areaKm2":0.5977497,"populated2020":true,"population2020":null,"populationNote":"境界またぎ・収録外等のため人口未集計"},"geometry":{"type":"Polygon","coordinates":[[[130.693304721,33.86776638700001],[130.69540083,33.867167495000004],[130.69556166,33.867062225000005],[130.69576199723954,33.86666666666667],[130.6875,33.86666666666667],[130.6875,33.875],[130.693194695,33.875],[130.693470558,33.874333332999996],[130.693782218,33.874152495],[130.694828327,33.873972225],[130.695013606,33.873972225],[130.695489728,33.87420389199999],[130.695843606,33.874073333],[130.695750272,33.873647775],[130.695938612,33.873171666999994],[130.69622083,33.872839162],[130.694933606,33.872078892],[130.69469917,33.87158610800001],[130.69475083,33.87020472100001],[130.693164163,33.869418054],[130.693126109,33.869141108],[130.693354449,33.868581108],[130.693304721,33.86776638700001]]]}},{"type":"Feature","id":"40382:50306554","properties":{"id":"40382:50306554","meshCode":"50306554","cityCode":"40382","city":"水巻町","lat":33.8791174,"lon":130.6826124,"areaKm2":0.7812487,"populated2020":true,"population2020":null,"populationNote":"境界またぎ・収録外等のため人口未集計"},"geometry":{"type":"Polygon","coordinates":[[[130.678534384,33.875],[130.67750555095338,33.88333333333333],[130.68517383874794,33.88333333333333],[130.685706394,33.882621108],[130.687066939,33.88151944100001],[130.6875,33.88105430345856],[130.6875,33.875],[130.678534384,33.875]]]}},{"type":"Feature","id":"40382:50306555","properties":{"id":"40382:50306555","meshCode":"50306555","cityCode":"40382","city":"水巻町","lat":33.876764,"lon":130.6900657,"areaKm2":0.1885477,"populated2020":true,"population2020":null,"populationNote":"境界またぎ・収録外等のため人口未集計"},"geometry":{"type":"Polygon","coordinates":[[[130.687547497,33.878886107999996],[130.687764163,33.878235278999995],[130.688644163,33.878411666999995],[130.690237224,33.878584162],[130.691676394,33.878426387],[130.692447497,33.878236667],[130.692722503,33.87781333300001],[130.692555279,33.87689944099999],[130.692680272,33.87615194599999],[130.693194695,33.875],[130.6875,33.875],[130.6875,33.88105430345856],[130.687703606,33.880712775],[130.687766939,33.88042833299999],[130.687547497,33.878886107999996]]]}},{"type":"Feature","id":"40382:50306564","properties":{"id":"40382:50306564","meshCode":"50306564","cityCode":"40382","city":"水巻町","lat":33.8865631,"lon":130.6801292,"areaKm2":0.4367849,"populated2020":true,"population2020":null,"populationNote":"境界またぎ・収録外等のため人口未集計"},"geometry":{"type":"Polygon","coordinates":[[[130.67750555095338,33.88333333333333],[130.676571388,33.89049861299999],[130.680062776,33.890680829],[130.682645551,33.88763610800001],[130.684001388,33.885599441],[130.683829728,33.885390829],[130.68517383874794,33.88333333333333],[130.67750555095338,33.88333333333333]]]}}]}