{"type":"FeatureCollection","metadata":{"cityCode":"40382","city":"水巻町","resolution":500,"boundaryDate":"2026-01-01","populationLabel":"2020年基準人口（国交省調整値）","method":"標準地域メッシュを行政界で切抜き。中心が区域外のとき区域内代表点を判定点にする。人口不明をゼロにしない。"},"features":[{"type":"Feature","id":"40382:503055953","properties":{"id":"40382:503055953","meshCode":"503055953","cityCode":"40382","city":"水巻町","lat":33.8322313,"lon":130.6935369,"areaKm2":0.0125106,"populated2020":true,"population2020":null,"populationNote":"境界またぎ・原典収録外のため自治体内人口は未集計"},"geometry":{"type":"Polygon","coordinates":[[[130.69211455262345,33.833333333333336],[130.69375,33.833333333333336],[130.69375,33.83186126439379],[130.692897497,33.832601387],[130.69211455262345,33.833333333333336]]]}},{"type":"Feature","id":"40382:503055954","properties":{"id":"40382:503055954","meshCode":"503055954","cityCode":"40382","city":"水巻町","lat":33.83125,"lon":130.696875,"areaKm2":0.1168797,"populated2020":true,"population2020":null,"populationNote":"境界またぎ・原典収録外のため自治体内人口は未集計"},"geometry":{"type":"Polygon","coordinates":[[[130.698806472,33.83333333299999],[130.699045668,33.832033829],[130.697624527,33.831854387],[130.697669144,33.83147655900001],[130.695674721,33.830110279],[130.69375,33.83186126439379],[130.69375,33.833333333333336],[130.698806472,33.83333333299999]]]}},{"type":"Feature","id":"40382:503065051","properties":{"id":"40382:503065051","meshCode":"503065051","cityCode":"40382","city":"水巻町","lat":33.8354167,"lon":130.690625,"areaKm2":0.1609193,"populated2020":true,"population2020":null,"populationNote":"境界またぎ・原典収録外のため自治体内人口は未集計"},"geometry":{"type":"Polygon","coordinates":[[[130.69211455262345,33.833333333333336],[130.689105551,33.836172225],[130.688796939,33.83660222499999],[130.6883629111664,33.8375],[130.69375,33.8375],[130.69375,33.833333333333336],[130.69211455262345,33.833333333333336]]]}},{"type":"Feature","id":"40382:503065052","properties":{"id":"40382:503065052","meshCode":"503065052","cityCode":"40382","city":"水巻町","lat":33.8354167,"lon":130.696875,"areaKm2":0.2579151,"populated2020":true,"population2020":1280.7287,"populationNote":"2020年基準の国交省調整値"},"geometry":{"type":"Polygon","coordinates":[[[130.7,33.834071495],[130.699602218,33.834221108],[130.699275551,33.83420889200001],[130.698808327,33.833693892],[130.6988064719067,33.833333333333336],[130.69375,33.833333333333336],[130.69375,33.8375],[130.7,33.8375],[130.7,33.834071495]]]}},{"type":"Feature","id":"40382:503065061","properties":{"id":"40382:503065061","meshCode":"503065061","cityCode":"40382","city":"水巻町","lat":33.835294,"lon":130.7013699,"areaKm2":0.10448,"populated2020":true,"population2020":null,"populationNote":"境界またぎ・原典収録外のため自治体内人口は未集計"},"geometry":{"type":"Polygon","coordinates":[[[130.70240170666085,33.83749999999999],[130.702793061,33.834943613],[130.703120558,33.834046666999996],[130.703045279,33.833894441000005],[130.702619442,33.833744441],[130.701169442,33.833651108],[130.7,33.834071495],[130.7,33.8375],[130.70240170666085,33.83749999999999]]]}},{"type":"Feature","id":"40382:503065062","properties":{"id":"40382:503065062","meshCode":"503065062","cityCode":"40382","city":"水巻町","lat":33.8367694,"lon":130.7102439,"areaKm2":0.0364833,"populated2020":true,"population2020":null,"populationNote":"境界またぎ・原典収録外のため自治体内人口は未集計"},"geometry":{"type":"Polygon","coordinates":[[[130.71244543059527,33.8375],[130.712014449,33.837321945999996],[130.712068054,33.83703055899999],[130.71142891100004,33.836757027000004],[130.711506278,33.836599639999996],[130.710540078,33.836102135000004],[130.710386693,33.836147720999996],[130.710182944,33.836036586000006],[130.709925888,33.836120748],[130.710019196,33.836274748],[130.709742218,33.836241667],[130.709131556,33.836448225],[130.70851269800002,33.836309721],[130.70845214,33.836423865],[130.708976109,33.836625829],[130.70903406,33.836781720999994],[130.708984034,33.836968333],[130.70889725000004,33.83712419799999],[130.708607613,33.837326162],[130.70904828434277,33.8375],[130.71244543059527,33.8375]]]}},{"type":"Feature","id":"40382:503065071","properties":{"id":"40382:503065071","meshCode":"503065071","cityCode":"40382","city":"水巻町","lat":33.8356176,"lon":130.7176567,"areaKm2":0.0808684,"populated2020":true,"population2020":null,"populationNote":"境界またぎ・原典収録外のため自治体内人口は未集計"},"geometry":{"type":"Polygon","coordinates":[[[130.71846917,33.835195829],[130.718150558,33.83504082899999],[130.718458054,33.834449441],[130.718332776,33.834326946],[130.717821946,33.83403944100001],[130.716826109,33.833713333000006],[130.716458885,33.833775829000004],[130.7163,33.833938892],[130.71598166,33.834598333],[130.716392335,33.835103252],[130.71655418900002,33.835520829],[130.716566615,33.835907441],[130.716398171,33.836380721],[130.716617134,33.836287441],[130.717353333,33.83653233300001],[130.717251505,33.83687391899999],[130.716591414,33.83735413499999],[130.715973774,33.837261694],[130.715435305,33.83735036],[130.715222555,33.837037198],[130.714604916,33.836967414],[130.714552892,33.83710322499999],[130.714699948,33.837248495],[130.71446101042835,33.837500000000006],[130.71875,33.837500000000006],[130.71875,33.83517693495526],[130.71846917,33.835195829]]]}},{"type":"Feature","id":"40382:503065072","properties":{"id":"40382:503065072","meshCode":"503065072","cityCode":"40382","city":"水巻町","lat":33.8363071,"lon":130.719686,"areaKm2":0.0431649,"populated2020":true,"population2020":null,"populationNote":"境界またぎ・原典収録外のため自治体内人口は未集計"},"geometry":{"type":"Polygon","coordinates":[[[130.72081487978494,33.83749999999999],[130.720617224,33.836370558999995],[130.720626667,33.836243613],[130.720988327,33.836000559],[130.720901946,33.835745],[130.720611115,33.83554],[130.72016083,33.835616387],[130.719814994,33.83551389200001],[130.719253061,33.83519777499999],[130.71875,33.83517693495526],[130.71875,33.837500000000006],[130.72081487978494,33.83749999999999]]]}},{"type":"Feature","id":"40382:503065044","properties":{"id":"40382:503065044","meshCode":"503065044","cityCode":"40382","city":"水巻町","lat":33.8406429,"lon":130.6871843,"areaKm2":0.0135453,"populated2020":true,"population2020":null,"populationNote":"境界またぎ・原典収録外のため自治体内人口は未集計"},"geometry":{"type":"Polygon","coordinates":[[[130.6875,33.839334692007164],[130.687171115,33.840041946],[130.68635919614803,33.84166666666667],[130.6875,33.84166666666667],[130.6875,33.839334692007164]]]}},{"type":"Feature","id":"40382:503065053","properties":{"id":"40382:503065053","meshCode":"503065053","cityCode":"40382","city":"水巻町","lat":33.8395833,"lon":130.690625,"areaKm2":0.2588751,"populated2020":true,"population2020":601.9909,"populationNote":"2020年基準の国交省調整値"},"geometry":{"type":"Polygon","coordinates":[[[130.6883629111664,33.8375],[130.6875,33.839334692007164],[130.6875,33.84166666666667],[130.69375,33.84166666666667],[130.69375,33.8375],[130.6883629111664,33.8375]]]}},{"type":"Feature","id":"40382:503065054","properties":{"id":"40382:503065054","meshCode":"503065054","cityCode":"40382","city":"水巻町","lat":33.8395833,"lon":130.696875,"areaKm2":0.2673084,"populated2020":true,"population2020":1473.3795,"populationNote":"2020年基準の国交省調整値"},"geometry":{"type":"Polygon","coordinates":[[[130.69375,33.8375],[130.69375,33.84166666666667],[130.7,33.84166666666667],[130.7,33.8375],[130.69375,33.8375]]]}},{"type":"Feature","id":"40382:503065063","properties":{"id":"40382:503065063","meshCode":"503065063","cityCode":"40382","city":"水巻町","lat":33.8394083,"lon":130.701049,"areaKm2":0.1101638,"populated2020":true,"population2020":null,"populationNote":"境界またぎ・原典収録外のため自治体内人口は未集計"},"geometry":{"type":"MultiPolygon","coordinates":[[[[130.706207497,33.839287225],[130.706012776,33.839446387],[130.705693891,33.84022916200001],[130.70525083000004,33.840533333],[130.705384721,33.840740559000004],[130.705108612,33.841061108],[130.703954721,33.84162],[130.70334325666752,33.84166666666667],[130.70625,33.84166666666667],[130.706207497,33.839287225]]],[[[130.70170433206377,33.84166666666667],[130.70240170666085,33.83749999999999],[130.7,33.8375],[130.7,33.84166666666667],[130.70170433206377,33.84166666666667]]]]}},{"type":"Feature","id":"40382:503065064","properties":{"id":"40382:503065064","meshCode":"503065064","cityCode":"40382","city":"水巻町","lat":33.8395833,"lon":130.709375,"areaKm2":0.210032,"populated2020":true,"population2020":null,"populationNote":"境界またぎ・原典収録外のため自治体内人口は未集計"},"geometry":{"type":"Polygon","coordinates":[[[130.7125,33.837522494939975],[130.70904828434277,33.8375],[130.709492309,33.837780613],[130.709465279,33.837912225],[130.709133606,33.838213892],[130.709412776,33.838707775],[130.709375279,33.839023892],[130.709227224,33.83922249500001],[130.708503061,33.839517775],[130.708085279,33.839842225000005],[130.707846667,33.839838054],[130.707729442,33.839741667000006],[130.707672218,33.839266108],[130.707575837,33.839035829],[130.707483891,33.839000279000004],[130.707310272,33.83895],[130.706696667,33.83906110800001],[130.70625,33.839259794298364],[130.70625,33.84166666666667],[130.7125,33.84166666666667],[130.7125,33.837522494939975]]]}},{"type":"Feature","id":"40382:503065073","properties":{"id":"40382:503065073","meshCode":"503065073","cityCode":"40382","city":"水巻町","lat":33.8395833,"lon":130.715625,"areaKm2":0.2636586,"populated2020":false,"population2020":null,"populationNote":"境界またぎ・原典収録外のため自治体内人口は未集計"},"geometry":{"type":"Polygon","coordinates":[[[130.71446101042835,33.837500000000006],[130.714132335,33.83779305400001],[130.713602698,33.837512613],[130.71333347600003,33.83787666700001],[130.7125,33.837522494939975],[130.7125,33.84166666666667],[130.71875,33.84166666666667],[130.71875,33.837500000000006],[130.71446101042835,33.837500000000006]]]}},{"type":"Feature","id":"40382:503065074","properties":{"id":"40382:503065074","meshCode":"503065074","cityCode":"40382","city":"水巻町","lat":33.8394464,"lon":130.7193283,"areaKm2":0.0618958,"populated2020":true,"population2020":null,"populationNote":"境界またぎ・原典収録外のため自治体内人口は未集計"},"geometry":{"type":"Polygon","coordinates":[[[130.7194246693391,33.84166666666667],[130.719714994,33.841221108000006],[130.719733891,33.840895278999994],[130.72011749700002,33.84025249500001],[130.720125837,33.840061387],[130.719873606,33.839300279],[130.71985917,33.838579441],[130.720062776,33.83849110800001],[130.72052138800004,33.838968054000006],[130.720701946,33.839113054],[130.720859442,33.839138333],[130.720921388,33.838161108],[130.72081487978494,33.83749999999999],[130.71875,33.837500000000006],[130.71875,33.84166666666667],[130.7194246693391,33.84166666666667]]]}},{"type":"Feature","id":"40382:503065142","properties":{"id":"40382:503065142","meshCode":"503065142","cityCode":"40382","city":"水巻町","lat":33.8436821,"lon":130.6864335,"areaKm2":0.0924285,"populated2020":true,"population2020":null,"populationNote":"境界またぎ・原典収録外のため自治体内人口は未集計"},"geometry":{"type":"Polygon","coordinates":[[[130.686359196,33.84166666699999],[130.68519917,33.843992775000004],[130.68435983713056,33.84583333333333],[130.6875,33.84583333333333],[130.6875,33.84166666666667],[130.686359196,33.84166666699999]]]}},{"type":"Feature","id":"40382:503065151","properties":{"id":"40382:503065151","meshCode":"503065151","cityCode":"40382","city":"水巻町","lat":33.84375,"lon":130.690625,"areaKm2":0.2672958,"populated2020":true,"population2020":1168.1744,"populationNote":"2020年基準の国交省調整値"},"geometry":{"type":"Polygon","coordinates":[[[130.6875,33.84166666666667],[130.6875,33.84583333333333],[130.69375,33.84583333333333],[130.69375,33.84166666666667],[130.6875,33.84166666666667]]]}},{"type":"Feature","id":"40382:503065152","properties":{"id":"40382:503065152","meshCode":"503065152","cityCode":"40382","city":"水巻町","lat":33.84375,"lon":130.696875,"areaKm2":0.2672956,"populated2020":true,"population2020":656.2342,"populationNote":"2020年基準の国交省調整値"},"geometry":{"type":"Polygon","coordinates":[[[130.69375,33.84166666666667],[130.69375,33.84583333333333],[130.7,33.84583333333333],[130.7,33.84166666666667],[130.69375,33.84166666666667]]]}},{"type":"Feature","id":"40382:503065161","properties":{"id":"40382:503065161","meshCode":"503065161","cityCode":"40382","city":"水巻町","lat":33.84375,"lon":130.703125,"areaKm2":0.2629225,"populated2020":true,"population2020":1166.3318,"populationNote":"2020年基準の国交省調整値"},"geometry":{"type":"Polygon","coordinates":[[[130.703343256,33.841666667],[130.702974449,33.841929721],[130.702566109,33.841987225],[130.701654449,33.84192749499999],[130.70170433206377,33.84166666666667],[130.7,33.84166666666667],[130.7,33.84583333333333],[130.70625,33.84583333333333],[130.70625,33.84166666666667],[130.703343256,33.841666667]]]}},{"type":"Feature","id":"40382:503065162","properties":{"id":"40382:503065162","meshCode":"503065162","cityCode":"40382","city":"水巻町","lat":33.84375,"lon":130.709375,"areaKm2":0.2672952,"populated2020":true,"population2020":632.2076,"populationNote":"2020年基準の国交省調整値"},"geometry":{"type":"Polygon","coordinates":[[[130.70625,33.84166666666667],[130.70625,33.84583333333333],[130.7125,33.84583333333333],[130.7125,33.84166666666667],[130.70625,33.84166666666667]]]}},{"type":"Feature","id":"40382:503065171","properties":{"id":"40382:503065171","meshCode":"503065171","cityCode":"40382","city":"水巻町","lat":33.84375,"lon":130.715625,"areaKm2":0.2331412,"populated2020":true,"population2020":323.6725,"populationNote":"2020年基準の国交省調整値"},"geometry":{"type":"Polygon","coordinates":[[[130.714884994,33.845792775],[130.715048885,33.845702225],[130.71526999136944,33.84583333333333],[130.71550621193737,33.84583333333333],[130.715468054,33.84561416199999],[130.715545551,33.845361946],[130.715793606,33.845357775],[130.716302776,33.844960559],[130.71670166,33.84482610800001],[130.716816394,33.844694162],[130.717293061,33.844929162],[130.717942776,33.844665],[130.718663333,33.84448],[130.718672503,33.844246946],[130.71846250300004,33.844152225],[130.71875,33.843618432679044],[130.71875,33.84166666666667],[130.7125,33.84166666666667],[130.7125,33.84583333333333],[130.714884994,33.845792775]]]}},{"type":"Feature","id":"40382:503065172","properties":{"id":"40382:503065172","meshCode":"503065172","cityCode":"40382","city":"水巻町","lat":33.8427119,"lon":130.7189783,"areaKm2":0.0079456,"populated2020":true,"population2020":null,"populationNote":"境界またぎ・原典収録外のため自治体内人口は未集計"},"geometry":{"type":"Polygon","coordinates":[[[130.718759728,33.843599721],[130.719262776,33.842559721],[130.719302503,33.84183666700001],[130.7194246693391,33.84166666666667],[130.71875,33.84166666666667],[130.718759728,33.843599721]]]}},{"type":"Feature","id":"40382:503065144","properties":{"id":"40382:503065144","meshCode":"503065144","cityCode":"40382","city":"水巻町","lat":33.8479167,"lon":130.684375,"areaKm2":0.1692434,"populated2020":true,"population2020":42.8523,"populationNote":"2020年基準の国交省調整値"},"geometry":{"type":"Polygon","coordinates":[[[130.684347782,33.845864162],[130.682741829,33.85],[130.6875,33.849999999999994],[130.6875,33.84583333333333],[130.684347782,33.845864162]]]}},{"type":"Feature","id":"40382:503065153","properties":{"id":"40382:503065153","meshCode":"503065153","cityCode":"40382","city":"水巻町","lat":33.8479167,"lon":130.690625,"areaKm2":0.267283,"populated2020":true,"population2020":584.6842,"populationNote":"2020年基準の国交省調整値"},"geometry":{"type":"Polygon","coordinates":[[[130.6875,33.84583333333333],[130.6875,33.849999999999994],[130.69375,33.85],[130.69375,33.84583333333333],[130.6875,33.84583333333333]]]}},{"type":"Feature","id":"40382:503065154","properties":{"id":"40382:503065154","meshCode":"503065154","cityCode":"40382","city":"水巻町","lat":33.8479167,"lon":130.696875,"areaKm2":0.2672828,"populated2020":true,"population2020":609.6386,"populationNote":"2020年基準の国交省調整値"},"geometry":{"type":"Polygon","coordinates":[[[130.69375,33.84583333333333],[130.69375,33.85],[130.7,33.85],[130.7,33.84583333333333],[130.69375,33.84583333333333]]]}},{"type":"Feature","id":"40382:503065163","properties":{"id":"40382:503065163","meshCode":"503065163","cityCode":"40382","city":"水巻町","lat":33.8479167,"lon":130.703125,"areaKm2":0.2672826,"populated2020":true,"population2020":895.7345,"populationNote":"2020年基準の国交省調整値"},"geometry":{"type":"Polygon","coordinates":[[[130.7,33.84583333333333],[130.7,33.85],[130.70625,33.85],[130.70625,33.84583333333333],[130.7,33.84583333333333]]]}},{"type":"Feature","id":"40382:503065164","properties":{"id":"40382:503065164","meshCode":"503065164","cityCode":"40382","city":"水巻町","lat":33.8479167,"lon":130.709375,"areaKm2":0.2612784,"populated2020":true,"population2020":531.0454,"populationNote":"2020年基準の国交省調整値"},"geometry":{"type":"Polygon","coordinates":[[[130.711268327,33.849985829],[130.711634994,33.849805279],[130.711695551,33.849328333],[130.7125,33.84935404588008],[130.7125,33.84583333333333],[130.70625,33.84583333333333],[130.70625,33.85],[130.711268327,33.849985829]]]}},{"type":"Feature","id":"40382:503065173","properties":{"id":"40382:503065173","meshCode":"503065173","cityCode":"40382","city":"水巻町","lat":33.8476712,"lon":130.713052,"areaKm2":0.0302666,"populated2020":true,"population2020":null,"populationNote":"境界またぎ・原典収録外のため自治体内人口は未集計"},"geometry":{"type":"MultiPolygon","coordinates":[[[[130.712537224,33.849338613],[130.712711388,33.849246387],[130.713118885,33.848796666999995],[130.712610558,33.84820499999999],[130.713768885,33.847583054000005],[130.713114994,33.84670222500001],[130.7147942176757,33.84583333333333],[130.7125,33.84583333333333],[130.712537224,33.849338613]]],[[[130.715432218,33.845986108],[130.71550621193737,33.84583333333333],[130.71526999136944,33.84583333333333],[130.715432218,33.845986108]]]]}},{"type":"Feature","id":"40382:503065241","properties":{"id":"40382:503065241","meshCode":"503065241","cityCode":"40382","city":"水巻町","lat":33.8541033,"lon":130.6812394,"areaKm2":2.75e-05,"populated2020":true,"population2020":null,"populationNote":"境界またぎ・原典収録外のため自治体内人口は未集計"},"geometry":{"type":"Polygon","coordinates":[[[130.681248885,33.854040000000005],[130.68120886591237,33.854166666666664],[130.68125000000003,33.85416666666666],[130.681248885,33.854040000000005]]]}},{"type":"Feature","id":"40382:503065242","properties":{"id":"40382:503065242","meshCode":"503065242","cityCode":"40382","city":"水巻町","lat":33.8520833,"lon":130.684375,"areaKm2":0.2367858,"populated2020":true,"population2020":128.1385,"populationNote":"2020年基準の国交省調整値"},"geometry":{"type":"Polygon","coordinates":[[[130.682741829,33.85],[130.681497497,33.853261387],[130.68125000000003,33.85416666666666],[130.6875,33.854166666666664],[130.6875,33.849999999999994],[130.682741829,33.85]]]}},{"type":"Feature","id":"40382:503065251","properties":{"id":"40382:503065251","meshCode":"503065251","cityCode":"40382","city":"水巻町","lat":33.8520833,"lon":130.690625,"areaKm2":0.2672702,"populated2020":true,"population2020":422.9323,"populationNote":"2020年基準の国交省調整値"},"geometry":{"type":"Polygon","coordinates":[[[130.6875,33.849999999999994],[130.6875,33.854166666666664],[130.69375,33.854166666666664],[130.69375,33.85],[130.6875,33.849999999999994]]]}},{"type":"Feature","id":"40382:503065252","properties":{"id":"40382:503065252","meshCode":"503065252","cityCode":"40382","city":"水巻町","lat":33.8520833,"lon":130.696875,"areaKm2":0.26727,"populated2020":true,"population2020":1241.1448,"populationNote":"2020年基準の国交省調整値"},"geometry":{"type":"Polygon","coordinates":[[[130.69375,33.85],[130.69375,33.854166666666664],[130.7,33.854166666666664],[130.7,33.85],[130.69375,33.85]]]}},{"type":"Feature","id":"40382:503065261","properties":{"id":"40382:503065261","meshCode":"503065261","cityCode":"40382","city":"水巻町","lat":33.8520833,"lon":130.703125,"areaKm2":0.2291904,"populated2020":true,"population2020":null,"populationNote":"境界またぎ・原典収録外のため自治体内人口は未集計"},"geometry":{"type":"Polygon","coordinates":[[[130.70543527900003,33.854135279000005],[130.70541,33.85401527900001],[130.703635837,33.853931387],[130.703625279,33.853847224999996],[130.704245551,33.85227555899999],[130.70479083,33.852346108000006],[130.705981388,33.852724441],[130.70625,33.85269048488967],[130.70625,33.85],[130.7,33.85],[130.7,33.854166666666664],[130.70543527900003,33.854135279000005]]]}},{"type":"Feature","id":"40382:503065262","properties":{"id":"40382:503065262","meshCode":"503065262","cityCode":"40382","city":"水巻町","lat":33.8513129,"lon":130.7074134,"areaKm2":0.0717745,"populated2020":true,"population2020":null,"populationNote":"境界またぎ・原典収録外のため自治体内人口は未集計"},"geometry":{"type":"Polygon","coordinates":[[[130.70625,33.85269048488967],[130.707981115,33.85203916200001],[130.708069442,33.851581108],[130.70828917,33.851414721000005],[130.70920917,33.851063892],[130.709846109,33.85091610800001],[130.710138054,33.85100416200002],[130.710591388,33.850278054],[130.711228249,33.85],[130.70625,33.85],[130.70625,33.85269048488967]]]}},{"type":"Feature","id":"40382:503065243","properties":{"id":"40382:503065243","meshCode":"503065243","cityCode":"40382","city":"水巻町","lat":33.8563628,"lon":130.6808917,"areaKm2":0.0269163,"populated2020":true,"population2020":null,"populationNote":"境界またぎ・原典収録外のため自治体内人口は未集計"},"geometry":{"type":"Polygon","coordinates":[[[130.68125000000003,33.85416666666666],[130.68047,33.856589721000006],[130.68020435799065,33.85833333333334],[130.68125000000003,33.858333333333334],[130.68125000000003,33.85416666666666]]]}},{"type":"Feature","id":"40382:503065244","properties":{"id":"40382:503065244","meshCode":"503065244","cityCode":"40382","city":"水巻町","lat":33.85625,"lon":130.684375,"areaKm2":0.2672576,"populated2020":true,"population2020":186.8828,"populationNote":"2020年基準の国交省調整値"},"geometry":{"type":"Polygon","coordinates":[[[130.68125000000003,33.85416666666666],[130.68125000000003,33.858333333333334],[130.6875,33.858333333333334],[130.6875,33.854166666666664],[130.68125000000003,33.85416666666666]]]}},{"type":"Feature","id":"40382:503065253","properties":{"id":"40382:503065253","meshCode":"503065253","cityCode":"40382","city":"水巻町","lat":33.85625,"lon":130.690625,"areaKm2":0.2672574,"populated2020":true,"population2020":173.3067,"populationNote":"2020年基準の国交省調整値"},"geometry":{"type":"Polygon","coordinates":[[[130.6875,33.854166666666664],[130.6875,33.858333333333334],[130.69375,33.858333333333334],[130.69375,33.854166666666664],[130.6875,33.854166666666664]]]}},{"type":"Feature","id":"40382:503065254","properties":{"id":"40382:503065254","meshCode":"503065254","cityCode":"40382","city":"水巻町","lat":33.85625,"lon":130.696875,"areaKm2":0.2672572,"populated2020":true,"population2020":693.5772,"populationNote":"2020年基準の国交省調整値"},"geometry":{"type":"Polygon","coordinates":[[[130.69375,33.854166666666664],[130.69375,33.858333333333334],[130.7,33.858333333333334],[130.7,33.854166666666664],[130.69375,33.854166666666664]]]}},{"type":"Feature","id":"40382:503065263","properties":{"id":"40382:503065263","meshCode":"503065263","cityCode":"40382","city":"水巻町","lat":33.85625,"lon":130.703125,"areaKm2":0.178774,"populated2020":true,"population2020":null,"populationNote":"境界またぎ・原典収録外のため自治体内人口は未集計"},"geometry":{"type":"Polygon","coordinates":[[[130.700092633,33.858333333],[130.700470272,33.85755],[130.701455551,33.857771108],[130.70169472100002,33.85741444100001],[130.702774449,33.857763891999994],[130.703136939,33.856840559],[130.70415749700004,33.85761249499999],[130.704715551,33.857265829000006],[130.704706109,33.856868333],[130.70484083,33.856506667],[130.70529917,33.856531667],[130.70543449907694,33.85416666666666],[130.7,33.854166666666664],[130.7,33.858333333333334],[130.700092633,33.858333333]]]}},{"type":"Feature","id":"40382:503065341","properties":{"id":"40382:503065341","meshCode":"503065341","cityCode":"40382","city":"水巻町","lat":33.8604704,"lon":130.6806378,"areaKm2":0.0517741,"populated2020":true,"population2020":null,"populationNote":"境界またぎ・原典収録外のため自治体内人口は未集計"},"geometry":{"type":"Polygon","coordinates":[[[130.68020435799065,33.85833333333334],[130.67985422373002,33.86249999999999],[130.68125000000003,33.8625],[130.68125000000003,33.858333333333334],[130.68020435799065,33.85833333333334]]]}},{"type":"Feature","id":"40382:503065342","properties":{"id":"40382:503065342","meshCode":"503065342","cityCode":"40382","city":"水巻町","lat":33.8604167,"lon":130.684375,"areaKm2":0.2672448,"populated2020":true,"population2020":640.989,"populationNote":"2020年基準の国交省調整値"},"geometry":{"type":"Polygon","coordinates":[[[130.68125000000003,33.858333333333334],[130.68125000000003,33.8625],[130.6875,33.86249999999999],[130.6875,33.858333333333334],[130.68125000000003,33.858333333333334]]]}},{"type":"Feature","id":"40382:503065351","properties":{"id":"40382:503065351","meshCode":"503065351","cityCode":"40382","city":"水巻町","lat":33.8604167,"lon":130.690625,"areaKm2":0.2672446,"populated2020":true,"population2020":518.0528,"populationNote":"2020年基準の国交省調整値"},"geometry":{"type":"Polygon","coordinates":[[[130.6875,33.858333333333334],[130.6875,33.86249999999999],[130.69375,33.8625],[130.69375,33.858333333333334],[130.6875,33.858333333333334]]]}},{"type":"Feature","id":"40382:503065352","properties":{"id":"40382:503065352","meshCode":"503065352","cityCode":"40382","city":"水巻町","lat":33.8604167,"lon":130.696875,"areaKm2":0.2456272,"populated2020":true,"population2020":1492.7173,"populationNote":"2020年基準の国交省調整値"},"geometry":{"type":"Polygon","coordinates":[[[130.699078885,33.86230833300001],[130.699053061,33.860980559],[130.699217224,33.86078499999999],[130.7,33.860477468],[130.7,33.859671973],[130.699485279,33.859506108000005],[130.699532503,33.859247225],[130.7,33.85848513500001],[130.7,33.858333333333334],[130.69375,33.858333333333334],[130.69375,33.8625],[130.69889832377643,33.86249999999999],[130.699078885,33.86230833300001]]]}},{"type":"Feature","id":"40382:503065361","properties":{"id":"40382:503065361","meshCode":"503065361","cityCode":"40382","city":"水巻町","lat":33.8600697,"lon":130.7001105,"areaKm2":0.0016855,"populated2020":true,"population2020":null,"populationNote":"境界またぎ・原典収録外のため自治体内人口は未集計"},"geometry":{"type":"MultiPolygon","coordinates":[[[[130.7,33.860477468],[130.70017166,33.860368333],[130.700274721,33.85976666700001],[130.7,33.859671973],[130.7,33.860477468]]],[[[130.70009263279658,33.858333333333334],[130.7,33.858333333333334],[130.7,33.85848513500001],[130.70009263279658,33.858333333333334]]]]}},{"type":"Feature","id":"40382:503065343","properties":{"id":"40382:503065343","meshCode":"503065343","cityCode":"40382","city":"水巻町","lat":33.8643799,"lon":130.6804798,"areaKm2":0.0670547,"populated2020":true,"population2020":null,"populationNote":"境界またぎ・原典収録外のため自治体内人口は未集計"},"geometry":{"type":"Polygon","coordinates":[[[130.67985422373002,33.86249999999999],[130.67948802903607,33.86666666666667],[130.68125000000003,33.86666666666667],[130.68125000000003,33.8625],[130.67985422373002,33.86249999999999]]]}},{"type":"Feature","id":"40382:503065344","properties":{"id":"40382:503065344","meshCode":"503065344","cityCode":"40382","city":"水巻町","lat":33.8645833,"lon":130.684375,"areaKm2":0.267232,"populated2020":true,"population2020":449.2842,"populationNote":"2020年基準の国交省調整値"},"geometry":{"type":"Polygon","coordinates":[[[130.68125000000003,33.8625],[130.68125000000003,33.86666666666667],[130.6875,33.86666666666667],[130.6875,33.86249999999999],[130.68125000000003,33.8625]]]}},{"type":"Feature","id":"40382:503065353","properties":{"id":"40382:503065353","meshCode":"503065353","cityCode":"40382","city":"水巻町","lat":33.8645833,"lon":130.690625,"areaKm2":0.2672318,"populated2020":true,"population2020":489.3182,"populationNote":"2020年基準の国交省調整値"},"geometry":{"type":"Polygon","coordinates":[[[130.6875,33.86249999999999],[130.6875,33.86666666666667],[130.69375,33.86666666666667],[130.69375,33.8625],[130.6875,33.86249999999999]]]}},{"type":"Feature","id":"40382:503065354","properties":{"id":"40382:503065354","meshCode":"503065354","cityCode":"40382","city":"水巻町","lat":33.8646854,"lon":130.6946556,"areaKm2":0.1081667,"populated2020":true,"population2020":null,"populationNote":"境界またぎ・原典収録外のため自治体内人口は未集計"},"geometry":{"type":"Polygon","coordinates":[[[130.695785551,33.866633892],[130.696205837,33.866305279],[130.696011946,33.866097495],[130.695920558,33.865265],[130.695341388,33.864389721],[130.69561166,33.86411305400001],[130.696389728,33.864096108000005],[130.696433333,33.86382582900001],[130.696233606,33.86366166700001],[130.696271388,33.863506107999996],[130.697054449,33.862551387],[130.698061946,33.863201387],[130.698364994,33.863065829],[130.69889832377643,33.86249999999999],[130.69375,33.8625],[130.69375,33.86666666666667],[130.695785551,33.866633892]]]}},{"type":"Feature","id":"40382:503065441","properties":{"id":"40382:503065441","meshCode":"503065441","cityCode":"40382","city":"水巻町","lat":33.8687339,"lon":130.6802676,"areaKm2":0.0844011,"populated2020":true,"population2020":null,"populationNote":"境界またぎ・原典収録外のため自治体内人口は未集計"},"geometry":{"type":"Polygon","coordinates":[[[130.679488029,33.866666667000004],[130.67903449367014,33.87083333333333],[130.68125000000003,33.87083333333334],[130.68125000000003,33.86666666666667],[130.679488029,33.866666667000004]]]}},{"type":"Feature","id":"40382:503065442","properties":{"id":"40382:503065442","meshCode":"503065442","cityCode":"40382","city":"水巻町","lat":33.86875,"lon":130.684375,"areaKm2":0.2672192,"populated2020":true,"population2020":593.2902,"populationNote":"2020年基準の国交省調整値"},"geometry":{"type":"Polygon","coordinates":[[[130.68125000000003,33.86666666666667],[130.68125000000003,33.87083333333334],[130.6875,33.87083333333332],[130.6875,33.86666666666667],[130.68125000000003,33.86666666666667]]]}},{"type":"Feature","id":"40382:503065451","properties":{"id":"40382:503065451","meshCode":"503065451","cityCode":"40382","city":"水巻町","lat":33.86875,"lon":130.690625,"areaKm2":0.2576244,"populated2020":true,"population2020":1961.083,"populationNote":"2020年基準の国交省調整値"},"geometry":{"type":"Polygon","coordinates":[[[130.69375,33.86971507365912],[130.693164163,33.869418054],[130.693126109,33.869141108],[130.693354449,33.868581108],[130.693304721,33.86776638700001],[130.69375,33.86758414347787],[130.69375,33.86666666666667],[130.6875,33.86666666666667],[130.6875,33.87083333333332],[130.69375,33.87083333333333],[130.69375,33.86971507365912]]]}},{"type":"Feature","id":"40382:503065452","properties":{"id":"40382:503065452","meshCode":"503065452","cityCode":"40382","city":"水巻町","lat":33.8671272,"lon":130.6946081,"areaKm2":0.0223869,"populated2020":true,"population2020":null,"populationNote":"境界またぎ・原典収録外のため自治体内人口は未集計"},"geometry":{"type":"MultiPolygon","coordinates":[[[[130.69474766468952,33.87083333333332],[130.69475083,33.87020472100001],[130.69375,33.86971507365912],[130.69375,33.87083333333333],[130.69474766468952,33.87083333333332]]],[[[130.693796394,33.867568613],[130.69540083,33.867167495000004],[130.69556166,33.867062225000005],[130.69576199723954,33.86666666666667],[130.69375,33.86666666666667],[130.693796394,33.867568613]]]]}},{"type":"Feature","id":"40382:503065443","properties":{"id":"40382:503065443","meshCode":"503065443","cityCode":"40382","city":"水巻町","lat":33.8728497,"lon":130.6800162,"areaKm2":0.1059543,"populated2020":false,"population2020":null,"populationNote":"境界またぎ・原典収録外のため自治体内人口は未集計"},"geometry":{"type":"Polygon","coordinates":[[[130.67903449367014,33.87083333333333],[130.678534384,33.875],[130.68125000000003,33.87500000000001],[130.68125000000003,33.87083333333334],[130.67903449367014,33.87083333333333]]]}},{"type":"Feature","id":"40382:503065444","properties":{"id":"40382:503065444","meshCode":"503065444","cityCode":"40382","city":"水巻町","lat":33.8729167,"lon":130.684375,"areaKm2":0.2672064,"populated2020":true,"population2020":786.4938,"populationNote":"2020年基準の国交省調整値"},"geometry":{"type":"Polygon","coordinates":[[[130.68125000000003,33.87083333333334],[130.68125000000003,33.87500000000001],[130.6875,33.875],[130.6875,33.87083333333332],[130.68125000000003,33.87083333333334]]]}},{"type":"Feature","id":"40382:503065453","properties":{"id":"40382:503065453","meshCode":"503065453","cityCode":"40382","city":"水巻町","lat":33.8729167,"lon":130.690625,"areaKm2":0.2640351,"populated2020":true,"population2020":1201.005,"populationNote":"2020年基準の国交省調整値"},"geometry":{"type":"Polygon","coordinates":[[[130.693194695,33.875],[130.693470558,33.874333332999996],[130.69375,33.874172596316846],[130.69375,33.87083333333333],[130.6875,33.87083333333332],[130.6875,33.875],[130.693194695,33.875]]]}},{"type":"Feature","id":"40382:503065454","properties":{"id":"40382:503065454","meshCode":"503065454","cityCode":"40382","city":"水巻町","lat":33.8725318,"lon":130.694701,"areaKm2":0.0537033,"populated2020":true,"population2020":null,"populationNote":"境界またぎ・原典収録外のため自治体内人口は未集計"},"geometry":{"type":"Polygon","coordinates":[[[130.693782218,33.874152495],[130.695013606,33.873972225],[130.695489728,33.87420389199999],[130.695674994,33.874170279000005],[130.695843606,33.874073333],[130.695750272,33.873647775],[130.695870272,33.87333194599999],[130.69622083,33.872839162],[130.694933606,33.872078892],[130.69469917,33.87158610800001],[130.69474766468952,33.87083333333332],[130.69375,33.87083333333333],[130.693782218,33.874152495]]]}},{"type":"Feature","id":"40382:503065541","properties":{"id":"40382:503065541","meshCode":"503065541","cityCode":"40382","city":"水巻町","lat":33.8771031,"lon":130.6797635,"areaKm2":0.1270049,"populated2020":true,"population2020":null,"populationNote":"境界またぎ・原典収録外のため自治体内人口は未集計"},"geometry":{"type":"Polygon","coordinates":[[[130.678534384,33.875],[130.6780231493481,33.87916666666667],[130.68125000000003,33.87916666666668],[130.68125000000003,33.87500000000001],[130.678534384,33.875]]]}},{"type":"Feature","id":"40382:503065542","properties":{"id":"40382:503065542","meshCode":"503065542","cityCode":"40382","city":"水巻町","lat":33.8770833,"lon":130.684375,"areaKm2":0.2671936,"populated2020":true,"population2020":920.0527,"populationNote":"2020年基準の国交省調整値"},"geometry":{"type":"Polygon","coordinates":[[[130.68125000000003,33.87500000000001],[130.68125000000003,33.87916666666668],[130.6875,33.87916666666667],[130.6875,33.875],[130.68125000000003,33.87500000000001]]]}},{"type":"Feature","id":"40382:503065551","properties":{"id":"40382:503065551","meshCode":"503065551","cityCode":"40382","city":"水巻町","lat":33.8770833,"lon":130.690625,"areaKm2":0.1850063,"populated2020":true,"population2020":882.2124,"populationNote":"2020年基準の国交省調整値"},"geometry":{"type":"Polygon","coordinates":[[[130.6875,33.87916666666667],[130.687583333,33.878656666999994],[130.687764163,33.878235278999995],[130.688644163,33.878411666999995],[130.690237224,33.878584162],[130.691676394,33.878426387],[130.692447497,33.878236667],[130.692722503,33.87781333300001],[130.692555279,33.87689944099999],[130.692680272,33.87615194599999],[130.693194695,33.875],[130.6875,33.875],[130.6875,33.87916666666667]]]}},{"type":"Feature","id":"40382:503065543","properties":{"id":"40382:503065543","meshCode":"503065543","cityCode":"40382","city":"水巻町","lat":33.88125,"lon":130.678125,"areaKm2":0.1488353,"populated2020":true,"population2020":65.2312,"populationNote":"2020年基準の国交省調整値"},"geometry":{"type":"Polygon","coordinates":[[[130.6780231493481,33.87916666666667],[130.67750555095338,33.88333333333333],[130.68125000000003,33.88333333333333],[130.68125000000003,33.87916666666668],[130.6780231493481,33.87916666666667]]]}},{"type":"Feature","id":"40382:503065544","properties":{"id":"40382:503065544","meshCode":"503065544","cityCode":"40382","city":"水巻町","lat":33.88125,"lon":130.684375,"areaKm2":0.2382149,"populated2020":true,"population2020":1039.0842,"populationNote":"2020年基準の国交省調整値"},"geometry":{"type":"Polygon","coordinates":[[[130.685173839,33.88333333300001],[130.685706394,33.882621108],[130.687066939,33.88151944100001],[130.6875,33.88105430345856],[130.6875,33.87916666666667],[130.68125000000003,33.87916666666668],[130.68125000000003,33.88333333333333],[130.685173839,33.88333333300001]]]}},{"type":"Feature","id":"40382:503065553","properties":{"id":"40382:503065553","meshCode":"503065553","cityCode":"40382","city":"水巻町","lat":33.8801079,"lon":130.6876292,"areaKm2":0.0035414,"populated2020":true,"population2020":null,"populationNote":"境界またぎ・原典収録外のため自治体内人口は未集計"},"geometry":{"type":"Polygon","coordinates":[[[130.6875,33.88105430345856],[130.687703606,33.880712775],[130.687767782,33.880179721000005],[130.6875,33.87916666666667],[130.6875,33.88105430345856]]]}},{"type":"Feature","id":"40382:503065641","properties":{"id":"40382:503065641","meshCode":"503065641","cityCode":"40382","city":"水巻町","lat":33.8854167,"lon":130.678125,"areaKm2":0.1716774,"populated2020":false,"population2020":null,"populationNote":"境界またぎ・原典収録外のため自治体内人口は未集計"},"geometry":{"type":"Polygon","coordinates":[[[130.67750555095338,33.88333333333333],[130.67696105049535,33.88750000000001],[130.68125000000003,33.8875],[130.68125000000003,33.88333333333333],[130.67750555095338,33.88333333333333]]]}},{"type":"Feature","id":"40382:503065642","properties":{"id":"40382:503065642","meshCode":"503065642","cityCode":"40382","city":"水巻町","lat":33.8854176,"lon":130.6825559,"areaKm2":0.1154331,"populated2020":true,"population2020":null,"populationNote":"境界またぎ・原典収録外のため自治体内人口は未集計"},"geometry":{"type":"Polygon","coordinates":[[[130.68273810466866,33.8875],[130.684001388,33.885599441],[130.683829728,33.885390829],[130.68517383874794,33.88333333333333],[130.68125000000003,33.88333333333333],[130.68125000000003,33.8875],[130.68273810466866,33.8875]]]}},{"type":"Feature","id":"40382:503065643","properties":{"id":"40382:503065643","meshCode":"503065643","cityCode":"40382","city":"水巻町","lat":33.8895833,"lon":130.678125,"areaKm2":0.1354095,"populated2020":true,"population2020":14.6583,"populationNote":"2020年基準の国交省調整値"},"geometry":{"type":"Polygon","coordinates":[[[130.67696105049535,33.88750000000001],[130.676571388,33.89049861299999],[130.680062776,33.890680829],[130.68125000000003,33.88929693788675],[130.68125000000003,33.8875],[130.67696105049535,33.88750000000001]]]}},{"type":"Feature","id":"40382:503065644","properties":{"id":"40382:503065644","meshCode":"503065644","cityCode":"40382","city":"水巻町","lat":33.8883396,"lon":130.6816699,"areaKm2":0.0142649,"populated2020":true,"population2020":null,"populationNote":"境界またぎ・原典収録外のため自治体内人口は未集計"},"geometry":{"type":"Polygon","coordinates":[[[130.68125000000003,33.88929693788675],[130.68234333300003,33.88807],[130.68273810466866,33.8875],[130.68125000000003,33.8875],[130.68125000000003,33.88929693788675]]]}}]}