{"type":"FeatureCollection","metadata":{"cityCode":"40381","city":"芦屋町","resolution":500,"boundaryDate":"2026-01-01","populationLabel":"2020年基準人口（国交省調整値）","method":"標準地域メッシュを行政界で切抜き。中心が区域外のとき区域内代表点を判定点にする。人口不明をゼロにしない。"},"features":[{"type":"Feature","id":"40381:503065411","properties":{"id":"40381:503065411","meshCode":"503065411","cityCode":"40381","city":"芦屋町","lat":33.8691207,"lon":130.6435272,"areaKm2":0.0071303,"populated2020":true,"population2020":null,"populationNote":"境界またぎ・原典収録外のため自治体内人口は未集計"},"geometry":{"type":"Polygon","coordinates":[[[130.64374,33.868415829],[130.643328612,33.868020279],[130.64324166,33.86865722499999],[130.643312218,33.869173333],[130.64375,33.87015523743531],[130.64374,33.868415829]]]}},{"type":"Feature","id":"40381:503065412","properties":{"id":"40381:503065412","meshCode":"503065412","cityCode":"40381","city":"芦屋町","lat":33.8695838,"lon":130.6449314,"areaKm2":0.060564,"populated2020":true,"population2020":null,"populationNote":"境界またぎ・原典収録外のため自治体内人口は未集計"},"geometry":{"type":"Polygon","coordinates":[[[130.64884789208372,33.87083333333333],[130.64595888500003,33.869516946],[130.64375,33.86842124313782],[130.64375,33.87015523743531],[130.64389198704805,33.87083333333334],[130.64884789208372,33.87083333333333]]]}},{"type":"Feature","id":"40381:503065421","properties":{"id":"40381:503065421","meshCode":"503065421","cityCode":"40381","city":"芦屋町","lat":33.870711,"lon":130.6559812,"areaKm2":0.0013896,"populated2020":true,"population2020":null,"populationNote":"境界またぎ・原典収録外のため自治体内人口は未集計"},"geometry":{"type":"Polygon","coordinates":[[[130.65625,33.870634134174466],[130.65534166,33.870761107999996],[130.65496250517765,33.87083333333332],[130.65625,33.87083333333333],[130.65625,33.870634134174466]]]}},{"type":"Feature","id":"40381:503065422","properties":{"id":"40381:503065422","meshCode":"503065422","cityCode":"40381","city":"芦屋町","lat":33.8705042,"lon":130.6575732,"areaKm2":0.0091052,"populated2020":true,"population2020":null,"populationNote":"境界またぎ・原典収録外のため自治体内人口は未集計"},"geometry":{"type":"Polygon","coordinates":[[[130.65816595060335,33.87083333333332],[130.658130558,33.870235],[130.657658885,33.870155],[130.657245279,33.870291387],[130.656930558,33.870536108],[130.65625,33.870634134174466],[130.65625,33.87083333333333],[130.65816595060335,33.87083333333332]]]}},{"type":"Feature","id":"40381:503065413","properties":{"id":"40381:503065413","meshCode":"503065413","cityCode":"40381","city":"芦屋町","lat":33.8733272,"lon":130.643581,"areaKm2":0.0063904,"populated2020":true,"population2020":null,"populationNote":"境界またぎ・原典収録外のため自治体内人口は未集計"},"geometry":{"type":"Polygon","coordinates":[[[130.643743333,33.87173861299999],[130.64353083,33.872446108],[130.643411115,33.873428054],[130.64375,33.87479231641772],[130.643743333,33.87173861299999]]]}},{"type":"Feature","id":"40381:503065414","properties":{"id":"40381:503065414","meshCode":"503065414","cityCode":"40381","city":"芦屋町","lat":33.8729167,"lon":130.646875,"areaKm2":0.2639231,"populated2020":true,"population2020":101.0714,"populationNote":"2020年基準の国交省調整値"},"geometry":{"type":"Polygon","coordinates":[[[130.65,33.87114677500001],[130.649584994,33.871015559],[130.649452218,33.871089441],[130.64884789208372,33.87083333333333],[130.64389198704805,33.87083333333334],[130.643924449,33.87109972100001],[130.64375,33.871715112882455],[130.64375,33.87479231641772],[130.643809442,33.87495138700001],[130.65,33.875],[130.65,33.87114677500001]]]}},{"type":"Feature","id":"40381:503065423","properties":{"id":"40381:503065423","meshCode":"503065423","cityCode":"40381","city":"芦屋町","lat":33.8729167,"lon":130.653125,"areaKm2":0.2461173,"populated2020":true,"population2020":456.4834,"populationNote":"2020年基準の国交省調整値"},"geometry":{"type":"Polygon","coordinates":[[[130.654793333,33.870865559],[130.653734721,33.87105166700001],[130.652122218,33.871728892],[130.651633333,33.871864162],[130.651646667,33.871180279],[130.651545551,33.871048333],[130.650584721,33.871161946],[130.650548327,33.871254162],[130.65026083,33.871170279],[130.650199442,33.871222225],[130.65035805400004,33.871367775],[130.650242503,33.871478333],[130.650141115,33.871431107999996],[130.65,33.87114677500001],[130.65,33.875],[130.65625,33.875],[130.65625,33.87083333333333],[130.654793333,33.870865559]]]}},{"type":"Feature","id":"40381:503065424","properties":{"id":"40381:503065424","meshCode":"503065424","cityCode":"40381","city":"芦屋町","lat":33.8729167,"lon":130.659375,"areaKm2":0.2234306,"populated2020":true,"population2020":249.7311,"populationNote":"2020年基準の国交省調整値"},"geometry":{"type":"Polygon","coordinates":[[[130.6625,33.87213580825527],[130.662301946,33.871864441],[130.662002218,33.871836667],[130.661924994,33.87169861299999],[130.66078,33.87162361299999],[130.660394721,33.872211946],[130.66021083,33.87234694600001],[130.65976555100002,33.872303892],[130.659526394,33.872176946],[130.659503891,33.871810559],[130.659109728,33.87175944100001],[130.658919442,33.87143833300001],[130.658676109,33.871430000000004],[130.658373333,33.871560829],[130.658193061,33.87152610799999],[130.65816595060335,33.87083333333332],[130.65625,33.87083333333333],[130.65625,33.875],[130.6625,33.875],[130.6625,33.87213580825527]]]}},{"type":"Feature","id":"40381:503065433","properties":{"id":"40381:503065433","meshCode":"503065433","cityCode":"40381","city":"芦屋町","lat":33.8729167,"lon":130.665625,"areaKm2":0.1079997,"populated2020":true,"population2020":null,"populationNote":"境界またぎ・原典収録外のため自治体内人口は未集計"},"geometry":{"type":"Polygon","coordinates":[[[130.667873061,33.874971386999995],[130.667751115,33.874772775000004],[130.66685917,33.874559162],[130.666526109,33.874373892],[130.666431946,33.874144441000006],[130.666499442,33.87288194600001],[130.664443891,33.872336108],[130.664045279,33.872521108],[130.663591946,33.872499162],[130.663302218,33.872396945999995],[130.663054994,33.87213582900001],[130.662618612,33.872269721],[130.6625,33.87213580825527],[130.6625,33.875],[130.667873061,33.874971386999995]]]}},{"type":"Feature","id":"40381:503065511","properties":{"id":"40381:503065511","meshCode":"503065511","cityCode":"40381","city":"芦屋町","lat":33.8787568,"lon":130.6436838,"areaKm2":0.0012069,"populated2020":false,"population2020":null,"populationNote":"境界またぎ・原典収録外のため自治体内人口は未集計"},"geometry":{"type":"Polygon","coordinates":[[[130.64375,33.87816484822875],[130.64367917,33.878581387],[130.6434485246826,33.87916666666667],[130.64375,33.87916666666668],[130.64375,33.87816484822875]]]}},{"type":"Feature","id":"40381:503065512","properties":{"id":"40381:503065512","meshCode":"503065512","cityCode":"40381","city":"芦屋町","lat":33.8770833,"lon":130.646875,"areaKm2":0.2368811,"populated2020":false,"population2020":null,"populationNote":"境界またぎ・原典収録外のため自治体内人口は未集計"},"geometry":{"type":"Polygon","coordinates":[[[130.644453281,33.875],[130.645252776,33.87508444099999],[130.645211388,33.876631667000005],[130.644982218,33.87676999999999],[130.644293606,33.876924441],[130.644081946,33.877071667],[130.643756667,33.878057225],[130.64375,33.87916666666668],[130.65,33.87916666666667],[130.65,33.875],[130.644453281,33.875]]]}},{"type":"Feature","id":"40381:503065521","properties":{"id":"40381:503065521","meshCode":"503065521","cityCode":"40381","city":"芦屋町","lat":33.8770833,"lon":130.653125,"areaKm2":0.2671948,"populated2020":true,"population2020":50.2287,"populationNote":"2020年基準の国交省調整値"},"geometry":{"type":"Polygon","coordinates":[[[130.65,33.875],[130.65,33.87916666666667],[130.65625,33.87916666666667],[130.65625,33.875],[130.65,33.875]]]}},{"type":"Feature","id":"40381:503065522","properties":{"id":"40381:503065522","meshCode":"503065522","cityCode":"40381","city":"芦屋町","lat":33.8770833,"lon":130.659375,"areaKm2":0.2671946,"populated2020":true,"population2020":59.7958,"populationNote":"2020年基準の国交省調整値"},"geometry":{"type":"Polygon","coordinates":[[[130.65625,33.875],[130.65625,33.87916666666667],[130.6625,33.87916666666667],[130.6625,33.875],[130.65625,33.875]]]}},{"type":"Feature","id":"40381:503065531","properties":{"id":"40381:503065531","meshCode":"503065531","cityCode":"40381","city":"芦屋町","lat":33.8770833,"lon":130.665625,"areaKm2":0.2632558,"populated2020":true,"population2020":44.0877,"populationNote":"2020年基準の国交省調整値"},"geometry":{"type":"Polygon","coordinates":[[[130.66875,33.875648787142325],[130.66791444900002,33.87524694599999],[130.667837782,33.875152775],[130.66786489,33.875],[130.6625,33.875],[130.6625,33.87916666666667],[130.66875,33.87916666666667],[130.66875,33.875648787142325]]]}},{"type":"Feature","id":"40381:503065532","properties":{"id":"40381:503065532","meshCode":"503065532","cityCode":"40381","city":"芦屋町","lat":33.8774822,"lon":130.669514,"areaKm2":0.0444931,"populated2020":true,"population2020":null,"populationNote":"境界またぎ・原典収録外のため自治体内人口は未集計"},"geometry":{"type":"Polygon","coordinates":[[[130.67057992874072,33.87916666666667],[130.670527782,33.87830610799999],[130.670113606,33.876829162],[130.669750272,33.876863054000005],[130.669368612,33.87674444099999],[130.669235279,33.876544721],[130.669104721,33.875977495],[130.66875,33.875648787142325],[130.66875,33.87916666666667],[130.67057992874072,33.87916666666667]]]}},{"type":"Feature","id":"40381:503065504","properties":{"id":"40381:503065504","meshCode":"503065504","cityCode":"40381","city":"芦屋町","lat":33.8831015,"lon":130.6372292,"areaKm2":0.0023014,"populated2020":false,"population2020":null,"populationNote":"境界またぎ・原典収録外のため自治体内人口は未集計"},"geometry":{"type":"Polygon","coordinates":[[[130.637492503,33.882889721],[130.636865837,33.883127775],[130.63664693867565,33.883333333333326],[130.63750000000002,33.88333333333333],[130.637492503,33.882889721]]]}},{"type":"Feature","id":"40381:503065513","properties":{"id":"40381:503065513","meshCode":"503065513","cityCode":"40381","city":"芦屋町","lat":33.8812124,"lon":130.6432052,"areaKm2":0.1080007,"populated2020":false,"population2020":null,"populationNote":"境界またぎ・原典収録外のため自治体内人口は未集計"},"geometry":{"type":"Polygon","coordinates":[[[130.640739728,33.88173694599999],[130.63750000000002,33.88288713276439],[130.63750000000002,33.88333333333333],[130.64375,33.883333333333326],[130.64375,33.87916666666668],[130.6434485246826,33.87916666666667],[130.642738885,33.881131667],[130.642581946,33.881293054],[130.640739728,33.88173694599999]]]}},{"type":"Feature","id":"40381:503065514","properties":{"id":"40381:503065514","meshCode":"503065514","cityCode":"40381","city":"芦屋町","lat":33.88125,"lon":130.646875,"areaKm2":0.2671822,"populated2020":false,"population2020":null,"populationNote":"境界またぎ・原典収録外のため自治体内人口は未集計"},"geometry":{"type":"Polygon","coordinates":[[[130.64375,33.87916666666668],[130.64375,33.883333333333326],[130.65,33.88333333333333],[130.65,33.87916666666667],[130.64375,33.87916666666668]]]}},{"type":"Feature","id":"40381:503065523","properties":{"id":"40381:503065523","meshCode":"503065523","cityCode":"40381","city":"芦屋町","lat":33.88125,"lon":130.653125,"areaKm2":0.267182,"populated2020":false,"population2020":null,"populationNote":"境界またぎ・原典収録外のため自治体内人口は未集計"},"geometry":{"type":"Polygon","coordinates":[[[130.65,33.87916666666667],[130.65,33.88333333333333],[130.65625,33.88333333333333],[130.65625,33.87916666666667],[130.65,33.87916666666667]]]}},{"type":"Feature","id":"40381:503065524","properties":{"id":"40381:503065524","meshCode":"503065524","cityCode":"40381","city":"芦屋町","lat":33.88125,"lon":130.659375,"areaKm2":0.2671817,"populated2020":false,"population2020":null,"populationNote":"境界またぎ・原典収録外のため自治体内人口は未集計"},"geometry":{"type":"Polygon","coordinates":[[[130.65625,33.87916666666667],[130.65625,33.88333333333333],[130.6625,33.88333333333333],[130.6625,33.87916666666667],[130.65625,33.87916666666667]]]}},{"type":"Feature","id":"40381:503065533","properties":{"id":"40381:503065533","meshCode":"503065533","cityCode":"40381","city":"芦屋町","lat":33.88125,"lon":130.665625,"areaKm2":0.2671815,"populated2020":true,"population2020":697.1956,"populationNote":"2020年基準の国交省調整値"},"geometry":{"type":"Polygon","coordinates":[[[130.6625,33.87916666666667],[130.6625,33.88333333333333],[130.66875,33.88333333333334],[130.66875,33.87916666666667],[130.6625,33.87916666666667]]]}},{"type":"Feature","id":"40381:503065534","properties":{"id":"40381:503065534","meshCode":"503065534","cityCode":"40381","city":"芦屋町","lat":33.8812475,"lon":130.6700035,"areaKm2":0.1236751,"populated2020":true,"population2020":null,"populationNote":"境界またぎ・原典収録外のため自治体内人口は未集計"},"geometry":{"type":"Polygon","coordinates":[[[130.673543281,33.88333333300001],[130.673128327,33.882590829],[130.67213083,33.882035829],[130.67164917,33.88168166700001],[130.670984994,33.88087082900001],[130.670601388,33.880093333],[130.67057992874072,33.87916666666667],[130.66875,33.87916666666667],[130.66875,33.88333333333334],[130.673543281,33.88333333300001]]]}},{"type":"Feature","id":"40381:503065602","properties":{"id":"40381:503065602","meshCode":"503065602","cityCode":"40381","city":"芦屋町","lat":33.884536,"lon":130.6367612,"areaKm2":0.0357463,"populated2020":false,"population2020":null,"populationNote":"境界またぎ・原典収録外のため自治体内人口は未集計"},"geometry":{"type":"Polygon","coordinates":[[[130.63664693867565,33.883333333333326],[130.635642568,33.885425874000006],[130.63750000000002,33.8860351456443],[130.63750000000002,33.88333333333333],[130.63664693867565,33.883333333333326]]]}},{"type":"Feature","id":"40381:503065611","properties":{"id":"40381:503065611","meshCode":"503065611","cityCode":"40381","city":"芦屋町","lat":33.8854167,"lon":130.640625,"areaKm2":0.2371113,"populated2020":false,"population2020":null,"populationNote":"境界またぎ・原典収録外のため自治体内人口は未集計"},"geometry":{"type":"Polygon","coordinates":[[[130.637542387,33.886050586],[130.638027056,33.886286891999994],[130.639910947,33.886863586000004],[130.64080345,33.88729474800001],[130.64141467450403,33.88750000000001],[130.64375,33.8875],[130.64375,33.883333333333326],[130.63750000000002,33.88333333333333],[130.637542387,33.886050586]]]}},{"type":"Feature","id":"40381:503065612","properties":{"id":"40381:503065612","meshCode":"503065612","cityCode":"40381","city":"芦屋町","lat":33.8854167,"lon":130.646875,"areaKm2":0.2671694,"populated2020":false,"population2020":null,"populationNote":"境界またぎ・原典収録外のため自治体内人口は未集計"},"geometry":{"type":"Polygon","coordinates":[[[130.64375,33.883333333333326],[130.64375,33.8875],[130.65,33.88750000000001],[130.65,33.88333333333333],[130.64375,33.883333333333326]]]}},{"type":"Feature","id":"40381:503065621","properties":{"id":"40381:503065621","meshCode":"503065621","cityCode":"40381","city":"芦屋町","lat":33.8854167,"lon":130.653125,"areaKm2":0.2671692,"populated2020":false,"population2020":null,"populationNote":"境界またぎ・原典収録外のため自治体内人口は未集計"},"geometry":{"type":"Polygon","coordinates":[[[130.65,33.88333333333333],[130.65,33.88750000000001],[130.65625,33.8875],[130.65625,33.88333333333333],[130.65,33.88333333333333]]]}},{"type":"Feature","id":"40381:503065622","properties":{"id":"40381:503065622","meshCode":"503065622","cityCode":"40381","city":"芦屋町","lat":33.8854167,"lon":130.659375,"areaKm2":0.2671689,"populated2020":true,"population2020":171.2369,"populationNote":"2020年基準の国交省調整値"},"geometry":{"type":"Polygon","coordinates":[[[130.65625,33.88333333333333],[130.65625,33.8875],[130.6625,33.8875],[130.6625,33.88333333333333],[130.65625,33.88333333333333]]]}},{"type":"Feature","id":"40381:503065631","properties":{"id":"40381:503065631","meshCode":"503065631","cityCode":"40381","city":"芦屋町","lat":33.8854167,"lon":130.665625,"areaKm2":0.2671687,"populated2020":true,"population2020":928.6458,"populationNote":"2020年基準の国交省調整値"},"geometry":{"type":"Polygon","coordinates":[[[130.6625,33.88333333333333],[130.6625,33.8875],[130.66875,33.8875],[130.66875,33.88333333333334],[130.6625,33.88333333333333]]]}},{"type":"Feature","id":"40381:503065632","properties":{"id":"40381:503065632","meshCode":"503065632","cityCode":"40381","city":"芦屋町","lat":33.8854167,"lon":130.671875,"areaKm2":0.2436136,"populated2020":true,"population2020":547.1488,"populationNote":"2020年基準の国交省調整値"},"geometry":{"type":"Polygon","coordinates":[[[130.67470261269563,33.88750000000001],[130.675,33.88539466700001],[130.67499,33.884987775],[130.673757497,33.884803613],[130.673807782,33.884224162],[130.67354328116897,33.88333333333333],[130.66875,33.88333333333334],[130.66875,33.8875],[130.67470261269563,33.88750000000001]]]}},{"type":"Feature","id":"40381:503065641","properties":{"id":"40381:503065641","meshCode":"503065641","cityCode":"40381","city":"芦屋町","lat":33.8852213,"lon":130.6750104,"areaKm2":6.28e-05,"populated2020":false,"population2020":null,"populationNote":"境界またぎ・原典収録外のため自治体内人口は未集計"},"geometry":{"type":"Polygon","coordinates":[[[130.675,33.88539466700001],[130.675028885,33.885118892],[130.675,33.885021495],[130.675,33.88539466700001]]]}},{"type":"Feature","id":"40381:503065613","properties":{"id":"40381:503065613","meshCode":"503065613","cityCode":"40381","city":"芦屋町","lat":33.8879525,"lon":130.6430337,"areaKm2":0.0129896,"populated2020":false,"population2020":null,"populationNote":"境界またぎ・原典収録外のため自治体内人口は未集計"},"geometry":{"type":"Polygon","coordinates":[[[130.64141467450403,33.88750000000001],[130.642827562,33.88822127899999],[130.64375,33.88844183631817],[130.64375,33.8875],[130.64141467450403,33.88750000000001]]]}},{"type":"Feature","id":"40381:503065614","properties":{"id":"40381:503065614","meshCode":"503065614","cityCode":"40381","city":"芦屋町","lat":33.8895833,"lon":130.646875,"areaKm2":0.1593075,"populated2020":false,"population2020":null,"populationNote":"境界またぎ・原典収録外のため自治体内人口は未集計"},"geometry":{"type":"Polygon","coordinates":[[[130.64375,33.88844183631817],[130.645686641,33.889434198],[130.646141505,33.889575559],[130.648677198,33.890814999999996],[130.649477328,33.891426027],[130.65,33.891666666666666],[130.65,33.88750000000001],[130.64375,33.8875],[130.64375,33.88844183631817]]]}},{"type":"Feature","id":"40381:503065623","properties":{"id":"40381:503065623","meshCode":"503065623","cityCode":"40381","city":"芦屋町","lat":33.8895833,"lon":130.653125,"areaKm2":0.2671564,"populated2020":false,"population2020":null,"populationNote":"境界またぎ・原典収録外のため自治体内人口は未集計"},"geometry":{"type":"Polygon","coordinates":[[[130.65,33.88750000000001],[130.65,33.891666666666666],[130.65625,33.891666666666666],[130.65625,33.8875],[130.65,33.88750000000001]]]}},{"type":"Feature","id":"40381:503065624","properties":{"id":"40381:503065624","meshCode":"503065624","cityCode":"40381","city":"芦屋町","lat":33.8895833,"lon":130.659375,"areaKm2":0.2671561,"populated2020":true,"population2020":250.9356,"populationNote":"2020年基準の国交省調整値"},"geometry":{"type":"Polygon","coordinates":[[[130.65625,33.8875],[130.65625,33.891666666666666],[130.6625,33.89166666666667],[130.6625,33.8875],[130.65625,33.8875]]]}},{"type":"Feature","id":"40381:503065633","properties":{"id":"40381:503065633","meshCode":"503065633","cityCode":"40381","city":"芦屋町","lat":33.8895833,"lon":130.665625,"areaKm2":0.2671559,"populated2020":true,"population2020":1331.6385,"populationNote":"2020年基準の国交省調整値"},"geometry":{"type":"Polygon","coordinates":[[[130.6625,33.8875],[130.6625,33.89166666666667],[130.66875,33.891666666666666],[130.66875,33.8875],[130.6625,33.8875]]]}},{"type":"Feature","id":"40381:503065634","properties":{"id":"40381:503065634","meshCode":"503065634","cityCode":"40381","city":"芦屋町","lat":33.8895833,"lon":130.671875,"areaKm2":0.2628602,"populated2020":true,"population2020":781.158,"populationNote":"2020年基準の国交省調整値"},"geometry":{"type":"Polygon","coordinates":[[[130.675,33.888875306],[130.674654449,33.888485829],[130.674619728,33.888290279],[130.67470261269563,33.88750000000001],[130.66875,33.8875],[130.66875,33.891666666666666],[130.675,33.89166666666667],[130.675,33.888875306]]]}},{"type":"Feature","id":"40381:503065643","properties":{"id":"40381:503065643","meshCode":"503065643","cityCode":"40381","city":"芦屋町","lat":33.8901722,"lon":130.6756316,"areaKm2":0.0904799,"populated2020":true,"population2020":null,"populationNote":"境界またぎ・原典収録外のため自治体内人口は未集計"},"geometry":{"type":"Polygon","coordinates":[[[130.68125000000003,33.88929693788675],[130.680062776,33.890680829],[130.676645279,33.890523054000006],[130.675,33.888875306],[130.675,33.89166666666667],[130.68125000000003,33.89166666666667],[130.68125000000003,33.88929693788675]]]}},{"type":"Feature","id":"40381:503065644","properties":{"id":"40381:503065644","meshCode":"503065644","cityCode":"40381","city":"芦屋町","lat":33.8902554,"lon":130.6822075,"areaKm2":0.0525313,"populated2020":true,"population2020":null,"populationNote":"境界またぎ・原典収録外のため自治体内人口は未集計"},"geometry":{"type":"Polygon","coordinates":[[[130.6841114787931,33.891666666666666],[130.682767224,33.889671108],[130.681669442,33.888811667],[130.68125000000003,33.88929693788675],[130.68125000000003,33.89166666666667],[130.6841114787931,33.891666666666666]]]}},{"type":"Feature","id":"40381:503065712","properties":{"id":"40381:503065712","meshCode":"503065712","cityCode":"40381","city":"芦屋町","lat":33.8916918,"lon":130.6499798,"areaKm2":2.08e-05,"populated2020":false,"population2020":null,"populationNote":"境界またぎ・原典収録外のため自治体内人口は未集計"},"geometry":{"type":"Polygon","coordinates":[[[130.649919079,33.891666667],[130.65,33.891716865],[130.65,33.891666666666666],[130.649919079,33.891666667]]]}},{"type":"Feature","id":"40381:503065721","properties":{"id":"40381:503065721","meshCode":"503065721","cityCode":"40381","city":"芦屋町","lat":33.89375,"lon":130.653125,"areaKm2":0.1591256,"populated2020":false,"population2020":null,"populationNote":"境界またぎ・原典収録外のため自治体内人口は未集計"},"geometry":{"type":"Polygon","coordinates":[[[130.65,33.891666666666666],[130.650538716,33.892022847],[130.65109035,33.89210227900001],[130.651470428,33.892274748],[130.651773567,33.892572423],[130.651904514,33.89296852300001],[130.65262710800002,33.893437514000006],[130.653086537,33.89404227000001],[130.653396005,33.894678342],[130.65366077981687,33.89583333333333],[130.65625,33.895833333333336],[130.65625,33.891666666666666],[130.65,33.891666666666666]]]}},{"type":"Feature","id":"40381:503065722","properties":{"id":"40381:503065722","meshCode":"503065722","cityCode":"40381","city":"芦屋町","lat":33.89375,"lon":130.659375,"areaKm2":0.2671433,"populated2020":true,"population2020":709.2264,"populationNote":"2020年基準の国交省調整値"},"geometry":{"type":"Polygon","coordinates":[[[130.65625,33.891666666666666],[130.65625,33.895833333333336],[130.6625,33.895833333333336],[130.6625,33.89166666666667],[130.65625,33.891666666666666]]]}},{"type":"Feature","id":"40381:503065731","properties":{"id":"40381:503065731","meshCode":"503065731","cityCode":"40381","city":"芦屋町","lat":33.89375,"lon":130.665625,"areaKm2":0.2671431,"populated2020":true,"population2020":577.9606,"populationNote":"2020年基準の国交省調整値"},"geometry":{"type":"Polygon","coordinates":[[[130.6625,33.89166666666667],[130.6625,33.895833333333336],[130.66875,33.895833333333336],[130.66875,33.891666666666666],[130.6625,33.89166666666667]]]}},{"type":"Feature","id":"40381:503065732","properties":{"id":"40381:503065732","meshCode":"503065732","cityCode":"40381","city":"芦屋町","lat":33.89375,"lon":130.671875,"areaKm2":0.2671429,"populated2020":true,"population2020":96.7025,"populationNote":"2020年基準の国交省調整値"},"geometry":{"type":"Polygon","coordinates":[[[130.66875,33.891666666666666],[130.66875,33.895833333333336],[130.675,33.89583333333333],[130.675,33.89166666666667],[130.66875,33.891666666666666]]]}},{"type":"Feature","id":"40381:503065741","properties":{"id":"40381:503065741","meshCode":"503065741","cityCode":"40381","city":"芦屋町","lat":33.89375,"lon":130.678125,"areaKm2":0.2671426,"populated2020":true,"population2020":243.0575,"populationNote":"2020年基準の国交省調整値"},"geometry":{"type":"Polygon","coordinates":[[[130.675,33.89166666666667],[130.675,33.89583333333333],[130.68125000000003,33.89583333333333],[130.68125000000003,33.89166666666667],[130.675,33.89166666666667]]]}},{"type":"Feature","id":"40381:503065742","properties":{"id":"40381:503065742","meshCode":"503065742","cityCode":"40381","city":"芦屋町","lat":33.89375,"lon":130.684375,"areaKm2":0.1397873,"populated2020":true,"population2020":null,"populationNote":"境界またぎ・原典収録外のため自治体内人口は未集計"},"geometry":{"type":"Polygon","coordinates":[[[130.68465599264294,33.89583333333333],[130.684455279,33.895331108],[130.684180558,33.895107775],[130.684071115,33.89490166699999],[130.684045837,33.89456444100001],[130.684701388,33.893721946],[130.685228612,33.893359721],[130.6841114787931,33.891666666666666],[130.68125000000003,33.89166666666667],[130.68125000000003,33.89583333333333],[130.68465599264294,33.89583333333333]]]}},{"type":"Feature","id":"40381:503065714","properties":{"id":"40381:503065714","meshCode":"503065714","cityCode":"40381","city":"芦屋町","lat":33.8988165,"lon":130.6495436,"areaKm2":0.0007289,"populated2020":false,"population2020":null,"populationNote":"境界またぎ・原典収録外のため自治体内人口は未集計"},"geometry":{"type":"Polygon","coordinates":[[[130.649003943,33.898721802],[130.65,33.89898399999999],[130.65,33.89891641399999],[130.649700039,33.89880384700001],[130.649025694,33.898662351000006],[130.649003943,33.898721802]]]}},{"type":"Feature","id":"40381:503065723","properties":{"id":"40381:503065723","meshCode":"503065723","cityCode":"40381","city":"芦屋町","lat":33.8979167,"lon":130.653125,"areaKm2":0.0642216,"populated2020":false,"population2020":null,"populationNote":"境界またぎ・原典収録外のため自治体内人口は未集計"},"geometry":{"type":"MultiPolygon","coordinates":[[[[130.653661699,33.895842369],[130.65363524,33.89626381099999],[130.653383774,33.896898658],[130.652889909,33.89750136],[130.652403761,33.897881739],[130.653848599,33.898261657999996],[130.653734643,33.89848202699999],[130.654376252,33.897646613],[130.655068612,33.898013441],[130.65625,33.89697800908219],[130.65625,33.895833333333336],[130.653661699,33.895842369]]],[[[130.65,33.89898399999999],[130.654046459,33.9],[130.65437097300003,33.89999999999999],[130.65,33.89891641399999],[130.65,33.89898399999999]]]]}},{"type":"Feature","id":"40381:503065724","properties":{"id":"40381:503065724","meshCode":"503065724","cityCode":"40381","city":"芦屋町","lat":33.8979167,"lon":130.659375,"areaKm2":0.1945957,"populated2020":true,"population2020":269.5904,"populationNote":"2020年基準の国交省調整値"},"geometry":{"type":"Polygon","coordinates":[[[130.656410506,33.896837333],[130.658358975,33.898267775],[130.657021115,33.9],[130.657279585,33.899740027],[130.657877276,33.900000000000006],[130.65740428,33.899747324],[130.658307601,33.898571495],[130.660066304,33.899513586000005],[130.660260415,33.89925809],[130.66089821,33.89959516199999],[130.660585863,33.89999999999999],[130.66070214,33.89999999999999],[130.660945992,33.89967750499999],[130.661447484,33.89999999999999],[130.6625,33.89999999999999],[130.6625,33.895833333333336],[130.65625,33.895833333333336],[130.65625,33.89697800908219],[130.656410506,33.896837333]]]}},{"type":"Feature","id":"40381:503065733","properties":{"id":"40381:503065733","meshCode":"503065733","cityCode":"40381","city":"芦屋町","lat":33.8979167,"lon":130.665625,"areaKm2":0.2671303,"populated2020":true,"population2020":503.421,"populationNote":"2020年基準の国交省調整値"},"geometry":{"type":"Polygon","coordinates":[[[130.6625,33.895833333333336],[130.6625,33.89999999999999],[130.66875,33.9],[130.66875,33.895833333333336],[130.6625,33.895833333333336]]]}},{"type":"Feature","id":"40381:503065734","properties":{"id":"40381:503065734","meshCode":"503065734","cityCode":"40381","city":"芦屋町","lat":33.8979167,"lon":130.671875,"areaKm2":0.26713,"populated2020":true,"population2020":714.8745,"populationNote":"2020年基準の国交省調整値"},"geometry":{"type":"Polygon","coordinates":[[[130.66875,33.895833333333336],[130.66875,33.9],[130.675,33.900000000000006],[130.675,33.89583333333333],[130.66875,33.895833333333336]]]}},{"type":"Feature","id":"40381:503065743","properties":{"id":"40381:503065743","meshCode":"503065743","cityCode":"40381","city":"芦屋町","lat":33.8979167,"lon":130.678125,"areaKm2":0.2671298,"populated2020":true,"population2020":209.2678,"populationNote":"2020年基準の国交省調整値"},"geometry":{"type":"Polygon","coordinates":[[[130.675,33.89583333333333],[130.675,33.900000000000006],[130.68125000000003,33.9],[130.68125000000003,33.89583333333333],[130.675,33.89583333333333]]]}},{"type":"Feature","id":"40381:503065744","properties":{"id":"40381:503065744","meshCode":"503065744","cityCode":"40381","city":"芦屋町","lat":33.8979167,"lon":130.684375,"areaKm2":0.1390231,"populated2020":true,"population2020":null,"populationNote":"境界またぎ・原典収録外のため自治体内人口は未集計"},"geometry":{"type":"Polygon","coordinates":[[[130.68125000000003,33.9],[130.682530272,33.900000000000006],[130.682707497,33.899905279],[130.682985837,33.899387495],[130.683365279,33.899419721],[130.683948612,33.89962416200001],[130.684088612,33.899483333],[130.68413055800002,33.899272495000005],[130.683770558,33.898538333],[130.683938885,33.89818527900001],[130.68441917,33.898025279],[130.684606394,33.898084162],[130.684814994,33.898360279],[130.685061388,33.89842555900001],[130.685407782,33.898056946],[130.68551917,33.89775361299999],[130.685455279,33.89721666700001],[130.684917497,33.896645558999985],[130.684883891,33.896247225],[130.68465599264294,33.89583333333333],[130.68125000000003,33.89583333333333],[130.68125000000003,33.9]]]}},{"type":"Feature","id":"40381:503065821","properties":{"id":"40381:503065821","meshCode":"503065821","cityCode":"40381","city":"芦屋町","lat":33.9002342,"lon":130.6551472,"areaKm2":0.0017077,"populated2020":false,"population2020":null,"populationNote":"境界またぎ・原典収録外のため自治体内人口は未集計"},"geometry":{"type":"Polygon","coordinates":[[[130.65625,33.90055050705413],[130.65625,33.900468383411344],[130.65437097300003,33.89999999999999],[130.654046459,33.9],[130.65625,33.90055050705413]]]}},{"type":"Feature","id":"40381:503065822","properties":{"id":"40381:503065822","meshCode":"503065822","cityCode":"40381","city":"芦屋町","lat":33.9002151,"lon":130.6621427,"areaKm2":0.0244382,"populated2020":false,"population2020":null,"populationNote":"境界またぎ・原典収録外のため自治体内人口は未集計"},"geometry":{"type":"MultiPolygon","coordinates":[[[[130.657021115,33.9],[130.657046304,33.900042468],[130.657079053,33.9],[130.657021115,33.9]]],[[[130.658305577,33.90028602699999],[130.658337588,33.900245892],[130.657877276,33.900000000000006],[130.657768106,33.9],[130.658305577,33.90028602699999]]],[[[130.660291699,33.900380559],[130.65888061,33.90041108100001],[130.658884604,33.90045868499999],[130.659175927,33.900452009],[130.659179611,33.90050341399999],[130.660270259,33.900484242999994],[130.66070214,33.89999999999999],[130.660585863,33.89999999999999],[130.660291699,33.900380559]]],[[[130.661447484,33.89999999999999],[130.6625,33.900669947336716],[130.6625,33.89999999999999],[130.661447484,33.89999999999999]]],[[[130.6625,33.90181879851676],[130.662403061,33.902390829],[130.66205,33.902461161999994],[130.661842892,33.902721108],[130.661829585,33.90318],[130.661900584,33.903323027000006],[130.661815331,33.903399721],[130.661641089,33.903319],[130.66155345,33.903361162],[130.66135594,33.903864973],[130.661009689,33.90397897300001],[130.6608995785557,33.90416666666667],[130.661274578,33.90408266699999],[130.6612722002754,33.904166666666676],[130.6625,33.904166666666676],[130.6625,33.90181879851676]]],[[[130.658298314,33.901062234],[130.658834501,33.90139182],[130.65889096,33.90133246800001],[130.658342361,33.900989946],[130.65625,33.900468383411344],[130.65625,33.90055050705413],[130.658298314,33.901062234]]]]}},{"type":"Feature","id":"40381:503065831","properties":{"id":"40381:503065831","meshCode":"503065831","cityCode":"40381","city":"芦屋町","lat":33.9020833,"lon":130.665625,"areaKm2":0.2622029,"populated2020":true,"population2020":362.6821,"populationNote":"2020年基準の国交省調整値"},"geometry":{"type":"Polygon","coordinates":[[[130.663241997,33.901142252],[130.66314511,33.90123336],[130.663125136,33.901498613],[130.662686861,33.90162074799999],[130.6625,33.90181879851676],[130.6625,33.904166666666676],[130.66875,33.90416666666667],[130.66875,33.9],[130.6625,33.89999999999999],[130.6625,33.900669947336716],[130.663241997,33.901142252]]]}},{"type":"Feature","id":"40381:503065832","properties":{"id":"40381:503065832","meshCode":"503065832","cityCode":"40381","city":"芦屋町","lat":33.9020833,"lon":130.671875,"areaKm2":0.2671172,"populated2020":true,"population2020":444.9384,"populationNote":"2020年基準の国交省調整値"},"geometry":{"type":"Polygon","coordinates":[[[130.66875,33.9],[130.66875,33.90416666666667],[130.675,33.90416666666667],[130.675,33.900000000000006],[130.66875,33.9]]]}},{"type":"Feature","id":"40381:503065841","properties":{"id":"40381:503065841","meshCode":"503065841","cityCode":"40381","city":"芦屋町","lat":33.9020833,"lon":130.678125,"areaKm2":0.2279336,"populated2020":true,"population2020":232.3304,"populationNote":"2020年基準の国交省調整値"},"geometry":{"type":"Polygon","coordinates":[[[130.679377497,33.90416555899999],[130.679846667,33.903684721],[130.679928612,33.903284162000006],[130.679730558,33.90296500000001],[130.679284163,33.902645559],[130.679264163,33.902529441000006],[130.679415551,33.902247224999996],[130.68005917,33.901642224999996],[130.680615279,33.901747775],[130.68125000000003,33.90209509504643],[130.68125000000003,33.9],[130.675,33.900000000000006],[130.675,33.90416666666667],[130.679377497,33.90416555899999]]]}},{"type":"Feature","id":"40381:503065842","properties":{"id":"40381:503065842","meshCode":"503065842","cityCode":"40381","city":"芦屋町","lat":33.901124,"lon":130.6813291,"areaKm2":0.004672,"populated2020":true,"population2020":null,"populationNote":"境界またぎ・原典収録外のため自治体内人口は未集計"},"geometry":{"type":"MultiPolygon","coordinates":[[[[130.68125000000003,33.90209509504643],[130.681468054,33.902023892],[130.68152083,33.901560279],[130.681288054,33.900757225],[130.681601946,33.900200829000006],[130.681845227,33.9],[130.68125000000003,33.9],[130.68125000000003,33.90209509504643]]],[[[130.682323891,33.900012495],[130.682530272,33.900000000000006],[130.682297004,33.900000000000006],[130.682323891,33.900012495]]]]}},{"type":"Feature","id":"40381:503065824","properties":{"id":"40381:503065824","meshCode":"503065824","cityCode":"40381","city":"芦屋町","lat":33.906259,"lon":130.6623173,"areaKm2":0.0464145,"populated2020":true,"population2020":6.9235,"populationNote":"2020年基準の国交省調整値"},"geometry":{"type":"MultiPolygon","coordinates":[[[[130.66089978,33.904228252],[130.660810078,33.90423022499999],[130.660734358,33.904369613],[130.660888197,33.904356829],[130.661099167171,33.90416666666667],[130.6608995785557,33.90416666666667],[130.66089978,33.904228252]]],[[[130.6612722002754,33.904166666666676],[130.661285422,33.904227613],[130.6613647451143,33.904166666666676],[130.6612722002754,33.904166666666676]]],[[[130.661539442,33.904182721],[130.661588859,33.904246387],[130.66146594,33.904336252],[130.661636939,33.90434700000001],[130.6618062,33.90461364],[130.661920752,33.90490964000001],[130.661837224,33.905052865],[130.662031634,33.905522333],[130.661961608,33.905582441],[130.662094034,33.905739413999996],[130.662074086,33.906752532],[130.660915746,33.907431198],[130.660409442,33.907472865],[130.660159611,33.907328721000006],[130.660056329,33.907396559],[130.660095888,33.907487892000006],[130.659899442,33.907462946],[130.659747497,33.907532495],[130.65985869,33.90738849499999],[130.65969655,33.907387027000006],[130.659351608,33.907702891999996],[130.658930143,33.907690252],[130.658718781,33.908223441],[130.658747639,33.908275559],[130.658844112,33.908231775],[130.65883683511305,33.908333333333324],[130.66061182852926,33.908333333333324],[130.661676135,33.90757674799999],[130.6625,33.90817603048555],[130.6625,33.904166666666676],[130.661539442,33.904182721]]],[[[130.65858221793286,33.908333333333324],[130.658640052,33.908276532],[130.658594332,33.908272865],[130.65858221793286,33.908333333333324]]]]}},{"type":"Feature","id":"40381:503065833","properties":{"id":"40381:503065833","meshCode":"503065833","cityCode":"40381","city":"芦屋町","lat":33.90625,"lon":130.665625,"areaKm2":0.26693,"populated2020":true,"population2020":864.6151,"populationNote":"2020年基準の国交省調整値"},"geometry":{"type":"Polygon","coordinates":[[[130.662716252,33.908333333],[130.66875,33.908333333333324],[130.66875,33.90416666666667],[130.6625,33.904166666666676],[130.6625,33.90817603048555],[130.662716252,33.908333333]]]}},{"type":"Feature","id":"40381:503065834","properties":{"id":"40381:503065834","meshCode":"503065834","cityCode":"40381","city":"芦屋町","lat":33.90625,"lon":130.671875,"areaKm2":0.2671044,"populated2020":true,"population2020":549.1662,"populationNote":"2020年基準の国交省調整値"},"geometry":{"type":"Polygon","coordinates":[[[130.66875,33.90416666666667],[130.66875,33.908333333333324],[130.675,33.908333333333324],[130.675,33.90416666666667],[130.66875,33.90416666666667]]]}},{"type":"Feature","id":"40381:503065843","properties":{"id":"40381:503065843","meshCode":"503065843","cityCode":"40381","city":"芦屋町","lat":33.9062882,"lon":130.6757269,"areaKm2":0.0756014,"populated2020":true,"population2020":null,"populationNote":"境界またぎ・原典収録外のため自治体内人口は未集計"},"geometry":{"type":"Polygon","coordinates":[[[130.67637275,33.90833333300001],[130.675433606,33.90807110800001],[130.675226109,33.907914721],[130.675208327,33.90724944099999],[130.675468612,33.906783613],[130.675809728,33.90653638700001],[130.676385837,33.90633361300001],[130.676891946,33.905842495],[130.678464994,33.905068892],[130.67937628861657,33.90416666666667],[130.675,33.90416666666667],[130.675,33.908333333333324],[130.67637275,33.90833333300001]]]}},{"type":"Feature","id":"40381:503065922","properties":{"id":"40381:503065922","meshCode":"503065922","cityCode":"40381","city":"芦屋町","lat":33.9092157,"lon":130.658232,"areaKm2":0.0318114,"populated2020":false,"population2020":null,"populationNote":"境界またぎ・原典収録外のため自治体内人口は未集計"},"geometry":{"type":"MultiPolygon","coordinates":[[[[130.658841556,33.90834725199999],[130.658800415,33.908485135],[130.658650363,33.908458360000004],[130.65864044098427,33.908333333333324],[130.658538521,33.908355225],[130.658441167,33.908567946000005],[130.65815428,33.90885589199999],[130.657988444,33.90887010800001],[130.657849274,33.908985198],[130.657718885,33.908972108],[130.657547665,33.90910380199999],[130.657257198,33.90955766700001],[130.657360506,33.909562775],[130.657305162,33.909806829000004],[130.657361284,33.909905613],[130.657814163,33.90953964],[130.657794137,33.90966780200001],[130.658006304,33.909803775],[130.65826725,33.909575694000004],[130.658283891,33.909657693999996],[130.658403891,33.909691775],[130.658826913,33.909422225],[130.658979053,33.909218640000006],[130.65925489,33.909099946],[130.65928738,33.908993811],[130.660711725,33.910096739],[130.660763281,33.91004716199999],[130.659508755,33.909119162],[130.66061182852926,33.908333333333324],[130.658841556,33.90834725199999]]],[[[130.661907367,33.909420892],[130.662310856,33.909713468],[130.6625,33.90953293878918],[130.6625,33.9088571514948],[130.661907367,33.909420892]]],[[[130.657774838,33.90969772100001],[130.657446615,33.909956306],[130.657305253,33.910176694],[130.657329883,33.910264829],[130.65741703,33.91019416200001],[130.657683217,33.910195892000004],[130.657895188,33.909985198000015],[130.657984968,33.909984892000004],[130.657774838,33.90969772100001]]],[[[130.658168236,33.91179036],[130.657735383,33.910483144],[130.657627691,33.910506468],[130.658060869,33.911813505000005],[130.658168236,33.91179036]]],[[[130.65998332,33.91115369400001],[130.661584747,33.91181835999999],[130.661619351,33.911763009000005],[130.660015979,33.911097703],[130.65998332,33.91115369400001]]],[[[130.662472387,33.91196638700001],[130.662347173,33.91204986499999],[130.662499416,33.911985973],[130.662472387,33.91196638700001]]]]}},{"type":"Feature","id":"40381:503065931","properties":{"id":"40381:503065931","meshCode":"503065931","cityCode":"40381","city":"芦屋町","lat":33.9104167,"lon":130.665625,"areaKm2":0.2060608,"populated2020":true,"population2020":192.4333,"populationNote":"2020年基準の国交省調整値"},"geometry":{"type":"Polygon","coordinates":[[[130.662905772,33.908471162],[130.6625,33.9088571514948],[130.6625,33.90953293878918],[130.663307756,33.908761973],[130.663473165,33.908881945999994],[130.663644462,33.908718973],[130.664308314,33.90918973],[130.663412996,33.91004113500001],[130.664376874,33.909188649],[130.664931401,33.909524215999994],[130.665071699,33.910382829],[130.664944968,33.910721108],[130.664200661,33.91119916200001],[130.66389642,33.911217801999996],[130.663810272,33.911286135],[130.663615357,33.911487108],[130.663671141,33.911652108],[130.663502724,33.911706613],[130.663261725,33.911551333],[130.663057523,33.911620387],[130.66258924967153,33.912499999999994],[130.66875,33.912499999999994],[130.66875,33.908333333333324],[130.66271625245832,33.90833333333333],[130.662905772,33.908471162]]]}},{"type":"Feature","id":"40381:503065932","properties":{"id":"40381:503065932","meshCode":"503065932","cityCode":"40381","city":"芦屋町","lat":33.9104167,"lon":130.671875,"areaKm2":0.2670916,"populated2020":true,"population2020":240.9406,"populationNote":"2020年基準の国交省調整値"},"geometry":{"type":"Polygon","coordinates":[[[130.66875,33.908333333333324],[130.66875,33.912499999999994],[130.675,33.912499999999994],[130.675,33.908333333333324],[130.66875,33.908333333333324]]]}},{"type":"Feature","id":"40381:503065941","properties":{"id":"40381:503065941","meshCode":"503065941","cityCode":"40381","city":"芦屋町","lat":33.9105071,"lon":130.6761174,"areaKm2":0.0966679,"populated2020":true,"population2020":null,"populationNote":"境界またぎ・原典収録外のため自治体内人口は未集計"},"geometry":{"type":"Polygon","coordinates":[[[130.677312503,33.912478892],[130.677556939,33.912352225],[130.67788917,33.912409162],[130.677964994,33.912248892],[130.677363061,33.910916387],[130.677122218,33.90998166699999],[130.676883061,33.909496946],[130.676922218,33.90886638700001],[130.676854163,33.908628054],[130.67637275071337,33.908333333333324],[130.675,33.908333333333324],[130.675,33.912499999999994],[130.677312503,33.912478892]]]}},{"type":"Feature","id":"40381:503065924","properties":{"id":"40381:503065924","meshCode":"503065924","cityCode":"40381","city":"芦屋町","lat":33.9148448,"lon":130.6602749,"areaKm2":0.0384449,"populated2020":false,"population2020":null,"populationNote":"境界またぎ・原典収録外のため自治体内人口は未集計"},"geometry":{"type":"MultiPolygon","coordinates":[[[[130.6625,33.912610938068546],[130.66228917,33.913391586],[130.662211971,33.91344727900001],[130.662137782,33.91335186500001],[130.661956057,33.91360125200001],[130.661895772,33.91358705399999],[130.66149786,33.913969640000005],[130.661386329,33.91420864],[130.661437185,33.914390793],[130.661295746,33.914452027],[130.661230506,33.914619045],[130.661286706,33.914694622000006],[130.661156174,33.91470218],[130.661083865,33.914827279],[130.661129948,33.915017802],[130.660796446,33.915330495],[130.660837134,33.915369225],[130.661302412,33.915218829],[130.661638444,33.914913801999994],[130.661549598,33.91485031500001],[130.66172428,33.914820081],[130.661825966,33.91470955900001],[130.661799805,33.914597883],[130.66191917,33.914612279],[130.662001803,33.914531],[130.661999235,33.914313703],[130.662084384,33.914202135],[130.66223312600002,33.914244171],[130.662085447,33.914873613],[130.662088807,33.915249973],[130.662213178,33.915426225],[130.662140661,33.915454440999994],[130.662084864,33.915699973],[130.662203515,33.915789000000004],[130.662139079,33.91598182900001],[130.662279663,33.916126252],[130.662189416,33.916288153],[130.66229496800003,33.916448712],[130.662161284,33.916527919],[130.66217639372263,33.91666666666666],[130.6625,33.91666666666667],[130.6625,33.912610938068546]]],[[[130.662022412,33.91259897300001],[130.66186869,33.912668027],[130.661848223,33.91273472100001],[130.661980778,33.912728829],[130.662022412,33.91259897300001]]],[[[130.661972996,33.912880251999994],[130.661798716,33.912984667],[130.661798859,33.913005000000005],[130.661972996,33.912880251999994]]],[[[130.661115058,33.912986946],[130.660943645,33.91298313499999],[130.6608662,33.91303210800001],[130.661014332,33.913080387],[130.661115058,33.912986946]]],[[[130.660042114,33.914297198],[130.660237782,33.914132134999996],[130.659915253,33.914213278999995],[130.660042114,33.914297198]]],[[[130.659414254,33.914748360000004],[130.659488521,33.914671467999995],[130.659370999,33.914730198],[130.659414254,33.914748360000004]]],[[[130.660353774,33.915247468],[130.660563385,33.915329946],[130.6608707,33.914770135],[130.660956783,33.914540441],[130.66094455300004,33.914183306],[130.660572477,33.914332865],[130.660354384,33.91435064],[130.660307302,33.91428333299999],[130.659721219,33.91473713500001],[130.659633839,33.914947532],[130.659725616,33.914965973],[130.659764034,33.915218532],[130.659624034,33.91533208100001],[130.659910973,33.915531135],[130.660353774,33.915247468]]],[[[130.659392996,33.91519986499999],[130.659450778,33.915222865],[130.659524501,33.915070135000015],[130.659447445,33.915122108000006],[130.659392996,33.91519986499999]]],[[[130.660474553,33.91555277500001],[130.660392283,33.91576964000001],[130.660595694,33.91571380199999],[130.660796329,33.91544580200001],[130.660474553,33.91555277500001]]],[[[130.659429053,33.91546349499999],[130.659207393,33.915606802],[130.659370661,33.91575036],[130.659489079,33.915516694],[130.659429053,33.91546349499999]]],[[[130.659467328,33.91587201800001],[130.659083709,33.91574031500001],[130.658934734,33.91583682],[130.658877419,33.91616179299999],[130.659118314,33.916202315],[130.659026978,33.916299703],[130.659174099,33.916262604],[130.659300661,33.916117703],[130.659169715,33.915949099],[130.659467328,33.91587201800001]]],[[[130.662063943,33.91290977500001],[130.661941725,33.91301861299999],[130.662167173,33.912941225],[130.662363022,33.91253544100002],[130.662035084,33.912730973],[130.662063943,33.91290977500001]]]]}},{"type":"Feature","id":"40381:503065933","properties":{"id":"40381:503065933","meshCode":"503065933","cityCode":"40381","city":"芦屋町","lat":33.9145833,"lon":130.665625,"areaKm2":0.1853447,"populated2020":true,"population2020":111.438,"populationNote":"2020年基準の国交省調整値"},"geometry":{"type":"MultiPolygon","coordinates":[[[[130.66258924967153,33.912499999999994],[130.6625,33.91666666666667],[130.662826848,33.916648423],[130.662883982,33.91645494600001],[130.663051582,33.916425387],[130.663071115,33.91626346799999],[130.663219196,33.916195640000005],[130.663249805,33.916058586],[130.663485901,33.916013576999994],[130.663492348,33.915822784],[130.663686446,33.915775865],[130.663743761,33.915552729999995],[130.663966161,33.915446586],[130.663972607,33.91529878400001],[130.664222802,33.91522769400001],[130.664220506,33.914893559],[130.664413385,33.914837721],[130.66450939,33.914909721],[130.664617082,33.914838973],[130.664572088,33.915033333],[130.664631141,33.915073919],[130.664901556,33.914775586000005],[130.665030661,33.914757613],[130.665071505,33.914826613],[130.664939222,33.91495182900001],[130.664952244,33.915078414],[130.665466446,33.914623387],[130.667225266,33.914967072],[130.667230649,33.915080991],[130.667693917,33.91536858600001],[130.668206057,33.915864694],[130.668266861,33.916017],[130.668479105,33.91607594600001],[130.668518495,33.91644977499999],[130.668610752,33.916385414],[130.66875,33.91650356939206],[130.66875,33.912499999999994],[130.66258924967153,33.912499999999994]]],[[[130.66427489,33.915461973],[130.664211193,33.915489107999996],[130.664254306,33.915543748],[130.66427489,33.915461973]]],[[[130.664129105,33.91552766699999],[130.664075914,33.915623387],[130.664102866,33.915645468],[130.664129105,33.91552766699999]]],[[[130.667980947,33.916238359999994],[130.667881855,33.916435279000005],[130.668023087,33.916388441],[130.668234968,33.91610319800001],[130.667980947,33.916238359999994]]],[[[130.663744163,33.916408333],[130.663642776,33.916560559],[130.663663061,33.916656387],[130.663777782,33.916594441],[130.663831946,33.91644222499999],[130.663744163,33.916408333]]],[[[130.6633843319915,33.916666666666664],[130.663355357,33.91655180200001],[130.66315503228242,33.91666666666667],[130.6633843319915,33.916666666666664]]]]}},{"type":"Feature","id":"40381:503065934","properties":{"id":"40381:503065934","meshCode":"503065934","cityCode":"40381","city":"芦屋町","lat":33.9145833,"lon":130.671875,"areaKm2":0.2669537,"populated2020":true,"population2020":1.946,"populationNote":"2020年基準の国交省調整値"},"geometry":{"type":"Polygon","coordinates":[[[130.668767497,33.91652564],[130.66889143962445,33.91666666666666],[130.675,33.916666666666664],[130.675,33.912499999999994],[130.66875,33.912499999999994],[130.668767497,33.91652564]]]}},{"type":"Feature","id":"40381:503065943","properties":{"id":"40381:503065943","meshCode":"503065943","cityCode":"40381","city":"芦屋町","lat":33.9147304,"lon":130.6762602,"areaKm2":0.0942818,"populated2020":false,"population2020":null,"populationNote":"境界またぎ・原典収録外のため自治体内人口は未集計"},"geometry":{"type":"Polygon","coordinates":[[[130.67604572073674,33.916666666666664],[130.676707782,33.916200279000016],[130.677616667,33.914537775],[130.67725166,33.912904162],[130.677294246665,33.9125],[130.675,33.912499999999994],[130.675,33.916666666666664],[130.67604572073674,33.916666666666664]]]}},{"type":"Feature","id":"40381:503075022","properties":{"id":"40381:503075022","meshCode":"503075022","cityCode":"40381","city":"芦屋町","lat":33.9168705,"lon":130.6623234,"areaKm2":0.0026619,"populated2020":false,"population2020":null,"populationNote":"境界またぎ・原典収録外のため自治体内人口は未集計"},"geometry":{"type":"MultiPolygon","coordinates":[[[[130.662176394,33.91666666700001],[130.662175058,33.917025721],[130.662314189,33.91707205400001],[130.662469429,33.916958279],[130.662446861,33.916887739],[130.6625,33.91691171190702],[130.6625,33.91666666666667],[130.662176394,33.91666666700001]]],[[[130.659530558,33.917264721],[130.659719728,33.91704500000001],[130.659719728,33.916915279],[130.659456109,33.917022495],[130.659206394,33.917326667],[130.659192776,33.91746194600001],[130.659530558,33.917264721]]],[[[130.662227639,33.917470054],[130.662390921,33.917357973],[130.662265499,33.917389694],[130.662227639,33.917470054]]],[[[130.662290311,33.91753336],[130.662251219,33.917580081],[130.662318301,33.91754136000001],[130.662290311,33.91753336]]],[[[130.66223166,33.91759732399999],[130.662165564,33.91760227900001],[130.662116809,33.917678604],[130.66217062300004,33.917664054],[130.66223166,33.91759732399999]]]]}},{"type":"Feature","id":"40381:503075031","properties":{"id":"40381:503075031","meshCode":"503075031","cityCode":"40381","city":"芦屋町","lat":33.9181304,"lon":130.6685092,"areaKm2":0.0084268,"populated2020":false,"population2020":null,"populationNote":"境界またぎ・原典収録外のため自治体内人口は未集計"},"geometry":{"type":"MultiPolygon","coordinates":[[[[130.662515357,33.916918640000006],[130.662691842,33.916766964000004],[130.66264723685282,33.916666666666664],[130.6625,33.91666666666667],[130.662515357,33.916918640000006]]],[[[130.66266805193226,33.91666666666666],[130.662751647,33.916674108],[130.6627845147735,33.916666666666664],[130.66266805193226,33.91666666666666]]],[[[130.668731102,33.917368018],[130.668669844,33.917517252],[130.66816657600003,33.918006928],[130.66827585,33.918052477],[130.668243917,33.91816942300001],[130.668335551,33.918219081],[130.668125227,33.918491622],[130.668203346,33.918620586],[130.668147004,33.918729703],[130.668267484,33.918675847],[130.668234047,33.918821099],[130.668296744,33.918855252],[130.668397095,33.918775459],[130.66875,33.91872010724666],[130.668731102,33.917368018]]],[[[130.663384332,33.916666667],[130.66315503228242,33.91666666666667],[130.663131699,33.916734135],[130.663248859,33.91673316200001],[130.663384332,33.916666667]]],[[[130.662879831,33.916931774999995],[130.663039468,33.916959135],[130.663100778,33.916901413999994],[130.66305358,33.916831532],[130.662879831,33.916931774999995]]],[[[130.663622503,33.916859162],[130.663501115,33.916876108],[130.663446939,33.91712972100001],[130.663615837,33.917022775],[130.663622503,33.916859162]]],[[[130.662517419,33.917214387],[130.662561803,33.917245946],[130.662790752,33.917062081],[130.662721051,33.917071225],[130.662517419,33.917214387]]],[[[130.662568885,33.917371946],[130.662514994,33.917422775],[130.662575837,33.91750722500001],[130.662663606,33.91743972100001],[130.662568885,33.917371946]]],[[[130.663021388,33.917766667],[130.66329166,33.917281945999996],[130.663197224,33.91723694600001],[130.662879728,33.917670828999995],[130.662893061,33.91779472099999],[130.663021388,33.917766667]]]]}},{"type":"Feature","id":"40381:503075032","properties":{"id":"40381:503075032","meshCode":"503075032","cityCode":"40381","city":"芦屋町","lat":33.9178587,"lon":130.672413,"areaKm2":0.0936255,"populated2020":false,"population2020":null,"populationNote":"境界またぎ・原典収録外のため自治体内人口は未集計"},"geometry":{"type":"Polygon","coordinates":[[[130.66889144,33.916666667],[130.66905358,33.91692657699999],[130.66875,33.91734944264451],[130.66875,33.91872010724666],[130.668932763,33.918691251999995],[130.668835214,33.918858144000005],[130.669547601,33.91849391000001],[130.669977834,33.918011973],[130.669990687,33.918074757],[130.670229079,33.91795286499999],[130.670342309,33.91764427],[130.670595979,33.917741153],[130.670500908,33.918166559],[130.670898975,33.917808865000005],[130.671777536,33.918158063],[130.671632088,33.918323576999995],[130.671664423,33.918631928],[130.671988301,33.918303432],[130.672131297,33.918309865],[130.672360272,33.918459999999996],[130.672063061,33.918876946000005],[130.672184449,33.919040559],[130.67234,33.91901805399999],[130.672793061,33.918658333],[130.673197847,33.91868045],[130.673706939,33.91789],[130.674454721,33.917299441],[130.675,33.917112495],[130.675,33.916666666666664],[130.66889144,33.916666667]]]}},{"type":"Feature","id":"40381:503075041","properties":{"id":"40381:503075041","meshCode":"503075041","cityCode":"40381","city":"芦屋町","lat":33.9169521,"lon":130.6752317,"areaKm2":0.0026922,"populated2020":false,"population2020":null,"populationNote":"境界またぎ・原典収録外のため自治体内人口は未集計"},"geometry":{"type":"Polygon","coordinates":[[[130.675,33.917112495],[130.675265551,33.917062775000005],[130.67604572073674,33.916666666666664],[130.675,33.916666666666664],[130.675,33.917112495]]]}}]}