{"type":"FeatureCollection","metadata":{"cityCode":"40383","city":"岡垣町","resolution":1000,"boundaryDate":"2026-01-01","populationLabel":"2020年基準人口（国交省調整値）","method":"標準地域メッシュを行政界で切抜き。中心が区域外のとき区域内代表点を判定点にする。人口不明をゼロにしない。"},"features":[{"type":"Feature","id":"40383:50305570","properties":{"id":"40383:50305570","meshCode":"50305570","cityCode":"40383","city":"岡垣町","lat":33.8152983,"lon":130.6341596,"areaKm2":0.2080185,"populated2020":false,"population2020":null,"populationNote":"境界またぎ・収録外等のため人口未集計"},"geometry":{"type":"Polygon","coordinates":[[[130.63665166,33.813064441000016],[130.63596722400004,33.812746108],[130.635456109,33.813056108],[130.634633061,33.81323444099999],[130.634551946,33.813288892],[130.634350558,33.813963613],[130.634213333,33.814048613],[130.63367166,33.814135829],[130.632632776,33.814772225],[130.632050272,33.81531138700001],[130.630908327,33.815487774999994],[130.630008327,33.815471108],[130.629372503,33.815637225],[130.628233061,33.816313892],[130.62781717328892,33.81666666666666],[130.63750000000002,33.81666666666666],[130.63750000000002,33.81334608871233],[130.63665166,33.813064441000016]]]}},{"type":"Feature","id":"40383:50305571","properties":{"id":"40383:50305571","meshCode":"50305571","cityCode":"40383","city":"岡垣町","lat":33.8150451,"lon":130.6399068,"areaKm2":0.1679751,"populated2020":false,"population2020":null,"populationNote":"境界またぎ・収録外等のため人口未集計"},"geometry":{"type":"Polygon","coordinates":[[[130.643046939,33.816629721000005],[130.642858327,33.816443054],[130.642752503,33.815803054],[130.642388327,33.815224721],[130.64246,33.81482277500001],[130.642189442,33.814492494999996],[130.641741388,33.814291387],[130.641356109,33.813546946],[130.641072218,33.81327999999999],[130.639693333,33.812968333],[130.639127782,33.81308110799999],[130.638312503,33.813370559],[130.63750000000002,33.81334608871233],[130.63750000000002,33.81666666666666],[130.643046939,33.816629721000005]]]}},{"type":"Feature","id":"40383:50305487","properties":{"id":"40383:50305487","meshCode":"50305487","cityCode":"40383","city":"岡垣町","lat":33.8219763,"lon":130.5939654,"areaKm2":0.7448202,"populated2020":false,"population2020":null,"populationNote":"境界またぎ・収録外等のため人口未集計"},"geometry":{"type":"Polygon","coordinates":[[[130.592817224,33.81820249500001],[130.591976939,33.81790082900001],[130.59163083,33.817930559],[130.590456394,33.81903527899999],[130.589816667,33.819484441],[130.589360272,33.819964441],[130.589216939,33.820475829],[130.588566667,33.82120361300001],[130.588365279,33.821899721],[130.5875,33.82229945001214],[130.5875,33.825],[130.6,33.825],[130.6,33.820697693999996],[130.598860558,33.819926108000004],[130.598073061,33.819166667],[130.597289728,33.818723892],[130.59695083000003,33.818612495],[130.594974449,33.818396108],[130.594107224,33.818225559000005],[130.592817224,33.81820249500001]]]}},{"type":"Feature","id":"40383:50305488","properties":{"id":"40383:50305488","meshCode":"50305488","cityCode":"40383","city":"岡垣町","lat":33.823677,"lon":130.6061775,"areaKm2":0.320379,"populated2020":true,"population2020":null,"populationNote":"境界またぎ・収録外等のため人口未集計"},"geometry":{"type":"Polygon","coordinates":[[[130.6,33.820697693999996],[130.6,33.825],[130.6125,33.825],[130.6125,33.822938892],[130.610969442,33.82290610800001],[130.610475279,33.82283166700001],[130.610139442,33.822307495],[130.60979,33.822051667],[130.608992776,33.821841946],[130.608493333,33.821586108000005],[130.607778612,33.82190666700001],[130.606513061,33.822742775],[130.605852503,33.822981946],[130.604661946,33.822635000000005],[130.604347224,33.822716946],[130.603636394,33.823076667],[130.602626109,33.82327],[130.602007497,33.823096387],[130.601332776,33.822673613000006],[130.600795551,33.821485],[130.600501946,33.821104721000005],[130.6,33.820697693999996]]]}},{"type":"Feature","id":"40383:50305489","properties":{"id":"40383:50305489","meshCode":"50305489","cityCode":"40383","city":"岡垣町","lat":33.823202,"lon":130.6194559,"areaKm2":0.4426612,"populated2020":true,"population2020":14.1899,"populationNote":"収録500mメッシュ人口の合算（原典収録外は補完しない）"},"geometry":{"type":"Polygon","coordinates":[[[130.624623061,33.820473613],[130.624246667,33.82072861299999],[130.623505551,33.820910829],[130.622235551,33.820989162],[130.620204449,33.82137610800001],[130.619652218,33.821372775],[130.618868612,33.821212495],[130.618295279,33.821228892],[130.613150558,33.82287999999999],[130.6125,33.822938892],[130.6125,33.825],[130.625,33.825],[130.625,33.819349387],[130.624844163,33.81969972099999],[130.624797224,33.82020610800001],[130.624623061,33.820473613]]]}},{"type":"Feature","id":"40383:50305580","properties":{"id":"40383:50305580","meshCode":"50305580","cityCode":"40383","city":"岡垣町","lat":33.8209827,"lon":130.6314937,"areaKm2":1.0214529,"populated2020":true,"population2020":9.1428,"populationNote":"収録500mメッシュ人口の合算（原典収録外は補完しない）"},"geometry":{"type":"Polygon","coordinates":[[[130.627462218,33.817165],[130.627173891,33.81794500000001],[130.625,33.819349387],[130.625,33.825],[130.63750000000002,33.82500000000001],[130.63750000000002,33.81666666666666],[130.62781717328892,33.81666666666666],[130.627462218,33.817165]]]}},{"type":"Feature","id":"40383:50305581","properties":{"id":"40383:50305581","meshCode":"50305581","cityCode":"40383","city":"岡垣町","lat":33.8207605,"lon":130.6405608,"areaKm2":0.5216622,"populated2020":true,"population2020":31.569,"populationNote":"収録500mメッシュ人口の合算（原典収録外は補完しない）"},"geometry":{"type":"Polygon","coordinates":[[[130.643578327,33.820717495],[130.643966667,33.820540829],[130.64414083,33.819946108],[130.644099442,33.81849638700001],[130.644064449,33.81830361299999],[130.643610558,33.81785],[130.643295837,33.817314720999995],[130.64306922179898,33.81666666666667],[130.63750000000002,33.81666666666666],[130.63750000000002,33.82500000000001],[130.64263917,33.824976946],[130.64292166,33.824724721],[130.643094721,33.824306387],[130.643201388,33.823730279],[130.643693333,33.822335559],[130.643673891,33.82151916200001],[130.643510558,33.821195279],[130.643483891,33.82093889200001],[130.643578327,33.820717495]]]}},{"type":"Feature","id":"40383:50305486","properties":{"id":"40383:50305486","meshCode":"50305486","cityCode":"40383","city":"岡垣町","lat":33.824083,"lon":130.5869643,"areaKm2":0.0223666,"populated2020":false,"population2020":null,"populationNote":"境界またぎ・収録外等のため人口未集計"},"geometry":{"type":"Polygon","coordinates":[[[130.587407224,33.822358892],[130.586963891,33.823307225],[130.586673891,33.823694162],[130.586362776,33.823910559000005],[130.586173891,33.824238333000004],[130.586188249,33.82500000000001],[130.5875,33.825],[130.5875,33.82229945001214],[130.587407224,33.822358892]]]}},{"type":"Feature","id":"40383:50305496","properties":{"id":"40383:50305496","meshCode":"50305496","cityCode":"40383","city":"岡垣町","lat":33.8302384,"lon":130.5852393,"areaKm2":0.3027931,"populated2020":false,"population2020":null,"populationNote":"境界またぎ・収録外等のため人口未集計"},"geometry":{"type":"Polygon","coordinates":[[[130.586055551,33.82555055900001],[130.58604138800004,33.827120829],[130.585763061,33.82816082899999],[130.585619728,33.828344441],[130.585144163,33.828603613],[130.583183061,33.82911805399999],[130.582751115,33.829348892000006],[130.581730272,33.830407495],[130.581237497,33.83112889200001],[130.581289442,33.831391946],[130.581530558,33.83168722500001],[130.58270166,33.832054441],[130.583086109,33.83228389200001],[130.583194721,33.83243138699999],[130.5826676128826,33.833333333333336],[130.5875,33.83333333333334],[130.5875,33.825],[130.586188249,33.82500000000001],[130.586055551,33.82555055900001]]]}},{"type":"Feature","id":"40383:50305497","properties":{"id":"40383:50305497","meshCode":"50305497","cityCode":"40383","city":"岡垣町","lat":33.8291667,"lon":130.59375,"areaKm2":1.0693778,"populated2020":true,"population2020":75.5072,"populationNote":"収録500mメッシュ人口の合算（原典収録外は補完しない）"},"geometry":{"type":"Polygon","coordinates":[[[130.6,33.825],[130.5875,33.825],[130.5875,33.83333333333334],[130.6,33.833333333333336],[130.6,33.825]]]}},{"type":"Feature","id":"40383:50305498","properties":{"id":"40383:50305498","meshCode":"50305498","cityCode":"40383","city":"岡垣町","lat":33.8291667,"lon":130.60625,"areaKm2":1.0693758,"populated2020":true,"population2020":174.128,"populationNote":"収録500mメッシュ人口の合算（原典収録外は補完しない）"},"geometry":{"type":"Polygon","coordinates":[[[130.6125,33.825],[130.6,33.825],[130.6,33.833333333333336],[130.6125,33.83333333333334],[130.6125,33.825]]]}},{"type":"Feature","id":"40383:50305499","properties":{"id":"40383:50305499","meshCode":"50305499","cityCode":"40383","city":"岡垣町","lat":33.8291667,"lon":130.61875,"areaKm2":1.0693734,"populated2020":true,"population2020":85.5651,"populationNote":"収録500mメッシュ人口の合算（原典収録外は補完しない）"},"geometry":{"type":"Polygon","coordinates":[[[130.625,33.825],[130.6125,33.825],[130.6125,33.83333333333334],[130.625,33.833333333333336],[130.625,33.825]]]}},{"type":"Feature","id":"40383:50305590","properties":{"id":"40383:50305590","meshCode":"50305590","cityCode":"40383","city":"岡垣町","lat":33.8291667,"lon":130.63125,"areaKm2":1.0693714,"populated2020":true,"population2020":166.0198,"populationNote":"収録500mメッシュ人口の合算（原典収録外は補完しない）"},"geometry":{"type":"Polygon","coordinates":[[[130.63750000000002,33.82500000000001],[130.625,33.825],[130.625,33.833333333333336],[130.63750000000002,33.833333333333336],[130.63750000000002,33.82500000000001]]]}},{"type":"Feature","id":"40383:50305591","properties":{"id":"40383:50305591","meshCode":"50305591","cityCode":"40383","city":"岡垣町","lat":33.8293266,"lon":130.639845,"areaKm2":0.3982125,"populated2020":true,"population2020":19.3604,"populationNote":"収録500mメッシュ人口の合算（原典収録外は補完しない）"},"geometry":{"type":"Polygon","coordinates":[[[130.642439728,33.829499721],[130.641601115,33.828215279],[130.641762218,33.827714441000005],[130.64159,33.827096946],[130.64179166,33.826453054],[130.641848054,33.825648892],[130.641964994,33.82546222500001],[130.642592114,33.825],[130.63750000000002,33.82500000000001],[130.63750000000002,33.833333333333336],[130.64294097294297,33.833333333333336],[130.642984449,33.832951946],[130.642898327,33.83264222500001],[130.64240166,33.831923613],[130.642111115,33.831134721],[130.642088612,33.830785829],[130.642341946,33.830338613],[130.642466394,33.829758054],[130.642439728,33.829499721]]]}},{"type":"Feature","id":"40383:50306406","properties":{"id":"40383:50306406","meshCode":"50306406","cityCode":"40383","city":"岡垣町","lat":33.8375625,"lon":130.5850683,"areaKm2":0.4135607,"populated2020":true,"population2020":null,"populationNote":"境界またぎ・収録外等のため人口未集計"},"geometry":{"type":"Polygon","coordinates":[[[130.58249917,33.833970829],[130.582544449,33.834414721],[130.582806394,33.835276667],[130.582684163,33.835840559],[130.582708612,33.836312775],[130.582991388,33.837014721],[130.583046667,33.837982775],[130.582904449,33.838705278999996],[130.582948054,33.839400000000005],[130.582374994,33.84063389199999],[130.582035279,33.841048613000005],[130.581261946,33.84156861300001],[130.5812229701325,33.84166666666667],[130.5875,33.84166666666667],[130.5875,33.83333333333334],[130.5826676128826,33.833333333333336],[130.58249917,33.833970829]]]}},{"type":"Feature","id":"40383:50306407","properties":{"id":"40383:50306407","meshCode":"50306407","cityCode":"40383","city":"岡垣町","lat":33.8375,"lon":130.59375,"areaKm2":1.0692757,"populated2020":true,"population2020":47.9677,"populationNote":"収録500mメッシュ人口の合算（原典収録外は補完しない）"},"geometry":{"type":"Polygon","coordinates":[[[130.6,33.833333333333336],[130.5875,33.83333333333334],[130.5875,33.84166666666667],[130.6,33.84166666666667],[130.6,33.833333333333336]]]}},{"type":"Feature","id":"40383:50306408","properties":{"id":"40383:50306408","meshCode":"50306408","cityCode":"40383","city":"岡垣町","lat":33.8375,"lon":130.60625,"areaKm2":1.0692734,"populated2020":true,"population2020":144.0347,"populationNote":"収録500mメッシュ人口の合算（原典収録外は補完しない）"},"geometry":{"type":"Polygon","coordinates":[[[130.6125,33.83333333333334],[130.6,33.833333333333336],[130.6,33.84166666666667],[130.6125,33.841666666666676],[130.6125,33.83333333333334]]]}},{"type":"Feature","id":"40383:50306409","properties":{"id":"40383:50306409","meshCode":"50306409","cityCode":"40383","city":"岡垣町","lat":33.8375,"lon":130.61875,"areaKm2":1.0692712,"populated2020":true,"population2020":1862.0677,"populationNote":"収録500mメッシュ人口の合算（原典収録外は補完しない）"},"geometry":{"type":"Polygon","coordinates":[[[130.625,33.833333333333336],[130.6125,33.83333333333334],[130.6125,33.841666666666676],[130.625,33.841666666666676],[130.625,33.833333333333336]]]}},{"type":"Feature","id":"40383:50306500","properties":{"id":"40383:50306500","meshCode":"50306500","cityCode":"40383","city":"岡垣町","lat":33.8375,"lon":130.63125,"areaKm2":1.069269,"populated2020":true,"population2020":1529.4215,"populationNote":"収録500mメッシュ人口の合算（原典収録外は補完しない）"},"geometry":{"type":"Polygon","coordinates":[[[130.63750000000002,33.833333333333336],[130.625,33.833333333333336],[130.625,33.841666666666676],[130.63750000000002,33.84166666666667],[130.63750000000002,33.833333333333336]]]}},{"type":"Feature","id":"40383:50306501","properties":{"id":"40383:50306501","meshCode":"50306501","cityCode":"40383","city":"岡垣町","lat":33.8380227,"lon":130.6416815,"areaKm2":0.6805509,"populated2020":true,"population2020":null,"populationNote":"境界またぎ・収録外等のため人口未集計"},"geometry":{"type":"Polygon","coordinates":[[[130.642831946,33.834958613],[130.642343891,33.834634441000006],[130.642344721,33.834425279],[130.642527224,33.833941108000005],[130.64294097294297,33.833333333333336],[130.63750000000002,33.833333333333336],[130.63750000000002,33.84166666666667],[130.6480592218921,33.84166666666667],[130.646844163,33.839219162],[130.646715837,33.838273613],[130.646131946,33.838364440999996],[130.64561389100004,33.838340559],[130.644982218,33.837787495],[130.644928054,33.837592225],[130.645272503,33.837298892],[130.645477782,33.836952775],[130.644812218,33.835553613],[130.644405279,33.835205],[130.643896667,33.835077775],[130.642831946,33.834958613]]]}},{"type":"Feature","id":"40383:50306415","properties":{"id":"40383:50306415","meshCode":"50306415","cityCode":"40383","city":"岡垣町","lat":33.8479014,"lon":130.5728459,"areaKm2":0.2031806,"populated2020":false,"population2020":null,"populationNote":"境界またぎ・収録外等のため人口未集計"},"geometry":{"type":"Polygon","coordinates":[[[130.574605551,33.84486638700001],[130.573205551,33.845109162],[130.572245551,33.84542416200001],[130.571917497,33.845957775],[130.571759728,33.84667444099999],[130.571317224,33.847500829000005],[130.57115917,33.848301107999994],[130.57091166,33.848788054],[130.570682503,33.848921387],[130.569635551,33.848988053999996],[130.568940272,33.849177225],[130.568731115,33.849475559],[130.568663333,33.85],[130.575,33.85],[130.575,33.844662279],[130.574605551,33.84486638700001]]]}},{"type":"Feature","id":"40383:50306416","properties":{"id":"40383:50306416","meshCode":"50306416","cityCode":"40383","city":"岡垣町","lat":33.8461797,"lon":130.5816927,"areaKm2":0.9627921,"populated2020":true,"population2020":27.4253,"populationNote":"収録500mメッシュ人口の合算（原典収録外は補完しない）"},"geometry":{"type":"Polygon","coordinates":[[[130.581135279,33.841887225],[130.580379442,33.842411667],[130.579344163,33.842593333],[130.578123333,33.843493333],[130.577280272,33.843910829],[130.576818054,33.844025559],[130.576106939,33.844077225],[130.575,33.844662279],[130.575,33.85],[130.5875,33.85],[130.5875,33.84166666666667],[130.5812229701325,33.84166666666667],[130.581135279,33.841887225]]]}},{"type":"Feature","id":"40383:50306417","properties":{"id":"40383:50306417","meshCode":"50306417","cityCode":"40383","city":"岡垣町","lat":33.8458333,"lon":130.59375,"areaKm2":1.0691734,"populated2020":true,"population2020":202.939,"populationNote":"収録500mメッシュ人口の合算（原典収録外は補完しない）"},"geometry":{"type":"Polygon","coordinates":[[[130.6,33.84166666666667],[130.5875,33.84166666666667],[130.5875,33.85],[130.6,33.85000000000001],[130.6,33.84166666666667]]]}},{"type":"Feature","id":"40383:50306418","properties":{"id":"40383:50306418","meshCode":"50306418","cityCode":"40383","city":"岡垣町","lat":33.8458333,"lon":130.60625,"areaKm2":1.069171,"populated2020":true,"population2020":2210.8617,"populationNote":"収録500mメッシュ人口の合算（原典収録外は補完しない）"},"geometry":{"type":"Polygon","coordinates":[[[130.6125,33.841666666666676],[130.6,33.84166666666667],[130.6,33.85000000000001],[130.6125,33.85],[130.6125,33.841666666666676]]]}},{"type":"Feature","id":"40383:50306419","properties":{"id":"40383:50306419","meshCode":"50306419","cityCode":"40383","city":"岡垣町","lat":33.8458333,"lon":130.61875,"areaKm2":1.0691688,"populated2020":true,"population2020":4026.3343,"populationNote":"収録500mメッシュ人口の合算（原典収録外は補完しない）"},"geometry":{"type":"Polygon","coordinates":[[[130.625,33.841666666666676],[130.6125,33.841666666666676],[130.6125,33.85],[130.625,33.85],[130.625,33.841666666666676]]]}},{"type":"Feature","id":"40383:50306510","properties":{"id":"40383:50306510","meshCode":"50306510","cityCode":"40383","city":"岡垣町","lat":33.8458333,"lon":130.63125,"areaKm2":1.0691667,"populated2020":true,"population2020":4748.4961,"populationNote":"収録500mメッシュ人口の合算（原典収録外は補完しない）"},"geometry":{"type":"Polygon","coordinates":[[[130.63750000000002,33.84166666666667],[130.625,33.841666666666676],[130.625,33.85],[130.63750000000002,33.85],[130.63750000000002,33.84166666666667]]]}},{"type":"Feature","id":"40383:50306511","properties":{"id":"40383:50306511","meshCode":"50306511","cityCode":"40383","city":"岡垣町","lat":33.8458062,"lon":130.6434681,"areaKm2":0.9649442,"populated2020":true,"population2020":null,"populationNote":"境界またぎ・収録外等のため人口未集計"},"geometry":{"type":"Polygon","coordinates":[[[130.65,33.844431694],[130.649115551,33.844651946000006],[130.648738327,33.84459944099999],[130.647677782,33.843462495],[130.64768083,33.843303612999996],[130.647992503,33.843046108],[130.648223891,33.842687775],[130.64825083000002,33.842307775],[130.6480592218921,33.84166666666667],[130.63750000000002,33.84166666666667],[130.63750000000002,33.85],[130.638025837,33.85],[130.638036667,33.849872495],[130.63835166,33.849469721000006],[130.638430272,33.84875527900001],[130.638798612,33.84864249500001],[130.639435551,33.848713333000006],[130.639599442,33.84884527900001],[130.640044163,33.84927416200001],[130.640247224,33.849703054],[130.640287562,33.85],[130.64198939,33.85],[130.64251555100003,33.849888054],[130.642736615,33.849999999999994],[130.644590026,33.85],[130.645163061,33.849652774999996],[130.64706166,33.84924027900001],[130.647610272,33.84930889200001],[130.649138885,33.849735829],[130.6496493,33.85],[130.65,33.85],[130.65,33.844431694]]]}},{"type":"Feature","id":"40383:50306512","properties":{"id":"40383:50306512","meshCode":"50306512","cityCode":"40383","city":"岡垣町","lat":33.8473506,"lon":130.6513834,"areaKm2":0.1533909,"populated2020":true,"population2020":null,"populationNote":"境界またぎ・収録外等のため人口未集計"},"geometry":{"type":"Polygon","coordinates":[[[130.652408612,33.844911946],[130.651705837,33.844569721],[130.65094083,33.84464],[130.65,33.844431694],[130.65,33.85],[130.652761025,33.85],[130.652797497,33.848342224999996],[130.652999442,33.84652722500001],[130.652408612,33.844911946]]]}},{"type":"Feature","id":"40383:50306425","properties":{"id":"40383:50306425","meshCode":"50306425","cityCode":"40383","city":"岡垣町","lat":33.8540031,"lon":130.5716138,"areaKm2":0.571954,"populated2020":false,"population2020":null,"populationNote":"境界またぎ・収録外等のため人口未集計"},"geometry":{"type":"Polygon","coordinates":[[[130.568217497,33.850983333],[130.567834721,33.85144055899999],[130.567724163,33.851792495],[130.567783333,33.852018613],[130.568020558,33.852303613],[130.56796917,33.852659441],[130.567736109,33.853048333],[130.567329728,33.853339162],[130.567195279,33.853606108],[130.567365279,33.854443333],[130.567487782,33.85465082899999],[130.568317224,33.85535944100001],[130.568668885,33.855911667],[130.569204994,33.856365829],[130.569615837,33.856966108],[130.569647497,33.857492224999994],[130.5688359136898,33.85833333333334],[130.575,33.858333333333334],[130.575,33.85],[130.568663333,33.85],[130.568217497,33.850983333]]]}},{"type":"Feature","id":"40383:50306426","properties":{"id":"40383:50306426","meshCode":"50306426","cityCode":"40383","city":"岡垣町","lat":33.8541667,"lon":130.58125,"areaKm2":1.0690734,"populated2020":false,"population2020":null,"populationNote":"境界またぎ・収録外等のため人口未集計"},"geometry":{"type":"Polygon","coordinates":[[[130.5875,33.85],[130.575,33.85],[130.575,33.858333333333334],[130.5875,33.85833333333333],[130.5875,33.85]]]}},{"type":"Feature","id":"40383:50306427","properties":{"id":"40383:50306427","meshCode":"50306427","cityCode":"40383","city":"岡垣町","lat":33.8541667,"lon":130.59375,"areaKm2":1.069071,"populated2020":true,"population2020":129.2135,"populationNote":"収録500mメッシュ人口の合算（原典収録外は補完しない）"},"geometry":{"type":"Polygon","coordinates":[[[130.6,33.85000000000001],[130.5875,33.85],[130.5875,33.85833333333333],[130.6,33.85833333333334],[130.6,33.85000000000001]]]}},{"type":"Feature","id":"40383:50306428","properties":{"id":"40383:50306428","meshCode":"50306428","cityCode":"40383","city":"岡垣町","lat":33.8541667,"lon":130.60625,"areaKm2":1.0690686,"populated2020":true,"population2020":2153.167,"populationNote":"収録500mメッシュ人口の合算（原典収録外は補完しない）"},"geometry":{"type":"Polygon","coordinates":[[[130.6125,33.85],[130.6,33.85000000000001],[130.6,33.85833333333334],[130.6125,33.858333333333334],[130.6125,33.85]]]}},{"type":"Feature","id":"40383:50306429","properties":{"id":"40383:50306429","meshCode":"50306429","cityCode":"40383","city":"岡垣町","lat":33.8541667,"lon":130.61875,"areaKm2":1.0690665,"populated2020":true,"population2020":3854.9592,"populationNote":"収録500mメッシュ人口の合算（原典収録外は補完しない）"},"geometry":{"type":"Polygon","coordinates":[[[130.625,33.85],[130.6125,33.85],[130.6125,33.858333333333334],[130.625,33.85833333333334],[130.625,33.85]]]}},{"type":"Feature","id":"40383:50306520","properties":{"id":"40383:50306520","meshCode":"50306520","cityCode":"40383","city":"岡垣町","lat":33.8541667,"lon":130.63125,"areaKm2":1.0690644,"populated2020":true,"population2020":1245.2246,"populationNote":"収録500mメッシュ人口の合算（原典収録外は補完しない）"},"geometry":{"type":"Polygon","coordinates":[[[130.63750000000002,33.85],[130.625,33.85],[130.625,33.85833333333334],[130.63750000000002,33.85833333333334],[130.63750000000002,33.85]]]}},{"type":"Feature","id":"40383:50306521","properties":{"id":"40383:50306521","meshCode":"50306521","cityCode":"40383","city":"岡垣町","lat":33.8551562,"lon":130.6392346,"areaKm2":0.217551,"populated2020":true,"population2020":null,"populationNote":"境界またぎ・収録外等のため人口未集計"},"geometry":{"type":"MultiPolygon","coordinates":[[[[130.6496493,33.85],[130.65,33.850181279],[130.65,33.85],[130.6496493,33.85]]],[[[130.640808612,33.850331108],[130.641279442,33.85027277500001],[130.64198939,33.85],[130.640287562,33.85],[130.640423333,33.850151667],[130.640808612,33.850331108]]],[[[130.644590026,33.85],[130.64375,33.85],[130.642736615,33.849999999999994],[130.642953333,33.850407495],[130.64308,33.850481946],[130.643988327,33.85031055900001],[130.644590026,33.85]]],[[[130.639492776,33.854336387],[130.639462503,33.852886108],[130.639343891,33.852481108000006],[130.639183333,33.852241387],[130.638621946,33.85184444099999],[130.638481946,33.851615],[130.638473891,33.851467775],[130.63870027200002,33.850994441],[130.63865583700002,33.850762495],[130.638132503,33.850424162],[130.638025837,33.85],[130.63750000000002,33.85],[130.63750000000002,33.85833333333334],[130.64240335891031,33.85833333333334],[130.642501115,33.858013892],[130.642466939,33.857844721],[130.642180272,33.857269721],[130.64150917,33.856717495],[130.640848612,33.856602775],[130.640683606,33.85649000000001],[130.640420558,33.856251946],[130.639935551,33.855577225000005],[130.639974994,33.854670829],[130.639492776,33.854336387]]]]}},{"type":"Feature","id":"40383:50306522","properties":{"id":"40383:50306522","meshCode":"50306522","cityCode":"40383","city":"岡垣町","lat":33.8507829,"lon":130.6515404,"areaKm2":0.0369028,"populated2020":true,"population2020":null,"populationNote":"境界またぎ・収録外等のため人口未集計"},"geometry":{"type":"Polygon","coordinates":[[[130.65,33.850181279],[130.650465279,33.850478054],[130.650800558,33.851523054],[130.65162527900003,33.852032495],[130.651774163,33.85197805400001],[130.652731946,33.85085110799999],[130.652761025,33.85],[130.65,33.85],[130.65,33.850181279]]]}},{"type":"Feature","id":"40383:50306435","properties":{"id":"40383:50306435","meshCode":"50306435","cityCode":"40383","city":"岡垣町","lat":33.8630678,"lon":130.5698557,"areaKm2":0.8300911,"populated2020":true,"population2020":52.8582,"populationNote":"収録500mメッシュ人口の合算（原典収録外は補完しない）"},"geometry":{"type":"Polygon","coordinates":[[[130.5688359136898,33.85833333333334],[130.567831946,33.85930582900001],[130.567993891,33.859928333],[130.567847782,33.860944721],[130.56663083,33.86149305400001],[130.565371946,33.86242055899999],[130.56498083000002,33.862576108],[130.564336667,33.86359499999999],[130.564161115,33.863734162],[130.564023061,33.86379],[130.563082503,33.863667495],[130.5625,33.8637156735019],[130.5625,33.86666666666667],[130.575,33.86666666666667],[130.575,33.858333333333334],[130.5688359136898,33.85833333333334]]]}},{"type":"Feature","id":"40383:50306436","properties":{"id":"40383:50306436","meshCode":"50306436","cityCode":"40383","city":"岡垣町","lat":33.8625,"lon":130.58125,"areaKm2":1.068971,"populated2020":true,"population2020":49.1991,"populationNote":"収録500mメッシュ人口の合算（原典収録外は補完しない）"},"geometry":{"type":"Polygon","coordinates":[[[130.5875,33.85833333333333],[130.575,33.858333333333334],[130.575,33.86666666666667],[130.5875,33.86666666666667],[130.5875,33.85833333333333]]]}},{"type":"Feature","id":"40383:50306437","properties":{"id":"40383:50306437","meshCode":"50306437","cityCode":"40383","city":"岡垣町","lat":33.8625,"lon":130.59375,"areaKm2":1.0689686,"populated2020":true,"population2020":940.9977,"populationNote":"収録500mメッシュ人口の合算（原典収録外は補完しない）"},"geometry":{"type":"Polygon","coordinates":[[[130.6,33.85833333333334],[130.5875,33.85833333333333],[130.5875,33.86666666666667],[130.6,33.866666666666674],[130.6,33.85833333333334]]]}},{"type":"Feature","id":"40383:50306438","properties":{"id":"40383:50306438","meshCode":"50306438","cityCode":"40383","city":"岡垣町","lat":33.8625,"lon":130.60625,"areaKm2":1.0689662,"populated2020":true,"population2020":1359.6765,"populationNote":"収録500mメッシュ人口の合算（原典収録外は補完しない）"},"geometry":{"type":"Polygon","coordinates":[[[130.6125,33.858333333333334],[130.6,33.85833333333334],[130.6,33.866666666666674],[130.6125,33.86666666666667],[130.6125,33.858333333333334]]]}},{"type":"Feature","id":"40383:50306439","properties":{"id":"40383:50306439","meshCode":"50306439","cityCode":"40383","city":"岡垣町","lat":33.8625,"lon":130.61875,"areaKm2":1.0689642,"populated2020":true,"population2020":1997.0872,"populationNote":"収録500mメッシュ人口の合算（原典収録外は補完しない）"},"geometry":{"type":"Polygon","coordinates":[[[130.625,33.85833333333334],[130.6125,33.858333333333334],[130.6125,33.86666666666667],[130.625,33.86666666666666],[130.625,33.85833333333334]]]}},{"type":"Feature","id":"40383:50306530","properties":{"id":"40383:50306530","meshCode":"50306530","cityCode":"40383","city":"岡垣町","lat":33.8625,"lon":130.63125,"areaKm2":1.068962,"populated2020":true,"population2020":1004.4434,"populationNote":"収録500mメッシュ人口の合算（原典収録外は補完しない）"},"geometry":{"type":"Polygon","coordinates":[[[130.63750000000002,33.85833333333334],[130.625,33.85833333333334],[130.625,33.86666666666666],[130.63750000000002,33.86666666666667],[130.63750000000002,33.85833333333334]]]}},{"type":"Feature","id":"40383:50306531","properties":{"id":"40383:50306531","meshCode":"50306531","cityCode":"40383","city":"岡垣町","lat":33.8627474,"lon":130.6404972,"areaKm2":0.5060905,"populated2020":true,"population2020":null,"populationNote":"境界またぎ・収録外等のため人口未集計"},"geometry":{"type":"Polygon","coordinates":[[[130.643653891,33.863639721],[130.643106109,33.861993333],[130.643411115,33.861487775],[130.643460272,33.861096946],[130.642983061,33.860514441],[130.642659728,33.85992610800001],[130.642317224,33.85902],[130.64240335891031,33.85833333333334],[130.63750000000002,33.85833333333334],[130.63750000000002,33.86666666666667],[130.64423272410116,33.86666666666666],[130.644280272,33.86618055900001],[130.643769728,33.865513613000005],[130.643681946,33.865147775000004],[130.644216109,33.864749162],[130.644496939,33.86435889199999],[130.64461055800004,33.864048612999994],[130.644437224,33.863825],[130.643772776,33.863742495],[130.643653891,33.863639721]]]}},{"type":"Feature","id":"40383:50306434","properties":{"id":"40383:50306434","meshCode":"50306434","cityCode":"40383","city":"岡垣町","lat":33.8653441,"lon":130.5595175,"areaKm2":0.170631,"populated2020":false,"population2020":null,"populationNote":"境界またぎ・収録外等のため人口未集計"},"geometry":{"type":"Polygon","coordinates":[[[130.5625,33.8637156735019],[130.56144166,33.863586108],[130.56078166,33.863719721],[130.55973083,33.86416027899999],[130.559203333,33.864293613],[130.557714163,33.864119441],[130.557164994,33.864137775],[130.556445837,33.864753054000005],[130.555999442,33.865336108],[130.55615894903107,33.86666666666667],[130.5625,33.86666666666667],[130.5625,33.8637156735019]]]}},{"type":"Feature","id":"40383:50306444","properties":{"id":"40383:50306444","meshCode":"50306444","cityCode":"40383","city":"岡垣町","lat":33.8713068,"lon":130.557171,"areaKm2":0.8749812,"populated2020":false,"population2020":null,"populationNote":"境界またぎ・収録外等のため人口未集計"},"geometry":{"type":"Polygon","coordinates":[[[130.55586917000002,33.867047775],[130.555096109,33.868049441],[130.554385279,33.868535],[130.554248885,33.86912972100001],[130.553434994,33.869433613],[130.552324994,33.869518891999995],[130.551744449,33.87078805400001],[130.550901115,33.871893613],[130.550454721,33.87280500000001],[130.55,33.873310667000005],[130.55,33.875000000000014],[130.5625,33.87499999999999],[130.5625,33.86666666666667],[130.55615894903107,33.86666666666667],[130.556145837,33.866806946],[130.55586917000002,33.867047775]]]}},{"type":"Feature","id":"40383:50306445","properties":{"id":"40383:50306445","meshCode":"50306445","cityCode":"40383","city":"岡垣町","lat":33.8708333,"lon":130.56875,"areaKm2":1.068871,"populated2020":true,"population2020":208.3745,"populationNote":"収録500mメッシュ人口の合算（原典収録外は補完しない）"},"geometry":{"type":"Polygon","coordinates":[[[130.575,33.86666666666667],[130.5625,33.86666666666667],[130.5625,33.87499999999999],[130.575,33.875],[130.575,33.86666666666667]]]}},{"type":"Feature","id":"40383:50306446","properties":{"id":"40383:50306446","meshCode":"50306446","cityCode":"40383","city":"岡垣町","lat":33.8708333,"lon":130.58125,"areaKm2":1.0688686,"populated2020":true,"population2020":750.603,"populationNote":"収録500mメッシュ人口の合算（原典収録外は補完しない）"},"geometry":{"type":"Polygon","coordinates":[[[130.5875,33.86666666666667],[130.575,33.86666666666667],[130.575,33.875],[130.5875,33.875],[130.5875,33.86666666666667]]]}},{"type":"Feature","id":"40383:50306447","properties":{"id":"40383:50306447","meshCode":"50306447","cityCode":"40383","city":"岡垣町","lat":33.8708333,"lon":130.59375,"areaKm2":1.0688662,"populated2020":true,"population2020":175.4448,"populationNote":"収録500mメッシュ人口の合算（原典収録外は補完しない）"},"geometry":{"type":"Polygon","coordinates":[[[130.6,33.866666666666674],[130.5875,33.86666666666667],[130.5875,33.875],[130.6,33.87500000000001],[130.6,33.866666666666674]]]}},{"type":"Feature","id":"40383:50306448","properties":{"id":"40383:50306448","meshCode":"50306448","cityCode":"40383","city":"岡垣町","lat":33.8708333,"lon":130.60625,"areaKm2":1.0688638,"populated2020":true,"population2020":205.4988,"populationNote":"収録500mメッシュ人口の合算（原典収録外は補完しない）"},"geometry":{"type":"Polygon","coordinates":[[[130.6125,33.86666666666667],[130.6,33.866666666666674],[130.6,33.87500000000001],[130.6125,33.875],[130.6125,33.86666666666667]]]}},{"type":"Feature","id":"40383:50306449","properties":{"id":"40383:50306449","meshCode":"50306449","cityCode":"40383","city":"岡垣町","lat":33.8708333,"lon":130.61875,"areaKm2":1.0688617,"populated2020":true,"population2020":101.7889,"populationNote":"収録500mメッシュ人口の合算（原典収録外は補完しない）"},"geometry":{"type":"Polygon","coordinates":[[[130.625,33.86666666666666],[130.6125,33.86666666666667],[130.6125,33.875],[130.625,33.875],[130.625,33.86666666666666]]]}},{"type":"Feature","id":"40383:50306540","properties":{"id":"40383:50306540","meshCode":"50306540","cityCode":"40383","city":"岡垣町","lat":33.8708333,"lon":130.63125,"areaKm2":1.0688596,"populated2020":true,"population2020":70.1791,"populationNote":"収録500mメッシュ人口の合算（原典収録外は補完しない）"},"geometry":{"type":"Polygon","coordinates":[[[130.63750000000002,33.86666666666667],[130.625,33.86666666666666],[130.625,33.875],[130.63750000000002,33.875],[130.63750000000002,33.86666666666667]]]}},{"type":"Feature","id":"40383:50306541","properties":{"id":"40383:50306541","meshCode":"50306541","cityCode":"40383","city":"岡垣町","lat":33.8708341,"lon":130.6405546,"areaKm2":0.5216188,"populated2020":true,"population2020":null,"populationNote":"境界またぎ・収録外等のため人口未集計"},"geometry":{"type":"Polygon","coordinates":[[[130.643725279,33.867416108],[130.64423272410116,33.86666666666666],[130.63750000000002,33.86666666666667],[130.63750000000002,33.875],[130.644453281,33.875],[130.643809442,33.87495138700001],[130.643490558,33.873905558999994],[130.643413061,33.873226387],[130.64353083,33.872446108],[130.643924449,33.87109972100001],[130.643826667,33.870333892000005],[130.643370558,33.86942110799998],[130.64324166,33.86865722499999],[130.643419728,33.867591387],[130.643725279,33.867416108]]]}},{"type":"Feature","id":"40383:50306443","properties":{"id":"40383:50306443","meshCode":"50306443","cityCode":"40383","city":"岡垣町","lat":33.8743699,"lon":130.5495458,"areaKm2":0.0130663,"populated2020":false,"population2020":null,"populationNote":"境界またぎ・収録外等のため人口未集計"},"geometry":{"type":"Polygon","coordinates":[[[130.55,33.873310667000005],[130.549324721,33.873905559],[130.549068612,33.87427722500001],[130.548824669,33.87500000000001],[130.55,33.875000000000014],[130.55,33.873310667000005]]]}},{"type":"Feature","id":"40383:50306453","properties":{"id":"40383:50306453","meshCode":"50306453","cityCode":"40383","city":"岡垣町","lat":33.8804026,"lon":130.5475203,"areaKm2":0.3341056,"populated2020":true,"population2020":null,"populationNote":"境界またぎ・収録外等のため人口未集計"},"geometry":{"type":"Polygon","coordinates":[[[130.548824669,33.87500000000001],[130.548575837,33.876671945999995],[130.548374449,33.876934721],[130.546463606,33.87833805399999],[130.546364721,33.879621108],[130.54553917,33.879976946],[130.54525083,33.88017333300001],[130.544146394,33.881441387],[130.543703891,33.88166],[130.543538054,33.88183],[130.543174449,33.882385829],[130.54275910484176,33.88333333333333],[130.55,33.88333333333334],[130.55,33.875000000000014],[130.548824669,33.87500000000001]]]}},{"type":"Feature","id":"40383:50306454","properties":{"id":"40383:50306454","meshCode":"50306454","cityCode":"40383","city":"岡垣町","lat":33.8791667,"lon":130.55625,"areaKm2":1.068771,"populated2020":true,"population2020":63.2243,"populationNote":"収録500mメッシュ人口の合算（原典収録外は補完しない）"},"geometry":{"type":"Polygon","coordinates":[[[130.5625,33.87499999999999],[130.55,33.875000000000014],[130.55,33.88333333333334],[130.5625,33.88333333333334],[130.5625,33.87499999999999]]]}},{"type":"Feature","id":"40383:50306455","properties":{"id":"40383:50306455","meshCode":"50306455","cityCode":"40383","city":"岡垣町","lat":33.8784102,"lon":130.5678622,"areaKm2":0.8212383,"populated2020":true,"population2020":281.8206,"populationNote":"収録500mメッシュ人口の合算（原典収録外は補完しない）"},"geometry":{"type":"MultiPolygon","coordinates":[[[[130.574456783,33.879161973],[130.574681971,33.87917936],[130.574883606,33.879392748],[130.575,33.879384693999995],[130.575,33.875],[130.5625,33.87499999999999],[130.5625,33.88333333333334],[130.56621213977735,33.88333333333334],[130.56628869,33.883217532],[130.56669182978843,33.88333333333333],[130.566597056,33.883293252],[130.566661855,33.883023081],[130.567194449,33.882219721],[130.567456472,33.882072586],[130.567913645,33.882160946],[130.568330272,33.88196664],[130.569150363,33.88105841400001],[130.569320467,33.88064010800001],[130.569579105,33.880520027],[130.569695188,33.880331],[130.570325811,33.88006091900001],[130.570635577,33.880002026999996],[130.571673865,33.880026468],[130.571709857,33.87987836],[130.571907367,33.87968016200001],[130.572191777,33.879594946000005],[130.572699754,33.879701829],[130.5729238,33.87940697300001],[130.573190441,33.87928436],[130.573973606,33.879436946],[130.574149144,33.87955358599999],[130.574213061,33.87932730600001],[130.574456783,33.879161973]]],[[[130.574690389,33.87949],[130.574734086,33.87957200000001],[130.575,33.879526468],[130.575,33.87943819800001],[130.574690389,33.87949]]]]}},{"type":"Feature","id":"40383:50306456","properties":{"id":"40383:50306456","meshCode":"50306456","cityCode":"40383","city":"岡垣町","lat":33.8766579,"lon":130.5808988,"areaKm2":0.4191934,"populated2020":true,"population2020":67.9258,"populationNote":"収録500mメッシュ人口の合算（原典収録外は補完しない）"},"geometry":{"type":"Polygon","coordinates":[[[130.581336135,33.878124333],[130.58454978,33.877993198],[130.58710131,33.87797689199999],[130.5875,33.877909407095814],[130.5875,33.875],[130.575,33.875],[130.575,33.879384693999995],[130.575196226,33.87937191900001],[130.575,33.87943819800001],[130.575,33.879526468],[130.575383502,33.879494640000004],[130.575437134,33.879250748000004],[130.57556883300003,33.879461198],[130.576353748,33.87926805399999],[130.576328145,33.87919899999999],[130.575860195,33.879259054],[130.576037224,33.879157054],[130.576062023,33.878885108000006],[130.576191025,33.87868172100001],[130.576540506,33.87851053200001],[130.581336135,33.878124333]]]}},{"type":"Feature","id":"40383:50306457","properties":{"id":"40383:50306457","meshCode":"50306457","cityCode":"40383","city":"岡垣町","lat":33.8765071,"lon":130.5938652,"areaKm2":0.3860426,"populated2020":false,"population2020":null,"populationNote":"境界またぎ・収録外等のため人口未集計"},"geometry":{"type":"Polygon","coordinates":[[[130.5875,33.877909407095814],[130.588136161,33.877969],[130.589337782,33.877951721],[130.59062489,33.877838892],[130.590982672,33.877844386999996],[130.591478145,33.877967586000004],[130.59264345,33.877902721000005],[130.593714332,33.877998865],[130.594223606,33.877947081],[130.59470275,33.878054775],[130.595176719,33.877973919000006],[130.59553594,33.878062387],[130.596126083,33.877985775],[130.597033891,33.87814764],[130.597709027,33.878063441],[130.598950467,33.87828866700001],[130.598936226,33.878212613],[130.599869144,33.87827613500001],[130.6,33.878244586],[130.6,33.87500000000001],[130.5875,33.875],[130.5875,33.877909407095814]]]}},{"type":"Feature","id":"40383:50306458","properties":{"id":"40383:50306458","meshCode":"50306458","cityCode":"40383","city":"岡垣町","lat":33.8769891,"lon":130.6065897,"areaKm2":0.5052102,"populated2020":false,"population2020":null,"populationNote":"境界またぎ・収録外等のため人口未集計"},"geometry":{"type":"Polygon","coordinates":[[[130.6,33.878244586],[130.600621284,33.878372801999994],[130.600895837,33.878355748],[130.600967173,33.878796333],[130.601224669,33.879238802],[130.601348418,33.87917527900001],[130.60111902700004,33.87875464],[130.601072698,33.878375279],[130.601684189,33.87856957700001],[130.601724578,33.878759306000006],[130.601903281,33.878689468000005],[130.601821388,33.87853936],[130.601987782,33.878462441],[130.602758249,33.878638586],[130.606109857,33.878778],[130.607232698,33.87894449499999],[130.607711479,33.878922333],[130.60831703,33.879112135],[130.610872944,33.879443829],[130.611591115,33.879556198],[130.611871051,33.879682865],[130.6125,33.8797554842473],[130.6125,33.875],[130.6,33.87500000000001],[130.6,33.878244586]]]}},{"type":"Feature","id":"40383:50306459","properties":{"id":"40383:50306459","meshCode":"50306459","cityCode":"40383","city":"岡垣町","lat":33.8780144,"lon":130.6191875,"areaKm2":0.7619879,"populated2020":false,"population2020":null,"populationNote":"境界またぎ・収録外等のため人口未集計"},"geometry":{"type":"Polygon","coordinates":[[[130.625,33.875],[130.6125,33.875],[130.6125,33.8797554842473],[130.613009974,33.87978625200001],[130.613551336,33.87995230599999],[130.6140107,33.879970973],[130.614549248,33.880159198],[130.61556771700003,33.880223532],[130.615966783,33.880381027],[130.618001245,33.880837252],[130.618796693,33.880907252],[130.620027134,33.881215532000006],[130.620424034,33.881232252000004],[130.621210143,33.88143041400001],[130.621898171,33.88151566699999],[130.622427108,33.881685441],[130.622941284,33.88175744099999],[130.623472802,33.881956532],[130.624282387,33.882031829000006],[130.625,33.882240054],[130.625,33.875]]]}},{"type":"Feature","id":"40383:50306550","properties":{"id":"40383:50306550","meshCode":"50306550","cityCode":"40383","city":"岡垣町","lat":33.8790544,"lon":130.6313619,"areaKm2":1.0381803,"populated2020":false,"population2020":null,"populationNote":"境界またぎ・収録外等のため人口未集計"},"geometry":{"type":"Polygon","coordinates":[[[130.63750000000002,33.875],[130.625,33.875],[130.625,33.882240054],[130.626577886,33.882517865],[130.628228392,33.88300394600001],[130.629093528,33.883107441],[130.62990166093138,33.88333333333334],[130.63664693867565,33.883333333333326],[130.636865837,33.883127775],[130.63750000000002,33.88288713276439],[130.63750000000002,33.875]]]}},{"type":"Feature","id":"40383:50306551","properties":{"id":"40383:50306551","meshCode":"50306551","cityCode":"40383","city":"岡垣町","lat":33.8782344,"lon":130.6406493,"areaKm2":0.4554846,"populated2020":false,"population2020":null,"populationNote":"境界またぎ・収録外等のため人口未集計"},"geometry":{"type":"Polygon","coordinates":[[[130.64380083,33.877865829],[130.644081946,33.877071667],[130.644293606,33.876924441],[130.644982218,33.87676999999999],[130.645211388,33.876631667000005],[130.645252776,33.87508444099999],[130.644453281,33.875],[130.63750000000002,33.875],[130.63750000000002,33.88288713276439],[130.640739728,33.88173694599999],[130.642581946,33.881293054],[130.642738885,33.881131667],[130.643556109,33.878932225],[130.64380083,33.877865829]]]}},{"type":"Feature","id":"40383:50306463","properties":{"id":"40383:50306463","meshCode":"50306463","cityCode":"40383","city":"岡垣町","lat":33.8859522,"lon":130.5461571,"areaKm2":0.4256743,"populated2020":true,"population2020":null,"populationNote":"境界またぎ・収録外等のため人口未集計"},"geometry":{"type":"MultiPolygon","coordinates":[[[[130.5425,33.883958054],[130.54153194600002,33.88437638700001],[130.541441115,33.884520829],[130.54146083,33.884783892],[130.541733061,33.886115279],[130.541875279,33.886526667],[130.542195279,33.88696],[130.54254917,33.88768610799999],[130.542943398,33.889085738999995],[130.543070117,33.888902586],[130.543462023,33.88873758599999],[130.543683359,33.88875113500001],[130.543754254,33.888619387],[130.543615162,33.88840536],[130.543850752,33.88817705400001],[130.544550636,33.887958829],[130.545555863,33.887957414000006],[130.546823554,33.888184586],[130.547117471,33.88847636],[130.547410272,33.888632973],[130.547457951,33.88877894600001],[130.547955136,33.888862892],[130.548813139,33.889288279],[130.55,33.889571919],[130.55,33.88333333333334],[130.54275910484176,33.88333333333333],[130.5425,33.883958054]]],[[[130.543314449,33.888903748],[130.543368197,33.88887989199999],[130.543335746,33.888862919],[130.543314449,33.888903748]]],[[[130.54353856,33.888963748],[130.543442192,33.888952829],[130.543494475,33.88901930600001],[130.54353856,33.888963748]]],[[[130.543505422,33.88903438700001],[130.543484643,33.889058748],[130.543518327,33.889065441],[130.543505422,33.88903438700001]]],[[[130.543093411,33.888969829000004],[130.543001193,33.889156054],[130.543036446,33.88911136],[130.543083139,33.889199],[130.543194306,33.889189586000015],[130.543196083,33.889061559],[130.543093411,33.888969829000004]]],[[[130.543481089,33.889119225],[130.543500558,33.889175748],[130.54352345,33.889162387],[130.543481089,33.889119225]]],[[[130.54307083,33.88921464],[130.543076693,33.889309054],[130.543142309,33.889273613],[130.54307083,33.88921464]]],[[[130.543121699,33.889588999999994],[130.543158664,33.889549919],[130.543151141,33.889540694],[130.543121699,33.889588999999994]]],[[[130.543740532,33.88841125200001],[130.543791479,33.888348225],[130.543677562,33.888404531999996],[130.543740532,33.88841125200001]]],[[[130.54354066100004,33.888994865],[130.543548197,33.88904402700001],[130.543579857,33.889024919],[130.54354066100004,33.888994865]]],[[[130.543616394,33.889170775000004],[130.543591894,33.889243973],[130.543649442,33.88919477500001],[130.543616394,33.889170775000004]]],[[[130.548872309,33.88932708099999],[130.54877869,33.889324946],[130.548780895,33.889339721000006],[130.548872309,33.88932708099999]]]]}},{"type":"Feature","id":"40383:50306464","properties":{"id":"40383:50306464","meshCode":"50306464","cityCode":"40383","city":"岡垣町","lat":33.8867759,"lon":130.5563183,"areaKm2":0.8806664,"populated2020":false,"population2020":null,"populationNote":"境界またぎ・収録外等のため人口未集計"},"geometry":{"type":"MultiPolygon","coordinates":[[[[130.55,33.889571919],[130.550976057,33.889619054],[130.550901582,33.889756279],[130.551273645,33.88962697299999],[130.552056693,33.889708559000006],[130.552640532,33.88987249500001],[130.552737276,33.88999630600001],[130.553319637,33.89015222500001],[130.553506978,33.890302748],[130.554370117,33.890453559],[130.554820311,33.89068310799999],[130.555310389,33.890767027],[130.555614578,33.890710694],[130.555773061,33.89056800000001],[130.556294812,33.89038197299999],[130.557354358,33.890479027000005],[130.558382672,33.890433586],[130.558602892,33.890476468],[130.559501388,33.890273225],[130.560439883,33.89029746799999],[130.561257082,33.88994730600001],[130.561553165,33.889914559],[130.561922918,33.88993569399999],[130.5625,33.89010010872215],[130.5625,33.88333333333334],[130.55,33.88333333333334],[130.55,33.889571919]]],[[[130.55010233500002,33.889754360000005],[130.550230895,33.88973164],[130.550247523,33.88964894600001],[130.550167717,33.88965136],[130.55010233500002,33.889754360000005]]],[[[130.55224428,33.889978441],[130.552277886,33.889959198],[130.552260532,33.88995163999999],[130.55224428,33.889978441]]],[[[130.558232192,33.890597865],[130.558189248,33.890577865],[130.55818192,33.890597667],[130.558232192,33.890597865]]],[[[130.558271284,33.890627108],[130.558268781,33.890607162],[130.558248716,33.890618999999994],[130.558271284,33.890627108]]],[[[130.555880973,33.890710667],[130.555898249,33.890570441],[130.555776719,33.890635720999995],[130.555880973,33.890710667]]],[[[130.554917951,33.890825829],[130.554986161,33.890785162],[130.554970921,33.89074244100001],[130.554932827,33.890747441],[130.554917951,33.890825829]]],[[[130.555308495,33.890964225],[130.555490778,33.890859829],[130.555499105,33.89077474799999],[130.555204643,33.890935333],[130.555223113,33.891124306],[130.555348249,33.89119886499999],[130.555403671,33.89108149500001],[130.555308495,33.890964225]]],[[[130.555187756,33.89098353200001],[130.555099948,33.891028829],[130.555150973,33.891069414],[130.555187756,33.89098353200001]]],[[[130.5609093,33.890388865],[130.560864553,33.89038419799999],[130.560873645,33.890406305999996],[130.5609093,33.890388865]]],[[[130.558907951,33.89048144099999],[130.55898847,33.89052697300001],[130.55903275,33.890473224999994],[130.55895847,33.890454108],[130.558907951,33.89048144099999]]],[[[130.55825917,33.890544027],[130.558344034,33.890501414],[130.558349001,33.890481135],[130.558227134,33.890485225],[130.55825917,33.890544027]]],[[[130.558577471,33.890645414],[130.558567497,33.890607973],[130.558541829,33.890636108],[130.558577471,33.890645414]]],[[[130.558317173,33.890698865],[130.558336641,33.890782892],[130.558392438,33.89075936],[130.558317173,33.890698865]]],[[[130.558527328,33.890763279],[130.558483411,33.890747413999996],[130.558498197,33.890774973000006],[130.558527328,33.890763279]]],[[[130.558455253,33.89078069399999],[130.558427004,33.890766162],[130.558438755,33.89079433300001],[130.558455253,33.89078069399999]]]]}},{"type":"Feature","id":"40383:50306465","properties":{"id":"40383:50306465","meshCode":"50306465","cityCode":"40383","city":"岡垣町","lat":33.8869552,"lon":130.5642475,"areaKm2":0.2563177,"populated2020":true,"population2020":216.5125,"populationNote":"収録500mメッシュ人口の合算（原典収録外は補完しない）"},"geometry":{"type":"MultiPolygon","coordinates":[[[[130.56656652479802,33.88333333333333],[130.567806861,33.883868162],[130.567235084,33.885007613],[130.56753358,33.886589667],[130.567598054,33.886581414],[130.567396135,33.885009162],[130.567539637,33.884769306],[130.567453307,33.88471544099999],[130.567605136,33.884576387],[130.567572672,33.884478279],[130.567808859,33.88400736],[130.567916161,33.884015865],[130.567982672,33.88384333300001],[130.56656652479802,33.88333333333333]]],[[[130.565813333,33.888001865],[130.565651634,33.886475829],[130.566788171,33.886395081],[130.566891219,33.886843198],[130.566804137,33.88601764],[130.56583061,33.88608489200001],[130.56578939,33.885725162],[130.56557980500003,33.88573869399999],[130.565530636,33.884991613],[130.566369585,33.88474958599999],[130.566624384,33.884471532000006],[130.566515616,33.884454198],[130.566315746,33.884683387],[130.565717912,33.884788586],[130.565652581,33.884797000000006],[130.565560532,33.884637441],[130.56598447500002,33.88342994600001],[130.566403865,33.88369994599999],[130.56648703,33.884186748],[130.566581362,33.884192586],[130.566506939,33.883754946],[130.566365746,33.883537775],[130.566157302,33.88341622499999],[130.56621213977735,33.88333333333334],[130.5625,33.88333333333334],[130.5625,33.89010010872215],[130.56287786,33.890277305999994],[130.56316131,33.89057819799999],[130.563300337,33.890986467999994],[130.563083411,33.891054694],[130.563419831,33.89165744100001],[130.564068495,33.891385387],[130.564000921,33.891323468],[130.563813995,33.891365801999996],[130.56377544700004,33.89122691899999],[130.564115616,33.891157080999996],[130.56456153,33.890889694],[130.564662633,33.890693946],[130.56484847,33.89069586499999],[130.56497166,33.890583495],[130.565251051,33.889938225],[130.565185499,33.889709135],[130.565425253,33.889164135],[130.565349754,33.888749135],[130.565675914,33.888257532],[130.566432477,33.88827841399999],[130.566981971,33.888138441],[130.567341193,33.88788641399999],[130.567813139,33.88727613500001],[130.568305447,33.88694182900001],[130.568180389,33.886759559000005],[130.568014527,33.88676716199999],[130.567981777,33.886916162000006],[130.567044968,33.88784094599999],[130.566911556,33.887332387],[130.566957497,33.88778094599999],[130.566632944,33.887951107999996],[130.565813333,33.888001865]]],[[[130.565424449,33.889580252],[130.565498859,33.889574559],[130.565451608,33.889555081],[130.565424449,33.889580252]]],[[[130.565484189,33.889693694],[130.565487665,33.889669559],[130.565459883,33.88969136],[130.565484189,33.889693694]]],[[[130.563174617,33.890641694],[130.563132244,33.890721802],[130.563189079,33.890752027],[130.563174617,33.890641694]]]]}},{"type":"Feature","id":"40383:50306560","properties":{"id":"40383:50306560","meshCode":"50306560","cityCode":"40383","city":"岡垣町","lat":33.8840125,"lon":130.6340241,"areaKm2":0.0697518,"populated2020":false,"population2020":null,"populationNote":"境界またぎ・収録外等のため人口未集計"},"geometry":{"type":"Polygon","coordinates":[[[130.62990166093138,33.88333333333334],[130.631194228,33.883786387],[130.631606031,33.883779586],[130.631692438,33.883671279],[130.631910415,33.88421464],[130.631881284,33.884533081],[130.631958833,33.88452041400001],[130.632038275,33.88432249499999],[130.632214916,33.884353225],[130.632103281,33.884796306],[130.632209611,33.884753802],[130.632334034,33.884380892],[130.632798249,33.884355586000005],[130.634807665,33.884954198],[130.635642568,33.885425874000006],[130.636075837,33.884383892],[130.63664693867565,33.883333333333326],[130.62990166093138,33.88333333333334]]]}}]}