{"type":"FeatureCollection","metadata":{"cityCode":"40401","city":"小竹町","resolution":1000,"boundaryDate":"2026-01-01","populationLabel":"2020年基準人口（国交省調整値）","method":"標準地域メッシュを行政界で切抜き。中心が区域外のとき区域内代表点を判定点にする。人口不明をゼロにしない。"},"features":[{"type":"Feature","id":"40401:50304514","properties":{"id":"40401:50304514","meshCode":"50304514","cityCode":"40401","city":"小竹町","lat":33.6832349,"lon":130.6795744,"areaKm2":0.0075084,"populated2020":true,"population2020":null,"populationNote":"境界またぎ・収録外等のため人口未集計"},"geometry":{"type":"Polygon","coordinates":[[[130.681375551,33.68316389200001],[130.679349442,33.683181946],[130.679232503,33.683147775],[130.679046667,33.682923613],[130.678968054,33.683125559],[130.67873,33.68322638699999],[130.678028612,33.68305889199999],[130.677857224,33.683105279],[130.67763224384007,33.68333333333334],[130.68166830109712,33.68333333333333],[130.681375551,33.68316389200001]]]}},{"type":"Feature","id":"40401:50304515","properties":{"id":"40401:50304515","meshCode":"50304515","cityCode":"40401","city":"小竹町","lat":33.6833258,"lon":130.6895442,"areaKm2":2.85e-05,"populated2020":false,"population2020":null,"populationNote":"境界またぎ・収録外等のため人口未集計"},"geometry":{"type":"Polygon","coordinates":[[[130.689651583132,33.68333333333333],[130.689578054,33.683311667],[130.68943172433532,33.68333333333333],[130.689651583132,33.68333333333333]]]}},{"type":"Feature","id":"40401:50304516","properties":{"id":"40401:50304516","meshCode":"50304516","cityCode":"40401","city":"小竹町","lat":33.6829857,"lon":130.704109,"areaKm2":0.0333883,"populated2020":true,"population2020":null,"populationNote":"境界またぎ・収録外等のため人口未集計"},"geometry":{"type":"Polygon","coordinates":[[[130.705644994,33.682878892],[130.704457224,33.682523333000006],[130.703053891,33.682378054],[130.702595551,33.682521387],[130.702484721,33.682672775],[130.702416109,33.68307055900001],[130.701546667,33.683128054],[130.70122175087693,33.68333333333333],[130.70775513651452,33.68333333333333],[130.705644994,33.682878892]]]}},{"type":"Feature","id":"40401:50304523","properties":{"id":"40401:50304523","meshCode":"50304523","cityCode":"40401","city":"小竹町","lat":33.6901549,"lon":130.6733862,"areaKm2":0.1087297,"populated2020":false,"population2020":null,"populationNote":"境界またぎ・収録外等のため人口未集計"},"geometry":{"type":"MultiPolygon","coordinates":[[[[130.675,33.686753386999996],[130.674902776,33.687078054],[130.675,33.687706414000004],[130.675,33.686753386999996]]],[[[130.671120558,33.691082775000005],[130.6711281447742,33.69166666666667],[130.675,33.69166666666667],[130.675,33.687746054],[130.674698885,33.688299441000005],[130.673079728,33.68843082899999],[130.672404721,33.68892694600001],[130.672096109,33.689381108],[130.672024163,33.689885829],[130.671953606,33.68995055900001],[130.671626939,33.689972775],[130.671445279,33.690097775],[130.671392218,33.690220829],[130.671583891,33.690669162],[130.671120558,33.691082775000005]]]]}},{"type":"Feature","id":"40401:50304524","properties":{"id":"40401:50304524","meshCode":"50304524","cityCode":"40401","city":"小竹町","lat":33.6880743,"lon":130.6811193,"areaKm2":0.9004932,"populated2020":true,"population2020":null,"populationNote":"境界またぎ・収録外等のため人口未集計"},"geometry":{"type":"Polygon","coordinates":[[[130.677223061,33.684247775],[130.675426394,33.68659361300001],[130.675196394,33.686763333],[130.675,33.686753386999996],[130.675,33.69166666666667],[130.6875,33.69166666666667],[130.6875,33.684750398706065],[130.687417782,33.684851946],[130.68577,33.684886108],[130.685768054,33.68514638700002],[130.686703333,33.685027225],[130.68699,33.685071666999995],[130.686975837,33.685180559],[130.686148327,33.685594441000006],[130.686182776,33.685860829],[130.686088885,33.686095],[130.685485551,33.686228054000004],[130.685386939,33.68615333300001],[130.685214163,33.685665],[130.685044721,33.685568054],[130.684274721,33.685475279],[130.682908054,33.685493333],[130.682637782,33.685216946],[130.682066667,33.683882495000006],[130.681784163,33.683642225],[130.68166830109712,33.68333333333333],[130.67763224384007,33.68333333333334],[130.677223061,33.684247775]]]}},{"type":"Feature","id":"40401:50304525","properties":{"id":"40401:50304525","meshCode":"50304525","cityCode":"40401","city":"小竹町","lat":33.6882928,"lon":130.6935831,"areaKm2":0.8615827,"populated2020":true,"population2020":null,"populationNote":"境界またぎ・収録外等のため人口未集計"},"geometry":{"type":"Polygon","coordinates":[[[130.694209728,33.684815279],[130.693409442,33.68476944100001],[130.693106109,33.68445499999999],[130.692645279,33.684155],[130.693059442,33.684687775],[130.693011115,33.68487138700001],[130.692877782,33.68498222499999],[130.692458054,33.685095559000004],[130.691756667,33.68499638699999],[130.691496394,33.684590559],[130.691453891,33.68500749500001],[130.691364994,33.68508],[130.69114083000002,33.685084999999994],[130.690790558,33.684873892],[130.689826109,33.68342277499999],[130.689651583132,33.68333333333333],[130.68935805400002,33.683370279000016],[130.689276394,33.683440829],[130.689276394,33.683632495],[130.689399442,33.68396749499999],[130.689941388,33.68468222500001],[130.689884721,33.68486999999999],[130.689447782,33.684892775],[130.689088885,33.685045279000015],[130.688857224,33.684862225],[130.688550558,33.684876387],[130.688018885,33.684280829],[130.687888885,33.68419],[130.68768917,33.684218054],[130.6875,33.684750398706065],[130.6875,33.69166666666667],[130.7,33.69166666666667],[130.7,33.684474829],[130.69851166,33.685398892],[130.69794944200004,33.685600559],[130.69718,33.685713613000004],[130.696528054,33.685656946],[130.695306394,33.68533],[130.694209728,33.684815279]]]}},{"type":"Feature","id":"40401:50304526","properties":{"id":"40401:50304526","meshCode":"50304526","cityCode":"40401","city":"小竹町","lat":33.6877882,"lon":130.7058838,"areaKm2":0.9767355,"populated2020":true,"population2020":null,"populationNote":"境界またぎ・収録外等のため人口未集計"},"geometry":{"type":"Polygon","coordinates":[[[130.701047782,33.683696946],[130.7,33.684474829],[130.7,33.69166666666667],[130.7125,33.69166666666667],[130.7125,33.68738710364496],[130.711139053,33.685972559],[130.710830752,33.68530927900001],[130.710422218,33.685108613],[130.709266394,33.684243054],[130.708496667,33.683886666999996],[130.70775513651452,33.68333333333333],[130.70122175087693,33.68333333333333],[130.701047782,33.683696946]]]}},{"type":"Feature","id":"40401:50304527","properties":{"id":"40401:50304527","meshCode":"50304527","cityCode":"40401","city":"小竹町","lat":33.6900151,"lon":130.7131322,"areaKm2":0.0468236,"populated2020":true,"population2020":null,"populationNote":"境界またぎ・収録外等のため人口未集計"},"geometry":{"type":"Polygon","coordinates":[[[130.7125,33.68738710364496],[130.7125,33.69166666666667],[130.71422114084365,33.69166666666668],[130.713854163,33.690743333],[130.713791141,33.689973162],[130.713395253,33.688133666999995],[130.712841608,33.688239586],[130.7125,33.68738710364496]]]}},{"type":"Feature","id":"40401:50304533","properties":{"id":"40401:50304533","meshCode":"50304533","cityCode":"40401","city":"小竹町","lat":33.6937659,"lon":130.6735121,"areaKm2":0.1379462,"populated2020":true,"population2020":null,"populationNote":"境界またぎ・収録外等のため人口未集計"},"geometry":{"type":"Polygon","coordinates":[[[130.6711281447742,33.69166666666667],[130.671549442,33.69215305400001],[130.671546394,33.692580559],[130.671841388,33.693713892000005],[130.672887497,33.694583054],[130.672603333,33.694966108],[130.672566939,33.695154441],[130.672723891,33.696088892000006],[130.67321083000002,33.696453892],[130.673388054,33.696496387],[130.673887782,33.696339161999994],[130.674817497,33.69625027899999],[130.675,33.69640674800001],[130.675,33.69166666666667],[130.6711281447742,33.69166666666667]]]}},{"type":"Feature","id":"40401:50304534","properties":{"id":"40401:50304534","meshCode":"50304534","cityCode":"40401","city":"小竹町","lat":33.695352,"lon":130.6814864,"areaKm2":0.9325078,"populated2020":true,"population2020":null,"populationNote":"境界またぎ・収録外等のため人口未集計"},"geometry":{"type":"Polygon","coordinates":[[[130.6875,33.69166666666667],[130.675,33.69166666666667],[130.675,33.69640674800001],[130.675098612,33.69663361300001],[130.675082503,33.69705889200001],[130.675161946,33.697266667],[130.675669728,33.697893613000005],[130.676244994,33.69795805399999],[130.677080272,33.697695],[130.677454449,33.698006387],[130.67795472100002,33.698033613],[130.678668612,33.698545829000004],[130.679103333,33.698654999999995],[130.679250558,33.699060279],[130.680555837,33.699176387],[130.680790558,33.699407495],[130.680953606,33.7],[130.684943969,33.7],[130.685334994,33.699060559],[130.685405837,33.698024162],[130.685546939,33.697812494999994],[130.685825551,33.697778054],[130.686052503,33.697851667],[130.686461946,33.69887333300001],[130.6875,33.698930072387796],[130.6875,33.69166666666667]]]}},{"type":"Feature","id":"40401:50304535","properties":{"id":"40401:50304535","meshCode":"50304535","cityCode":"40401","city":"小竹町","lat":33.6955276,"lon":130.6938247,"areaKm2":0.9905529,"populated2020":true,"population2020":1508.3263,"populationNote":"収録500mメッシュ人口の合算（原典収録外は補完しない）"},"geometry":{"type":"Polygon","coordinates":[[[130.7,33.69166666666667],[130.6875,33.69166666666667],[130.6875,33.698930072387796],[130.688324163,33.699216108],[130.690181946,33.699290829],[130.690914721,33.699427775],[130.691412503,33.699631387],[130.69214917,33.69954666700001],[130.69292944200004,33.699318892],[130.693849442,33.69917361299999],[130.695085551,33.699147495],[130.695874449,33.69884555899999],[130.696550272,33.698988613],[130.697354163,33.699379441],[130.698143476,33.7],[130.7,33.7],[130.7,33.69166666666667]]]}},{"type":"Feature","id":"40401:50304536","properties":{"id":"40401:50304536","meshCode":"50304536","cityCode":"40401","city":"小竹町","lat":33.6958321,"lon":130.7062393,"areaKm2":1.0691377,"populated2020":true,"population2020":645.3127,"populationNote":"収録500mメッシュ人口の合算（原典収録外は補完しない）"},"geometry":{"type":"Polygon","coordinates":[[[130.7125,33.69166666666667],[130.7,33.69166666666667],[130.7,33.7],[130.712481582,33.7],[130.7125,33.697100634317216],[130.712190272,33.696493054],[130.7125,33.69603872604015],[130.7125,33.69166666666667]]]}},{"type":"Feature","id":"40401:50304537","properties":{"id":"40401:50304537","meshCode":"50304537","cityCode":"40401","city":"小竹町","lat":33.6937788,"lon":130.7133738,"areaKm2":0.0771562,"populated2020":true,"population2020":null,"populationNote":"境界またぎ・収録外等のため人口未集計"},"geometry":{"type":"MultiPolygon","coordinates":[[[[130.7125,33.69603872604015],[130.713371388,33.69452249500001],[130.713617224,33.694233892],[130.714324163,33.69369694600001],[130.714601388,33.693390279],[130.714831388,33.692956667],[130.714684994,33.692516946000005],[130.71422114084365,33.69166666666668],[130.7125,33.69166666666667],[130.7125,33.69603872604015]]],[[[130.7125,33.69996588039374],[130.713326615,33.698372468],[130.7125,33.697100634317216],[130.7125,33.69996588039374]]],[[[130.722275837,33.7],[130.721351946,33.699777225000005],[130.720710272,33.69977333300001],[130.720365551,33.69983],[130.720139468,33.7],[130.722275837,33.7]]]]}},{"type":"Feature","id":"40401:50304544","properties":{"id":"40401:50304544","meshCode":"50304544","cityCode":"40401","city":"小竹町","lat":33.7015835,"lon":130.6833947,"areaKm2":0.1188342,"populated2020":true,"population2020":null,"populationNote":"境界またぎ・収録外等のため人口未集計"},"geometry":{"type":"Polygon","coordinates":[[[130.681020272,33.70017444100001],[130.681387497,33.700578892],[130.681486667,33.70166527899999],[130.681619442,33.701929441],[130.682199442,33.702511946],[130.682457224,33.703085279],[130.68306166,33.703492775],[130.683492218,33.703553333],[130.684563333,33.70343222500001],[130.684788885,33.703339441],[130.685032776,33.702950279],[130.685148612,33.70213972100001],[130.685447782,33.70155472100001],[130.685355837,33.701196108],[130.68497527900004,33.700800829],[130.684897497,33.700286667],[130.684943969,33.7],[130.680953606,33.7],[130.681020272,33.70017444100001]]]}},{"type":"Feature","id":"40401:50304545","properties":{"id":"40401:50304545","meshCode":"50304545","cityCode":"40401","city":"小竹町","lat":33.7049844,"lon":130.6986882,"areaKm2":0.1907142,"populated2020":true,"population2020":null,"populationNote":"境界またぎ・収録外等のため人口未集計"},"geometry":{"type":"Polygon","coordinates":[[[130.698143476,33.7],[130.698879442,33.701084441],[130.698683891,33.703083333],[130.698964994,33.70385499999999],[130.698767782,33.704093054],[130.698648885,33.704129162000015],[130.697383061,33.703876946],[130.69712917,33.70394138699999],[130.69706083,33.704054441000004],[130.696719728,33.705263054],[130.69691,33.70593000000001],[130.696804721,33.707107225],[130.697131946,33.707828332999995],[130.69694596594536,33.708333333333336],[130.7,33.70833333333334],[130.7,33.7],[130.698143476,33.7]]]}},{"type":"Feature","id":"40401:50304546","properties":{"id":"40401:50304546","meshCode":"50304546","cityCode":"40401","city":"小竹町","lat":33.7041731,"lon":130.7062392,"areaKm2":1.0690085,"populated2020":true,"population2020":297.0839,"populationNote":"収録500mメッシュ人口の合算（原典収録外は補完しない）"},"geometry":{"type":"Polygon","coordinates":[[[130.7125,33.70083476876275],[130.712076667,33.70074741399999],[130.712481582,33.7],[130.7,33.7],[130.7,33.70833333333334],[130.7125,33.708333333333336],[130.7125,33.70083476876275]]]}},{"type":"Feature","id":"40401:50304547","properties":{"id":"40401:50304547","meshCode":"50304547","cityCode":"40401","city":"小竹町","lat":33.7045063,"lon":130.7189317,"areaKm2":0.9787074,"populated2020":true,"population2020":null,"populationNote":"境界またぎ・収録外等のため人口未集計"},"geometry":{"type":"Polygon","coordinates":[[[130.724456109,33.700737225000005],[130.723813061,33.700368054],[130.722431388,33.700023333],[130.720139468,33.7],[130.719314241,33.70046735999999],[130.719150428,33.700667351],[130.718890908,33.700647351],[130.718612983,33.700875036],[130.718038612,33.700754720999996],[130.717656109,33.700775559],[130.717317497,33.701179162],[130.717055551,33.700935],[130.716572776,33.70152],[130.715673891,33.70127361299999],[130.715448885,33.701273613],[130.714820558,33.701531667],[130.714391115,33.701592225],[130.714148054,33.701588054],[130.714156109,33.701428891999996],[130.713748885,33.70135],[130.713707886,33.70103430599999],[130.7125,33.70083476876275],[130.7125,33.708333333333336],[130.725,33.708333333333336],[130.725,33.70117013499999],[130.724456109,33.700737225000005]]]}},{"type":"Feature","id":"40401:50304548","properties":{"id":"40401:50304548","meshCode":"50304548","cityCode":"40401","city":"小竹町","lat":33.7054982,"lon":130.7259431,"areaKm2":0.1217167,"populated2020":true,"population2020":null,"populationNote":"境界またぎ・収録外等のため人口未集計"},"geometry":{"type":"Polygon","coordinates":[[[130.726874994,33.704504162000006],[130.726068885,33.703471387],[130.726234994,33.702884721],[130.726192776,33.702449162],[130.726030272,33.701999721],[130.725,33.70117013499999],[130.725,33.708333333333336],[130.72748175115612,33.70833333333333],[130.727405279,33.707843054],[130.72748888500004,33.707474440999995],[130.727300272,33.706476108],[130.72697166,33.706123053999995],[130.726757224,33.705643333],[130.726874994,33.704504162000006]]]}},{"type":"Feature","id":"40401:50304555","properties":{"id":"40401:50304555","meshCode":"50304555","cityCode":"40401","city":"小竹町","lat":33.7125438,"lon":130.6984036,"areaKm2":0.2659816,"populated2020":true,"population2020":null,"populationNote":"境界またぎ・収録外等のため人口未集計"},"geometry":{"type":"Polygon","coordinates":[[[130.696840558,33.708676387],[130.697036109,33.70908138699999],[130.697014994,33.70930305400001],[130.696815551,33.70971222499999],[130.696642776,33.711735000000004],[130.696874449,33.711904162],[130.696948885,33.712065558999996],[130.696966939,33.712998054],[130.697339442,33.713491946],[130.697723061,33.713630829],[130.69787,33.71419082900001],[130.697631388,33.714841387],[130.697508612,33.715036946],[130.69728917,33.715178054],[130.696930272,33.715211667],[130.696418612,33.71494610799999],[130.696229442,33.715091108],[130.6959838911047,33.71666666666667],[130.7,33.716666666666676],[130.7,33.70833333333334],[130.69694596594536,33.708333333333336],[130.696840558,33.708676387]]]}},{"type":"Feature","id":"40401:50304556","properties":{"id":"40401:50304556","meshCode":"50304556","cityCode":"40401","city":"小竹町","lat":33.7125,"lon":130.70625,"areaKm2":1.0707902,"populated2020":true,"population2020":200.5605,"populationNote":"収録500mメッシュ人口の合算（原典収録外は補完しない）"},"geometry":{"type":"Polygon","coordinates":[[[130.7125,33.708333333333336],[130.7,33.70833333333334],[130.7,33.716666666666676],[130.7125,33.716666666666676],[130.7125,33.708333333333336]]]}},{"type":"Feature","id":"40401:50304557","properties":{"id":"40401:50304557","meshCode":"50304557","cityCode":"40401","city":"小竹町","lat":33.712481,"lon":130.7187177,"areaKm2":1.0650807,"populated2020":true,"population2020":452.9115,"populationNote":"収録500mメッシュ人口の合算（原典収録外は補完しない）"},"geometry":{"type":"Polygon","coordinates":[[[130.725,33.708333333333336],[130.7125,33.708333333333336],[130.7125,33.716666666666676],[130.72462561557703,33.71666666666667],[130.72453083,33.71652833299999],[130.724513333,33.71579110799999],[130.724585837,33.715626108],[130.725,33.715217829],[130.725,33.708333333333336]]]}},{"type":"Feature","id":"40401:50304558","properties":{"id":"40401:50304558","meshCode":"50304558","cityCode":"40401","city":"小竹町","lat":33.710959,"lon":130.7258163,"areaKm2":0.0960039,"populated2020":true,"population2020":null,"populationNote":"境界またぎ・収録外等のため人口未集計"},"geometry":{"type":"Polygon","coordinates":[[[130.726518612,33.712690279],[130.726137224,33.712053892],[130.726078327,33.711236107999994],[130.726335837,33.710787225],[130.72636,33.710253613000006],[130.726760558,33.710211387],[130.726876109,33.710018054],[130.727022218,33.709298892],[130.727642218,33.708871946],[130.727726667,33.708648892],[130.72748175115612,33.70833333333333],[130.725,33.708333333333336],[130.725,33.715217829],[130.725283061,33.715084441],[130.725621388,33.714766387000004],[130.726056939,33.713789721],[130.725948327,33.71340333300001],[130.725997224,33.712998333],[130.726518612,33.712690279]]]}},{"type":"Feature","id":"40401:50304565","properties":{"id":"40401:50304565","meshCode":"50304565","cityCode":"40401","city":"小竹町","lat":33.7194624,"lon":130.6980622,"areaKm2":0.2373247,"populated2020":true,"population2020":null,"populationNote":"境界またぎ・収録外等のため人口未集計"},"geometry":{"type":"Polygon","coordinates":[[[130.6959838911047,33.71666666666667],[130.69537166,33.719839441000005],[130.695668054,33.72013277500001],[130.696632503,33.720463054],[130.696945837,33.720655279],[130.696944449,33.722074441],[130.697111115,33.722425829],[130.697293333,33.722483333],[130.697970558,33.722363054],[130.698876109,33.72244638699999],[130.69924917,33.72276666700001],[130.699659442,33.72352722499999],[130.699852776,33.72372055900001],[130.7,33.72374536000001],[130.7,33.716666666666676],[130.6959838911047,33.71666666666667]]]}},{"type":"Feature","id":"40401:50304566","properties":{"id":"40401:50304566","meshCode":"50304566","cityCode":"40401","city":"小竹町","lat":33.7207825,"lon":130.7063172,"areaKm2":1.0562797,"populated2020":true,"population2020":190.3681,"populationNote":"収録500mメッシュ人口の合算（原典収録外は補完しない）"},"geometry":{"type":"Polygon","coordinates":[[[130.7125,33.716666666666676],[130.7,33.716666666666676],[130.7,33.72374536000001],[130.700234994,33.72378499999999],[130.70075,33.724145559],[130.701080558,33.72418889200001],[130.701316109,33.72473],[130.70200939,33.725],[130.709825188,33.725],[130.710721388,33.724823333],[130.710755422,33.725],[130.7125,33.725],[130.7125,33.716666666666676]]]}},{"type":"Feature","id":"40401:50304567","properties":{"id":"40401:50304567","meshCode":"50304567","cityCode":"40401","city":"小竹町","lat":33.7208365,"lon":130.7187452,"areaKm2":1.0698401,"populated2020":true,"population2020":605.5846,"populationNote":"収録500mメッシュ人口の合算（原典収録外は補完しない）"},"geometry":{"type":"Polygon","coordinates":[[[130.725,33.71701491899999],[130.724780272,33.716928892000006],[130.72462561557703,33.71666666666667],[130.7125,33.716666666666676],[130.7125,33.725],[130.725,33.724999999999994],[130.725,33.71701491899999]]]}},{"type":"Feature","id":"40401:50304568","properties":{"id":"40401:50304568","meshCode":"50304568","cityCode":"40401","city":"小竹町","lat":33.721425,"lon":130.7258433,"areaKm2":0.1305127,"populated2020":true,"population2020":null,"populationNote":"境界またぎ・収録外等のため人口未集計"},"geometry":{"type":"Polygon","coordinates":[[[130.726630272,33.718360829],[130.726056667,33.718076946000004],[130.725923606,33.717847225],[130.725623891,33.717633892],[130.725497782,33.717158333],[130.725,33.71701491899999],[130.725,33.724999999999994],[130.726869728,33.724999999999994],[130.726630272,33.718360829]]]}},{"type":"Feature","id":"40401:50304576","properties":{"id":"40401:50304576","meshCode":"50304576","cityCode":"40401","city":"小竹町","lat":33.7254046,"lon":130.7042237,"areaKm2":0.1423143,"populated2020":true,"population2020":null,"populationNote":"境界またぎ・収録外等のため人口未集計"},"geometry":{"type":"MultiPolygon","coordinates":[[[[130.706760558,33.725426387000006],[130.707454994,33.72522472099999],[130.707595551,33.725263054],[130.707789728,33.725601108],[130.709280558,33.725112495000005],[130.709825188,33.725],[130.70200939,33.725],[130.702637782,33.725244721],[130.70294166,33.725747775],[130.70368472100003,33.725836387],[130.705885279,33.72537555899999],[130.706760558,33.725426387000006]]],[[[130.711021115,33.72538472099999],[130.711373891,33.72510333300001],[130.711884721,33.725284162],[130.71206250300003,33.725773333],[130.71204166,33.726442775],[130.711911115,33.72676472100001],[130.711756109,33.726917495],[130.711266667,33.727150829],[130.71067166,33.727239440999995],[130.710450272,33.72744861300001],[130.710348885,33.727738333],[130.710664449,33.72827166700001],[130.710647224,33.728490279],[130.710331115,33.729944441],[130.710160272,33.730320559],[130.710347224,33.730923892],[130.710907782,33.731060829],[130.711313061,33.731881108],[130.711967224,33.731983892],[130.712093891,33.731935559],[130.712336394,33.731467225],[130.712213891,33.73117361300001],[130.712296109,33.731063054],[130.7125,33.731079074390756],[130.7125,33.725],[130.710755422,33.725],[130.710681115,33.725268054000004],[130.711021115,33.72538472099999]]],[[[130.71238,33.732267775],[130.7125,33.73229442410702],[130.7125,33.732056360817246],[130.712414163,33.732136946000004],[130.71238,33.732267775]]]]}},{"type":"Feature","id":"40401:50304577","properties":{"id":"40401:50304577","meshCode":"50304577","cityCode":"40401","city":"小竹町","lat":33.7280805,"lon":130.7184769,"areaKm2":0.7731316,"populated2020":true,"population2020":null,"populationNote":"境界またぎ・収録外等のため人口未集計"},"geometry":{"type":"Polygon","coordinates":[[[130.725,33.724999999999994],[130.7125,33.725],[130.7125,33.731079074390756],[130.71280083,33.731238054],[130.712917497,33.731525559],[130.712621115,33.731718613],[130.7125,33.73229442410702],[130.712691946,33.732247495],[130.713026667,33.73233194600001],[130.713630558,33.732128892],[130.713803606,33.73213277499999],[130.714313061,33.73254416200001],[130.714533333,33.732103333],[130.714645837,33.73204305400001],[130.715261388,33.73197499999999],[130.716068885,33.731648892],[130.716958054,33.731453613],[130.717748327,33.730649162000006],[130.718545551,33.730290829000005],[130.718952776,33.729965279000005],[130.719579442,33.72918416200001],[130.719939728,33.729463892000005],[130.720743061,33.729870829],[130.722322776,33.730469721],[130.723552503,33.731141946],[130.724093606,33.73161889199999],[130.725,33.731704865],[130.725,33.724999999999994]]]}},{"type":"Feature","id":"40401:50304578","properties":{"id":"40401:50304578","meshCode":"50304578","cityCode":"40401","city":"小竹町","lat":33.7287272,"lon":130.725835,"areaKm2":0.0919061,"populated2020":true,"population2020":null,"populationNote":"境界またぎ・収録外等のため人口未集計"},"geometry":{"type":"Polygon","coordinates":[[[130.727316667,33.729298054000004],[130.725356667,33.727706108],[130.725025551,33.727319441],[130.725118885,33.727065829],[130.72624166,33.725858054],[130.726402503,33.72572722500001],[130.726893333,33.725652775],[130.726869728,33.724999999999994],[130.725,33.724999999999994],[130.725,33.731704865],[130.726424721,33.731582495000005],[130.726575551,33.73146972100001],[130.726932503,33.73079361300001],[130.726733333,33.730479721],[130.726774449,33.730155559],[130.726895279,33.729857495],[130.727316667,33.729298054000004]]]}}]}