{"type":"FeatureCollection","metadata":{"cityCode":"40402","city":"鞍手町","resolution":1000,"boundaryDate":"2026-01-01","populationLabel":"2020年基準人口（国交省調整値）","method":"標準地域メッシュを行政界で切抜き。中心が区域外のとき区域内代表点を判定点にする。人口不明をゼロにしない。"},"features":[{"type":"Feature","id":"40402:50304582","properties":{"id":"40402:50304582","meshCode":"50304582","cityCode":"40402","city":"鞍手町","lat":33.7408375,"lon":130.659725,"areaKm2":0.0835665,"populated2020":false,"population2020":null,"populationNote":"境界またぎ・収録外等のため人口未集計"},"geometry":{"type":"Polygon","coordinates":[[[130.657662503,33.740577495],[130.657274994,33.741080829],[130.6572701691887,33.74166666666666],[130.6625,33.74166666666667],[130.6625,33.740628797892214],[130.661225279,33.740060279],[130.661128054,33.740064441],[130.660307224,33.740640279],[130.660116667,33.74052889199999],[130.659868054,33.74005610799999],[130.65955166,33.739869440999996],[130.659137782,33.739751667],[130.658798327,33.73978000000001],[130.658211946,33.739623613000006],[130.657464721,33.739599441],[130.65742000000003,33.739737495],[130.65771722400004,33.740360278999994],[130.657662503,33.740577495]]]}},{"type":"Feature","id":"40402:50304583","properties":{"id":"40402:50304583","meshCode":"50304583","cityCode":"40402","city":"鞍手町","lat":33.7412464,"lon":130.6662697,"areaKm2":0.0621537,"populated2020":true,"population2020":null,"populationNote":"境界またぎ・収録外等のため人口未集計"},"geometry":{"type":"Polygon","coordinates":[[[130.668655279,33.74135694600001],[130.668496939,33.741117495000005],[130.66790166,33.74061],[130.667757497,33.74050666699999],[130.667461388,33.740468054000004],[130.666831946,33.740423613],[130.665684721,33.740961387000006],[130.664918885,33.741040559],[130.664125279,33.740878054],[130.663176667,33.740941387],[130.662913061,33.740894721000004],[130.6625,33.740628797892214],[130.6625,33.74166666666667],[130.6710124763839,33.74166666666666],[130.670786939,33.74120472100001],[130.67006,33.74130416199999],[130.669688885,33.741186387000006],[130.669441388,33.74144416200001],[130.669332776,33.741464441],[130.668951388,33.741454441],[130.668655279,33.74135694600001]]]}},{"type":"Feature","id":"40402:50304592","properties":{"id":"40402:50304592","meshCode":"50304592","cityCode":"40402","city":"鞍手町","lat":33.7460979,"lon":130.6584315,"areaKm2":0.6861859,"populated2020":true,"population2020":39.3191,"populationNote":"収録500mメッシュ人口の合算（原典収録外は補完しない）"},"geometry":{"type":"Polygon","coordinates":[[[130.65717610900003,33.741749721],[130.65666917,33.74183694600001],[130.656083606,33.742652495],[130.65528166,33.742981387],[130.655046394,33.743251387],[130.654822218,33.743963613000005],[130.654542218,33.744196946],[130.654510272,33.74479972100001],[130.653937224,33.745664440999995],[130.653894721,33.74584110800001],[130.653894721,33.746027775],[130.654216109,33.746383054],[130.654513333,33.74713972100002],[130.654691946,33.747363054],[130.654691946,33.747523333],[130.654307224,33.747833892],[130.653958327,33.748377775],[130.65316,33.749080279],[130.652817224,33.74968055900001],[130.652487082,33.75],[130.6625,33.75],[130.6625,33.74166666666667],[130.6572701691887,33.74166666666666],[130.65717610900003,33.741749721]]]}},{"type":"Feature","id":"40402:50304593","properties":{"id":"40402:50304593","meshCode":"50304593","cityCode":"40402","city":"鞍手町","lat":33.7460015,"lon":130.6685072,"areaKm2":1.019485,"populated2020":true,"population2020":94.4904,"populationNote":"収録500mメッシュ人口の合算（原典収録外は補完しない）"},"geometry":{"type":"Polygon","coordinates":[[[130.675,33.74391966700001],[130.674551946,33.743619721],[130.673847224,33.743493892],[130.673214449,33.743081667],[130.672377224,33.742745],[130.671986939,33.742233892],[130.6710124763839,33.74166666666666],[130.6625,33.74166666666667],[130.6625,33.75],[130.675,33.75000000000001],[130.675,33.74391966700001]]]}},{"type":"Feature","id":"40402:50304594","properties":{"id":"40402:50304594","meshCode":"50304594","cityCode":"40402","city":"鞍手町","lat":33.7475667,"lon":130.6786843,"areaKm2":0.3948097,"populated2020":false,"population2020":null,"populationNote":"境界またぎ・収録外等のため人口未集計"},"geometry":{"type":"Polygon","coordinates":[[[130.680384163,33.746030559],[130.680186394,33.74561055899999],[130.680263333,33.745275829],[130.679853606,33.74456305399999],[130.679623606,33.743680279],[130.679471388,33.743459162],[130.678856109,33.743783892],[130.678669442,33.744240559000005],[130.678407782,33.74444749500001],[130.677465551,33.74487805399999],[130.675878612,33.744381108],[130.675,33.74391966700001],[130.675,33.75000000000001],[130.685284086,33.75],[130.685223061,33.749729721],[130.684962776,33.74947222500001],[130.684846109,33.749080279],[130.684250558,33.748444441000004],[130.683386939,33.748688613],[130.683101946,33.74859416200001],[130.682822218,33.748362775],[130.682547224,33.74830416199999],[130.682060272,33.748448333],[130.681777497,33.748458333],[130.68160083000004,33.74838305400001],[130.680932503,33.747386666999994],[130.680767224,33.74641194600001],[130.680384163,33.746030559]]]}},{"type":"Feature","id":"40402:50305502","properties":{"id":"40402:50305502","meshCode":"50305502","cityCode":"40402","city":"鞍手町","lat":33.754168,"lon":130.6573981,"areaKm2":0.8725939,"populated2020":true,"population2020":319.8268,"populationNote":"収録500mメッシュ人口の合算（原典収録外は補完しない）"},"geometry":{"type":"Polygon","coordinates":[[[130.652016939,33.75031389200001],[130.651984449,33.750821386999995],[130.652786667,33.751290279],[130.652970272,33.752227495],[130.652673061,33.752692225],[130.652133606,33.753075559],[130.651794163,33.75372500000001],[130.651935551,33.754676387],[130.652083061,33.755014441],[130.65195917000003,33.755477774999996],[130.651987782,33.755672495],[130.652567224,33.757259441],[130.65259625196063,33.75833333333333],[130.6625,33.75833333333333],[130.6625,33.75],[130.652487082,33.75],[130.652016939,33.75031389200001]]]}},{"type":"Feature","id":"40402:50305503","properties":{"id":"40402:50305503","meshCode":"50305503","cityCode":"40402","city":"鞍手町","lat":33.7541667,"lon":130.66875,"areaKm2":1.0702853,"populated2020":true,"population2020":154.3492,"populationNote":"収録500mメッシュ人口の合算（原典収録外は補完しない）"},"geometry":{"type":"Polygon","coordinates":[[[130.675,33.75000000000001],[130.6625,33.75],[130.6625,33.75833333333333],[130.675,33.75833333333333],[130.675,33.75000000000001]]]}},{"type":"Feature","id":"40402:50305504","properties":{"id":"40402:50305504","meshCode":"50305504","cityCode":"40402","city":"鞍手町","lat":33.7537557,"lon":130.6792232,"areaKm2":0.7013692,"populated2020":true,"population2020":null,"populationNote":"境界またぎ・収録外等のため人口未集計"},"geometry":{"type":"Polygon","coordinates":[[[130.683012503,33.754032495],[130.68308166,33.753655559],[130.683042218,33.75304610799999],[130.683171115,33.75292944099999],[130.684168885,33.752489162],[130.684508612,33.752185279],[130.684771946,33.751787495],[130.68531166,33.751538054],[130.685438327,33.751342775],[130.685639728,33.75051416200001],[130.685377782,33.75026861300001],[130.685284086,33.75],[130.675,33.75000000000001],[130.675,33.75833333333333],[130.68143678293876,33.758333333333326],[130.681553333,33.75771],[130.681449728,33.75736444099999],[130.681478327,33.756858613],[130.681847224,33.756046387],[130.682507782,33.755561108],[130.682678054,33.755353333],[130.682700558,33.75463694599999],[130.683012503,33.754032495]]]}},{"type":"Feature","id":"40402:50305512","properties":{"id":"40402:50305512","meshCode":"50305512","cityCode":"40402","city":"鞍手町","lat":33.7625615,"lon":130.657198,"areaKm2":0.9066781,"populated2020":true,"population2020":299.9137,"populationNote":"収録500mメッシュ人口の合算（原典収録外は補完しない）"},"geometry":{"type":"Polygon","coordinates":[[[130.65254917,33.758794441],[130.651874449,33.759843613],[130.65177917,33.760656946],[130.651908885,33.761433054],[130.652418327,33.76202527899999],[130.652481115,33.762761387],[130.651968612,33.76315722499999],[130.651758612,33.763481108],[130.651488054,33.764829721],[130.651695837,33.765752495],[130.6510623092439,33.76666666666666],[130.6625,33.766666666666666],[130.6625,33.75833333333333],[130.65259625196063,33.75833333333333],[130.65254917,33.758794441]]]}},{"type":"Feature","id":"40402:50305513","properties":{"id":"40402:50305513","meshCode":"50305513","cityCode":"40402","city":"鞍手町","lat":33.7625,"lon":130.66875,"areaKm2":1.0701832,"populated2020":true,"population2020":138.7103,"populationNote":"収録500mメッシュ人口の合算（原典収録外は補完しない）"},"geometry":{"type":"Polygon","coordinates":[[[130.675,33.75833333333333],[130.6625,33.75833333333333],[130.6625,33.766666666666666],[130.675,33.76666666666666],[130.675,33.75833333333333]]]}},{"type":"Feature","id":"40402:50305514","properties":{"id":"40402:50305514","meshCode":"50305514","cityCode":"40402","city":"鞍手町","lat":33.7628359,"lon":130.6788182,"areaKm2":0.5765617,"populated2020":true,"population2020":null,"populationNote":"境界またぎ・収録外等のため人口未集計"},"geometry":{"type":"Polygon","coordinates":[[[130.68143678293876,33.758333333333326],[130.675,33.75833333333333],[130.675,33.76666666666666],[130.6875,33.76666666666666],[130.6875,33.765706664454186],[130.686706939,33.765110279],[130.686486939,33.76503833300001],[130.685803333,33.765204721],[130.68512917,33.765198613],[130.684174994,33.765698613000005],[130.683627224,33.765770279],[130.68302083,33.765698333],[130.681169442,33.766206108],[130.681013061,33.766200000000005],[130.68048083,33.765558613],[130.680358327,33.765389721000005],[130.680384163,33.764320559000005],[130.680136394,33.76366861299999],[130.680103606,33.763171108],[130.68029166,33.762971667],[130.68099555100002,33.76259333299999],[130.681444449,33.761139721],[130.68145166,33.76060916200001],[130.681224449,33.76001277500001],[130.681183333,33.759556387],[130.68143678293876,33.758333333333326]]]}},{"type":"Feature","id":"40402:50305515","properties":{"id":"40402:50305515","meshCode":"50305515","cityCode":"40402","city":"鞍手町","lat":33.7663266,"lon":130.6891323,"areaKm2":0.0242002,"populated2020":true,"population2020":null,"populationNote":"境界またぎ・収録外等のため人口未集計"},"geometry":{"type":"Polygon","coordinates":[[[130.691343606,33.76654527899999],[130.689359442,33.765817225000006],[130.68912917000003,33.765811108],[130.688304163,33.766043333000006],[130.687783606,33.765920279],[130.6875,33.765706664454186],[130.6875,33.76666666666666],[130.691502022565,33.766666666666666],[130.691343606,33.76654527899999]]]}},{"type":"Feature","id":"40402:50305521","properties":{"id":"40402:50305521","meshCode":"50305521","cityCode":"40402","city":"鞍手町","lat":33.7699768,"lon":130.6496548,"areaKm2":0.0159742,"populated2020":true,"population2020":null,"populationNote":"境界またぎ・収録外等のため人口未集計"},"geometry":{"type":"MultiPolygon","coordinates":[[[[130.649893061,33.769321108],[130.649393061,33.76955889199999],[130.649296667,33.770501946],[130.649474994,33.770752225],[130.65,33.770836108],[130.65,33.769106252],[130.649893061,33.769321108]]],[[[130.649828327,33.774067225],[130.649793606,33.77456555900001],[130.649586667,33.77468027900001],[130.64868166,33.774671946],[130.64854778200004,33.774774441000005],[130.648544228,33.775000000000006],[130.65,33.775000000000006],[130.65,33.773806801999996],[130.649828327,33.774067225]]]]}},{"type":"Feature","id":"40402:50305522","properties":{"id":"40402:50305522","meshCode":"50305522","cityCode":"40402","city":"鞍手町","lat":33.7708466,"lon":130.6564155,"areaKm2":1.0409784,"populated2020":true,"population2020":331.2177,"populationNote":"収録500mメッシュ人口の合算（原典収録外は補完しない）"},"geometry":{"type":"Polygon","coordinates":[[[130.6510623092439,33.76666666666666],[130.65046083,33.76765249499999],[130.650398327,33.768285829],[130.65014,33.768595279],[130.65,33.769106252],[130.65,33.770836108],[130.650267224,33.771020829],[130.650488327,33.771371387],[130.650768327,33.771619721],[130.650895279,33.77208499999999],[130.65064,33.772691946],[130.650488327,33.77340082900001],[130.65,33.773806801999996],[130.65,33.775000000000006],[130.6625,33.775],[130.6625,33.766666666666666],[130.6510623092439,33.76666666666666]]]}},{"type":"Feature","id":"40402:50305523","properties":{"id":"40402:50305523","meshCode":"50305523","cityCode":"40402","city":"鞍手町","lat":33.7708333,"lon":130.66875,"areaKm2":1.0700811,"populated2020":true,"population2020":706.4386,"populationNote":"収録500mメッシュ人口の合算（原典収録外は補完しない）"},"geometry":{"type":"Polygon","coordinates":[[[130.675,33.76666666666666],[130.6625,33.766666666666666],[130.6625,33.775],[130.675,33.775],[130.675,33.76666666666666]]]}},{"type":"Feature","id":"40402:50305524","properties":{"id":"40402:50305524","meshCode":"50305524","cityCode":"40402","city":"鞍手町","lat":33.7708333,"lon":130.68125,"areaKm2":1.0700792,"populated2020":true,"population2020":256.5284,"populationNote":"収録500mメッシュ人口の合算（原典収録外は補完しない）"},"geometry":{"type":"Polygon","coordinates":[[[130.6875,33.76666666666666],[130.675,33.76666666666666],[130.675,33.775],[130.6875,33.775],[130.6875,33.76666666666666]]]}},{"type":"Feature","id":"40402:50305525","properties":{"id":"40402:50305525","meshCode":"50305525","cityCode":"40402","city":"鞍手町","lat":33.7710876,"lon":130.6932984,"areaKm2":0.9593261,"populated2020":true,"population2020":null,"populationNote":"境界またぎ・収録外等のため人口未集計"},"geometry":{"type":"Polygon","coordinates":[[[130.693103061,33.767752494999996],[130.69214,33.767557225],[130.691858612,33.767341386999995],[130.691502022565,33.766666666666666],[130.6875,33.76666666666666],[130.6875,33.775],[130.699716329,33.77499999999999],[130.699756109,33.774641108],[130.7,33.774313495],[130.7,33.773223919],[130.699438885,33.773172775000006],[130.699235551,33.77303082899999],[130.699230272,33.772035559],[130.698978327,33.771202775],[130.699060558,33.770799721],[130.699425551,33.77023194600001],[130.699448054,33.770038613],[130.699121388,33.76906194600001],[130.698561388,33.768346387],[130.698444163,33.767824162],[130.697931388,33.76747861300001],[130.69732,33.767256667],[130.696367497,33.766759162],[130.69545,33.766678892],[130.69362917000004,33.767608613],[130.693103061,33.767752494999996]]]}},{"type":"Feature","id":"40402:50305526","properties":{"id":"40402:50305526","meshCode":"50305526","cityCode":"40402","city":"鞍手町","lat":33.7736758,"lon":130.7001693,"areaKm2":0.0031221,"populated2020":true,"population2020":null,"populationNote":"境界またぎ・収録外等のため人口未集計"},"geometry":{"type":"Polygon","coordinates":[[[130.7,33.774313495],[130.700439442,33.77356361300001],[130.700364721,33.773366108],[130.7,33.773223919],[130.7,33.774313495]]]}},{"type":"Feature","id":"40402:50305531","properties":{"id":"40402:50305531","meshCode":"50305531","cityCode":"40402","city":"鞍手町","lat":33.7800828,"lon":130.6480952,"areaKm2":0.2841978,"populated2020":false,"population2020":null,"populationNote":"境界またぎ・収録外等のため人口未集計"},"geometry":{"type":"Polygon","coordinates":[[[130.648544228,33.775000000000006],[130.648506667,33.776063892],[130.648207497,33.776755],[130.647082503,33.778093613],[130.646303891,33.779553613],[130.645946394,33.781095559],[130.64505583700003,33.781835829],[130.64469688690914,33.783333333333324],[130.65,33.78333333333333],[130.65,33.775000000000006],[130.648544228,33.775000000000006]]]}},{"type":"Feature","id":"40402:50305532","properties":{"id":"40402:50305532","meshCode":"50305532","cityCode":"40402","city":"鞍手町","lat":33.7791667,"lon":130.65625,"areaKm2":1.0699808,"populated2020":true,"population2020":178.0269,"populationNote":"収録500mメッシュ人口の合算（原典収録外は補完しない）"},"geometry":{"type":"Polygon","coordinates":[[[130.6625,33.775],[130.65,33.775000000000006],[130.65,33.78333333333333],[130.6625,33.783333333333324],[130.6625,33.775]]]}},{"type":"Feature","id":"40402:50305533","properties":{"id":"40402:50305533","meshCode":"50305533","cityCode":"40402","city":"鞍手町","lat":33.7791667,"lon":130.66875,"areaKm2":1.0699789,"populated2020":true,"population2020":145.2293,"populationNote":"収録500mメッシュ人口の合算（原典収録外は補完しない）"},"geometry":{"type":"Polygon","coordinates":[[[130.675,33.775],[130.6625,33.775],[130.6625,33.783333333333324],[130.675,33.78333333333333],[130.675,33.775]]]}},{"type":"Feature","id":"40402:50305534","properties":{"id":"40402:50305534","meshCode":"50305534","cityCode":"40402","city":"鞍手町","lat":33.7791667,"lon":130.68125,"areaKm2":1.0699771,"populated2020":true,"population2020":331.6168,"populationNote":"収録500mメッシュ人口の合算（原典収録外は補完しない）"},"geometry":{"type":"Polygon","coordinates":[[[130.6875,33.775],[130.675,33.775],[130.675,33.78333333333333],[130.6875,33.783333333333324],[130.6875,33.775]]]}},{"type":"Feature","id":"40402:50305535","properties":{"id":"40402:50305535","meshCode":"50305535","cityCode":"40402","city":"鞍手町","lat":33.7788295,"lon":130.6927013,"areaKm2":0.8727568,"populated2020":true,"population2020":null,"populationNote":"境界またぎ・収録外等のため人口未集計"},"geometry":{"type":"Polygon","coordinates":[[[130.697538054,33.779043892],[130.697795279,33.77879055900001],[130.69857,33.778301387],[130.698738612,33.778095829],[130.698792218,33.777532225],[130.698651388,33.777100559],[130.69871917,33.77680444100001],[130.69889,33.77672833300001],[130.699624449,33.776674721],[130.699721115,33.776604999999996],[130.699716329,33.77499999999999],[130.6875,33.775],[130.6875,33.783333333333324],[130.69510328091155,33.78333333333334],[130.69553389100003,33.782409162],[130.696255279,33.782180829],[130.696578612,33.781882775000014],[130.696621946,33.781693613],[130.696345837,33.781025278999984],[130.696368327,33.78085055900001],[130.696516394,33.780647225],[130.697215837,33.78008361300001],[130.697538054,33.779043892]]]}},{"type":"Feature","id":"40402:50305541","properties":{"id":"40402:50305541","meshCode":"50305541","cityCode":"40402","city":"鞍手町","lat":33.7880934,"lon":130.6460567,"areaKm2":0.6337996,"populated2020":true,"population2020":null,"populationNote":"境界またぎ・収録外等のため人口未集計"},"geometry":{"type":"Polygon","coordinates":[[[130.644547497,33.78428889199999],[130.644876667,33.784698332999994],[130.644898054,33.784899162],[130.644766939,33.785173891999996],[130.644382776,33.78568472100001],[130.644179728,33.786105279000004],[130.643451115,33.786724162],[130.643438612,33.787046108],[130.642298327,33.787893333],[130.641782776,33.788672495],[130.641533891,33.789215829],[130.641154721,33.789472225],[130.64099194600004,33.789702225000006],[130.640968327,33.790528613],[130.640880272,33.790604441000006],[130.640268612,33.790542775],[130.639815551,33.790618054],[130.639373061,33.791003054],[130.638686394,33.791341387],[130.63865182894054,33.791666666666664],[130.65,33.791666666666664],[130.65,33.78333333333333],[130.64469688690914,33.783333333333324],[130.64450083,33.784052495000005],[130.644547497,33.78428889199999]]]}},{"type":"Feature","id":"40402:50305542","properties":{"id":"40402:50305542","meshCode":"50305542","cityCode":"40402","city":"鞍手町","lat":33.7875,"lon":130.65625,"areaKm2":1.0698786,"populated2020":true,"population2020":344.9178,"populationNote":"収録500mメッシュ人口の合算（原典収録外は補完しない）"},"geometry":{"type":"Polygon","coordinates":[[[130.6625,33.783333333333324],[130.65,33.78333333333333],[130.65,33.791666666666664],[130.6625,33.791666666666664],[130.6625,33.783333333333324]]]}},{"type":"Feature","id":"40402:50305543","properties":{"id":"40402:50305543","meshCode":"50305543","cityCode":"40402","city":"鞍手町","lat":33.7875,"lon":130.66875,"areaKm2":1.0698768,"populated2020":true,"population2020":602.2848,"populationNote":"収録500mメッシュ人口の合算（原典収録外は補完しない）"},"geometry":{"type":"Polygon","coordinates":[[[130.675,33.78333333333333],[130.6625,33.783333333333324],[130.6625,33.791666666666664],[130.675,33.79166666666666],[130.675,33.78333333333333]]]}},{"type":"Feature","id":"40402:50305544","properties":{"id":"40402:50305544","meshCode":"50305544","cityCode":"40402","city":"鞍手町","lat":33.7875,"lon":130.68125,"areaKm2":1.0698748,"populated2020":true,"population2020":2524.5885,"populationNote":"収録500mメッシュ人口の合算（原典収録外は補完しない）"},"geometry":{"type":"Polygon","coordinates":[[[130.6875,33.783333333333324],[130.675,33.78333333333333],[130.675,33.79166666666666],[130.6875,33.791666666666664],[130.6875,33.783333333333324]]]}},{"type":"Feature","id":"40402:50305545","properties":{"id":"40402:50305545","meshCode":"50305545","cityCode":"40402","city":"鞍手町","lat":33.7879159,"lon":130.6928486,"areaKm2":0.8870781,"populated2020":true,"population2020":null,"populationNote":"境界またぎ・収録外等のため人口未集計"},"geometry":{"type":"Polygon","coordinates":[[[130.697746939,33.787625559],[130.697086394,33.78713027900001],[130.696532503,33.786350829],[130.69643917,33.78591889199999],[130.696464721,33.785347225],[130.696258885,33.78479916199999],[130.695191115,33.784605829],[130.695144994,33.78453082899999],[130.69510328091155,33.78333333333334],[130.6875,33.783333333333324],[130.6875,33.791666666666664],[130.7,33.791666666666664],[130.7,33.790021973],[130.699621388,33.78985889199999],[130.699938054,33.78848722499999],[130.699222776,33.78842749500001],[130.698523061,33.787826946],[130.697746939,33.787625559]]]}},{"type":"Feature","id":"40402:50305546","properties":{"id":"40402:50305546","meshCode":"50305546","cityCode":"40402","city":"鞍手町","lat":33.7910497,"lon":130.7004655,"areaKm2":0.0123989,"populated2020":true,"population2020":null,"populationNote":"境界またぎ・収録外等のため人口未集計"},"geometry":{"type":"Polygon","coordinates":[[[130.70163836554997,33.791666666666664],[130.700455279,33.79095277500001],[130.700601946,33.790175559000005],[130.7,33.790021973],[130.7,33.791666666666664],[130.70163836554997,33.791666666666664]]]}},{"type":"Feature","id":"40402:50305550","properties":{"id":"40402:50305550","meshCode":"50305550","cityCode":"40402","city":"鞍手町","lat":33.7983663,"lon":130.6367347,"areaKm2":0.0541307,"populated2020":false,"population2020":null,"populationNote":"境界またぎ・収録外等のため人口未集計"},"geometry":{"type":"Polygon","coordinates":[[[130.637472615436,33.795833333333334],[130.63721917000004,33.796003613],[130.636789728,33.796052225],[130.636743061,33.796376387],[130.636644994,33.79650416199999],[130.63615083,33.796775559],[130.636197497,33.796992225],[130.63671083,33.79742166700001],[130.636850558,33.79767889200001],[130.636857782,33.797887775],[130.636564163,33.79814694600001],[130.636153061,33.79817555900001],[130.635921115,33.798341667],[130.635799728,33.79887833299999],[130.63579666700002,33.79957944099999],[130.635620558,33.79973972100001],[130.635074721,33.799786108],[130.634450947,33.8],[130.63750000000002,33.800000000000004],[130.637472615436,33.795833333333334]]]}},{"type":"Feature","id":"40402:50305551","properties":{"id":"40402:50305551","meshCode":"50305551","cityCode":"40402","city":"鞍手町","lat":33.7959341,"lon":130.6439743,"areaKm2":1.0290913,"populated2020":true,"population2020":304.6803,"populationNote":"収録500mメッシュ人口の合算（原典収録外は補完しない）"},"geometry":{"type":"Polygon","coordinates":[[[130.63865182894054,33.791666666666664],[130.638784994,33.793515559],[130.638728327,33.794070559],[130.638097224,33.79482416199999],[130.637781388,33.795045],[130.637738885,33.795379441],[130.63750000000002,33.79579543238641],[130.63750000000002,33.800000000000004],[130.65,33.8],[130.65,33.791666666666664],[130.63865182894054,33.791666666666664]]]}},{"type":"Feature","id":"40402:50305552","properties":{"id":"40402:50305552","meshCode":"50305552","cityCode":"40402","city":"鞍手町","lat":33.7958333,"lon":130.65625,"areaKm2":1.0697764,"populated2020":true,"population2020":244.7172,"populationNote":"収録500mメッシュ人口の合算（原典収録外は補完しない）"},"geometry":{"type":"Polygon","coordinates":[[[130.6625,33.791666666666664],[130.65,33.791666666666664],[130.65,33.8],[130.6625,33.8],[130.6625,33.791666666666664]]]}},{"type":"Feature","id":"40402:50305553","properties":{"id":"40402:50305553","meshCode":"50305553","cityCode":"40402","city":"鞍手町","lat":33.7958333,"lon":130.66875,"areaKm2":1.0697745,"populated2020":true,"population2020":477.826,"populationNote":"収録500mメッシュ人口の合算（原典収録外は補完しない）"},"geometry":{"type":"Polygon","coordinates":[[[130.675,33.79166666666666],[130.6625,33.791666666666664],[130.6625,33.8],[130.675,33.8],[130.675,33.79166666666666]]]}},{"type":"Feature","id":"40402:50305554","properties":{"id":"40402:50305554","meshCode":"50305554","cityCode":"40402","city":"鞍手町","lat":33.7958333,"lon":130.68125,"areaKm2":1.0697727,"populated2020":true,"population2020":1657.1573,"populationNote":"収録500mメッシュ人口の合算（原典収録外は補完しない）"},"geometry":{"type":"Polygon","coordinates":[[[130.6875,33.791666666666664],[130.675,33.79166666666666],[130.675,33.8],[130.6875,33.8],[130.6875,33.791666666666664]]]}},{"type":"Feature","id":"40402:50305555","properties":{"id":"40402:50305555","meshCode":"50305555","cityCode":"40402","city":"鞍手町","lat":33.7958333,"lon":130.69375,"areaKm2":1.0697708,"populated2020":true,"population2020":1054.6087,"populationNote":"収録500mメッシュ人口の合算（原典収録外は補完しない）"},"geometry":{"type":"Polygon","coordinates":[[[130.7,33.791666666666664],[130.6875,33.791666666666664],[130.6875,33.8],[130.7,33.800000000000004],[130.7,33.791666666666664]]]}},{"type":"Feature","id":"40402:50305556","properties":{"id":"40402:50305556","meshCode":"50305556","cityCode":"40402","city":"鞍手町","lat":33.7962701,"lon":130.7027405,"areaKm2":0.4399349,"populated2020":true,"population2020":null,"populationNote":"境界またぎ・収録外等のため人口未集計"},"geometry":{"type":"Polygon","coordinates":[[[130.707161388,33.796053892],[130.704599442,33.794876667],[130.704537782,33.79420222499999],[130.703684163,33.79272305400001],[130.70331917,33.792357225],[130.70217917,33.79200972099999],[130.70163836554997,33.791666666666664],[130.7,33.791666666666664],[130.7,33.800000000000004],[130.705054137,33.79999999999999],[130.705488327,33.798970559],[130.707161388,33.796053892]]]}},{"type":"Feature","id":"40402:50305560","properties":{"id":"40402:50305560","meshCode":"50305560","cityCode":"40402","city":"鞍手町","lat":33.8031653,"lon":130.6357446,"areaKm2":0.2378914,"populated2020":false,"population2020":null,"populationNote":"境界またぎ・収録外等のため人口未集計"},"geometry":{"type":"MultiPolygon","coordinates":[[[[130.634034449,33.800158892],[130.633774721,33.800381946],[130.633742218,33.80053194600001],[130.634094721,33.800868054],[130.634094721,33.801066387],[130.633732218,33.80135],[130.633491115,33.80169861299999],[130.633830558,33.802623054],[130.63320250300004,33.80358527900002],[130.633138612,33.804121945999995],[130.633288612,33.80428222500001],[130.634778885,33.805165559],[130.635588054,33.805954162000006],[130.636068054,33.806306667000015],[130.636581388,33.80656],[130.637073606,33.806661387],[130.63750000000002,33.80664576761543],[130.63750000000002,33.800000000000004],[130.634450947,33.8],[130.634034449,33.800158892]]],[[[130.63750000000002,33.80703162356506],[130.636906394,33.807546667000004],[130.63669083,33.808049441],[130.6364189745802,33.80833333333334],[130.63750000000002,33.80833333333333],[130.63750000000002,33.80703162356506]]]]}},{"type":"Feature","id":"40402:50305561","properties":{"id":"40402:50305561","meshCode":"50305561","cityCode":"40402","city":"鞍手町","lat":33.8041638,"lon":130.6437566,"areaKm2":1.0685125,"populated2020":true,"population2020":12.8009,"populationNote":"収録500mメッシュ人口の合算（原典収録外は補完しない）"},"geometry":{"type":"Polygon","coordinates":[[[130.65,33.8],[130.63750000000002,33.800000000000004],[130.63750000000002,33.80664576761543],[130.637954163,33.80672027899999],[130.63750000000002,33.80703162356506],[130.63750000000002,33.80833333333333],[130.65,33.80833333333332],[130.65,33.8]]]}},{"type":"Feature","id":"40402:50305562","properties":{"id":"40402:50305562","meshCode":"50305562","cityCode":"40402","city":"鞍手町","lat":33.8041667,"lon":130.65625,"areaKm2":1.0696742,"populated2020":true,"population2020":85.5304,"populationNote":"収録500mメッシュ人口の合算（原典収録外は補完しない）"},"geometry":{"type":"Polygon","coordinates":[[[130.6625,33.8],[130.65,33.8],[130.65,33.80833333333332],[130.6625,33.80833333333334],[130.6625,33.8]]]}},{"type":"Feature","id":"40402:50305563","properties":{"id":"40402:50305563","meshCode":"50305563","cityCode":"40402","city":"鞍手町","lat":33.8041667,"lon":130.66875,"areaKm2":1.0696723,"populated2020":true,"population2020":372.5099,"populationNote":"収録500mメッシュ人口の合算（原典収録外は補完しない）"},"geometry":{"type":"Polygon","coordinates":[[[130.675,33.8],[130.6625,33.8],[130.6625,33.80833333333334],[130.675,33.80833333333334],[130.675,33.8]]]}},{"type":"Feature","id":"40402:50305564","properties":{"id":"40402:50305564","meshCode":"50305564","cityCode":"40402","city":"鞍手町","lat":33.8041667,"lon":130.68125,"areaKm2":1.0696704,"populated2020":true,"population2020":1024.1037,"populationNote":"収録500mメッシュ人口の合算（原典収録外は補完しない）"},"geometry":{"type":"Polygon","coordinates":[[[130.6875,33.8],[130.675,33.8],[130.675,33.80833333333334],[130.6875,33.80833333333333],[130.6875,33.8]]]}},{"type":"Feature","id":"40402:50305565","properties":{"id":"40402:50305565","meshCode":"50305565","cityCode":"40402","city":"鞍手町","lat":33.8035554,"lon":130.6933053,"areaKm2":0.8934928,"populated2020":true,"population2020":null,"populationNote":"境界またぎ・収録外等のため人口未集計"},"geometry":{"type":"Polygon","coordinates":[[[130.7,33.800000000000004],[130.6875,33.8],[130.6875,33.80833333333333],[130.6913780028042,33.80833333333334],[130.691753281,33.807704386999994],[130.692324916,33.807182694000005],[130.692332503,33.80687999999999],[130.692437224,33.80679389200001],[130.693506109,33.806263333],[130.695066939,33.805885],[130.69632555100003,33.805897225],[130.697204163,33.80602082899999],[130.7,33.806581],[130.7,33.800000000000004]]]}},{"type":"Feature","id":"40402:50305566","properties":{"id":"40402:50305566","meshCode":"50305566","cityCode":"40402","city":"鞍手町","lat":33.8017906,"lon":130.7015742,"areaKm2":0.1166701,"populated2020":true,"population2020":17.6577,"populationNote":"収録500mメッシュ人口の合算（原典収録外は補完しない）"},"geometry":{"type":"Polygon","coordinates":[[[130.700579442,33.80354972100001],[130.701020272,33.802727775],[130.701268885,33.80246249500001],[130.704798612,33.800622225000005],[130.705054137,33.79999999999999],[130.7,33.800000000000004],[130.7,33.806581],[130.70031,33.80666444100001],[130.700571946,33.80646805399999],[130.700579442,33.80354972100001]]]}},{"type":"Feature","id":"40402:50305570","properties":{"id":"40402:50305570","meshCode":"50305570","cityCode":"40402","city":"鞍手町","lat":33.8104145,"lon":130.6364873,"areaKm2":0.0606238,"populated2020":false,"population2020":null,"populationNote":"境界またぎ・収録外等のため人口未集計"},"geometry":{"type":"Polygon","coordinates":[[[130.636322776,33.808380532],[130.636109442,33.808539721],[130.636097224,33.80866138700001],[130.636274721,33.809385000000006],[130.636257497,33.80989527900001],[130.635497224,33.81070194600001],[130.635306939,33.811277225000005],[130.635352503,33.812124162],[130.63596722400004,33.812746108],[130.63750000000002,33.81061384642826],[130.63750000000002,33.80833333333333],[130.636322776,33.808380532]]]}},{"type":"Feature","id":"40402:50305571","properties":{"id":"40402:50305571","meshCode":"50305571","cityCode":"40402","city":"鞍手町","lat":33.8094671,"lon":130.6392282,"areaKm2":0.1489549,"populated2020":false,"population2020":null,"populationNote":"境界またぎ・収録外等のため人口未集計"},"geometry":{"type":"Polygon","coordinates":[[[130.644286394,33.808933892],[130.644683891,33.80913861300001],[130.645240558,33.809264721],[130.645519442,33.80949416200001],[130.645764721,33.80951833300001],[130.647359728,33.80933194599999],[130.648450558,33.809478613],[130.649005837,33.809636667],[130.65,33.81021894599999],[130.65,33.80833333333332],[130.63750000000002,33.80833333333333],[130.63750000000002,33.81061384642826],[130.639200558,33.810162225000006],[130.639589728,33.809892775],[130.640938327,33.809484999999995],[130.641424163,33.809069162],[130.643058885,33.808833613],[130.643701115,33.808823613],[130.644286394,33.808933892]]]}},{"type":"Feature","id":"40402:50305572","properties":{"id":"40402:50305572","meshCode":"50305572","cityCode":"40402","city":"鞍手町","lat":33.8122032,"lon":130.6571307,"areaKm2":0.904107,"populated2020":true,"population2020":84.4864,"populationNote":"収録500mメッシュ人口の合算（原典収録外は補完しない）"},"geometry":{"type":"Polygon","coordinates":[[[130.65,33.81021894599999],[130.650973606,33.810858333],[130.651661946,33.811521946],[130.653195837,33.81398722499999],[130.653266667,33.814192225000006],[130.653156109,33.814726107999995],[130.65342917,33.81517916200001],[130.653138885,33.815627495],[130.653306394,33.816017225],[130.653805551,33.816540829000004],[130.6540871330442,33.81666666666667],[130.6625,33.81666666666666],[130.6625,33.80833333333334],[130.65,33.80833333333332],[130.65,33.81021894599999]]]}},{"type":"Feature","id":"40402:50305573","properties":{"id":"40402:50305573","meshCode":"50305573","cityCode":"40402","city":"鞍手町","lat":33.8125,"lon":130.66875,"areaKm2":1.06957,"populated2020":true,"population2020":558.5301,"populationNote":"収録500mメッシュ人口の合算（原典収録外は補完しない）"},"geometry":{"type":"Polygon","coordinates":[[[130.675,33.80833333333334],[130.6625,33.80833333333334],[130.6625,33.81666666666666],[130.675,33.81666666666667],[130.675,33.80833333333334]]]}},{"type":"Feature","id":"40402:50305574","properties":{"id":"40402:50305574","meshCode":"50305574","cityCode":"40402","city":"鞍手町","lat":33.81148,"lon":130.6799568,"areaKm2":0.6629787,"populated2020":true,"population2020":null,"populationNote":"境界またぎ・収録外等のため人口未集計"},"geometry":{"type":"Polygon","coordinates":[[[130.67981083,33.813396108000006],[130.680237497,33.811728333000005],[130.68065166,33.811086945999996],[130.681384994,33.810875279],[130.682598885,33.810902225],[130.683363606,33.811066667],[130.684683061,33.811893054],[130.685203061,33.812127495000006],[130.686786394,33.81254500000001],[130.6875,33.812587471992344],[130.6875,33.80833333333333],[130.675,33.80833333333334],[130.675,33.81666666666667],[130.67866046742105,33.81666666666667],[130.678794163,33.81656082899999],[130.67948166,33.81542805400001],[130.679729442,33.814718333],[130.67981083,33.813396108000006]]]}},{"type":"Feature","id":"40402:50305575","properties":{"id":"40402:50305575","meshCode":"50305575","cityCode":"40402","city":"鞍手町","lat":33.8101583,"lon":130.6891647,"areaKm2":0.1343252,"populated2020":true,"population2020":null,"populationNote":"境界またぎ・収録外等のため人口未集計"},"geometry":{"type":"Polygon","coordinates":[[[130.688327445,33.812383387],[130.688978392,33.812231108],[130.689679339,33.811890333],[130.690300856,33.81145933300001],[130.690829585,33.810896613],[130.691171634,33.81021],[130.691161362,33.809085198],[130.6913780028042,33.80833333333334],[130.6875,33.80833333333333],[130.6875,33.812587471992344],[130.687897224,33.81261500000001],[130.688327445,33.812383387]]]}},{"type":"Feature","id":"40402:50305582","properties":{"id":"40402:50305582","meshCode":"50305582","cityCode":"40402","city":"鞍手町","lat":33.8179795,"lon":130.6595601,"areaKm2":0.1759772,"populated2020":true,"population2020":null,"populationNote":"境界またぎ・収録外等のため人口未集計"},"geometry":{"type":"Polygon","coordinates":[[[130.6540871330442,33.81666666666667],[130.654986394,33.816923333000005],[130.65541027200004,33.817150559],[130.657990558,33.819146667000005],[130.658272503,33.81920749499999],[130.658726939,33.819183333],[130.659934449,33.819366386999995],[130.661118054,33.81987972100001],[130.661708327,33.820011666999996],[130.6625,33.82000881533978],[130.6625,33.81666666666666],[130.6540871330442,33.81666666666667]]]}},{"type":"Feature","id":"40402:50305583","properties":{"id":"40402:50305583","meshCode":"50305583","cityCode":"40402","city":"鞍手町","lat":33.8183612,"lon":130.669415,"areaKm2":0.4094501,"populated2020":true,"population2020":null,"populationNote":"境界またぎ・収録外等のため人口未集計"},"geometry":{"type":"Polygon","coordinates":[[[130.6625,33.82000881533978],[130.664000558,33.81972582900001],[130.665512503,33.818905829],[130.667021388,33.81897055900001],[130.668637497,33.819171667],[130.669233891,33.819344162],[130.669728054,33.819553054],[130.669753891,33.819628333],[130.674573333,33.82152416200001],[130.675,33.820712306],[130.675,33.81666666666667],[130.6625,33.81666666666666],[130.6625,33.82000881533978]]]}},{"type":"Feature","id":"40402:50305584","properties":{"id":"40402:50305584","meshCode":"50305584","cityCode":"40402","city":"鞍手町","lat":33.8178575,"lon":130.6760148,"areaKm2":0.0539591,"populated2020":true,"population2020":null,"populationNote":"境界またぎ・収録外等のため人口未集計"},"geometry":{"type":"Polygon","coordinates":[[[130.675016394,33.82068333299999],[130.676710558,33.817634162000004],[130.677127782,33.817395559],[130.678043891,33.817079162000006],[130.67866046742105,33.81666666666667],[130.675,33.81666666666667],[130.675016394,33.82068333299999]]]}}]}