{"type":"FeatureCollection","metadata":{"cityCode":"40401","city":"小竹町","resolution":500,"boundaryDate":"2026-01-01","populationLabel":"2020年基準人口（国交省調整値）","method":"標準地域メッシュを行政界で切抜き。中心が区域外のとき区域内代表点を判定点にする。人口不明をゼロにしない。"},"features":[{"type":"Feature","id":"40401:503045143","properties":{"id":"40401:503045143","meshCode":"503045143","cityCode":"40401","city":"小竹町","lat":33.6831325,"lon":130.6780411,"areaKm2":0.0069508,"populated2020":true,"population2020":null,"populationNote":"境界またぎ・原典収録外のため自治体内人口は未集計"},"geometry":{"type":"Polygon","coordinates":[[[130.68125000000003,33.68315765549107],[130.679349442,33.683181946],[130.679232503,33.683147775],[130.679046667,33.682923613],[130.678968054,33.683125559],[130.67873,33.68322638699999],[130.678028612,33.68305889199999],[130.677857224,33.683105279],[130.67763224384007,33.68333333333334],[130.68125000000003,33.68333333333333],[130.68125000000003,33.68315765549107]]]}},{"type":"Feature","id":"40401:503045144","properties":{"id":"40401:503045144","meshCode":"503045144","cityCode":"40401","city":"小竹町","lat":33.6832358,"lon":130.6814085,"areaKm2":0.0005576,"populated2020":true,"population2020":null,"populationNote":"境界またぎ・原典収録外のため自治体内人口は未集計"},"geometry":{"type":"Polygon","coordinates":[[[130.681668301,33.68333333300001],[130.68163166,33.68325861300001],[130.68125000000003,33.68315765549107],[130.68125000000003,33.68333333333333],[130.681668301,33.68333333300001]]]}},{"type":"Feature","id":"40401:503045153","properties":{"id":"40401:503045153","meshCode":"503045153","cityCode":"40401","city":"小竹町","lat":33.6833187,"lon":130.6895572,"areaKm2":2.85e-05,"populated2020":false,"population2020":null,"populationNote":"境界またぎ・原典収録外のため自治体内人口は未集計"},"geometry":{"type":"Polygon","coordinates":[[[130.689651583132,33.68333333333333],[130.689578054,33.683311667],[130.68943172433532,33.68333333333333],[130.689651583132,33.68333333333333]]]}},{"type":"Feature","id":"40401:503045163","properties":{"id":"40401:503045163","meshCode":"503045163","cityCode":"40401","city":"小竹町","lat":33.6828565,"lon":130.7040116,"areaKm2":0.030919,"populated2020":true,"population2020":null,"populationNote":"境界またぎ・原典収録外のため自治体内人口は未集計"},"geometry":{"type":"Polygon","coordinates":[[[130.70625,33.68303268533133],[130.704457224,33.682523333000006],[130.703215279,33.68236389199999],[130.702595551,33.682521387],[130.702484721,33.682672775],[130.702416109,33.68307055900001],[130.701546667,33.683128054],[130.70122175087693,33.68333333333333],[130.70625,33.68333333333334],[130.70625,33.68303268533133]]]}},{"type":"Feature","id":"40401:503045164","properties":{"id":"40401:503045164","meshCode":"503045164","cityCode":"40401","city":"小竹町","lat":33.683165,"lon":130.7065699,"areaKm2":0.0024693,"populated2020":true,"population2020":null,"populationNote":"境界またぎ・原典収録外のため自治体内人口は未集計"},"geometry":{"type":"Polygon","coordinates":[[[130.707755136,33.683333333],[130.707403061,33.68321889199999],[130.70625,33.68303268533133],[130.70625,33.68333333333334],[130.707755136,33.683333333]]]}},{"type":"Feature","id":"40401:503045232","properties":{"id":"40401:503045232","meshCode":"503045232","cityCode":"40401","city":"小竹町","lat":33.6871417,"lon":130.6749585,"areaKm2":0.0005111,"populated2020":false,"population2020":null,"populationNote":"境界またぎ・原典収録外のため自治体内人口は未集計"},"geometry":{"type":"Polygon","coordinates":[[[130.674993606,33.686753054],[130.674902776,33.687078054],[130.67496406146262,33.68750000000001],[130.675,33.68750000000001],[130.674993606,33.686753054]]]}},{"type":"Feature","id":"40401:503045241","properties":{"id":"40401:503045241","meshCode":"503045241","cityCode":"40401","city":"小竹町","lat":33.6854167,"lon":130.678125,"areaKm2":0.212733,"populated2020":true,"population2020":9.3262,"populationNote":"2020年基準の国交省調整値"},"geometry":{"type":"Polygon","coordinates":[[[130.67763224384007,33.68333333333334],[130.677331946,33.684076108],[130.676978885,33.684591108],[130.675426394,33.68659361300001],[130.675196394,33.686763333],[130.675,33.686753386999996],[130.675,33.68750000000001],[130.68125000000003,33.68750000000001],[130.68125000000003,33.68333333333333],[130.67763224384007,33.68333333333334]]]}},{"type":"Feature","id":"40401:503045242","properties":{"id":"40401:503045242","meshCode":"503045242","cityCode":"40401","city":"小竹町","lat":33.6854118,"lon":130.6820303,"areaKm2":0.1522241,"populated2020":true,"population2020":null,"populationNote":"境界またぎ・原典収録外のため自治体内人口は未集計"},"geometry":{"type":"Polygon","coordinates":[[[130.687417782,33.684851946],[130.68577,33.684886108],[130.685768054,33.68514638700002],[130.686703333,33.685027225],[130.68699,33.685071666999995],[130.686975837,33.685180559],[130.686148327,33.685594441000006],[130.686182776,33.685860829],[130.686088885,33.686095],[130.685485551,33.686228054000004],[130.685386939,33.68615333300001],[130.685214163,33.685665],[130.685044721,33.685568054],[130.684274721,33.685475279],[130.682908054,33.685493333],[130.682637782,33.685216946],[130.682066667,33.683882495000006],[130.681784163,33.683642225],[130.68166830109712,33.68333333333333],[130.68125000000003,33.68333333333333],[130.68125000000003,33.68750000000001],[130.6875,33.68750000000001],[130.6875,33.684750398706065],[130.687417782,33.684851946]]]}},{"type":"Feature","id":"40401:503045251","properties":{"id":"40401:503045251","meshCode":"503045251","cityCode":"40401","city":"小竹町","lat":33.6854167,"lon":130.690625,"areaKm2":0.183149,"populated2020":true,"population2020":null,"populationNote":"境界またぎ・原典収録外のため自治体内人口は未集計"},"geometry":{"type":"Polygon","coordinates":[[[130.69375,33.684799987681984],[130.693409442,33.68476944100001],[130.693106109,33.68445499999999],[130.692645279,33.684155],[130.693059442,33.684687775],[130.693011115,33.68487138700001],[130.692877782,33.68498222499999],[130.692458054,33.685095559000004],[130.691756667,33.68499638699999],[130.691496394,33.684590559],[130.691453891,33.68500749500001],[130.691364994,33.68508],[130.69114083000002,33.685084999999994],[130.690790558,33.684873892],[130.690588885,33.68462972100001],[130.690384163,33.684205559],[130.689826109,33.68342277499999],[130.689651583132,33.68333333333333],[130.68943172433532,33.68333333333333],[130.689276394,33.683440829],[130.689318612,33.68381027900001],[130.689941388,33.68468222500001],[130.689884721,33.68486999999999],[130.689447782,33.684892775],[130.689088885,33.685045279000015],[130.688857224,33.684862225],[130.688550558,33.684876387],[130.688018885,33.684280829],[130.687888885,33.68419],[130.68768917,33.684218054],[130.6875,33.684750398706065],[130.6875,33.68750000000001],[130.69375,33.68750000000001],[130.69375,33.684799987681984]]]}},{"type":"Feature","id":"40401:503045252","properties":{"id":"40401:503045252","meshCode":"503045252","cityCode":"40401","city":"小竹町","lat":33.6866068,"lon":130.696875,"areaKm2":0.1428975,"populated2020":true,"population2020":null,"populationNote":"境界またぎ・原典収録外のため自治体内人口は未集計"},"geometry":{"type":"Polygon","coordinates":[[[130.7,33.684474829],[130.69851166,33.685398892],[130.698155279,33.68554],[130.69718,33.685713613000004],[130.696528054,33.685656946],[130.69550832700003,33.685388613],[130.694209728,33.684815279],[130.69375,33.684799987681984],[130.69375,33.68750000000001],[130.7,33.68750000000001],[130.7,33.684474829]]]}},{"type":"Feature","id":"40401:503045261","properties":{"id":"40401:503045261","meshCode":"503045261","cityCode":"40401","city":"小竹町","lat":33.6854167,"lon":130.703125,"areaKm2":0.2589793,"populated2020":true,"population2020":434.1303,"populationNote":"2020年基準の国交省調整値"},"geometry":{"type":"Polygon","coordinates":[[[130.70122175087693,33.68333333333333],[130.700880558,33.683870559],[130.7,33.684474829],[130.7,33.68750000000001],[130.70625,33.68750000000001],[130.70625,33.68333333333334],[130.70122175087693,33.68333333333333]]]}},{"type":"Feature","id":"40401:503045262","properties":{"id":"40401:503045262","meshCode":"503045262","cityCode":"40401","city":"小竹町","lat":33.6854167,"lon":130.709375,"areaKm2":0.1822208,"populated2020":true,"population2020":null,"populationNote":"境界またぎ・原典収録外のため自治体内人口は未集計"},"geometry":{"type":"Polygon","coordinates":[[[130.712448755,33.687319333],[130.711139053,33.685972559],[130.710830752,33.68530927900001],[130.710422218,33.685108613],[130.709266394,33.684243054],[130.708496667,33.683886666999996],[130.70775513651452,33.68333333333333],[130.70625,33.68333333333334],[130.70625,33.68750000000001],[130.7125,33.6875],[130.712448755,33.687319333]]]}},{"type":"Feature","id":"40401:503045271","properties":{"id":"40401:503045271","meshCode":"503045271","cityCode":"40401","city":"小竹町","lat":33.6874436,"lon":130.7125213,"areaKm2":4.95e-05,"populated2020":true,"population2020":null,"populationNote":"境界またぎ・原典収録外のため自治体内人口は未集計"},"geometry":{"type":"Polygon","coordinates":[[[130.7125,33.68738710364496],[130.7125,33.6875],[130.71258536695672,33.68750000000001],[130.7125,33.68738710364496]]]}},{"type":"Feature","id":"40401:503045234","properties":{"id":"40401:503045234","meshCode":"503045234","cityCode":"40401","city":"小竹町","lat":33.6896647,"lon":130.6735422,"areaKm2":0.1082186,"populated2020":false,"population2020":null,"populationNote":"境界またぎ・原典収録外のため自治体内人口は未集計"},"geometry":{"type":"MultiPolygon","coordinates":[[[[130.671164721,33.691079162],[130.6711281447742,33.69166666666667],[130.675,33.69166666666667],[130.675,33.687746054],[130.674698885,33.688299441000005],[130.673079728,33.68843082899999],[130.672404721,33.68892694600001],[130.672096109,33.689381108],[130.672024163,33.689885829],[130.671953606,33.68995055900001],[130.671626939,33.689972775],[130.671445279,33.690097775],[130.671392218,33.690220829],[130.671583891,33.690669162],[130.671164721,33.691079162]]],[[[130.674965279,33.68752222500001],[130.675,33.687706414000004],[130.675,33.68750000000001],[130.674965279,33.68752222500001]]]]}},{"type":"Feature","id":"40401:503045243","properties":{"id":"40401:503045243","meshCode":"503045243","cityCode":"40401","city":"小竹町","lat":33.6895833,"lon":130.678125,"areaKm2":0.2677677,"populated2020":false,"population2020":null,"populationNote":"境界またぎ・原典収録外のため自治体内人口は未集計"},"geometry":{"type":"Polygon","coordinates":[[[130.675,33.68750000000001],[130.675,33.69166666666667],[130.68125000000003,33.69166666666668],[130.68125000000003,33.68750000000001],[130.675,33.68750000000001]]]}},{"type":"Feature","id":"40401:503045244","properties":{"id":"40401:503045244","meshCode":"503045244","cityCode":"40401","city":"小竹町","lat":33.6895833,"lon":130.684375,"areaKm2":0.2677684,"populated2020":true,"population2020":16.4019,"populationNote":"2020年基準の国交省調整値"},"geometry":{"type":"Polygon","coordinates":[[[130.68125000000003,33.68750000000001],[130.68125000000003,33.69166666666668],[130.6875,33.69166666666667],[130.6875,33.68750000000001],[130.68125000000003,33.68750000000001]]]}},{"type":"Feature","id":"40401:503045253","properties":{"id":"40401:503045253","meshCode":"503045253","cityCode":"40401","city":"小竹町","lat":33.6895833,"lon":130.690625,"areaKm2":0.2677682,"populated2020":true,"population2020":23.6326,"populationNote":"2020年基準の国交省調整値"},"geometry":{"type":"Polygon","coordinates":[[[130.6875,33.68750000000001],[130.6875,33.69166666666667],[130.69375,33.69166666666668],[130.69375,33.68750000000001],[130.6875,33.68750000000001]]]}},{"type":"Feature","id":"40401:503045254","properties":{"id":"40401:503045254","meshCode":"503045254","cityCode":"40401","city":"小竹町","lat":33.6895833,"lon":130.696875,"areaKm2":0.267768,"populated2020":true,"population2020":118.3269,"populationNote":"2020年基準の国交省調整値"},"geometry":{"type":"Polygon","coordinates":[[[130.69375,33.68750000000001],[130.69375,33.69166666666668],[130.7,33.69166666666667],[130.7,33.68750000000001],[130.69375,33.68750000000001]]]}},{"type":"Feature","id":"40401:503045263","properties":{"id":"40401:503045263","meshCode":"503045263","cityCode":"40401","city":"小竹町","lat":33.6895833,"lon":130.703125,"areaKm2":0.2677678,"populated2020":true,"population2020":421.7823,"populationNote":"2020年基準の国交省調整値"},"geometry":{"type":"Polygon","coordinates":[[[130.7,33.68750000000001],[130.7,33.69166666666667],[130.70625,33.69166666666667],[130.70625,33.68750000000001],[130.7,33.68750000000001]]]}},{"type":"Feature","id":"40401:503045264","properties":{"id":"40401:503045264","meshCode":"503045264","cityCode":"40401","city":"小竹町","lat":33.6895833,"lon":130.709375,"areaKm2":0.2677676,"populated2020":true,"population2020":287.3566,"populationNote":"2020年基準の国交省調整値"},"geometry":{"type":"Polygon","coordinates":[[[130.70625,33.68750000000001],[130.70625,33.69166666666667],[130.7125,33.69166666666667],[130.7125,33.6875],[130.70625,33.68750000000001]]]}},{"type":"Feature","id":"40401:503045273","properties":{"id":"40401:503045273","meshCode":"503045273","cityCode":"40401","city":"小竹町","lat":33.6896328,"lon":130.7131083,"areaKm2":0.0467741,"populated2020":true,"population2020":null,"populationNote":"境界またぎ・原典収録外のため自治体内人口は未集計"},"geometry":{"type":"Polygon","coordinates":[[[130.71422114084365,33.69166666666668],[130.713854163,33.690743333],[130.713791141,33.689973162],[130.713395253,33.688133666999995],[130.712841608,33.688239586],[130.712617691,33.68754274799999],[130.7125,33.6875],[130.7125,33.69166666666667],[130.71422114084365,33.69166666666668]]]}},{"type":"Feature","id":"40401:503045332","properties":{"id":"40401:503045332","meshCode":"503045332","cityCode":"40401","city":"小竹町","lat":33.69375,"lon":130.671875,"areaKm2":0.126002,"populated2020":false,"population2020":null,"populationNote":"境界またぎ・原典収録外のため自治体内人口は未集計"},"geometry":{"type":"Polygon","coordinates":[[[130.671128145,33.691666667],[130.671549442,33.69215305400001],[130.671546394,33.692580559],[130.671841388,33.693713892000005],[130.672887497,33.694583054],[130.672603333,33.694966108],[130.672566939,33.695154441],[130.67268964910485,33.69583333333333],[130.675,33.695833333333326],[130.675,33.69166666666667],[130.671128145,33.691666667]]]}},{"type":"Feature","id":"40401:503045341","properties":{"id":"40401:503045341","meshCode":"503045341","cityCode":"40401","city":"小竹町","lat":33.69375,"lon":130.678125,"areaKm2":0.2677559,"populated2020":true,"population2020":4.0874,"populationNote":"2020年基準の国交省調整値"},"geometry":{"type":"Polygon","coordinates":[[[130.675,33.69166666666667],[130.675,33.695833333333326],[130.68125000000003,33.695833333333326],[130.68125000000003,33.69166666666668],[130.675,33.69166666666667]]]}},{"type":"Feature","id":"40401:503045342","properties":{"id":"40401:503045342","meshCode":"503045342","cityCode":"40401","city":"小竹町","lat":33.69375,"lon":130.684375,"areaKm2":0.2677557,"populated2020":true,"population2020":77.5781,"populationNote":"2020年基準の国交省調整値"},"geometry":{"type":"Polygon","coordinates":[[[130.68125000000003,33.69166666666668],[130.68125000000003,33.695833333333326],[130.6875,33.69583333333333],[130.6875,33.69166666666667],[130.68125000000003,33.69166666666668]]]}},{"type":"Feature","id":"40401:503045351","properties":{"id":"40401:503045351","meshCode":"503045351","cityCode":"40401","city":"小竹町","lat":33.69375,"lon":130.690625,"areaKm2":0.2677555,"populated2020":true,"population2020":612.3632,"populationNote":"2020年基準の国交省調整値"},"geometry":{"type":"Polygon","coordinates":[[[130.6875,33.69166666666667],[130.6875,33.69583333333333],[130.69375,33.69583333333333],[130.69375,33.69166666666668],[130.6875,33.69166666666667]]]}},{"type":"Feature","id":"40401:503045352","properties":{"id":"40401:503045352","meshCode":"503045352","cityCode":"40401","city":"小竹町","lat":33.69375,"lon":130.696875,"areaKm2":0.2677552,"populated2020":true,"population2020":663.5222,"populationNote":"2020年基準の国交省調整値"},"geometry":{"type":"Polygon","coordinates":[[[130.69375,33.69166666666668],[130.69375,33.69583333333333],[130.7,33.69583333333333],[130.7,33.69166666666667],[130.69375,33.69166666666668]]]}},{"type":"Feature","id":"40401:503045361","properties":{"id":"40401:503045361","meshCode":"503045361","cityCode":"40401","city":"小竹町","lat":33.69375,"lon":130.703125,"areaKm2":0.267755,"populated2020":true,"population2020":282.3752,"populationNote":"2020年基準の国交省調整値"},"geometry":{"type":"Polygon","coordinates":[[[130.7,33.69166666666667],[130.7,33.69583333333333],[130.70625,33.69583333333333],[130.70625,33.69166666666667],[130.7,33.69166666666667]]]}},{"type":"Feature","id":"40401:503045362","properties":{"id":"40401:503045362","meshCode":"503045362","cityCode":"40401","city":"小竹町","lat":33.69375,"lon":130.709375,"areaKm2":0.2677548,"populated2020":true,"population2020":239.1986,"populationNote":"2020年基準の国交省調整値"},"geometry":{"type":"Polygon","coordinates":[[[130.70625,33.69166666666667],[130.70625,33.69583333333333],[130.7125,33.69583333333333],[130.7125,33.69166666666667],[130.70625,33.69166666666667]]]}},{"type":"Feature","id":"40401:503045371","properties":{"id":"40401:503045371","meshCode":"503045371","cityCode":"40401","city":"小竹町","lat":33.6937788,"lon":130.7133738,"areaKm2":0.0612093,"populated2020":true,"population2020":null,"populationNote":"境界またぎ・原典収録外のため自治体内人口は未集計"},"geometry":{"type":"Polygon","coordinates":[[[130.712596939,33.69580500000001],[130.713371388,33.69452249500001],[130.713617224,33.694233892],[130.714324163,33.69369694600001],[130.714601388,33.693390279],[130.714831388,33.692956667],[130.714684994,33.692516946000005],[130.71422114084365,33.69166666666668],[130.7125,33.69166666666667],[130.7125,33.69583333333333],[130.712596939,33.69580500000001]]]}},{"type":"Feature","id":"40401:503045334","properties":{"id":"40401:503045334","meshCode":"503045334","cityCode":"40401","city":"小竹町","lat":33.6961696,"lon":130.6739122,"areaKm2":0.0119442,"populated2020":true,"population2020":null,"populationNote":"境界またぎ・原典収録外のため自治体内人口は未集計"},"geometry":{"type":"Polygon","coordinates":[[[130.672693061,33.695987224999996],[130.672927497,33.696252225],[130.673388054,33.696496387],[130.673887782,33.696339161999994],[130.674817497,33.69625027899999],[130.675,33.69640674800001],[130.675,33.695833333333326],[130.67268964910485,33.69583333333333],[130.672693061,33.695987224999996]]]}},{"type":"Feature","id":"40401:503045343","properties":{"id":"40401:503045343","meshCode":"503045343","cityCode":"40401","city":"小竹町","lat":33.6979167,"lon":130.678125,"areaKm2":0.1654776,"populated2020":true,"population2020":null,"populationNote":"境界またぎ・原典収録外のため自治体内人口は未集計"},"geometry":{"type":"Polygon","coordinates":[[[130.675,33.695833333333326],[130.675161946,33.697266667],[130.675669728,33.697893613000005],[130.676244994,33.69795805399999],[130.677080272,33.697695],[130.677454449,33.698006387],[130.67795472100002,33.698033613],[130.678668612,33.698545829000004],[130.679103333,33.698654999999995],[130.679250558,33.699060279],[130.680555837,33.699176387],[130.680790558,33.699407495],[130.680953606,33.7],[130.68125000000003,33.699999999999996],[130.68125000000003,33.695833333333326],[130.675,33.695833333333326]]]}},{"type":"Feature","id":"40401:503045344","properties":{"id":"40401:503045344","meshCode":"503045344","cityCode":"40401","city":"小竹町","lat":33.6979167,"lon":130.684375,"areaKm2":0.2315186,"populated2020":true,"population2020":null,"populationNote":"境界またぎ・原典収録外のため自治体内人口は未集計"},"geometry":{"type":"Polygon","coordinates":[[[130.684947224,33.699980000000004],[130.685334994,33.699060559],[130.685405837,33.698024162],[130.685546939,33.697812494999994],[130.685825551,33.697778054],[130.686052503,33.697851667],[130.686461946,33.69887333300001],[130.6875,33.698930072387796],[130.6875,33.69583333333333],[130.68125000000003,33.695833333333326],[130.68125000000003,33.699999999999996],[130.684947224,33.699980000000004]]]}},{"type":"Feature","id":"40401:503045353","properties":{"id":"40401:503045353","meshCode":"503045353","cityCode":"40401","city":"小竹町","lat":33.6979167,"lon":130.690625,"areaKm2":0.2243417,"populated2020":true,"population2020":142.8829,"populationNote":"2020年基準の国交省調整値"},"geometry":{"type":"Polygon","coordinates":[[[130.6875,33.698930072387796],[130.688324163,33.699216108],[130.690181946,33.699290829],[130.690914721,33.699427775],[130.691412503,33.699631387],[130.69214917,33.69954666700001],[130.69292944200004,33.699318892],[130.69375,33.6991912143336],[130.69375,33.69583333333333],[130.6875,33.69583333333333],[130.6875,33.698930072387796]]]}},{"type":"Feature","id":"40401:503045354","properties":{"id":"40401:503045354","meshCode":"503045354","cityCode":"40401","city":"小竹町","lat":33.6979167,"lon":130.696875,"areaKm2":0.2307005,"populated2020":true,"population2020":89.558,"populationNote":"2020年基準の国交省調整値"},"geometry":{"type":"Polygon","coordinates":[[[130.693755279,33.699190279],[130.695085551,33.699147495],[130.695874449,33.69884555899999],[130.696173606,33.698871667],[130.697354163,33.699379441],[130.698143476,33.7],[130.7,33.7],[130.7,33.69583333333333],[130.69375,33.69583333333333],[130.693755279,33.699190279]]]}},{"type":"Feature","id":"40401:503045363","properties":{"id":"40401:503045363","meshCode":"503045363","cityCode":"40401","city":"小竹町","lat":33.6979167,"lon":130.703125,"areaKm2":0.2677423,"populated2020":true,"population2020":105.4415,"populationNote":"2020年基準の国交省調整値"},"geometry":{"type":"Polygon","coordinates":[[[130.7,33.69583333333333],[130.7,33.7],[130.70625,33.70000000000001],[130.70625,33.69583333333333],[130.7,33.69583333333333]]]}},{"type":"Feature","id":"40401:503045364","properties":{"id":"40401:503045364","meshCode":"503045364","cityCode":"40401","city":"小竹町","lat":33.6979167,"lon":130.709375,"areaKm2":0.2658856,"populated2020":true,"population2020":18.2974,"populationNote":"2020年基準の国交省調整値"},"geometry":{"type":"Polygon","coordinates":[[[130.7125,33.69996588039374],[130.7125,33.697100634317216],[130.712190272,33.696493054],[130.7125,33.69603872604015],[130.7125,33.69583333333333],[130.70625,33.69583333333333],[130.70625,33.70000000000001],[130.7125,33.69996588039374]]]}},{"type":"Feature","id":"40401:503045373","properties":{"id":"40401:503045373","meshCode":"503045373","cityCode":"40401","city":"小竹町","lat":33.6984549,"lon":130.7128933,"areaKm2":0.0123605,"populated2020":true,"population2020":null,"populationNote":"境界またぎ・原典収録外のため自治体内人口は未集計"},"geometry":{"type":"MultiPolygon","coordinates":[[[[130.7125,33.69996588039374],[130.713326615,33.698372468],[130.7125,33.697100634317216],[130.7125,33.69996588039374]]],[[[130.7125,33.69603872604015],[130.71258675949736,33.69583333333333],[130.7125,33.69583333333333],[130.7125,33.69603872604015]]]]}},{"type":"Feature","id":"40401:503045374","properties":{"id":"40401:503045374","meshCode":"503045374","cityCode":"40401","city":"小竹町","lat":33.6998942,"lon":130.7211418,"areaKm2":0.0035864,"populated2020":true,"population2020":null,"populationNote":"境界またぎ・原典収録外のため自治体内人口は未集計"},"geometry":{"type":"Polygon","coordinates":[[[130.722270272,33.699999162000005],[130.721714994,33.69982972100001],[130.720710272,33.69977333300001],[130.720365551,33.69983],[130.720139468,33.7],[130.722270272,33.699999162000005]]]}},{"type":"Feature","id":"40401:503045441","properties":{"id":"40401:503045441","meshCode":"503045441","cityCode":"40401","city":"小竹町","lat":33.700236,"lon":130.6811616,"areaKm2":0.0007894,"populated2020":true,"population2020":null,"populationNote":"境界またぎ・原典収録外のため自治体内人口は未集計"},"geometry":{"type":"Polygon","coordinates":[[[130.680953606,33.7],[130.681020272,33.70017444100001],[130.68125000000003,33.70042537218714],[130.68125000000003,33.699999999999996],[130.680953606,33.7]]]}},{"type":"Feature","id":"40401:503045442","properties":{"id":"40401:503045442","meshCode":"503045442","cityCode":"40401","city":"小竹町","lat":33.7020833,"lon":130.684375,"areaKm2":0.1180448,"populated2020":true,"population2020":null,"populationNote":"境界またぎ・原典収録外のため自治体内人口は未集計"},"geometry":{"type":"Polygon","coordinates":[[[130.681308054,33.70048],[130.681418885,33.70070889200001],[130.681486667,33.70166527899999],[130.681619442,33.701929441],[130.682199442,33.702511946],[130.682457224,33.703085279],[130.68306166,33.703492775],[130.683492218,33.703553333],[130.684563333,33.70343222500001],[130.684788885,33.703339441],[130.685032776,33.702950279],[130.685148612,33.70213972100001],[130.685447782,33.70155472100001],[130.685355837,33.701196108],[130.68497527900004,33.700800829],[130.684897497,33.700286667],[130.684943969,33.7],[130.68125000000003,33.699999999999996],[130.681308054,33.70048]]]}},{"type":"Feature","id":"40401:503045452","properties":{"id":"40401:503045452","meshCode":"503045452","cityCode":"40401","city":"小竹町","lat":33.7021064,"lon":130.6994061,"areaKm2":0.0572385,"populated2020":true,"population2020":null,"populationNote":"境界またぎ・原典収録外のため自治体内人口は未集計"},"geometry":{"type":"Polygon","coordinates":[[[130.698143476,33.7],[130.698879442,33.701084441],[130.698683891,33.703083333],[130.698964994,33.70385499999999],[130.698767782,33.704093054],[130.69853,33.70413527899999],[130.697582503,33.703899162],[130.69724194600002,33.703891108],[130.69712917,33.70394138699999],[130.69702741098544,33.70416666666667],[130.7,33.704166666666666],[130.7,33.7],[130.698143476,33.7]]]}},{"type":"Feature","id":"40401:503045461","properties":{"id":"40401:503045461","meshCode":"503045461","cityCode":"40401","city":"小竹町","lat":33.7020833,"lon":130.703125,"areaKm2":0.2677295,"populated2020":true,"population2020":72.9228,"populationNote":"2020年基準の国交省調整値"},"geometry":{"type":"Polygon","coordinates":[[[130.7,33.7],[130.7,33.704166666666666],[130.70625,33.70416666666667],[130.70625,33.70000000000001],[130.7,33.7]]]}},{"type":"Feature","id":"40401:503045462","properties":{"id":"40401:503045462","meshCode":"503045462","cityCode":"40401","city":"小竹町","lat":33.7020833,"lon":130.709375,"areaKm2":0.2658456,"populated2020":true,"population2020":21.2799,"populationNote":"2020年基準の国交省調整値"},"geometry":{"type":"Polygon","coordinates":[[[130.712076667,33.70074741399999],[130.712481582,33.7],[130.70625,33.70000000000001],[130.70625,33.70416666666667],[130.7125,33.704166666666666],[130.7125,33.70083476876275],[130.712076667,33.70074741399999]]]}},{"type":"Feature","id":"40401:503045471","properties":{"id":"40401:503045471","meshCode":"503045471","cityCode":"40401","city":"小竹町","lat":33.7020833,"lon":130.715625,"areaKm2":0.1927806,"populated2020":true,"population2020":null,"populationNote":"境界またぎ・原典収録外のため自治体内人口は未集計"},"geometry":{"type":"Polygon","coordinates":[[[130.718612983,33.700875036],[130.718038612,33.700754720999996],[130.717656109,33.700775559],[130.717317497,33.701179162],[130.717055551,33.700935],[130.716572776,33.70152],[130.715673891,33.70127361299999],[130.715448885,33.701273613],[130.714820558,33.701531667],[130.714391115,33.701592225],[130.714148054,33.701588054],[130.714156109,33.701428891999996],[130.713748885,33.70135],[130.713707886,33.70103430599999],[130.7125,33.70083476876275],[130.7125,33.704166666666666],[130.71875,33.704166666666666],[130.71875,33.70076278731548],[130.718612983,33.700875036]]]}},{"type":"Feature","id":"40401:503045472","properties":{"id":"40401:503045472","meshCode":"503045472","cityCode":"40401","city":"小竹町","lat":33.7020833,"lon":130.721875,"areaKm2":0.2504942,"populated2020":true,"population2020":168.3567,"populationNote":"2020年基準の国交省調整値"},"geometry":{"type":"Polygon","coordinates":[[[130.725,33.70117013499999],[130.724264721,33.700596108],[130.723418054,33.700241108],[130.722275837,33.7],[130.720139468,33.7],[130.719314241,33.70046735999999],[130.719150428,33.700667351],[130.718890908,33.700647351],[130.71875,33.70076278731548],[130.71875,33.704166666666666],[130.725,33.704166666666666],[130.725,33.70117013499999]]]}},{"type":"Feature","id":"40401:503045481","properties":{"id":"40401:503045481","meshCode":"503045481","cityCode":"40401","city":"小竹町","lat":33.7027557,"lon":130.725613,"areaKm2":0.0314566,"populated2020":true,"population2020":null,"populationNote":"境界またぎ・原典収録外のため自治体内人口は未集計"},"geometry":{"type":"Polygon","coordinates":[[[130.726628054,33.704136946000006],[130.726263333,33.70382638699999],[130.726068885,33.703471387],[130.726234994,33.702884721],[130.726192776,33.702449162],[130.726030272,33.701999721],[130.725,33.70117013499999],[130.725,33.704166666666666],[130.726628054,33.704136946000006]]]}},{"type":"Feature","id":"40401:503045454","properties":{"id":"40401:503045454","meshCode":"503045454","cityCode":"40401","city":"小竹町","lat":33.7062464,"lon":130.6984444,"areaKm2":0.1334757,"populated2020":true,"population2020":13.2368,"populationNote":"2020年基準の国交省調整値"},"geometry":{"type":"Polygon","coordinates":[[[130.69702741098544,33.70416666666667],[130.696719728,33.705263054],[130.69691,33.70593000000001],[130.696804721,33.707107225],[130.697131946,33.707828332999995],[130.69694596594536,33.708333333333336],[130.7,33.70833333333334],[130.7,33.704166666666666],[130.69702741098544,33.70416666666667]]]}},{"type":"Feature","id":"40401:503045463","properties":{"id":"40401:503045463","meshCode":"503045463","cityCode":"40401","city":"小竹町","lat":33.70625,"lon":130.703125,"areaKm2":0.2677168,"populated2020":true,"population2020":92.0696,"populationNote":"2020年基準の国交省調整値"},"geometry":{"type":"Polygon","coordinates":[[[130.7,33.704166666666666],[130.7,33.70833333333334],[130.70625,33.708333333333336],[130.70625,33.70416666666667],[130.7,33.704166666666666]]]}},{"type":"Feature","id":"40401:503045464","properties":{"id":"40401:503045464","meshCode":"503045464","cityCode":"40401","city":"小竹町","lat":33.70625,"lon":130.709375,"areaKm2":0.2677166,"populated2020":true,"population2020":110.8116,"populationNote":"2020年基準の国交省調整値"},"geometry":{"type":"Polygon","coordinates":[[[130.70625,33.70416666666667],[130.70625,33.708333333333336],[130.7125,33.708333333333336],[130.7125,33.704166666666666],[130.70625,33.70416666666667]]]}},{"type":"Feature","id":"40401:503045473","properties":{"id":"40401:503045473","meshCode":"503045473","cityCode":"40401","city":"小竹町","lat":33.70625,"lon":130.715625,"areaKm2":0.2677164,"populated2020":true,"population2020":71.2463,"populationNote":"2020年基準の国交省調整値"},"geometry":{"type":"Polygon","coordinates":[[[130.7125,33.704166666666666],[130.7125,33.708333333333336],[130.71875,33.708333333333336],[130.71875,33.704166666666666],[130.7125,33.704166666666666]]]}},{"type":"Feature","id":"40401:503045474","properties":{"id":"40401:503045474","meshCode":"503045474","cityCode":"40401","city":"小竹町","lat":33.70625,"lon":130.721875,"areaKm2":0.2677162,"populated2020":false,"population2020":null,"populationNote":"境界またぎ・原典収録外のため自治体内人口は未集計"},"geometry":{"type":"Polygon","coordinates":[[[130.71875,33.704166666666666],[130.71875,33.708333333333336],[130.725,33.708333333333336],[130.725,33.704166666666666],[130.71875,33.704166666666666]]]}},{"type":"Feature","id":"40401:503045483","properties":{"id":"40401:503045483","meshCode":"503045483","cityCode":"40401","city":"小竹町","lat":33.7061997,"lon":130.7260221,"areaKm2":0.0902601,"populated2020":false,"population2020":null,"populationNote":"境界またぎ・原典収録外のため自治体内人口は未集計"},"geometry":{"type":"Polygon","coordinates":[[[130.727481751,33.708333333],[130.727405279,33.707843054],[130.72748888500004,33.707474440999995],[130.727300272,33.706476108],[130.72697166,33.706123053999995],[130.726757224,33.705643333],[130.72683166,33.70440500000001],[130.726649947594,33.70416666666667],[130.725,33.704166666666666],[130.725,33.708333333333336],[130.727481751,33.708333333]]]}},{"type":"Feature","id":"40401:503045552","properties":{"id":"40401:503045552","meshCode":"503045552","cityCode":"40401","city":"小竹町","lat":33.7104167,"lon":130.696875,"areaKm2":0.1362706,"populated2020":true,"population2020":18.4898,"populationNote":"2020年基準の国交省調整値"},"geometry":{"type":"Polygon","coordinates":[[[130.69694596594536,33.708333333333336],[130.696840558,33.708676387],[130.697036109,33.70908138699999],[130.697014994,33.70930305400001],[130.696815551,33.70971222499999],[130.696622776,33.711579721],[130.696642776,33.711735000000004],[130.696874449,33.711904162],[130.696948885,33.712065558999996],[130.69693201273913,33.712500000000006],[130.7,33.712500000000006],[130.7,33.70833333333334],[130.69694596594536,33.708333333333336]]]}},{"type":"Feature","id":"40401:503045561","properties":{"id":"40401:503045561","meshCode":"503045561","cityCode":"40401","city":"小竹町","lat":33.7104167,"lon":130.703125,"areaKm2":0.267704,"populated2020":true,"population2020":66.2703,"populationNote":"2020年基準の国交省調整値"},"geometry":{"type":"Polygon","coordinates":[[[130.7,33.70833333333334],[130.7,33.712500000000006],[130.70625,33.712500000000006],[130.70625,33.708333333333336],[130.7,33.70833333333334]]]}},{"type":"Feature","id":"40401:503045562","properties":{"id":"40401:503045562","meshCode":"503045562","cityCode":"40401","city":"小竹町","lat":33.7104167,"lon":130.709375,"areaKm2":0.2677038,"populated2020":true,"population2020":95.372,"populationNote":"2020年基準の国交省調整値"},"geometry":{"type":"Polygon","coordinates":[[[130.70625,33.708333333333336],[130.70625,33.712500000000006],[130.7125,33.7125],[130.7125,33.708333333333336],[130.70625,33.708333333333336]]]}},{"type":"Feature","id":"40401:503045571","properties":{"id":"40401:503045571","meshCode":"503045571","cityCode":"40401","city":"小竹町","lat":33.7104167,"lon":130.715625,"areaKm2":0.2677036,"populated2020":true,"population2020":43.2857,"populationNote":"2020年基準の国交省調整値"},"geometry":{"type":"Polygon","coordinates":[[[130.7125,33.708333333333336],[130.7125,33.7125],[130.71875,33.712500000000006],[130.71875,33.708333333333336],[130.7125,33.708333333333336]]]}},{"type":"Feature","id":"40401:503045572","properties":{"id":"40401:503045572","meshCode":"503045572","cityCode":"40401","city":"小竹町","lat":33.7104167,"lon":130.721875,"areaKm2":0.2677034,"populated2020":false,"population2020":null,"populationNote":"境界またぎ・原典収録外のため自治体内人口は未集計"},"geometry":{"type":"Polygon","coordinates":[[[130.71875,33.708333333333336],[130.71875,33.712500000000006],[130.725,33.712500000000006],[130.725,33.708333333333336],[130.71875,33.708333333333336]]]}},{"type":"Feature","id":"40401:503045581","properties":{"id":"40401:503045581","meshCode":"503045581","cityCode":"40401","city":"小竹町","lat":33.7104389,"lon":130.725664,"areaKm2":0.0713617,"populated2020":true,"population2020":null,"populationNote":"境界またぎ・原典収録外のため自治体内人口は未集計"},"geometry":{"type":"Polygon","coordinates":[[[130.726378885,33.712472774999995],[130.726137224,33.712053892],[130.726078327,33.711236107999994],[130.726335837,33.710787225],[130.72636,33.710253613000006],[130.726760558,33.710211387],[130.726876109,33.710018054],[130.727022218,33.709298892],[130.727642218,33.708871946],[130.727726667,33.708648892],[130.72748175115612,33.70833333333333],[130.725,33.708333333333336],[130.725,33.712500000000006],[130.726378885,33.712472774999995]]]}},{"type":"Feature","id":"40401:503045554","properties":{"id":"40401:503045554","meshCode":"503045554","cityCode":"40401","city":"小竹町","lat":33.7145583,"lon":130.6988887,"areaKm2":0.129711,"populated2020":true,"population2020":null,"populationNote":"境界またぎ・原典収録外のため自治体内人口は未集計"},"geometry":{"type":"Polygon","coordinates":[[[130.69693201273913,33.712500000000006],[130.696966939,33.712998054],[130.697339442,33.713491946],[130.697723061,33.713630829],[130.697839728,33.713866667],[130.697814721,33.714482775],[130.697508612,33.715036946],[130.69728917,33.715178054],[130.696930272,33.715211667],[130.696418612,33.71494610799999],[130.696229442,33.715091108],[130.6959838911047,33.71666666666667],[130.7,33.716666666666676],[130.7,33.712500000000006],[130.69693201273913,33.712500000000006]]]}},{"type":"Feature","id":"40401:503045563","properties":{"id":"40401:503045563","meshCode":"503045563","cityCode":"40401","city":"小竹町","lat":33.7145833,"lon":130.703125,"areaKm2":0.2676913,"populated2020":true,"population2020":21.4272,"populationNote":"2020年基準の国交省調整値"},"geometry":{"type":"Polygon","coordinates":[[[130.7,33.712500000000006],[130.7,33.716666666666676],[130.70625,33.71666666666667],[130.70625,33.712500000000006],[130.7,33.712500000000006]]]}},{"type":"Feature","id":"40401:503045564","properties":{"id":"40401:503045564","meshCode":"503045564","cityCode":"40401","city":"小竹町","lat":33.7145833,"lon":130.709375,"areaKm2":0.2676911,"populated2020":true,"population2020":17.491,"populationNote":"2020年基準の国交省調整値"},"geometry":{"type":"Polygon","coordinates":[[[130.70625,33.712500000000006],[130.70625,33.71666666666667],[130.7125,33.716666666666676],[130.7125,33.7125],[130.70625,33.712500000000006]]]}},{"type":"Feature","id":"40401:503045573","properties":{"id":"40401:503045573","meshCode":"503045573","cityCode":"40401","city":"小竹町","lat":33.7145833,"lon":130.715625,"areaKm2":0.2676909,"populated2020":true,"population2020":311.2854,"populationNote":"2020年基準の国交省調整値"},"geometry":{"type":"Polygon","coordinates":[[[130.7125,33.7125],[130.7125,33.716666666666676],[130.71875,33.71666666666666],[130.71875,33.712500000000006],[130.7125,33.7125]]]}},{"type":"Feature","id":"40401:503045574","properties":{"id":"40401:503045574","meshCode":"503045574","cityCode":"40401","city":"小竹町","lat":33.7145833,"lon":130.721875,"areaKm2":0.2619828,"populated2020":true,"population2020":98.3404,"populationNote":"2020年基準の国交省調整値"},"geometry":{"type":"Polygon","coordinates":[[[130.724564994,33.716618892],[130.724513333,33.71579110799999],[130.724585837,33.715626108],[130.725,33.715217829],[130.725,33.712500000000006],[130.71875,33.712500000000006],[130.71875,33.71666666666666],[130.72462561557703,33.71666666666667],[130.724564994,33.716618892]]]}},{"type":"Feature","id":"40401:503045583","properties":{"id":"40401:503045583","meshCode":"503045583","cityCode":"40401","city":"小竹町","lat":33.71383,"lon":130.7255194,"areaKm2":0.0246422,"populated2020":true,"population2020":null,"populationNote":"境界またぎ・原典収録外のため自治体内人口は未集計"},"geometry":{"type":"Polygon","coordinates":[[[130.725,33.715217829],[130.725283061,33.715084441],[130.725621388,33.714766387000004],[130.726056939,33.713789721],[130.725948327,33.71340333300001],[130.725997224,33.712998333],[130.726518612,33.712690279],[130.72639995844213,33.712500000000006],[130.725,33.712500000000006],[130.725,33.715217829]]]}},{"type":"Feature","id":"40401:503045652","properties":{"id":"40401:503045652","meshCode":"503045652","cityCode":"40401","city":"小竹町","lat":33.71875,"lon":130.696875,"areaKm2":0.1801739,"populated2020":true,"population2020":null,"populationNote":"境界またぎ・原典収録外のため自治体内人口は未集計"},"geometry":{"type":"Polygon","coordinates":[[[130.695983891,33.716666667],[130.695385837,33.719636108],[130.69537166,33.719839441000005],[130.695483061,33.720012774999994],[130.695821115,33.72020222500001],[130.696795551,33.72053944099999],[130.696945837,33.720655279],[130.69698740424306,33.72083333333333],[130.7,33.72083333333334],[130.7,33.716666666666676],[130.695983891,33.716666667]]]}},{"type":"Feature","id":"40401:503045661","properties":{"id":"40401:503045661","meshCode":"503045661","cityCode":"40401","city":"小竹町","lat":33.71875,"lon":130.703125,"areaKm2":0.2676785,"populated2020":true,"population2020":35.9586,"populationNote":"2020年基準の国交省調整値"},"geometry":{"type":"Polygon","coordinates":[[[130.7,33.716666666666676],[130.7,33.72083333333334],[130.70625,33.72083333333333],[130.70625,33.71666666666667],[130.7,33.716666666666676]]]}},{"type":"Feature","id":"40401:503045662","properties":{"id":"40401:503045662","meshCode":"503045662","cityCode":"40401","city":"小竹町","lat":33.71875,"lon":130.709375,"areaKm2":0.2676783,"populated2020":true,"population2020":6.2019,"populationNote":"2020年基準の国交省調整値"},"geometry":{"type":"Polygon","coordinates":[[[130.70625,33.71666666666667],[130.70625,33.72083333333333],[130.7125,33.72083333333333],[130.7125,33.716666666666676],[130.70625,33.71666666666667]]]}},{"type":"Feature","id":"40401:503045671","properties":{"id":"40401:503045671","meshCode":"503045671","cityCode":"40401","city":"小竹町","lat":33.71875,"lon":130.715625,"areaKm2":0.2676781,"populated2020":true,"population2020":325.7986,"populationNote":"2020年基準の国交省調整値"},"geometry":{"type":"Polygon","coordinates":[[[130.7125,33.716666666666676],[130.7125,33.72083333333333],[130.71875,33.72083333333333],[130.71875,33.71666666666666],[130.7125,33.716666666666676]]]}},{"type":"Feature","id":"40401:503045672","properties":{"id":"40401:503045672","meshCode":"503045672","cityCode":"40401","city":"小竹町","lat":33.71875,"lon":130.721875,"areaKm2":0.2668314,"populated2020":true,"population2020":14.1843,"populationNote":"2020年基準の国交省調整値"},"geometry":{"type":"Polygon","coordinates":[[[130.725,33.71701491899999],[130.724780272,33.716928892000006],[130.72462561557703,33.71666666666667],[130.71875,33.71666666666666],[130.71875,33.72083333333333],[130.725,33.72083333333333],[130.725,33.71701491899999]]]}},{"type":"Feature","id":"40401:503045681","properties":{"id":"40401:503045681","meshCode":"503045681","cityCode":"40401","city":"小竹町","lat":33.7195971,"lon":130.7258374,"areaKm2":0.0536598,"populated2020":true,"population2020":null,"populationNote":"境界またぎ・原典収録外のため自治体内人口は未集計"},"geometry":{"type":"Polygon","coordinates":[[[130.726630272,33.718360829],[130.726056667,33.718076946000004],[130.725923606,33.717847225],[130.725623891,33.717633892],[130.725497782,33.717158333],[130.725,33.71701491899999],[130.725,33.72083333333333],[130.72671939716184,33.72083333333333],[130.726630272,33.718360829]]]}},{"type":"Feature","id":"40401:503045654","properties":{"id":"40401:503045654","meshCode":"503045654","cityCode":"40401","city":"小竹町","lat":33.7223085,"lon":130.6985157,"areaKm2":0.0571508,"populated2020":true,"population2020":2.0499,"populationNote":"2020年基準の国交省調整値"},"geometry":{"type":"Polygon","coordinates":[[[130.696990272,33.720858892],[130.696944449,33.722074441],[130.697111115,33.722425829],[130.697293333,33.722483333],[130.697970558,33.722363054],[130.698876109,33.72244638699999],[130.69924917,33.72276666700001],[130.699659442,33.72352722499999],[130.699852776,33.72372055900001],[130.7,33.72374536000001],[130.7,33.72083333333334],[130.696990272,33.720858892]]]}},{"type":"Feature","id":"40401:503045663","properties":{"id":"40401:503045663","meshCode":"503045663","cityCode":"40401","city":"小竹町","lat":33.7229167,"lon":130.703125,"areaKm2":0.2542822,"populated2020":true,"population2020":116.498,"populationNote":"2020年基準の国交省調整値"},"geometry":{"type":"Polygon","coordinates":[[[130.700234994,33.72378499999999],[130.700604994,33.72408305399999],[130.701080558,33.72418889200001],[130.701316109,33.72473],[130.70200939,33.725],[130.70625,33.725],[130.70625,33.72083333333333],[130.7,33.72083333333334],[130.7,33.72374536000001],[130.700234994,33.72378499999999]]]}},{"type":"Feature","id":"40401:503045664","properties":{"id":"40401:503045664","meshCode":"503045664","cityCode":"40401","city":"小竹町","lat":33.7229167,"lon":130.709375,"areaKm2":0.2666407,"populated2020":true,"population2020":31.7096,"populationNote":"2020年基準の国交省調整値"},"geometry":{"type":"Polygon","coordinates":[[[130.709825188,33.725],[130.710721388,33.724823333],[130.710755422,33.725],[130.7125,33.725],[130.7125,33.72083333333333],[130.70625,33.72083333333333],[130.70625,33.725],[130.709825188,33.725]]]}},{"type":"Feature","id":"40401:503045673","properties":{"id":"40401:503045673","meshCode":"503045673","cityCode":"40401","city":"小竹町","lat":33.7229167,"lon":130.715625,"areaKm2":0.2676654,"populated2020":true,"population2020":150.0867,"populationNote":"2020年基準の国交省調整値"},"geometry":{"type":"Polygon","coordinates":[[[130.7125,33.72083333333333],[130.7125,33.725],[130.71875,33.724999999999994],[130.71875,33.72083333333333],[130.7125,33.72083333333333]]]}},{"type":"Feature","id":"40401:503045674","properties":{"id":"40401:503045674","meshCode":"503045674","cityCode":"40401","city":"小竹町","lat":33.7229167,"lon":130.721875,"areaKm2":0.2676652,"populated2020":true,"population2020":115.515,"populationNote":"2020年基準の国交省調整値"},"geometry":{"type":"Polygon","coordinates":[[[130.71875,33.72083333333333],[130.71875,33.724999999999994],[130.725,33.724999999999994],[130.725,33.72083333333333],[130.71875,33.72083333333333]]]}},{"type":"Feature","id":"40401:503045683","properties":{"id":"40401:503045683","meshCode":"503045683","cityCode":"40401","city":"小竹町","lat":33.7224022,"lon":130.725888,"areaKm2":0.0768529,"populated2020":true,"population2020":null,"populationNote":"境界またぎ・原典収録外のため自治体内人口は未集計"},"geometry":{"type":"Polygon","coordinates":[[[130.726869728,33.724999999999994],[130.72671939716184,33.72083333333333],[130.725,33.72083333333333],[130.725,33.724999999999994],[130.726869728,33.724999999999994]]]}},{"type":"Feature","id":"40401:503045761","properties":{"id":"40401:503045761","meshCode":"503045761","cityCode":"40401","city":"小竹町","lat":33.725398,"lon":130.704241,"areaKm2":0.023007,"populated2020":true,"population2020":null,"populationNote":"境界またぎ・原典収録外のため自治体内人口は未集計"},"geometry":{"type":"Polygon","coordinates":[[[130.702637782,33.725244721],[130.70294166,33.725747775],[130.70368472100003,33.725836387],[130.70494917,33.725528333],[130.70625,33.7253761974135],[130.70625,33.725],[130.70200939,33.725],[130.702637782,33.725244721]]]}},{"type":"Feature","id":"40401:503045762","properties":{"id":"40401:503045762","meshCode":"503045762","cityCode":"40401","city":"小竹町","lat":33.7271086,"lon":130.7119386,"areaKm2":0.0671666,"populated2020":true,"population2020":null,"populationNote":"境界またぎ・原典収録外のため自治体内人口は未集計"},"geometry":{"type":"MultiPolygon","coordinates":[[[[130.70625,33.7253761974135],[130.70689166,33.725428054000005],[130.707454994,33.72522472099999],[130.707595551,33.725263054],[130.707789728,33.725601108],[130.709280558,33.725112495000005],[130.709825188,33.725],[130.70625,33.725],[130.70625,33.7253761974135]]],[[[130.710681115,33.725268054000004],[130.711021115,33.72538472099999],[130.711373891,33.72510333300001],[130.711884721,33.725284162],[130.71206250300003,33.725773333],[130.71204166,33.726442775],[130.711911115,33.72676472100001],[130.711756109,33.726917495],[130.711266667,33.727150829],[130.71067166,33.727239440999995],[130.710450272,33.72744861300001],[130.710348885,33.727738333],[130.710381115,33.727893333],[130.710664449,33.72827166700001],[130.71048730268615,33.729166666666664],[130.7125,33.729166666666664],[130.7125,33.725],[130.710755422,33.725],[130.710681115,33.725268054000004]]]]}},{"type":"Feature","id":"40401:503045771","properties":{"id":"40401:503045771","meshCode":"503045771","cityCode":"40401","city":"小竹町","lat":33.7270833,"lon":130.715625,"areaKm2":0.2676526,"populated2020":true,"population2020":111.3857,"populationNote":"2020年基準の国交省調整値"},"geometry":{"type":"Polygon","coordinates":[[[130.7125,33.725],[130.7125,33.729166666666664],[130.71875,33.72916666666667],[130.71875,33.724999999999994],[130.7125,33.725]]]}},{"type":"Feature","id":"40401:503045772","properties":{"id":"40401:503045772","meshCode":"503045772","cityCode":"40401","city":"小竹町","lat":33.7270833,"lon":130.721875,"areaKm2":0.2676524,"populated2020":true,"population2020":134.9825,"populationNote":"2020年基準の国交省調整値"},"geometry":{"type":"Polygon","coordinates":[[[130.71875,33.724999999999994],[130.71875,33.72916666666667],[130.725,33.72916666666667],[130.725,33.724999999999994],[130.71875,33.724999999999994]]]}},{"type":"Feature","id":"40401:503045781","properties":{"id":"40401:503045781","meshCode":"503045781","cityCode":"40401","city":"小竹町","lat":33.7271511,"lon":130.7250426,"areaKm2":0.0442368,"populated2020":true,"population2020":null,"populationNote":"境界またぎ・原典収録外のため自治体内人口は未集計"},"geometry":{"type":"Polygon","coordinates":[[[130.72721532748295,33.72916666666666],[130.725678612,33.727987775],[130.725025551,33.727319441],[130.725118885,33.727065829],[130.72624166,33.725858054],[130.726402503,33.72572722500001],[130.726893333,33.725652775],[130.726869728,33.724999999999994],[130.725,33.724999999999994],[130.725,33.72916666666667],[130.72721532748295,33.72916666666666]]]}},{"type":"Feature","id":"40401:503045764","properties":{"id":"40401:503045764","meshCode":"503045764","cityCode":"40401","city":"小竹町","lat":33.7304764,"lon":130.7113633,"areaKm2":0.0521407,"populated2020":true,"population2020":null,"populationNote":"境界またぎ・原典収録外のため自治体内人口は未集計"},"geometry":{"type":"MultiPolygon","coordinates":[[[[130.71048730268615,33.729166666666664],[130.710331115,33.729944441],[130.710160272,33.730320559],[130.710347224,33.730923892],[130.710907782,33.731060829],[130.711313061,33.731881108],[130.711967224,33.731983892],[130.712093891,33.731935559],[130.712336394,33.731467225],[130.712213891,33.73117361300001],[130.712296109,33.731063054],[130.7125,33.731079074390756],[130.7125,33.729166666666664],[130.71048730268615,33.729166666666664]]],[[[130.7125,33.732056360817246],[130.71238,33.732267775],[130.712428612,33.732311945999996],[130.7125,33.73229442410702],[130.7125,33.732056360817246]]]]}},{"type":"Feature","id":"40401:503045773","properties":{"id":"40401:503045773","meshCode":"503045773","cityCode":"40401","city":"小竹町","lat":33.73125,"lon":130.715625,"areaKm2":0.1558075,"populated2020":true,"population2020":129.4803,"populationNote":"2020年基準の国交省調整値"},"geometry":{"type":"Polygon","coordinates":[[[130.712501115,33.73107916199999],[130.71280083,33.731238054],[130.712917497,33.731525559],[130.712621115,33.731718613],[130.7125,33.73229442410702],[130.712691946,33.732247495],[130.713026667,33.73233194600001],[130.713630558,33.732128892],[130.713803606,33.73213277499999],[130.714313061,33.73254416200001],[130.714533333,33.732103333],[130.714645837,33.73204305400001],[130.715261388,33.73197499999999],[130.716068885,33.731648892],[130.716958054,33.731453613],[130.717748327,33.730649162000006],[130.718545551,33.730290829000005],[130.71875,33.73011660915028],[130.71875,33.72916666666667],[130.7125,33.729166666666664],[130.712501115,33.73107916199999]]]}},{"type":"Feature","id":"40401:503045774","properties":{"id":"40401:503045774","meshCode":"503045774","cityCode":"40401","city":"小竹町","lat":33.7303922,"lon":130.723588,"areaKm2":0.0820191,"populated2020":true,"population2020":null,"populationNote":"境界またぎ・原典収録外のため自治体内人口は未集計"},"geometry":{"type":"Polygon","coordinates":[[[130.71875,33.73011660915028],[130.719579442,33.72918416200001],[130.719939728,33.729463892000005],[130.720743061,33.729870829],[130.722322776,33.730469721],[130.723552503,33.731141946],[130.724093606,33.73161889199999],[130.725,33.731704865],[130.725,33.72916666666667],[130.71875,33.72916666666667],[130.71875,33.73011660915028]]]}},{"type":"Feature","id":"40401:503045783","properties":{"id":"40401:503045783","meshCode":"503045783","cityCode":"40401","city":"小竹町","lat":33.7304364,"lon":130.7258651,"areaKm2":0.0476693,"populated2020":true,"population2020":null,"populationNote":"境界またぎ・原典収録外のため自治体内人口は未集計"},"geometry":{"type":"Polygon","coordinates":[[[130.725,33.731704865],[130.726237497,33.731634721000006],[130.726575551,33.73146972100001],[130.726932503,33.73079361300001],[130.726727224,33.730393054],[130.72682083,33.729984441000006],[130.727300558,33.729394721000006],[130.72721532748295,33.72916666666666],[130.725,33.72916666666667],[130.725,33.731704865]]]}}]}