{"type":"FeatureCollection","metadata":{"cityCode":"40421","city":"桂川町","resolution":1000,"boundaryDate":"2026-01-01","populationLabel":"2020年基準人口（国交省調整値）","method":"標準地域メッシュを行政界で切抜き。中心が区域外のとき区域内代表点を判定点にする。人口不明をゼロにしない。"},"features":[{"type":"Feature","id":"40421:50302533","properties":{"id":"40421:50302533","meshCode":"50302533","cityCode":"40421","city":"桂川町","lat":33.5318205,"lon":130.6726008,"areaKm2":0.1372412,"populated2020":true,"population2020":null,"populationNote":"境界またぎ・収録外等のため人口未集計"},"geometry":{"type":"Polygon","coordinates":[[[130.672222776,33.52907638700001],[130.672337497,33.529458333],[130.671933333,33.529892775],[130.670897782,33.53074805399999],[130.670579728,33.531150829000005],[130.670483061,33.53152166700001],[130.67053138800003,33.532214721],[130.67027166,33.53290361300001],[130.670050272,33.53314527900001],[130.66971933841307,33.53333333333334],[130.675,33.53333333333333],[130.675,33.53116180200001],[130.674688612,33.531002495],[130.674378885,33.531018892],[130.674156939,33.531118613000004],[130.673588612,33.531053332999996],[130.673339442,33.53086610799999],[130.673017497,33.530340279],[130.673146667,33.530164721],[130.673179442,33.529687775],[130.67278917,33.529296667],[130.672467224,33.529100829],[130.672222776,33.52907638700001]]]}},{"type":"Feature","id":"40421:50302534","properties":{"id":"40421:50302534","meshCode":"50302534","cityCode":"40421","city":"桂川町","lat":33.5322812,"lon":130.6763201,"areaKm2":0.0587798,"populated2020":false,"population2020":null,"populationNote":"境界またぎ・収録外等のため人口未集計"},"geometry":{"type":"Polygon","coordinates":[[[130.67842111500002,33.533333333],[130.678000558,33.53300000000001],[130.677424163,33.532775829],[130.677305837,33.532584162],[130.677544994,33.531901387000005],[130.677523606,33.531516667],[130.677293333,33.531218892000005],[130.677056109,33.531086108],[130.676732218,33.531061666999996],[130.676316667,33.53117166700001],[130.675688054,33.53111055899999],[130.675095279,33.531210559],[130.675,33.53116180200001],[130.675,33.53333333333333],[130.67842111500002,33.533333333]]]}},{"type":"Feature","id":"40421:50302543","properties":{"id":"40421:50302543","meshCode":"50302543","cityCode":"40421","city":"桂川町","lat":33.5369092,"lon":130.6728302,"areaKm2":0.3486939,"populated2020":true,"population2020":2.0936,"populationNote":"収録500mメッシュ人口の合算（原典収録外は補完しない）"},"geometry":{"type":"Polygon","coordinates":[[[130.66943,33.533536108],[130.669440272,33.53389082900001],[130.66923083,33.53422110799999],[130.669339728,33.534644162],[130.670062503,33.534829721],[130.670235837,33.534974721],[130.670642503,33.535627495],[130.670688054,33.536903333000005],[130.67091166,33.537660559],[130.670814994,33.537894441000006],[130.670609442,33.538083891999996],[130.670597497,33.538402225],[130.670864994,33.53875694599999],[130.671646109,33.539461946],[130.671662218,33.539828613],[130.671889728,33.54022361300001],[130.673172503,33.54129944100001],[130.67324165966667,33.541666666666664],[130.675,33.541666666666664],[130.675,33.53333333333333],[130.66971933841307,33.53333333333334],[130.66943,33.533536108]]]}},{"type":"Feature","id":"40421:50302544","properties":{"id":"40421:50302544","meshCode":"50302544","cityCode":"40421","city":"桂川町","lat":33.5378653,"lon":130.6775442,"areaKm2":0.4233783,"populated2020":true,"population2020":null,"populationNote":"境界またぎ・収録外等のため人口未集計"},"geometry":{"type":"Polygon","coordinates":[[[130.680576667,33.537306108],[130.679862503,33.536386387],[130.679757497,33.535974441],[130.679582503,33.535833892],[130.678953061,33.53580138699999],[130.678728054,33.535562775],[130.67874444900002,33.53537527899999],[130.679407224,33.53489],[130.679486667,33.534655829],[130.679295551,33.53440305400001],[130.67857917,33.53404444099999],[130.6784211151381,33.53333333333334],[130.675,33.53333333333333],[130.675,33.541666666666664],[130.68135786019127,33.541666666666664],[130.681464449,33.541342775],[130.680750272,33.54046222499999],[130.680350558,33.539045829],[130.67985083,33.53884500000001],[130.679134163,33.538298333],[130.67905861200003,33.538139441000006],[130.679183061,33.537886667],[130.679411115,33.537843892],[130.679719728,33.537858054],[130.679974449,33.53798249500001],[130.680520558,33.537933333],[130.680681388,33.53784],[130.680720272,33.537719721],[130.680576667,33.537306108]]]}},{"type":"Feature","id":"40421:50302553","properties":{"id":"40421:50302553","meshCode":"50302553","cityCode":"40421","city":"桂川町","lat":33.5418033,"lon":130.6741891,"areaKm2":0.0075181,"populated2020":true,"population2020":null,"populationNote":"境界またぎ・収録外等のため人口未集計"},"geometry":{"type":"MultiPolygon","coordinates":[[[[130.673514721,33.54194],[130.673786667,33.542020829],[130.674866109,33.54198861300001],[130.675,33.542047559],[130.675,33.541666666666664],[130.67324165966667,33.541666666666664],[130.673514721,33.54194]]],[[[130.666667173,33.54999999999999],[130.666026109,33.549543613000004],[130.665852776,33.549551666999996],[130.665952555,33.54999999999999],[130.666667173,33.54999999999999]]]]}},{"type":"Feature","id":"40421:50302554","properties":{"id":"40421:50302554","meshCode":"50302554","cityCode":"40421","city":"桂川町","lat":33.5458794,"lon":130.6806194,"areaKm2":0.7463508,"populated2020":true,"population2020":null,"populationNote":"境界またぎ・収録外等のため人口未集計"},"geometry":{"type":"Polygon","coordinates":[[[130.675152218,33.542399161999995],[130.675758054,33.542718054],[130.676076109,33.54298805399999],[130.676257497,33.54357638700001],[130.676702503,33.544205],[130.677114721,33.545228333],[130.67713083,33.54553861299999],[130.676848885,33.546175279],[130.676291115,33.546537775],[130.676065551,33.54692861299999],[130.675578612,33.547287225],[130.675493891,33.54756944100001],[130.6755,33.547774721],[130.675922503,33.548463612999996],[130.677057717,33.54999999999999],[130.685011725,33.55],[130.684717782,33.549726667],[130.684344994,33.549151108000004],[130.684385837,33.548973333],[130.684702218,33.54854444099999],[130.685738054,33.548317775],[130.685910272,33.548146108],[130.685975551,33.547868333],[130.685951115,33.547590829],[130.685729728,33.547196666999994],[130.685596394,33.546586387],[130.685475837,33.546363891999995],[130.685163606,33.546155558999985],[130.684933061,33.54583916200001],[130.68514,33.545204162000005],[130.684961388,33.544658613],[130.685181115,33.54432361300001],[130.685232218,33.544044162],[130.685162776,33.54385444100001],[130.68467,33.543495279],[130.684813891,33.542792495],[130.685048054,33.542226108],[130.684925837,33.541812225],[130.684662776,33.54171000000001],[130.682957497,33.542346386999995],[130.681644721,33.542078892],[130.681414449,33.54195666700001],[130.681322776,33.541822225],[130.68135786019127,33.541666666666664],[130.675,33.541666666666664],[130.675039442,33.542250559],[130.675152218,33.542399161999995]]]}},{"type":"Feature","id":"40421:50302563","properties":{"id":"40421:50302563","meshCode":"50302563","cityCode":"40421","city":"桂川町","lat":33.5553236,"lon":130.6695078,"areaKm2":0.592345,"populated2020":true,"population2020":null,"populationNote":"境界またぎ・収録外等のため人口未集計"},"geometry":{"type":"Polygon","coordinates":[[[130.666077224,33.552134720999994],[130.66494917,33.554255],[130.66523693900004,33.554746387],[130.665238885,33.554899721000005],[130.664916667,33.55521],[130.664743333,33.555782225],[130.664745279,33.556608333],[130.664858054,33.557051667],[130.665065551,33.557365559],[130.665105837,33.557651666999995],[130.66480338488086,33.55833333333333],[130.675,33.558333333333344],[130.675,33.55368780199999],[130.674663891,33.553585279],[130.673979442,33.553553054],[130.67360888500002,33.553758333],[130.673280558,33.554129441],[130.672982503,33.554314721000004],[130.672579728,33.55431861299999],[130.671744163,33.554068613],[130.671631388,33.55339555900001],[130.670650558,33.552775278999995],[130.66961166,33.552436946],[130.66873166,33.55196582899999],[130.668389442,33.551538613000005],[130.668083333,33.55125638700001],[130.667590272,33.550974440999994],[130.667026667,33.550249162],[130.666667173,33.54999999999999],[130.665952555,33.54999999999999],[130.666077224,33.552134720999994]]]}},{"type":"Feature","id":"40421:50302564","properties":{"id":"40421:50302564","meshCode":"50302564","cityCode":"40421","city":"桂川町","lat":33.5544447,"lon":130.6816909,"areaKm2":0.963813,"populated2020":true,"population2020":11.1101,"populationNote":"収録500mメッシュ人口の合算（原典収録外は補完しない）"},"geometry":{"type":"Polygon","coordinates":[[[130.677698612,33.550813054],[130.677557497,33.55115527899999],[130.677702503,33.55138110800001],[130.67773083,33.55166305400001],[130.67750360600002,33.552444721],[130.677515551,33.552755],[130.676985837,33.553645559],[130.67682472100003,33.553794721],[130.67599917,33.553963892],[130.675,33.55368780199999],[130.675,33.558333333333344],[130.6875,33.55833333333334],[130.6875,33.550346558809714],[130.686645279,33.550702775],[130.685593333,33.550404441],[130.685011725,33.55],[130.677057717,33.54999999999999],[130.677698612,33.550813054]]]}},{"type":"Feature","id":"40421:50302565","properties":{"id":"40421:50302565","meshCode":"50302565","cityCode":"40421","city":"桂川町","lat":33.5546877,"lon":130.6899725,"areaKm2":0.3980787,"populated2020":false,"population2020":null,"populationNote":"境界またぎ・収録外等のため人口未集計"},"geometry":{"type":"Polygon","coordinates":[[[130.692075551,33.554293892],[130.691629728,33.55247305399999],[130.691754721,33.552311387],[130.692137497,33.55208749500001],[130.691935551,33.551678892000005],[130.691204721,33.550853892],[130.690849728,33.550621108],[130.689851115,33.550339441],[130.688206109,33.550253333],[130.6875,33.550346558809714],[130.6875,33.55833333333334],[130.69361141399054,33.55833333333334],[130.69359917,33.55746110799999],[130.69303499400002,33.556990829],[130.69292166,33.55597333299999],[130.692788327,33.555589721000004],[130.692075551,33.554293892]]]}},{"type":"Feature","id":"40421:50302573","properties":{"id":"40421:50302573","meshCode":"50302573","cityCode":"40421","city":"桂川町","lat":33.5626687,"lon":130.6692327,"areaKm2":0.9847253,"populated2020":true,"population2020":89.9918,"populationNote":"収録500mメッシュ人口の合算（原典収録外は補完しない）"},"geometry":{"type":"Polygon","coordinates":[[[130.664576109,33.55884472099999],[130.664662776,33.559864162],[130.664598327,33.560077775],[130.664103061,33.560609441],[130.663963891,33.56086361300001],[130.663846939,33.56139166700001],[130.663891388,33.561806667000006],[130.663679728,33.56277000000001],[130.663024994,33.563455],[130.662807497,33.564067495],[130.6625,33.564495478617644],[130.6625,33.56666666666668],[130.675,33.56666666666668],[130.675,33.558333333333344],[130.66480338488086,33.55833333333333],[130.664576109,33.55884472099999]]]}},{"type":"Feature","id":"40421:50302574","properties":{"id":"40421:50302574","meshCode":"50302574","cityCode":"40421","city":"桂川町","lat":33.5625,"lon":130.68125,"areaKm2":1.0726258,"populated2020":true,"population2020":306.5808,"populationNote":"収録500mメッシュ人口の合算（原典収録外は補完しない）"},"geometry":{"type":"Polygon","coordinates":[[[130.6875,33.55833333333334],[130.675,33.558333333333344],[130.675,33.56666666666668],[130.6875,33.56666666666668],[130.6875,33.55833333333334]]]}},{"type":"Feature","id":"40421:50302575","properties":{"id":"40421:50302575","meshCode":"50302575","cityCode":"40421","city":"桂川町","lat":33.5623036,"lon":130.6903856,"areaKm2":0.4915741,"populated2020":true,"population2020":null,"populationNote":"境界またぎ・収録外等のため人口未集計"},"geometry":{"type":"Polygon","coordinates":[[[130.69386166,33.56035],[130.693992503,33.560051387],[130.693971388,33.558773333],[130.69361141399054,33.55833333333334],[130.6875,33.55833333333334],[130.6875,33.56666666666668],[130.69289019475562,33.56666666666668],[130.692654163,33.566344721],[130.692256667,33.56609416199999],[130.692628054,33.565581107999996],[130.69262,33.565213892],[130.692968885,33.56424055899999],[130.693017224,33.563626946],[130.693213061,33.562857775000005],[130.693143333,33.561480559],[130.693595279,33.560564162],[130.69386166,33.56035]]]}},{"type":"Feature","id":"40421:50302572","properties":{"id":"40421:50302572","meshCode":"50302572","cityCode":"40421","city":"桂川町","lat":33.5659877,"lon":130.6619465,"areaKm2":0.0165777,"populated2020":false,"population2020":null,"populationNote":"境界またぎ・収録外等のため人口未集計"},"geometry":{"type":"Polygon","coordinates":[[[130.6625,33.564495478617644],[130.662100558,33.564905829],[130.662076394,33.565602775],[130.661820272,33.565909162000004],[130.661002776,33.566288054],[130.66070444926265,33.56666666666668],[130.6625,33.56666666666668],[130.6625,33.564495478617644]]]}},{"type":"Feature","id":"40421:50302582","properties":{"id":"40421:50302582","meshCode":"50302582","cityCode":"40421","city":"桂川町","lat":33.5678764,"lon":130.6615491,"areaKm2":0.0482582,"populated2020":true,"population2020":null,"populationNote":"境界またぎ・収録外等のため人口未集計"},"geometry":{"type":"Polygon","coordinates":[[[130.660704449,33.566666667],[130.660628054,33.566763613],[130.660549442,33.567856108],[130.660283606,33.568206387],[130.660285279,33.56838389200001],[130.66068,33.56873055900001],[130.6625,33.56935298017595],[130.6625,33.56666666666668],[130.660704449,33.566666667]]]}},{"type":"Feature","id":"40421:50302583","properties":{"id":"40421:50302583","meshCode":"50302583","cityCode":"40421","city":"桂川町","lat":33.5707944,"lon":130.6688945,"areaKm2":1.0473559,"populated2020":true,"population2020":142.569,"populationNote":"収録500mメッシュ人口の合算（原典収録外は補完しない）"},"geometry":{"type":"Polygon","coordinates":[[[130.662736394,33.569459720999994],[130.662964163,33.570277774999994],[130.662835279,33.571075559],[130.663034449,33.571950279],[130.662723061,33.573523333],[130.663103891,33.574031108],[130.663067782,33.57468833299999],[130.663414086,33.574999999999996],[130.675,33.575],[130.675,33.56666666666668],[130.6625,33.56666666666668],[130.6625,33.56935298017595],[130.662736394,33.569459720999994]]]}},{"type":"Feature","id":"40421:50302584","properties":{"id":"40421:50302584","meshCode":"50302584","cityCode":"40421","city":"桂川町","lat":33.5708333,"lon":130.68125,"areaKm2":1.0725242,"populated2020":true,"population2020":2187.1714,"populationNote":"収録500mメッシュ人口の合算（原典収録外は補完しない）"},"geometry":{"type":"Polygon","coordinates":[[[130.6875,33.56666666666668],[130.675,33.56666666666668],[130.675,33.575],[130.6875,33.575],[130.6875,33.56666666666668]]]}},{"type":"Feature","id":"40421:50302585","properties":{"id":"40421:50302585","meshCode":"50302585","cityCode":"40421","city":"桂川町","lat":33.5712565,"lon":130.6929977,"areaKm2":0.9055623,"populated2020":true,"population2020":null,"populationNote":"境界またぎ・収録外等のため人口未集計"},"geometry":{"type":"Polygon","coordinates":[[[130.692976939,33.566785],[130.69289019475562,33.56666666666668],[130.6875,33.56666666666668],[130.6875,33.575],[130.7,33.575],[130.699265279,33.574972495],[130.699376394,33.573631946000006],[130.7,33.57355238700001],[130.7,33.572217694],[130.698690558,33.56963],[130.69842055800004,33.56949666700001],[130.697679728,33.56942805400001],[130.697314449,33.569238333],[130.696757497,33.56923027900001],[130.696524163,33.569130829],[130.696048054,33.568412225],[130.695693061,33.568137495],[130.69552166,33.568198054],[130.694193606,33.567366387],[130.693891115,33.56730972100001],[130.693697224,33.567015000000005],[130.692976939,33.566785]]]}},{"type":"Feature","id":"40421:50302586","properties":{"id":"40421:50302586","meshCode":"50302586","cityCode":"40421","city":"桂川町","lat":33.5730219,"lon":130.7001924,"areaKm2":0.0044896,"populated2020":true,"population2020":null,"populationNote":"境界またぎ・収録外等のため人口未集計"},"geometry":{"type":"MultiPolygon","coordinates":[[[[130.7,33.57355238700001],[130.700356939,33.573506946],[130.700486109,33.573006108],[130.7,33.572217694],[130.7,33.57355238700001]]],[[[130.700318327,33.574992775000005],[130.7,33.575],[130.70032489,33.575],[130.700318327,33.574992775000005]]]]}},{"type":"Feature","id":"40421:50302593","properties":{"id":"40421:50302593","meshCode":"50302593","cityCode":"40421","city":"桂川町","lat":33.5790641,"lon":130.6698652,"areaKm2":0.8624661,"populated2020":true,"population2020":null,"populationNote":"境界またぎ・収録外等のため人口未集計"},"geometry":{"type":"MultiPolygon","coordinates":[[[[130.663647497,33.575396108],[130.664290558,33.577026387],[130.665063891,33.577989721],[130.66558166,33.578908613],[130.665742776,33.579356108],[130.665692503,33.580101946],[130.665857497,33.58038805399999],[130.666115551,33.580593613],[130.665722776,33.58092],[130.666601115,33.58199610799999],[130.666363333,33.582169441000005],[130.666743891,33.58266944100001],[130.66649795087667,33.58333333333334],[130.675,33.58333333333334],[130.675,33.575],[130.663414086,33.574999999999996],[130.663647497,33.575396108]]],[[[130.664505551,33.582811108],[130.664642503,33.58289555900001],[130.664932776,33.58289166699999],[130.664702218,33.582228613],[130.664486667,33.58193638700001],[130.66425083,33.581944441],[130.663872218,33.58212389199999],[130.663684449,33.582303054000015],[130.663366109,33.581761946],[130.66284917,33.581677224999986],[130.6625,33.58151540060011],[130.6625,33.583333333333336],[130.66448224401694,33.58333333333333],[130.664433061,33.582980279000004],[130.664505551,33.582811108]]]]}},{"type":"Feature","id":"40421:50302594","properties":{"id":"40421:50302594","meshCode":"50302594","cityCode":"40421","city":"桂川町","lat":33.5791667,"lon":130.68125,"areaKm2":1.0724226,"populated2020":true,"population2020":1403.7168,"populationNote":"収録500mメッシュ人口の合算（原典収録外は補完しない）"},"geometry":{"type":"Polygon","coordinates":[[[130.6875,33.575],[130.675,33.575],[130.675,33.58333333333334],[130.6875,33.58333333333334],[130.6875,33.575]]]}},{"type":"Feature","id":"40421:50302595","properties":{"id":"40421:50302595","meshCode":"50302595","cityCode":"40421","city":"桂川町","lat":33.5791667,"lon":130.69375,"areaKm2":1.072421,"populated2020":true,"population2020":1134.5291,"populationNote":"収録500mメッシュ人口の合算（原典収録外は補完しない）"},"geometry":{"type":"Polygon","coordinates":[[[130.7,33.575],[130.6875,33.575],[130.6875,33.58333333333334],[130.7,33.58333333333334],[130.7,33.575]]]}},{"type":"Feature","id":"40421:50302596","properties":{"id":"40421:50302596","meshCode":"50302596","cityCode":"40421","city":"桂川町","lat":33.5804681,"lon":130.7012676,"areaKm2":0.1537867,"populated2020":true,"population2020":null,"populationNote":"境界またぎ・収録外等のため人口未集計"},"geometry":{"type":"Polygon","coordinates":[[[130.701514449,33.579701946],[130.701321115,33.577048612999995],[130.700673606,33.576208613],[130.70062917,33.575901667000004],[130.700762503,33.575533892],[130.70032489,33.575],[130.7,33.575],[130.7,33.58333333333334],[130.70421085598545,33.58333333333334],[130.704089442,33.581963054],[130.701512503,33.58150277499998],[130.701514449,33.579701946]]]}},{"type":"Feature","id":"40421:50302592","properties":{"id":"40421:50302592","meshCode":"50302592","cityCode":"40421","city":"桂川町","lat":33.5818859,"lon":130.6596411,"areaKm2":0.1511576,"populated2020":true,"population2020":null,"populationNote":"境界またぎ・収録外等のため人口未集計"},"geometry":{"type":"Polygon","coordinates":[[[130.6625,33.58151540060011],[130.661756394,33.58126389200001],[130.66051861200003,33.580661387],[130.659376394,33.579718054],[130.658554163,33.58007694599999],[130.658376939,33.579826946000004],[130.658316394,33.579843054],[130.658211388,33.580792495],[130.65806221800003,33.580782495],[130.657923333,33.580865],[130.657775279,33.581116946],[130.656767782,33.581038613],[130.65648083000002,33.581503892],[130.656426109,33.581756387000006],[130.657390272,33.58256333300001],[130.65785802923259,33.58333333333334],[130.6625,33.583333333333336],[130.6625,33.58151540060011]]]}},{"type":"Feature","id":"40421:50303502","properties":{"id":"40421:50303502","meshCode":"50303502","cityCode":"40421","city":"桂川町","lat":33.5887381,"lon":130.6577681,"areaKm2":0.5913066,"populated2020":true,"population2020":null,"populationNote":"境界またぎ・収録外等のため人口未集計"},"geometry":{"type":"Polygon","coordinates":[[[130.658316109,33.583890000000004],[130.658610272,33.584123892],[130.658846939,33.58445055899999],[130.659254163,33.585385829],[130.659422218,33.58558361299999],[130.65951166,33.586141946],[130.659768885,33.586628892],[130.659744163,33.58694638699999],[130.657581115,33.587790829],[130.65690000000004,33.588255829],[130.656537224,33.588655559],[130.656068612,33.588888054],[130.655501946,33.589014440999996],[130.654842218,33.58890249499999],[130.653964721,33.588335829],[130.653754994,33.588384999999995],[130.653387782,33.58892916199999],[130.653134449,33.588975278999996],[130.650745837,33.588564162],[130.65,33.58863289200001],[130.65,33.59166666666667],[130.6625,33.59166666666667],[130.6625,33.583333333333336],[130.65785802923259,33.58333333333334],[130.658316109,33.583890000000004]]]}},{"type":"Feature","id":"40421:50303503","properties":{"id":"40421:50303503","meshCode":"50303503","cityCode":"40421","city":"桂川町","lat":33.587603,"lon":130.6688577,"areaKm2":1.0321929,"populated2020":true,"population2020":1684.0314,"populationNote":"収録500mメッシュ人口の合算（原典収録外は補完しない）"},"geometry":{"type":"Polygon","coordinates":[[[130.666666667,33.584236198000006],[130.666793333,33.584864441],[130.666736939,33.585183054],[130.667067224,33.585328053999994],[130.667346939,33.585698892],[130.665834163,33.586553333],[130.665745551,33.586517225],[130.665202776,33.585337775000006],[130.665202776,33.58523916200001],[130.665857224,33.585021387],[130.666087782,33.584628333000005],[130.666067497,33.584555829],[130.665803606,33.584521387],[130.666055551,33.584384721000006],[130.66593083,33.583876946],[130.665787224,33.583635],[130.665149728,33.583854721],[130.665013606,33.58414499999999],[130.664717497,33.584258054],[130.664522503,33.584125],[130.66448224401694,33.58333333333333],[130.6625,33.583333333333336],[130.6625,33.59166666666667],[130.675,33.591666666666676],[130.675,33.58333333333334],[130.66649795087667,33.58333333333334],[130.666328885,33.583790279],[130.666666667,33.584236198000006]]]}},{"type":"Feature","id":"40421:50303504","properties":{"id":"40421:50303504","meshCode":"50303504","cityCode":"40421","city":"桂川町","lat":33.5875,"lon":130.68125,"areaKm2":1.072321,"populated2020":true,"population2020":663.2865,"populationNote":"収録500mメッシュ人口の合算（原典収録外は補完しない）"},"geometry":{"type":"Polygon","coordinates":[[[130.6875,33.58333333333334],[130.675,33.58333333333334],[130.675,33.591666666666676],[130.6875,33.59166666666667],[130.6875,33.58333333333334]]]}},{"type":"Feature","id":"40421:50303505","properties":{"id":"40421:50303505","meshCode":"50303505","cityCode":"40421","city":"桂川町","lat":33.5875,"lon":130.69375,"areaKm2":1.0723193,"populated2020":true,"population2020":1077.8071,"populationNote":"収録500mメッシュ人口の合算（原典収録外は補完しない）"},"geometry":{"type":"Polygon","coordinates":[[[130.7,33.58333333333334],[130.6875,33.58333333333334],[130.6875,33.59166666666667],[130.7,33.591666666666676],[130.7,33.58333333333334]]]}},{"type":"Feature","id":"40421:50303506","properties":{"id":"40421:50303506","meshCode":"50303506","cityCode":"40421","city":"桂川町","lat":33.5876693,"lon":130.7022347,"areaKm2":0.3799184,"populated2020":true,"population2020":6.2831,"populationNote":"収録500mメッシュ人口の合算（原典収録外は補完しない）"},"geometry":{"type":"Polygon","coordinates":[[[130.703783606,33.587250279],[130.70373083,33.58681527899999],[130.70409083,33.586401108000004],[130.70417166,33.586090279],[130.704048612,33.58543222499999],[130.704268885,33.58422861300001],[130.70421085598545,33.58333333333334],[130.7,33.58333333333334],[130.7,33.591666666666676],[130.70452358016473,33.59166666666667],[130.705146939,33.59072361300001],[130.705139728,33.590341108000004],[130.704896394,33.590043613000006],[130.704868054,33.589869721],[130.704961946,33.588906667],[130.703783606,33.587250279]]]}},{"type":"Feature","id":"40421:50303501","properties":{"id":"40421:50303501","meshCode":"50303501","cityCode":"40421","city":"桂川町","lat":33.5896817,"lon":130.6496481,"areaKm2":0.0158544,"populated2020":true,"population2020":null,"populationNote":"境界またぎ・収録外等のため人口未集計"},"geometry":{"type":"Polygon","coordinates":[[[130.649163061,33.58871],[130.649030272,33.589499441],[130.649664994,33.590138892],[130.64974221800003,33.590317495],[130.649771388,33.591248892],[130.64989647182523,33.591666666666676],[130.65,33.59166666666667],[130.65,33.58863289200001],[130.649163061,33.58871]]]}},{"type":"Feature","id":"40421:50303511","properties":{"id":"40421:50303511","meshCode":"50303511","cityCode":"40421","city":"桂川町","lat":33.5917324,"lon":130.6499655,"areaKm2":0.0001051,"populated2020":true,"population2020":null,"populationNote":"境界またぎ・収録外等のため人口未集計"},"geometry":{"type":"Polygon","coordinates":[[[130.649896472,33.591666667],[130.649991388,33.591847775000005],[130.65,33.591861387],[130.65,33.59166666666667],[130.649896472,33.591666667]]]}},{"type":"Feature","id":"40421:50303512","properties":{"id":"40421:50303512","meshCode":"50303512","cityCode":"40421","city":"桂川町","lat":33.5938659,"lon":130.657511,"areaKm2":0.4884223,"populated2020":true,"population2020":20.4648,"populationNote":"収録500mメッシュ人口の合算（原典収録外は補完しない）"},"geometry":{"type":"Polygon","coordinates":[[[130.65014166,33.592085278999996],[130.651096109,33.592694161999994],[130.651254449,33.592891108],[130.651495279,33.593696946],[130.651598885,33.593753891999995],[130.653059442,33.59369472099999],[130.653392218,33.59383277500001],[130.653277497,33.594518613],[130.653378885,33.594934720999994],[130.653749442,33.595464441000004],[130.654910558,33.595614721000004],[130.655918054,33.595876667],[130.656576109,33.595937495],[130.65739083,33.596256108],[130.657902776,33.59632305400001],[130.65816250300003,33.596826387],[130.658709442,33.597398892],[130.659522218,33.597563054000005],[130.660179442,33.59641361300001],[130.661216667,33.596417495],[130.661914449,33.596325829],[130.6625,33.59679835081671],[130.6625,33.59166666666667],[130.65,33.59166666666667],[130.65,33.591861387],[130.65014166,33.592085278999996]]]}},{"type":"Feature","id":"40421:50303513","properties":{"id":"40421:50303513","meshCode":"50303513","cityCode":"40421","city":"桂川町","lat":33.5952913,"lon":130.6693071,"areaKm2":0.9031433,"populated2020":true,"population2020":242.487,"populationNote":"収録500mメッシュ人口の合算（原典収録外は補完しない）"},"geometry":{"type":"Polygon","coordinates":[[[130.675,33.591666666666676],[130.6625,33.59166666666667],[130.6625,33.59679835081671],[130.662792503,33.597055829],[130.663397782,33.597358054000004],[130.663789442,33.59779249500001],[130.664092503,33.597950559],[130.664317497,33.59800333300001],[130.665646394,33.597962225],[130.666032503,33.597349721],[130.666217782,33.596699441],[130.666363891,33.596508892],[130.66663,33.59644999999999],[130.666978885,33.596628613],[130.667456667,33.597090559],[130.667903333,33.597694999999995],[130.669536667,33.599492775],[130.66981511,33.60000000000001],[130.675,33.6],[130.675,33.591666666666676]]]}},{"type":"Feature","id":"40421:50303514","properties":{"id":"40421:50303514","meshCode":"50303514","cityCode":"40421","city":"桂川町","lat":33.5953089,"lon":130.6807298,"areaKm2":0.9055756,"populated2020":true,"population2020":344.4796,"populationNote":"収録500mメッシュ人口の合算（原典収録外は補完しない）"},"geometry":{"type":"Polygon","coordinates":[[[130.6875,33.59166666666667],[130.675,33.591666666666676],[130.675,33.6],[130.676974643,33.60000000000001],[130.677063606,33.59896361300001],[130.67850083,33.598498054000004],[130.67897083,33.598266946],[130.679190272,33.598862495],[130.679203995,33.6],[130.682581997,33.6],[130.682723061,33.598961108],[130.682844449,33.59875055900001],[130.683503333,33.598157775],[130.684068885,33.597509721],[130.684887497,33.59680916200001],[130.685221388,33.596734162],[130.686106939,33.596896946],[130.686546939,33.596905],[130.687093333,33.596631667000004],[130.6875,33.59651811645133],[130.6875,33.59166666666667]]]}},{"type":"Feature","id":"40421:50303515","properties":{"id":"40421:50303515","meshCode":"50303515","cityCode":"40421","city":"桂川町","lat":33.59457,"lon":130.6942686,"areaKm2":0.7271056,"populated2020":true,"population2020":null,"populationNote":"境界またぎ・収録外等のため人口未集計"},"geometry":{"type":"Polygon","coordinates":[[[130.691286667,33.595704721],[130.691811946,33.596391108],[130.692129442,33.596455829],[130.692555279,33.596334441],[130.692773891,33.59641972099999],[130.693167224,33.597049162],[130.693805279,33.597563333],[130.694785279,33.597883333],[130.695662776,33.597662495],[130.695958054,33.597650279],[130.696681115,33.597688891999994],[130.697352503,33.597828613],[130.697964163,33.59804305400001],[130.698543891,33.598410829],[130.698707782,33.598595],[130.698784449,33.598935279],[130.7,33.599445667000005],[130.7,33.591666666666676],[130.6875,33.59166666666667],[130.6875,33.59651811645133],[130.688319728,33.596572495],[130.688975279,33.596817495],[130.689775837,33.596848054],[130.690997497,33.595733054],[130.691286667,33.595704721]]]}},{"type":"Feature","id":"40421:50303516","properties":{"id":"40421:50303516","meshCode":"50303516","cityCode":"40421","city":"桂川町","lat":33.5944705,"lon":130.7015647,"areaKm2":0.1911177,"populated2020":true,"population2020":null,"populationNote":"境界またぎ・収録外等のため人口未集計"},"geometry":{"type":"Polygon","coordinates":[[[130.703122218,33.59532833299999],[130.702651115,33.593798054000004],[130.703104994,33.592954721],[130.703515279,33.59262472100001],[130.704074163,33.592373892000005],[130.70452358016473,33.59166666666667],[130.7,33.591666666666676],[130.7,33.599445667000005],[130.700109728,33.599507225],[130.700432218,33.598475828999995],[130.700379728,33.59796805399999],[130.700257497,33.597668892],[130.700324721,33.597474441],[130.700939442,33.597445828999994],[130.70155,33.597146387],[130.702032218,33.597259441],[130.702933061,33.596885],[130.70314944200004,33.59623194600001],[130.703122218,33.59532833299999]]]}},{"type":"Feature","id":"40421:50303523","properties":{"id":"40421:50303523","meshCode":"50303523","cityCode":"40421","city":"桂川町","lat":33.6003729,"lon":130.672839,"areaKm2":0.0362561,"populated2020":true,"population2020":null,"populationNote":"境界またぎ・収録外等のため人口未集計"},"geometry":{"type":"Polygon","coordinates":[[[130.66981511,33.60000000000001],[130.669986394,33.600275279],[130.670466394,33.600406946],[130.673955279,33.600958892],[130.674433333,33.600916387],[130.675,33.600696225],[130.675,33.6],[130.66981511,33.60000000000001]]]}},{"type":"Feature","id":"40421:50303524","properties":{"id":"40421:50303524","meshCode":"50303524","cityCode":"40421","city":"桂川町","lat":33.6010722,"lon":130.6803035,"areaKm2":0.0849034,"populated2020":true,"population2020":null,"populationNote":"境界またぎ・収録外等のため人口未集計"},"geometry":{"type":"MultiPolygon","coordinates":[[[[130.675,33.600696225],[130.676046109,33.600493054000005],[130.676855551,33.600480829],[130.676974643,33.60000000000001],[130.675,33.6],[130.675,33.600696225]]],[[[130.682232218,33.602413613],[130.682581997,33.6],[130.679203995,33.6],[130.679578327,33.600614721],[130.679422503,33.601222225],[130.679464994,33.601797495],[130.679660272,33.602488333],[130.682232218,33.602413613]]]]}}]}