{"type":"FeatureCollection","metadata":{"cityCode":"40421","city":"桂川町","resolution":500,"boundaryDate":"2026-01-01","populationLabel":"2020年基準人口（国交省調整値）","method":"標準地域メッシュを行政界で切抜き。中心が区域外のとき区域内代表点を判定点にする。人口不明をゼロにしない。"},"features":[{"type":"Feature","id":"40421:503025332","properties":{"id":"40421:503025332","meshCode":"503025332","cityCode":"40421","city":"桂川町","lat":33.5291337,"lon":130.6723803,"areaKm2":0.0002212,"populated2020":false,"population2020":null,"populationNote":"境界またぎ・原典収録外のため自治体内人口は未集計"},"geometry":{"type":"Polygon","coordinates":[[[130.67257545720005,33.52916666666666],[130.672222776,33.52907638700001],[130.6722486107983,33.52916666666666],[130.67257545720005,33.52916666666666]]]}},{"type":"Feature","id":"40421:503025334","properties":{"id":"40421:503025334","meshCode":"503025334","cityCode":"40421","city":"桂川町","lat":33.53125,"lon":130.671875,"areaKm2":0.13702,"populated2020":true,"population2020":null,"populationNote":"境界またぎ・原典収録外のため自治体内人口は未集計"},"geometry":{"type":"Polygon","coordinates":[[[130.674688612,33.531002495],[130.674378885,33.531018892],[130.674156939,33.531118613000004],[130.673802503,33.531104162],[130.673588612,33.531053332999996],[130.673339442,33.53086610799999],[130.673017497,33.530340279],[130.673146667,33.530164721],[130.673179442,33.529687775],[130.673003061,33.529459720999995],[130.67257545720005,33.52916666666666],[130.6722486107983,33.52916666666666],[130.672337497,33.529458333],[130.672164449,33.529675559],[130.670897782,33.53074805399999],[130.670579728,33.531150829000005],[130.670483061,33.53152166700001],[130.67053138800003,33.532214721],[130.67027166,33.53290361300001],[130.670050272,33.53314527900001],[130.66971933841307,33.53333333333334],[130.675,33.53333333333333],[130.675,33.53116180200001],[130.674688612,33.531002495]]]}},{"type":"Feature","id":"40421:503025343","properties":{"id":"40421:503025343","meshCode":"503025343","cityCode":"40421","city":"桂川町","lat":33.5322929,"lon":130.676217,"areaKm2":0.0587798,"populated2020":false,"population2020":null,"populationNote":"境界またぎ・原典収録外のため自治体内人口は未集計"},"geometry":{"type":"Polygon","coordinates":[[[130.67842111500002,33.533333333],[130.678000558,33.53300000000001],[130.677424163,33.532775829],[130.677305837,33.532584162],[130.677544994,33.531901387000005],[130.677523606,33.531516667],[130.677293333,33.531218892000005],[130.677056109,33.531086108],[130.676732218,33.531061666999996],[130.676316667,33.53117166700001],[130.675688054,33.53111055899999],[130.675095279,33.531210559],[130.675,33.53116180200001],[130.675,33.53333333333333],[130.67842111500002,33.533333333]]]}},{"type":"Feature","id":"40421:503025432","properties":{"id":"40421:503025432","meshCode":"503025432","cityCode":"40421","city":"桂川町","lat":33.5354167,"lon":130.671875,"areaKm2":0.2067159,"populated2020":true,"population2020":2.0936,"populationNote":"2020年基準の国交省調整値"},"geometry":{"type":"Polygon","coordinates":[[[130.669667497,33.53336277500001],[130.66943,33.533536108],[130.669440272,33.53389082900001],[130.66923083,33.53422110799999],[130.669234994,33.534446667],[130.669339728,33.534644162],[130.670062503,33.534829721],[130.670235837,33.534974721],[130.670642503,33.535627495],[130.670688054,33.536903333000005],[130.6708906529765,33.5375],[130.675,33.5375],[130.675,33.53333333333333],[130.669667497,33.53336277500001]]]}},{"type":"Feature","id":"40421:503025441","properties":{"id":"40421:503025441","meshCode":"503025441","cityCode":"40421","city":"桂川町","lat":33.5354167,"lon":130.678125,"areaKm2":0.188832,"populated2020":false,"population2020":null,"populationNote":"境界またぎ・原典収録外のため自治体内人口は未集計"},"geometry":{"type":"Polygon","coordinates":[[[130.68063395420867,33.5375],[130.680458327,33.53709610800001],[130.679862503,33.536386387],[130.679757497,33.535974441],[130.679582503,33.535833892],[130.678953061,33.53580138699999],[130.678728054,33.535562775],[130.67874444900002,33.53537527899999],[130.679407224,33.53489],[130.679486667,33.534655829],[130.679295551,33.53440305400001],[130.67857917,33.53404444099999],[130.6784211151381,33.53333333333334],[130.675,33.53333333333333],[130.675,33.5375],[130.68063395420867,33.5375]]]}},{"type":"Feature","id":"40421:503025434","properties":{"id":"40421:503025434","meshCode":"503025434","cityCode":"40421","city":"桂川町","lat":33.5395833,"lon":130.671875,"areaKm2":0.141978,"populated2020":false,"population2020":null,"populationNote":"境界またぎ・原典収録外のため自治体内人口は未集計"},"geometry":{"type":"Polygon","coordinates":[[[130.6708906529765,33.5375],[130.670814994,33.537894441000006],[130.670609442,33.538083891999996],[130.670597497,33.538402225],[130.670864994,33.53875694599999],[130.671646109,33.539461946],[130.671662218,33.539828613],[130.671889728,33.54022361300001],[130.673172503,33.54129944100001],[130.67324165966667,33.541666666666664],[130.675,33.541666666666664],[130.675,33.5375],[130.6708906529765,33.5375]]]}},{"type":"Feature","id":"40421:503025443","properties":{"id":"40421:503025443","meshCode":"503025443","cityCode":"40421","city":"桂川町","lat":33.5395833,"lon":130.678125,"areaKm2":0.2335805,"populated2020":true,"population2020":null,"populationNote":"境界またぎ・原典収録外のため自治体内人口は未集計"},"geometry":{"type":"Polygon","coordinates":[[[130.68125000000003,33.54106093699987],[130.680750272,33.54046222499999],[130.680350558,33.539045829],[130.67985083,33.53884500000001],[130.679134163,33.538298333],[130.67905861200003,33.538139441000006],[130.679183061,33.537886667],[130.679411115,33.537843892],[130.679719728,33.537858054],[130.679974449,33.53798249500001],[130.680520558,33.537933333],[130.680681388,33.53784],[130.680720272,33.537719721],[130.68063395420867,33.5375],[130.675,33.5375],[130.675,33.541666666666664],[130.68125000000003,33.541666666666664],[130.68125000000003,33.54106093699987]]]}},{"type":"Feature","id":"40421:503025444","properties":{"id":"40421:503025444","meshCode":"503025444","cityCode":"40421","city":"桂川町","lat":33.5414235,"lon":130.6813539,"areaKm2":0.0009658,"populated2020":true,"population2020":null,"populationNote":"境界またぎ・原典収録外のため自治体内人口は未集計"},"geometry":{"type":"Polygon","coordinates":[[[130.68135786019127,33.541666666666664],[130.681464449,33.541342775],[130.68125000000003,33.54106093699987],[130.68125000000003,33.541666666666664],[130.68135786019127,33.541666666666664]]]}},{"type":"Feature","id":"40421:503025532","properties":{"id":"40421:503025532","meshCode":"503025532","cityCode":"40421","city":"桂川町","lat":33.5418033,"lon":130.6741891,"areaKm2":0.0054407,"populated2020":true,"population2020":null,"populationNote":"境界またぎ・原典収録外のため自治体内人口は未集計"},"geometry":{"type":"Polygon","coordinates":[[[130.67324166,33.54166666700001],[130.673514721,33.54194],[130.673786667,33.542020829],[130.674866109,33.54198861300001],[130.675,33.542047559],[130.675,33.541666666666664],[130.67324166,33.54166666700001]]]}},{"type":"Feature","id":"40421:503025541","properties":{"id":"40421:503025541","meshCode":"503025541","cityCode":"40421","city":"桂川町","lat":33.54375,"lon":130.678125,"areaKm2":0.21395,"populated2020":true,"population2020":7.2552,"populationNote":"2020年基準の国交省調整値"},"geometry":{"type":"Polygon","coordinates":[[[130.675003061,33.542048892000004],[130.675152218,33.542399161999995],[130.675758054,33.542718054],[130.676076109,33.54298805399999],[130.676257497,33.54357638700001],[130.676702503,33.544205],[130.677114721,33.545228333],[130.67713083,33.54553861299999],[130.6770055764194,33.545833333333334],[130.68125000000003,33.545833333333334],[130.68125000000003,33.541666666666664],[130.675,33.541666666666664],[130.675003061,33.542048892000004]]]}},{"type":"Feature","id":"40421:503025542","properties":{"id":"40421:503025542","meshCode":"503025542","cityCode":"40421","city":"桂川町","lat":33.54375,"lon":130.684375,"areaKm2":0.1445936,"populated2020":true,"population2020":null,"populationNote":"境界またぎ・原典収録外のため自治体内人口は未集計"},"geometry":{"type":"Polygon","coordinates":[[[130.68493409011091,33.545833333333334],[130.68514,33.545204162000005],[130.684961388,33.544658613],[130.685181115,33.54432361300001],[130.685232218,33.544044162],[130.685162776,33.54385444100001],[130.68467,33.543495279],[130.684813891,33.542792495],[130.685048054,33.542226108],[130.684925837,33.541812225],[130.684662776,33.54171000000001],[130.682957497,33.542346386999995],[130.681644721,33.542078892],[130.681414449,33.54195666700001],[130.681322776,33.541822225],[130.68135786019127,33.541666666666664],[130.68125000000003,33.541666666666664],[130.68125000000003,33.545833333333334],[130.68493409011091,33.545833333333334]]]}},{"type":"Feature","id":"40421:503025533","properties":{"id":"40421:503025533","meshCode":"503025533","cityCode":"40421","city":"桂川町","lat":33.5496846,"lon":130.6660513,"areaKm2":0.0020774,"populated2020":false,"population2020":null,"populationNote":"境界またぎ・原典収録外のため自治体内人口は未集計"},"geometry":{"type":"Polygon","coordinates":[[[130.665952555,33.54999999999999],[130.666667173,33.54999999999999],[130.666026109,33.549543613000004],[130.665852776,33.549551666999996],[130.665952555,33.54999999999999]]]}},{"type":"Feature","id":"40421:503025543","properties":{"id":"40421:503025543","meshCode":"503025543","cityCode":"40421","city":"桂川町","lat":33.5479167,"lon":130.678125,"areaKm2":0.2161074,"populated2020":false,"population2020":null,"populationNote":"境界またぎ・原典収録外のため自治体内人口は未集計"},"geometry":{"type":"Polygon","coordinates":[[[130.67699389100002,33.545860829000006],[130.676848885,33.546175279],[130.676291115,33.546537775],[130.676065551,33.54692861299999],[130.675578612,33.547287225],[130.675493891,33.54756944100001],[130.6755,33.547774721],[130.675922503,33.548463612999996],[130.677057717,33.54999999999999],[130.68125000000003,33.55],[130.68125000000003,33.545833333333334],[130.67699389100002,33.545860829000006]]]}},{"type":"Feature","id":"40421:503025544","properties":{"id":"40421:503025544","meshCode":"503025544","cityCode":"40421","city":"桂川町","lat":33.5479167,"lon":130.684375,"areaKm2":0.1716998,"populated2020":false,"population2020":null,"populationNote":"境界またぎ・原典収録外のため自治体内人口は未集計"},"geometry":{"type":"Polygon","coordinates":[[[130.685011725,33.55],[130.684344994,33.549151108000004],[130.684463333,33.548808054],[130.684702218,33.54854444099999],[130.685738054,33.548317775],[130.685910272,33.548146108],[130.685975551,33.547868333],[130.685951115,33.547590829],[130.685729728,33.547196666999994],[130.685475837,33.546363891999995],[130.685163606,33.546155558999985],[130.68493409011091,33.545833333333334],[130.68125000000003,33.545833333333334],[130.68125000000003,33.55],[130.685011725,33.55]]]}},{"type":"Feature","id":"40421:503025631","properties":{"id":"40421:503025631","meshCode":"503025631","cityCode":"40421","city":"桂川町","lat":33.5520542,"lon":130.6674111,"areaKm2":0.1064636,"populated2020":false,"population2020":null,"populationNote":"境界またぎ・原典収録外のため自治体内人口は未集計"},"geometry":{"type":"Polygon","coordinates":[[[130.665952555,33.54999999999999],[130.666077224,33.552134720999994],[130.66499622778338,33.55416666666667],[130.66875,33.55416666666666],[130.66875,33.55197377660083],[130.668083333,33.55125638700001],[130.667590272,33.550974440999994],[130.667026667,33.550249162],[130.666667173,33.54999999999999],[130.665952555,33.54999999999999]]]}},{"type":"Feature","id":"40421:503025632","properties":{"id":"40421:503025632","meshCode":"503025632","cityCode":"40421","city":"桂川町","lat":33.5530768,"lon":130.6699561,"areaKm2":0.0547982,"populated2020":true,"population2020":null,"populationNote":"境界またぎ・原典収録外のため自治体内人口は未集計"},"geometry":{"type":"MultiPolygon","coordinates":[[[[130.674663891,33.553585279],[130.673979442,33.553553054],[130.673473891,33.55386333300001],[130.67322067406175,33.55416666666666],[130.675,33.55416666666667],[130.675,33.55368780199999],[130.674663891,33.553585279]]],[[[130.671744163,33.554068613],[130.671631388,33.55339555900001],[130.671337224,33.553166108],[130.670650558,33.552775278999995],[130.66961166,33.552436946],[130.66875,33.55197377660083],[130.66875,33.55416666666666],[130.67199726269877,33.55416666666666],[130.671744163,33.554068613]]]]}},{"type":"Feature","id":"40421:503025641","properties":{"id":"40421:503025641","meshCode":"503025641","cityCode":"40421","city":"桂川町","lat":33.5520833,"lon":130.678125,"areaKm2":0.171173,"populated2020":false,"population2020":null,"populationNote":"境界またぎ・原典収録外のため自治体内人口は未集計"},"geometry":{"type":"Polygon","coordinates":[[[130.677057717,33.54999999999999],[130.677698612,33.550813054],[130.677557497,33.55115527899999],[130.677702503,33.55138110800001],[130.67773083,33.55166305400001],[130.67741083,33.55299694600001],[130.67682472100003,33.553794721],[130.67599917,33.553963892],[130.675,33.55368780199999],[130.675,33.55416666666667],[130.68125000000003,33.55416666666667],[130.68125000000003,33.55],[130.677057717,33.54999999999999]]]}},{"type":"Feature","id":"40421:503025642","properties":{"id":"40421:503025642","meshCode":"503025642","cityCode":"40421","city":"桂川町","lat":33.5520833,"lon":130.684375,"areaKm2":0.256289,"populated2020":false,"population2020":null,"populationNote":"境界またぎ・原典収録外のため自治体内人口は未集計"},"geometry":{"type":"Polygon","coordinates":[[[130.6875,33.550346558809714],[130.686645279,33.550702775],[130.685593333,33.550404441],[130.685011725,33.55],[130.68125000000003,33.55],[130.68125000000003,33.55416666666667],[130.6875,33.55416666666667],[130.6875,33.550346558809714]]]}},{"type":"Feature","id":"40421:503025651","properties":{"id":"40421:503025651","meshCode":"503025651","cityCode":"40421","city":"桂川町","lat":33.5520833,"lon":130.690625,"areaKm2":0.1645525,"populated2020":false,"population2020":null,"populationNote":"境界またぎ・原典収録外のため自治体内人口は未集計"},"geometry":{"type":"Polygon","coordinates":[[[130.69205034814155,33.55416666666666],[130.69161360600003,33.552622495],[130.691754721,33.552311387],[130.692137497,33.55208749500001],[130.691935551,33.551678892000005],[130.691204721,33.550853892],[130.690849728,33.550621108],[130.689851115,33.550339441],[130.688206109,33.550253333],[130.6875,33.550346558809714],[130.6875,33.55416666666667],[130.69205034814155,33.55416666666666]]]}},{"type":"Feature","id":"40421:503025633","properties":{"id":"40421:503025633","meshCode":"503025633","cityCode":"40421","city":"桂川町","lat":33.55625,"lon":130.665625,"areaKm2":0.1642,"populated2020":false,"population2020":null,"populationNote":"境界またぎ・原典収録外のため自治体内人口は未集計"},"geometry":{"type":"Polygon","coordinates":[[[130.66494917,33.554255],[130.66523693900004,33.554746387],[130.665238885,33.554899721000005],[130.664916667,33.55521],[130.664743333,33.555782225],[130.664745279,33.556608333],[130.664858054,33.557051667],[130.665065551,33.557365559],[130.665105837,33.557651666999995],[130.66480338488086,33.55833333333333],[130.66875,33.558333333333344],[130.66875,33.55416666666666],[130.66499622778338,33.55416666666667],[130.66494917,33.554255]]]}},{"type":"Feature","id":"40421:503025634","properties":{"id":"40421:503025634","meshCode":"503025634","cityCode":"40421","city":"桂川町","lat":33.55625,"lon":130.671875,"areaKm2":0.2668832,"populated2020":false,"population2020":null,"populationNote":"境界またぎ・原典収録外のため自治体内人口は未集計"},"geometry":{"type":"Polygon","coordinates":[[[130.672982503,33.554314721000004],[130.672579728,33.55431861299999],[130.67199726269877,33.55416666666666],[130.66875,33.55416666666666],[130.66875,33.558333333333344],[130.675,33.558333333333344],[130.675,33.55416666666667],[130.67322067406175,33.55416666666666],[130.672982503,33.554314721000004]]]}},{"type":"Feature","id":"40421:503025643","properties":{"id":"40421:503025643","meshCode":"503025643","cityCode":"40421","city":"桂川町","lat":33.55625,"lon":130.678125,"areaKm2":0.2681756,"populated2020":false,"population2020":null,"populationNote":"境界またぎ・原典収録外のため自治体内人口は未集計"},"geometry":{"type":"Polygon","coordinates":[[[130.675,33.55416666666667],[130.675,33.558333333333344],[130.68125000000003,33.55833333333334],[130.68125000000003,33.55416666666667],[130.675,33.55416666666667]]]}},{"type":"Feature","id":"40421:503025644","properties":{"id":"40421:503025644","meshCode":"503025644","cityCode":"40421","city":"桂川町","lat":33.55625,"lon":130.684375,"areaKm2":0.2681754,"populated2020":true,"population2020":11.1101,"populationNote":"2020年基準の国交省調整値"},"geometry":{"type":"Polygon","coordinates":[[[130.68125000000003,33.55416666666667],[130.68125000000003,33.55833333333334],[130.6875,33.55833333333334],[130.6875,33.55416666666667],[130.68125000000003,33.55416666666667]]]}},{"type":"Feature","id":"40421:503025653","properties":{"id":"40421:503025653","meshCode":"503025653","cityCode":"40421","city":"桂川町","lat":33.55625,"lon":130.690625,"areaKm2":0.2335262,"populated2020":false,"population2020":null,"populationNote":"境界またぎ・原典収録外のため自治体内人口は未集計"},"geometry":{"type":"Polygon","coordinates":[[[130.693611414,33.558333333],[130.69359917,33.55746110799999],[130.69303499400002,33.556990829],[130.69292166,33.55597333299999],[130.692788327,33.555589721000004],[130.69205034814155,33.55416666666666],[130.6875,33.55416666666667],[130.6875,33.55833333333334],[130.693611414,33.558333333]]]}},{"type":"Feature","id":"40421:503025731","properties":{"id":"40421:503025731","meshCode":"503025731","cityCode":"40421","city":"桂川町","lat":33.5604167,"lon":130.665625,"areaKm2":0.1930091,"populated2020":false,"population2020":null,"populationNote":"境界またぎ・原典収録外のため自治体内人口は未集計"},"geometry":{"type":"Polygon","coordinates":[[[130.664794449,33.558358333],[130.664576109,33.55884472099999],[130.664662776,33.559864162],[130.664598327,33.560077775],[130.664103061,33.560609441],[130.663963891,33.56086361300001],[130.663846939,33.56139166700001],[130.663891388,33.561806667000006],[130.6637045422538,33.562500000000014],[130.66875,33.56250000000001],[130.66875,33.558333333333344],[130.664794449,33.558358333]]]}},{"type":"Feature","id":"40421:503025732","properties":{"id":"40421:503025732","meshCode":"503025732","cityCode":"40421","city":"桂川町","lat":33.5604167,"lon":130.671875,"areaKm2":0.2681632,"populated2020":true,"population2020":11.4355,"populationNote":"2020年基準の国交省調整値"},"geometry":{"type":"Polygon","coordinates":[[[130.66875,33.558333333333344],[130.66875,33.56250000000001],[130.675,33.562500000000014],[130.675,33.558333333333344],[130.66875,33.558333333333344]]]}},{"type":"Feature","id":"40421:503025741","properties":{"id":"40421:503025741","meshCode":"503025741","cityCode":"40421","city":"桂川町","lat":33.5604167,"lon":130.678125,"areaKm2":0.2681629,"populated2020":false,"population2020":null,"populationNote":"境界またぎ・原典収録外のため自治体内人口は未集計"},"geometry":{"type":"Polygon","coordinates":[[[130.675,33.558333333333344],[130.675,33.562500000000014],[130.68125000000003,33.562500000000014],[130.68125000000003,33.55833333333334],[130.675,33.558333333333344]]]}},{"type":"Feature","id":"40421:503025742","properties":{"id":"40421:503025742","meshCode":"503025742","cityCode":"40421","city":"桂川町","lat":33.5604167,"lon":130.684375,"areaKm2":0.2681627,"populated2020":true,"population2020":34.6075,"populationNote":"2020年基準の国交省調整値"},"geometry":{"type":"Polygon","coordinates":[[[130.68125000000003,33.55833333333334],[130.68125000000003,33.562500000000014],[130.6875,33.56250000000001],[130.6875,33.55833333333334],[130.68125000000003,33.55833333333334]]]}},{"type":"Feature","id":"40421:503025751","properties":{"id":"40421:503025751","meshCode":"503025751","cityCode":"40421","city":"桂川町","lat":33.5604167,"lon":130.690625,"areaKm2":0.2582109,"populated2020":true,"population2020":8.0552,"populationNote":"2020年基準の国交省調整値"},"geometry":{"type":"Polygon","coordinates":[[[130.69319562553838,33.56250000000001],[130.693143333,33.561480559],[130.693595279,33.560564162],[130.69375,33.56043984227722],[130.69375,33.5585282781939],[130.69361141399054,33.55833333333334],[130.6875,33.55833333333334],[130.6875,33.56250000000001],[130.69319562553838,33.56250000000001]]]}},{"type":"Feature","id":"40421:503025752","properties":{"id":"40421:503025752","meshCode":"503025752","cityCode":"40421","city":"桂川町","lat":33.5596728,"lon":130.6938747,"areaKm2":0.0041019,"populated2020":true,"population2020":null,"populationNote":"境界またぎ・原典収録外のため自治体内人口は未集計"},"geometry":{"type":"Polygon","coordinates":[[[130.69375,33.56043984227722],[130.693992503,33.560051387],[130.694006394,33.559294162],[130.693971388,33.558773333],[130.69375,33.5585282781939],[130.69375,33.56043984227722]]]}},{"type":"Feature","id":"40421:503025724","properties":{"id":"40421:503025724","meshCode":"503025724","cityCode":"40421","city":"桂川町","lat":33.5655161,"lon":130.6622801,"areaKm2":0.0165777,"populated2020":false,"population2020":null,"populationNote":"境界またぎ・原典収録外のため自治体内人口は未集計"},"geometry":{"type":"Polygon","coordinates":[[[130.6625,33.564495478617644],[130.662100558,33.564905829],[130.662076394,33.565602775],[130.661820272,33.565909162000004],[130.661002776,33.566288054],[130.66070444926265,33.56666666666668],[130.6625,33.56666666666668],[130.6625,33.564495478617644]]]}},{"type":"Feature","id":"40421:503025733","properties":{"id":"40421:503025733","meshCode":"503025733","cityCode":"40421","city":"桂川町","lat":33.5645833,"lon":130.665625,"areaKm2":0.2554025,"populated2020":true,"population2020":3.1718,"populationNote":"2020年基準の国交省調整値"},"geometry":{"type":"Polygon","coordinates":[[[130.663679728,33.56277000000001],[130.663024994,33.563455],[130.662807497,33.564067495],[130.6625,33.564495478617644],[130.6625,33.56666666666668],[130.66875,33.56666666666667],[130.66875,33.56250000000001],[130.6637045422538,33.562500000000014],[130.663679728,33.56277000000001]]]}},{"type":"Feature","id":"40421:503025734","properties":{"id":"40421:503025734","meshCode":"503025734","cityCode":"40421","city":"桂川町","lat":33.5645833,"lon":130.671875,"areaKm2":0.2681505,"populated2020":true,"population2020":75.3845,"populationNote":"2020年基準の国交省調整値"},"geometry":{"type":"Polygon","coordinates":[[[130.66875,33.56250000000001],[130.66875,33.56666666666667],[130.675,33.56666666666668],[130.675,33.562500000000014],[130.66875,33.56250000000001]]]}},{"type":"Feature","id":"40421:503025743","properties":{"id":"40421:503025743","meshCode":"503025743","cityCode":"40421","city":"桂川町","lat":33.5645833,"lon":130.678125,"areaKm2":0.2681502,"populated2020":true,"population2020":117.3233,"populationNote":"2020年基準の国交省調整値"},"geometry":{"type":"Polygon","coordinates":[[[130.675,33.562500000000014],[130.675,33.56666666666668],[130.68125000000003,33.56666666666668],[130.68125000000003,33.562500000000014],[130.675,33.562500000000014]]]}},{"type":"Feature","id":"40421:503025744","properties":{"id":"40421:503025744","meshCode":"503025744","cityCode":"40421","city":"桂川町","lat":33.5645833,"lon":130.684375,"areaKm2":0.26815,"populated2020":true,"population2020":154.65,"populationNote":"2020年基準の国交省調整値"},"geometry":{"type":"Polygon","coordinates":[[[130.68125000000003,33.562500000000014],[130.68125000000003,33.56666666666668],[130.6875,33.56666666666668],[130.6875,33.56250000000001],[130.68125000000003,33.562500000000014]]]}},{"type":"Feature","id":"40421:503025753","properties":{"id":"40421:503025753","meshCode":"503025753","cityCode":"40421","city":"桂川町","lat":33.5645833,"lon":130.690625,"areaKm2":0.2292613,"populated2020":true,"population2020":6.0661,"populationNote":"2020年基準の国交省調整値"},"geometry":{"type":"Polygon","coordinates":[[[130.692654163,33.566344721],[130.692256667,33.56609416199999],[130.692628054,33.565581107999996],[130.69262,33.565213892],[130.692968885,33.56424055899999],[130.693017224,33.563626946],[130.693213061,33.562857775000005],[130.69319562553838,33.56250000000001],[130.6875,33.56250000000001],[130.6875,33.56666666666668],[130.69289019475562,33.56666666666668],[130.692654163,33.566344721]]]}},{"type":"Feature","id":"40421:503025822","properties":{"id":"40421:503025822","meshCode":"503025822","cityCode":"40421","city":"桂川町","lat":33.5680312,"lon":130.6614583,"areaKm2":0.0482582,"populated2020":true,"population2020":null,"populationNote":"境界またぎ・原典収録外のため自治体内人口は未集計"},"geometry":{"type":"Polygon","coordinates":[[[130.660704449,33.566666667],[130.660628054,33.566763613],[130.660549442,33.567856108],[130.660283606,33.568206387],[130.660285279,33.56838389200001],[130.66068,33.56873055900001],[130.6625,33.56935298017595],[130.6625,33.56666666666668],[130.660704449,33.566666667]]]}},{"type":"Feature","id":"40421:503025831","properties":{"id":"40421:503025831","meshCode":"503025831","cityCode":"40421","city":"桂川町","lat":33.56875,"lon":130.665625,"areaKm2":0.2626719,"populated2020":true,"population2020":6.0749,"populationNote":"2020年基準の国交省調整値"},"geometry":{"type":"Polygon","coordinates":[[[130.662543061,33.569367225],[130.662736394,33.569459720999994],[130.662964163,33.570277774999994],[130.66288636390817,33.57083333333333],[130.66875,33.57083333333334],[130.66875,33.56666666666667],[130.6625,33.56666666666668],[130.662543061,33.569367225]]]}},{"type":"Feature","id":"40421:503025832","properties":{"id":"40421:503025832","meshCode":"503025832","cityCode":"40421","city":"桂川町","lat":33.56875,"lon":130.671875,"areaKm2":0.2681378,"populated2020":false,"population2020":null,"populationNote":"境界またぎ・原典収録外のため自治体内人口は未集計"},"geometry":{"type":"Polygon","coordinates":[[[130.66875,33.56666666666667],[130.66875,33.57083333333334],[130.675,33.57083333333333],[130.675,33.56666666666668],[130.66875,33.56666666666667]]]}},{"type":"Feature","id":"40421:503025841","properties":{"id":"40421:503025841","meshCode":"503025841","cityCode":"40421","city":"桂川町","lat":33.56875,"lon":130.678125,"areaKm2":0.2681375,"populated2020":true,"population2020":272.742,"populationNote":"2020年基準の国交省調整値"},"geometry":{"type":"Polygon","coordinates":[[[130.675,33.56666666666668],[130.675,33.57083333333333],[130.68125000000003,33.57083333333333],[130.68125000000003,33.56666666666668],[130.675,33.56666666666668]]]}},{"type":"Feature","id":"40421:503025842","properties":{"id":"40421:503025842","meshCode":"503025842","cityCode":"40421","city":"桂川町","lat":33.56875,"lon":130.684375,"areaKm2":0.2681373,"populated2020":true,"population2020":851.748,"populationNote":"2020年基準の国交省調整値"},"geometry":{"type":"Polygon","coordinates":[[[130.68125000000003,33.56666666666668],[130.68125000000003,33.57083333333333],[130.6875,33.57083333333333],[130.6875,33.56666666666668],[130.68125000000003,33.56666666666668]]]}},{"type":"Feature","id":"40421:503025851","properties":{"id":"40421:503025851","meshCode":"503025851","cityCode":"40421","city":"桂川町","lat":33.56875,"lon":130.690625,"areaKm2":0.2659832,"populated2020":true,"population2020":383.7919,"populationNote":"2020年基準の国交省調整値"},"geometry":{"type":"Polygon","coordinates":[[[130.693697224,33.567015000000005],[130.693360272,33.566950559],[130.692976939,33.566785],[130.69289019475562,33.56666666666668],[130.6875,33.56666666666668],[130.6875,33.57083333333333],[130.69375,33.57083333333333],[130.693697224,33.567015000000005]]]}},{"type":"Feature","id":"40421:503025852","properties":{"id":"40421:503025852","meshCode":"503025852","cityCode":"40421","city":"桂川町","lat":33.5688825,"lon":130.6950644,"areaKm2":0.1186234,"populated2020":true,"population2020":null,"populationNote":"境界またぎ・原典収録外のため自治体内人口は未集計"},"geometry":{"type":"Polygon","coordinates":[[[130.6992944457018,33.57083333333333],[130.698690558,33.56963],[130.69842055800004,33.56949666700001],[130.697679728,33.56942805400001],[130.697314449,33.569238333],[130.696757497,33.56923027900001],[130.696524163,33.569130829],[130.696048054,33.568412225],[130.695693061,33.568137495],[130.69552166,33.568198054],[130.694193606,33.567366387],[130.693891115,33.56730972100001],[130.69375,33.56709522133823],[130.69375,33.57083333333333],[130.6992944457018,33.57083333333333]]]}},{"type":"Feature","id":"40421:503025833","properties":{"id":"40421:503025833","meshCode":"503025833","cityCode":"40421","city":"桂川町","lat":33.5729167,"lon":130.665625,"areaKm2":0.2484211,"populated2020":false,"population2020":null,"populationNote":"境界またぎ・原典収録外のため自治体内人口は未集計"},"geometry":{"type":"Polygon","coordinates":[[[130.66288636390817,33.57083333333333],[130.662861388,33.57131749500001],[130.663034449,33.571950279],[130.662723061,33.573523333],[130.663103891,33.574031108],[130.663067782,33.57468833299999],[130.663414086,33.574999999999996],[130.66875,33.574999999999996],[130.66875,33.57083333333334],[130.66288636390817,33.57083333333333]]]}},{"type":"Feature","id":"40421:503025834","properties":{"id":"40421:503025834","meshCode":"503025834","cityCode":"40421","city":"桂川町","lat":33.5729167,"lon":130.671875,"areaKm2":0.2681251,"populated2020":true,"population2020":136.4941,"populationNote":"2020年基準の国交省調整値"},"geometry":{"type":"Polygon","coordinates":[[[130.66875,33.57083333333334],[130.66875,33.574999999999996],[130.675,33.575],[130.675,33.57083333333333],[130.66875,33.57083333333334]]]}},{"type":"Feature","id":"40421:503025843","properties":{"id":"40421:503025843","meshCode":"503025843","cityCode":"40421","city":"桂川町","lat":33.5729167,"lon":130.678125,"areaKm2":0.2681248,"populated2020":true,"population2020":366.2555,"populationNote":"2020年基準の国交省調整値"},"geometry":{"type":"Polygon","coordinates":[[[130.675,33.57083333333333],[130.675,33.575],[130.68125000000003,33.575],[130.68125000000003,33.57083333333333],[130.675,33.57083333333333]]]}},{"type":"Feature","id":"40421:503025844","properties":{"id":"40421:503025844","meshCode":"503025844","cityCode":"40421","city":"桂川町","lat":33.5729167,"lon":130.684375,"areaKm2":0.2681246,"populated2020":true,"population2020":696.4259,"populationNote":"2020年基準の国交省調整値"},"geometry":{"type":"Polygon","coordinates":[[[130.68125000000003,33.57083333333333],[130.68125000000003,33.575],[130.6875,33.575],[130.6875,33.57083333333333],[130.68125000000003,33.57083333333333]]]}},{"type":"Feature","id":"40421:503025853","properties":{"id":"40421:503025853","meshCode":"503025853","cityCode":"40421","city":"桂川町","lat":33.5729167,"lon":130.690625,"areaKm2":0.2681244,"populated2020":true,"population2020":298.9545,"populationNote":"2020年基準の国交省調整値"},"geometry":{"type":"Polygon","coordinates":[[[130.6875,33.57083333333333],[130.6875,33.575],[130.69375,33.575],[130.69375,33.57083333333333],[130.6875,33.57083333333333]]]}},{"type":"Feature","id":"40421:503025854","properties":{"id":"40421:503025854","meshCode":"503025854","cityCode":"40421","city":"桂川町","lat":33.5729167,"lon":130.696875,"areaKm2":0.2528313,"populated2020":true,"population2020":429.4786,"populationNote":"2020年基準の国交省調整値"},"geometry":{"type":"Polygon","coordinates":[[[130.7,33.575],[130.699265279,33.574972495],[130.699376394,33.573631946000006],[130.7,33.57355238700001],[130.7,33.572217694],[130.6992944457018,33.57083333333333],[130.69375,33.57083333333333],[130.69375,33.575],[130.7,33.575]]]}},{"type":"Feature","id":"40421:503025863","properties":{"id":"40421:503025863","meshCode":"503025863","cityCode":"40421","city":"桂川町","lat":33.5729293,"lon":130.7002228,"areaKm2":0.0044896,"populated2020":true,"population2020":null,"populationNote":"境界またぎ・原典収録外のため自治体内人口は未集計"},"geometry":{"type":"MultiPolygon","coordinates":[[[[130.70032489,33.575],[130.7,33.57498664],[130.7,33.575],[130.70032489,33.575]]],[[[130.7,33.57355238700001],[130.700356939,33.573506946],[130.700486109,33.573006108],[130.7,33.572217694],[130.7,33.57355238700001]]]]}},{"type":"Feature","id":"40421:503025931","properties":{"id":"40421:503025931","meshCode":"503025931","cityCode":"40421","city":"桂川町","lat":33.5770833,"lon":130.665625,"areaKm2":0.1821185,"populated2020":true,"population2020":null,"populationNote":"境界またぎ・原典収録外のため自治体内人口は未集計"},"geometry":{"type":"Polygon","coordinates":[[[130.663414086,33.574999999999996],[130.663712503,33.575506667],[130.664290558,33.577026387],[130.665063891,33.577989721],[130.66567456958458,33.579166666666666],[130.66875,33.579166666666666],[130.66875,33.574999999999996],[130.663414086,33.574999999999996]]]}},{"type":"Feature","id":"40421:503025932","properties":{"id":"40421:503025932","meshCode":"503025932","cityCode":"40421","city":"桂川町","lat":33.5770833,"lon":130.671875,"areaKm2":0.2681124,"populated2020":true,"population2020":267.5071,"populationNote":"2020年基準の国交省調整値"},"geometry":{"type":"Polygon","coordinates":[[[130.66875,33.574999999999996],[130.66875,33.579166666666666],[130.675,33.57916666666666],[130.675,33.575],[130.66875,33.574999999999996]]]}},{"type":"Feature","id":"40421:503025941","properties":{"id":"40421:503025941","meshCode":"503025941","cityCode":"40421","city":"桂川町","lat":33.5770833,"lon":130.678125,"areaKm2":0.2681121,"populated2020":true,"population2020":582.0677,"populationNote":"2020年基準の国交省調整値"},"geometry":{"type":"Polygon","coordinates":[[[130.675,33.575],[130.675,33.57916666666666],[130.68125000000003,33.579166666666666],[130.68125000000003,33.575],[130.675,33.575]]]}},{"type":"Feature","id":"40421:503025942","properties":{"id":"40421:503025942","meshCode":"503025942","cityCode":"40421","city":"桂川町","lat":33.5770833,"lon":130.684375,"areaKm2":0.2681119,"populated2020":true,"population2020":412.5847,"populationNote":"2020年基準の国交省調整値"},"geometry":{"type":"Polygon","coordinates":[[[130.68125000000003,33.575],[130.68125000000003,33.579166666666666],[130.6875,33.57916666666666],[130.6875,33.575],[130.68125000000003,33.575]]]}},{"type":"Feature","id":"40421:503025951","properties":{"id":"40421:503025951","meshCode":"503025951","cityCode":"40421","city":"桂川町","lat":33.5770833,"lon":130.690625,"areaKm2":0.2681117,"populated2020":true,"population2020":178.3308,"populationNote":"2020年基準の国交省調整値"},"geometry":{"type":"Polygon","coordinates":[[[130.6875,33.575],[130.6875,33.57916666666666],[130.69375,33.57916666666666],[130.69375,33.575],[130.6875,33.575]]]}},{"type":"Feature","id":"40421:503025952","properties":{"id":"40421:503025952","meshCode":"503025952","cityCode":"40421","city":"桂川町","lat":33.5770833,"lon":130.696875,"areaKm2":0.2681115,"populated2020":true,"population2020":325.4356,"populationNote":"2020年基準の国交省調整値"},"geometry":{"type":"Polygon","coordinates":[[[130.69375,33.575],[130.69375,33.57916666666666],[130.7,33.579166666666666],[130.7,33.575],[130.69375,33.575]]]}},{"type":"Feature","id":"40421:503025961","properties":{"id":"40421:503025961","meshCode":"503025961","cityCode":"40421","city":"桂川町","lat":33.5774121,"lon":130.7006661,"areaKm2":0.046333,"populated2020":true,"population2020":null,"populationNote":"境界またぎ・原典収録外のため自治体内人口は未集計"},"geometry":{"type":"Polygon","coordinates":[[[130.70146698232887,33.579166666666666],[130.701321115,33.577048612999995],[130.700673606,33.576208613],[130.70062917,33.575901667000004],[130.700762503,33.575533892],[130.70032489,33.575],[130.7,33.575],[130.7,33.579166666666666],[130.70146698232887,33.579166666666666]]]}},{"type":"Feature","id":"40421:503025924","properties":{"id":"40421:503025924","meshCode":"503025924","cityCode":"40421","city":"桂川町","lat":33.58125,"lon":130.659375,"areaKm2":0.1511576,"populated2020":true,"population2020":null,"populationNote":"境界またぎ・原典収録外のため自治体内人口は未集計"},"geometry":{"type":"Polygon","coordinates":[[[130.6625,33.58151540060011],[130.661756394,33.58126389200001],[130.66051861200003,33.580661387],[130.659376394,33.579718054],[130.658554163,33.58007694599999],[130.658376939,33.579826946000004],[130.658316394,33.579843054],[130.658211388,33.580792495],[130.65806221800003,33.580782495],[130.657923333,33.580865],[130.657775279,33.581116946],[130.656767782,33.581038613],[130.65648083000002,33.581503892],[130.656426109,33.581756387000006],[130.657390272,33.58256333300001],[130.65785802923259,33.58333333333334],[130.6625,33.583333333333336],[130.6625,33.58151540060011]]]}},{"type":"Feature","id":"40421:503025933","properties":{"id":"40421:503025933","meshCode":"503025933","cityCode":"40421","city":"桂川町","lat":33.5813594,"lon":130.6674157,"areaKm2":0.1441355,"populated2020":true,"population2020":null,"populationNote":"境界またぎ・原典収録外のため自治体内人口は未集計"},"geometry":{"type":"MultiPolygon","coordinates":[[[[130.665742776,33.579356108],[130.665692503,33.580101946],[130.665857497,33.58038805399999],[130.666115551,33.580593613],[130.665722776,33.58092],[130.666601115,33.58199610799999],[130.666363333,33.582169441000005],[130.666743891,33.58266944100001],[130.66649795087667,33.58333333333334],[130.66875,33.58333333333334],[130.66875,33.579166666666666],[130.66567456958458,33.579166666666666],[130.665742776,33.579356108]]],[[[130.664482244,33.583333333],[130.664433061,33.582980279000004],[130.664505551,33.582811108],[130.664642503,33.58289555900001],[130.664932776,33.58289166699999],[130.664702218,33.582228613],[130.664486667,33.58193638700001],[130.66425083,33.581944441],[130.663872218,33.58212389199999],[130.663684449,33.582303054000015],[130.663366109,33.581761946],[130.66284917,33.581677224999986],[130.6625,33.58151540060011],[130.6625,33.583333333333336],[130.664482244,33.583333333]]]]}},{"type":"Feature","id":"40421:503025934","properties":{"id":"40421:503025934","meshCode":"503025934","cityCode":"40421","city":"桂川町","lat":33.58125,"lon":130.671875,"areaKm2":0.2680997,"populated2020":true,"population2020":405.449,"populationNote":"2020年基準の国交省調整値"},"geometry":{"type":"Polygon","coordinates":[[[130.66875,33.579166666666666],[130.66875,33.58333333333334],[130.675,33.58333333333334],[130.675,33.57916666666666],[130.66875,33.579166666666666]]]}},{"type":"Feature","id":"40421:503025943","properties":{"id":"40421:503025943","meshCode":"503025943","cityCode":"40421","city":"桂川町","lat":33.58125,"lon":130.678125,"areaKm2":0.2680994,"populated2020":true,"population2020":253.0469,"populationNote":"2020年基準の国交省調整値"},"geometry":{"type":"Polygon","coordinates":[[[130.675,33.57916666666666],[130.675,33.58333333333334],[130.68125000000003,33.583333333333336],[130.68125000000003,33.579166666666666],[130.675,33.57916666666666]]]}},{"type":"Feature","id":"40421:503025944","properties":{"id":"40421:503025944","meshCode":"503025944","cityCode":"40421","city":"桂川町","lat":33.58125,"lon":130.684375,"areaKm2":0.2680992,"populated2020":true,"population2020":156.0175,"populationNote":"2020年基準の国交省調整値"},"geometry":{"type":"Polygon","coordinates":[[[130.68125000000003,33.579166666666666],[130.68125000000003,33.583333333333336],[130.6875,33.58333333333334],[130.6875,33.57916666666666],[130.68125000000003,33.579166666666666]]]}},{"type":"Feature","id":"40421:503025953","properties":{"id":"40421:503025953","meshCode":"503025953","cityCode":"40421","city":"桂川町","lat":33.58125,"lon":130.690625,"areaKm2":0.268099,"populated2020":true,"population2020":138.7943,"populationNote":"2020年基準の国交省調整値"},"geometry":{"type":"Polygon","coordinates":[[[130.6875,33.57916666666666],[130.6875,33.58333333333334],[130.69375,33.583333333333336],[130.69375,33.57916666666666],[130.6875,33.57916666666666]]]}},{"type":"Feature","id":"40421:503025954","properties":{"id":"40421:503025954","meshCode":"503025954","cityCode":"40421","city":"桂川町","lat":33.58125,"lon":130.696875,"areaKm2":0.2680988,"populated2020":true,"population2020":491.9684,"populationNote":"2020年基準の国交省調整値"},"geometry":{"type":"Polygon","coordinates":[[[130.69375,33.57916666666666],[130.69375,33.583333333333336],[130.7,33.58333333333334],[130.7,33.579166666666666],[130.69375,33.57916666666666]]]}},{"type":"Feature","id":"40421:503025963","properties":{"id":"40421:503025963","meshCode":"503025963","cityCode":"40421","city":"桂川町","lat":33.5812692,"lon":130.7007415,"areaKm2":0.1074537,"populated2020":true,"population2020":null,"populationNote":"境界またぎ・原典収録外のため自治体内人口は未集計"},"geometry":{"type":"Polygon","coordinates":[[[130.704210856,33.583333333],[130.704089442,33.581963054],[130.701512503,33.58150277499998],[130.70146698232887,33.579166666666666],[130.7,33.579166666666666],[130.7,33.58333333333334],[130.704210856,33.583333333]]]}},{"type":"Feature","id":"40421:503035022","properties":{"id":"40421:503035022","meshCode":"503035022","cityCode":"40421","city":"桂川町","lat":33.5854167,"lon":130.659375,"areaKm2":0.1476775,"populated2020":true,"population2020":null,"populationNote":"境界またぎ・原典収録外のため自治体内人口は未集計"},"geometry":{"type":"Polygon","coordinates":[[[130.65785802923259,33.58333333333334],[130.658846939,33.58445055899999],[130.659254163,33.585385829],[130.659422218,33.58558361299999],[130.65951166,33.586141946],[130.659784721,33.58680166700001],[130.659744163,33.58694638699999],[130.65833184528077,33.5875],[130.6625,33.5875],[130.6625,33.583333333333336],[130.65785802923259,33.58333333333334]]]}},{"type":"Feature","id":"40421:503035031","properties":{"id":"40421:503035031","meshCode":"503035031","cityCode":"40421","city":"桂川町","lat":33.5853868,"lon":130.6638625,"areaKm2":0.2279572,"populated2020":true,"population2020":608.8122,"populationNote":"2020年基準の国交省調整値"},"geometry":{"type":"Polygon","coordinates":[[[130.666328885,33.583790279],[130.666686394,33.58426222500001],[130.666793333,33.584864441],[130.666736939,33.585183054],[130.667067224,33.585328053999994],[130.667346939,33.585698892],[130.665834163,33.586553333],[130.665745551,33.586517225],[130.665202776,33.585337775000006],[130.665202776,33.58523916200001],[130.665857224,33.585021387],[130.666087782,33.584628333000005],[130.666067497,33.584555829],[130.665803606,33.584521387],[130.666055551,33.584384721000006],[130.66593083,33.583876946],[130.665787224,33.583635],[130.665149728,33.583854721],[130.665013606,33.58414499999999],[130.664717497,33.584258054],[130.664522503,33.584125],[130.66448224401694,33.58333333333333],[130.6625,33.583333333333336],[130.6625,33.5875],[130.66875,33.58749999999999],[130.66875,33.58333333333334],[130.66649795087667,33.58333333333334],[130.666328885,33.583790279]]]}},{"type":"Feature","id":"40421:503035032","properties":{"id":"40421:503035032","meshCode":"503035032","cityCode":"40421","city":"桂川町","lat":33.5854167,"lon":130.671875,"areaKm2":0.268087,"populated2020":true,"population2020":445.1535,"populationNote":"2020年基準の国交省調整値"},"geometry":{"type":"Polygon","coordinates":[[[130.66875,33.58333333333334],[130.66875,33.58749999999999],[130.675,33.587500000000006],[130.675,33.58333333333334],[130.66875,33.58333333333334]]]}},{"type":"Feature","id":"40421:503035041","properties":{"id":"40421:503035041","meshCode":"503035041","cityCode":"40421","city":"桂川町","lat":33.5854167,"lon":130.678125,"areaKm2":0.2680867,"populated2020":true,"population2020":221.1874,"populationNote":"2020年基準の国交省調整値"},"geometry":{"type":"Polygon","coordinates":[[[130.675,33.58333333333334],[130.675,33.587500000000006],[130.68125000000003,33.5875],[130.68125000000003,33.583333333333336],[130.675,33.58333333333334]]]}},{"type":"Feature","id":"40421:503035042","properties":{"id":"40421:503035042","meshCode":"503035042","cityCode":"40421","city":"桂川町","lat":33.5854167,"lon":130.684375,"areaKm2":0.2680865,"populated2020":true,"population2020":171.9504,"populationNote":"2020年基準の国交省調整値"},"geometry":{"type":"Polygon","coordinates":[[[130.68125000000003,33.583333333333336],[130.68125000000003,33.5875],[130.6875,33.587500000000006],[130.6875,33.58333333333334],[130.68125000000003,33.583333333333336]]]}},{"type":"Feature","id":"40421:503035051","properties":{"id":"40421:503035051","meshCode":"503035051","cityCode":"40421","city":"桂川町","lat":33.5854167,"lon":130.690625,"areaKm2":0.2680863,"populated2020":true,"population2020":44.0795,"populationNote":"2020年基準の国交省調整値"},"geometry":{"type":"Polygon","coordinates":[[[130.6875,33.58333333333334],[130.6875,33.587500000000006],[130.69375,33.5875],[130.69375,33.583333333333336],[130.6875,33.58333333333334]]]}},{"type":"Feature","id":"40421:503035052","properties":{"id":"40421:503035052","meshCode":"503035052","cityCode":"40421","city":"桂川町","lat":33.5854167,"lon":130.696875,"areaKm2":0.2680861,"populated2020":true,"population2020":761.8562,"populationNote":"2020年基準の国交省調整値"},"geometry":{"type":"Polygon","coordinates":[[[130.69375,33.583333333333336],[130.69375,33.5875],[130.7,33.5875],[130.7,33.58333333333334],[130.69375,33.583333333333336]]]}},{"type":"Feature","id":"40421:503035061","properties":{"id":"40421:503035061","meshCode":"503035061","cityCode":"40421","city":"桂川町","lat":33.5854167,"lon":130.703125,"areaKm2":0.1751194,"populated2020":false,"population2020":null,"populationNote":"境界またぎ・原典収録外のため自治体内人口は未集計"},"geometry":{"type":"Polygon","coordinates":[[[130.703918054,33.587464721],[130.703712776,33.586965],[130.703834994,33.586629441],[130.70409083,33.586401108000004],[130.70417166,33.586090279],[130.704048612,33.58543222499999],[130.704268885,33.58422861300001],[130.70421085598545,33.58333333333334],[130.7,33.58333333333334],[130.7,33.5875],[130.703918054,33.587464721]]]}},{"type":"Feature","id":"40421:503035014","properties":{"id":"40421:503035014","meshCode":"503035014","cityCode":"40421","city":"桂川町","lat":33.5902282,"lon":130.6498518,"areaKm2":0.0158544,"populated2020":true,"population2020":null,"populationNote":"境界またぎ・原典収録外のため自治体内人口は未集計"},"geometry":{"type":"Polygon","coordinates":[[[130.649163061,33.58871],[130.649030272,33.589499441],[130.649664994,33.590138892],[130.64974221800003,33.590317495],[130.649771388,33.591248892],[130.64989647182523,33.591666666666676],[130.65,33.59166666666667],[130.65,33.58863289200001],[130.649163061,33.58871]]]}},{"type":"Feature","id":"40421:503035023","properties":{"id":"40421:503035023","meshCode":"503035023","cityCode":"40421","city":"桂川町","lat":33.5895833,"lon":130.653125,"areaKm2":0.1875292,"populated2020":true,"population2020":null,"populationNote":"境界またぎ・原典収録外のため自治体内人口は未集計"},"geometry":{"type":"Polygon","coordinates":[[[130.65625,33.58879823460493],[130.655501946,33.589014440999996],[130.65509,33.588981667],[130.654842218,33.58890249499999],[130.653964721,33.588335829],[130.653754994,33.588384999999995],[130.653387782,33.58892916199999],[130.653134449,33.588975278999996],[130.650745837,33.588564162],[130.65,33.58863289200001],[130.65,33.59166666666667],[130.65625,33.591666666666676],[130.65625,33.58879823460493]]]}},{"type":"Feature","id":"40421:503035024","properties":{"id":"40421:503035024","meshCode":"503035024","cityCode":"40421","city":"桂川町","lat":33.5895833,"lon":130.659375,"areaKm2":0.2560999,"populated2020":true,"population2020":91.3809,"populationNote":"2020年基準の国交省調整値"},"geometry":{"type":"Polygon","coordinates":[[[130.65833184528077,33.5875],[130.657316109,33.587961946],[130.65690000000004,33.588255829],[130.656537224,33.588655559],[130.65625,33.58879823460493],[130.65625,33.591666666666676],[130.6625,33.59166666666667],[130.6625,33.5875],[130.65833184528077,33.5875]]]}},{"type":"Feature","id":"40421:503035033","properties":{"id":"40421:503035033","meshCode":"503035033","cityCode":"40421","city":"桂川町","lat":33.5895833,"lon":130.665625,"areaKm2":0.2680745,"populated2020":true,"population2020":402.2244,"populationNote":"2020年基準の国交省調整値"},"geometry":{"type":"Polygon","coordinates":[[[130.6625,33.5875],[130.6625,33.59166666666667],[130.66875,33.59166666666667],[130.66875,33.58749999999999],[130.6625,33.5875]]]}},{"type":"Feature","id":"40421:503035034","properties":{"id":"40421:503035034","meshCode":"503035034","cityCode":"40421","city":"桂川町","lat":33.5895833,"lon":130.671875,"areaKm2":0.2680742,"populated2020":true,"population2020":227.8413,"populationNote":"2020年基準の国交省調整値"},"geometry":{"type":"Polygon","coordinates":[[[130.66875,33.58749999999999],[130.66875,33.59166666666667],[130.675,33.591666666666676],[130.675,33.587500000000006],[130.66875,33.58749999999999]]]}},{"type":"Feature","id":"40421:503035043","properties":{"id":"40421:503035043","meshCode":"503035043","cityCode":"40421","city":"桂川町","lat":33.5895833,"lon":130.678125,"areaKm2":0.268074,"populated2020":true,"population2020":49.6268,"populationNote":"2020年基準の国交省調整値"},"geometry":{"type":"Polygon","coordinates":[[[130.675,33.587500000000006],[130.675,33.591666666666676],[130.68125000000003,33.591666666666676],[130.68125000000003,33.5875],[130.675,33.587500000000006]]]}},{"type":"Feature","id":"40421:503035044","properties":{"id":"40421:503035044","meshCode":"503035044","cityCode":"40421","city":"桂川町","lat":33.5895833,"lon":130.684375,"areaKm2":0.2680738,"populated2020":true,"population2020":220.5219,"populationNote":"2020年基準の国交省調整値"},"geometry":{"type":"Polygon","coordinates":[[[130.68125000000003,33.5875],[130.68125000000003,33.591666666666676],[130.6875,33.59166666666667],[130.6875,33.587500000000006],[130.68125000000003,33.5875]]]}},{"type":"Feature","id":"40421:503035053","properties":{"id":"40421:503035053","meshCode":"503035053","cityCode":"40421","city":"桂川町","lat":33.5895833,"lon":130.690625,"areaKm2":0.2680736,"populated2020":true,"population2020":135.6262,"populationNote":"2020年基準の国交省調整値"},"geometry":{"type":"Polygon","coordinates":[[[130.6875,33.587500000000006],[130.6875,33.59166666666667],[130.69375,33.591666666666676],[130.69375,33.5875],[130.6875,33.587500000000006]]]}},{"type":"Feature","id":"40421:503035054","properties":{"id":"40421:503035054","meshCode":"503035054","cityCode":"40421","city":"桂川町","lat":33.5895833,"lon":130.696875,"areaKm2":0.2680733,"populated2020":true,"population2020":136.2452,"populationNote":"2020年基準の国交省調整値"},"geometry":{"type":"Polygon","coordinates":[[[130.69375,33.5875],[130.69375,33.591666666666676],[130.7,33.591666666666676],[130.7,33.5875],[130.69375,33.5875]]]}},{"type":"Feature","id":"40421:503035063","properties":{"id":"40421:503035063","meshCode":"503035063","cityCode":"40421","city":"桂川町","lat":33.5895833,"lon":130.703125,"areaKm2":0.204799,"populated2020":true,"population2020":6.2831,"populationNote":"2020年基準の国交省調整値"},"geometry":{"type":"Polygon","coordinates":[[[130.70452358016473,33.59166666666667],[130.705146939,33.59072361300001],[130.705139728,33.590341108000004],[130.704896394,33.590043613000006],[130.704868054,33.589869721],[130.704961946,33.588906667],[130.704856939,33.588672225],[130.7039442834579,33.5875],[130.7,33.5875],[130.7,33.591666666666676],[130.70452358016473,33.59166666666667]]]}},{"type":"Feature","id":"40421:503035112","properties":{"id":"40421:503035112","meshCode":"503035112","cityCode":"40421","city":"桂川町","lat":33.5917572,"lon":130.649972,"areaKm2":0.0001051,"populated2020":true,"population2020":null,"populationNote":"境界またぎ・原典収録外のため自治体内人口は未集計"},"geometry":{"type":"Polygon","coordinates":[[[130.649896472,33.591666667],[130.649991388,33.591847775000005],[130.65,33.591861387],[130.65,33.59166666666667],[130.649896472,33.591666667]]]}},{"type":"Feature","id":"40421:503035121","properties":{"id":"40421:503035121","meshCode":"503035121","cityCode":"40421","city":"桂川町","lat":33.5937467,"lon":130.654762,"areaKm2":0.1701558,"populated2020":false,"population2020":null,"populationNote":"境界またぎ・原典収録外のため自治体内人口は未集計"},"geometry":{"type":"Polygon","coordinates":[[[130.65014166,33.592085278999996],[130.651096109,33.592694161999994],[130.651364721,33.59313277500001],[130.651495279,33.593696946],[130.651598885,33.593753891999995],[130.653059442,33.59369472099999],[130.653392218,33.59383277500001],[130.653277497,33.594518613],[130.653378885,33.594934720999994],[130.653749442,33.595464441000004],[130.654910558,33.595614721000004],[130.6557558306743,33.59583333333333],[130.65625,33.59583333333333],[130.65625,33.591666666666676],[130.65,33.59166666666667],[130.65,33.591861387],[130.65014166,33.592085278999996]]]}},{"type":"Feature","id":"40421:503035122","properties":{"id":"40421:503035122","meshCode":"503035122","cityCode":"40421","city":"桂川町","lat":33.59375,"lon":130.659375,"areaKm2":0.268062,"populated2020":true,"population2020":20.4648,"populationNote":"2020年基準の国交省調整値"},"geometry":{"type":"Polygon","coordinates":[[[130.65625,33.591666666666676],[130.65625,33.59583333333333],[130.6625,33.59583333333334],[130.6625,33.59166666666667],[130.65625,33.591666666666676]]]}},{"type":"Feature","id":"40421:503035131","properties":{"id":"40421:503035131","meshCode":"503035131","cityCode":"40421","city":"桂川町","lat":33.59375,"lon":130.665625,"areaKm2":0.2680618,"populated2020":true,"population2020":45.1519,"populationNote":"2020年基準の国交省調整値"},"geometry":{"type":"Polygon","coordinates":[[[130.6625,33.59166666666667],[130.6625,33.59583333333334],[130.66875,33.59583333333334],[130.66875,33.59166666666667],[130.6625,33.59166666666667]]]}},{"type":"Feature","id":"40421:503035132","properties":{"id":"40421:503035132","meshCode":"503035132","cityCode":"40421","city":"桂川町","lat":33.59375,"lon":130.671875,"areaKm2":0.2680615,"populated2020":true,"population2020":100.7734,"populationNote":"2020年基準の国交省調整値"},"geometry":{"type":"Polygon","coordinates":[[[130.66875,33.59166666666667],[130.66875,33.59583333333334],[130.675,33.59583333333333],[130.675,33.591666666666676],[130.66875,33.59166666666667]]]}},{"type":"Feature","id":"40421:503035141","properties":{"id":"40421:503035141","meshCode":"503035141","cityCode":"40421","city":"桂川町","lat":33.59375,"lon":130.678125,"areaKm2":0.2680613,"populated2020":true,"population2020":184.2087,"populationNote":"2020年基準の国交省調整値"},"geometry":{"type":"Polygon","coordinates":[[[130.675,33.591666666666676],[130.675,33.59583333333333],[130.68125000000003,33.59583333333333],[130.68125000000003,33.591666666666676],[130.675,33.591666666666676]]]}},{"type":"Feature","id":"40421:503035142","properties":{"id":"40421:503035142","meshCode":"503035142","cityCode":"40421","city":"桂川町","lat":33.59375,"lon":130.684375,"areaKm2":0.2680611,"populated2020":true,"population2020":110.8718,"populationNote":"2020年基準の国交省調整値"},"geometry":{"type":"Polygon","coordinates":[[[130.68125000000003,33.591666666666676],[130.68125000000003,33.59583333333333],[130.6875,33.59583333333333],[130.6875,33.59166666666667],[130.68125000000003,33.591666666666676]]]}},{"type":"Feature","id":"40421:503035151","properties":{"id":"40421:503035151","meshCode":"503035151","cityCode":"40421","city":"桂川町","lat":33.59375,"lon":130.690625,"areaKm2":0.2675085,"populated2020":true,"population2020":137.9445,"populationNote":"2020年基準の国交省調整値"},"geometry":{"type":"Polygon","coordinates":[[[130.69086910433344,33.59583333333333],[130.691203891,33.595682495],[130.69142440183276,33.59583333333333],[130.69375,33.59583333333334],[130.69375,33.591666666666676],[130.6875,33.59166666666667],[130.6875,33.59583333333333],[130.69086910433344,33.59583333333333]]]}},{"type":"Feature","id":"40421:503035152","properties":{"id":"40421:503035152","meshCode":"503035152","cityCode":"40421","city":"桂川町","lat":33.59375,"lon":130.696875,"areaKm2":0.2680606,"populated2020":false,"population2020":null,"populationNote":"境界またぎ・原典収録外のため自治体内人口は未集計"},"geometry":{"type":"Polygon","coordinates":[[[130.69375,33.591666666666676],[130.69375,33.59583333333334],[130.7,33.59583333333334],[130.7,33.591666666666676],[130.69375,33.591666666666676]]]}},{"type":"Feature","id":"40421:503035161","properties":{"id":"40421:503035161","meshCode":"503035161","cityCode":"40421","city":"桂川町","lat":33.5936728,"lon":130.7013574,"areaKm2":0.1392551,"populated2020":true,"population2020":null,"populationNote":"境界またぎ・原典収録外のため自治体内人口は未集計"},"geometry":{"type":"Polygon","coordinates":[[[130.70314796183152,33.59583333333333],[130.703118054,33.595204162],[130.702651115,33.593798054000004],[130.703104994,33.592954721],[130.703515279,33.59262472100001],[130.704074163,33.592373892000005],[130.70452358016473,33.59166666666667],[130.7,33.591666666666676],[130.7,33.59583333333334],[130.70314796183152,33.59583333333333]]]}},{"type":"Feature","id":"40421:503035123","properties":{"id":"40421:503035123","meshCode":"503035123","cityCode":"40421","city":"桂川町","lat":33.595855,"lon":130.6560435,"areaKm2":0.0002348,"populated2020":false,"population2020":null,"populationNote":"境界またぎ・原典収録外のため自治体内人口は未集計"},"geometry":{"type":"Polygon","coordinates":[[[130.6557558306743,33.59583333333333],[130.65625,33.59590626352094],[130.65625,33.59583333333333],[130.6557558306743,33.59583333333333]]]}},{"type":"Feature","id":"40421:503035124","properties":{"id":"40421:503035124","meshCode":"503035124","cityCode":"40421","city":"桂川町","lat":33.5966544,"lon":130.6590596,"areaKm2":0.0499697,"populated2020":false,"population2020":null,"populationNote":"境界またぎ・原典収録外のため自治体内人口は未集計"},"geometry":{"type":"Polygon","coordinates":[[[130.65625,33.59590626352094],[130.656888612,33.59602082899999],[130.65739083,33.596256108],[130.657902776,33.59632305400001],[130.65816250300003,33.596826387],[130.658632218,33.59734805400001],[130.659408612,33.597548892],[130.659605551,33.59750416200001],[130.660179442,33.59641361300001],[130.661216667,33.596417495],[130.661914449,33.596325829],[130.6625,33.59679835081671],[130.6625,33.59583333333334],[130.65625,33.59583333333333],[130.65625,33.59590626352094]]]}},{"type":"Feature","id":"40421:503035133","properties":{"id":"40421:503035133","meshCode":"503035133","cityCode":"40421","city":"桂川町","lat":33.5979167,"lon":130.665625,"areaKm2":0.1074099,"populated2020":false,"population2020":null,"populationNote":"境界またぎ・原典収録外のため自治体内人口は未集計"},"geometry":{"type":"Polygon","coordinates":[[[130.662792503,33.597055829],[130.663397782,33.597358054000004],[130.663789442,33.59779249500001],[130.664092503,33.597950559],[130.664317497,33.59800333300001],[130.665646394,33.597962225],[130.666032503,33.597349721],[130.666217782,33.596699441],[130.666363891,33.596508892],[130.66663,33.59644999999999],[130.666978885,33.596628613],[130.667456667,33.597090559],[130.66875,33.598627662215264],[130.66875,33.59583333333334],[130.6625,33.59583333333334],[130.6625,33.59679835081671],[130.662792503,33.597055829]]]}},{"type":"Feature","id":"40421:503035134","properties":{"id":"40421:503035134","meshCode":"503035134","cityCode":"40421","city":"桂川町","lat":33.5979167,"lon":130.671875,"areaKm2":0.2596101,"populated2020":true,"population2020":96.5617,"populationNote":"2020年基準の国交省調整値"},"geometry":{"type":"Polygon","coordinates":[[[130.66875,33.598627662215264],[130.669536667,33.599492775],[130.66981511,33.60000000000001],[130.675,33.6],[130.675,33.59583333333333],[130.66875,33.59583333333334],[130.66875,33.598627662215264]]]}},{"type":"Feature","id":"40421:503035143","properties":{"id":"40421:503035143","meshCode":"503035143","cityCode":"40421","city":"桂川町","lat":33.5979167,"lon":130.678125,"areaKm2":0.2376263,"populated2020":true,"population2020":49.3991,"populationNote":"2020年基準の国交省調整値"},"geometry":{"type":"Polygon","coordinates":[[[130.676974643,33.60000000000001],[130.677063606,33.59896361300001],[130.67850083,33.598498054000004],[130.67897083,33.598266946],[130.679190272,33.598862495],[130.679203995,33.6],[130.68125000000003,33.6],[130.68125000000003,33.59583333333333],[130.675,33.59583333333333],[130.675,33.6],[130.676974643,33.60000000000001]]]}},{"type":"Feature","id":"40421:503035144","properties":{"id":"40421:503035144","meshCode":"503035144","cityCode":"40421","city":"桂川町","lat":33.5979321,"lon":130.6824631,"areaKm2":0.1318269,"populated2020":false,"population2020":null,"populationNote":"境界またぎ・原典収録外のため自治体内人口は未集計"},"geometry":{"type":"Polygon","coordinates":[[[130.682581997,33.6],[130.682723061,33.598961108],[130.682844449,33.59875055900001],[130.684442218,33.597162775],[130.68502917,33.596748333],[130.686546939,33.596905],[130.687093333,33.596631667000004],[130.6875,33.59651811645133],[130.6875,33.59583333333333],[130.68125000000003,33.59583333333333],[130.68125000000003,33.6],[130.682581997,33.6]]]}},{"type":"Feature","id":"40421:503035153","properties":{"id":"40421:503035153","meshCode":"503035153","cityCode":"40421","city":"桂川町","lat":33.5964086,"lon":130.6888607,"areaKm2":0.0451592,"populated2020":true,"population2020":null,"populationNote":"境界またぎ・原典収録外のため自治体内人口は未集計"},"geometry":{"type":"MultiPolygon","coordinates":[[[[130.6875,33.59651811645133],[130.688319728,33.596572495],[130.688744721,33.596779162000004],[130.689775837,33.596848054],[130.69086910433344,33.59583333333333],[130.6875,33.59583333333333],[130.6875,33.59651811645133]]],[[[130.69142440183276,33.59583333333333],[130.691811946,33.596391108],[130.692129442,33.596455829],[130.692555279,33.596334441],[130.692773891,33.59641972099999],[130.693167224,33.597049162],[130.69375,33.59753169719998],[130.69375,33.59583333333334],[130.69142440183276,33.59583333333333]]]]}},{"type":"Feature","id":"40421:503035154","properties":{"id":"40421:503035154","meshCode":"503035154","cityCode":"40421","city":"桂川町","lat":33.5976068,"lon":130.6969582,"areaKm2":0.1463773,"populated2020":false,"population2020":null,"populationNote":"境界またぎ・原典収録外のため自治体内人口は未集計"},"geometry":{"type":"Polygon","coordinates":[[[130.69375,33.59753169719998],[130.694785279,33.597883333],[130.695662776,33.597662495],[130.695958054,33.597650279],[130.696681115,33.597688891999994],[130.697352503,33.597828613],[130.697964163,33.59804305400001],[130.698543891,33.598410829],[130.698707782,33.598595],[130.698784449,33.598935279],[130.7,33.599445667000005],[130.7,33.59583333333334],[130.69375,33.59583333333334],[130.69375,33.59753169719998]]]}},{"type":"Feature","id":"40421:503035163","properties":{"id":"40421:503035163","meshCode":"503035163","cityCode":"40421","city":"桂川町","lat":33.5977214,"lon":130.7001381,"areaKm2":0.0518626,"populated2020":true,"population2020":null,"populationNote":"境界またぎ・原典収録外のため自治体内人口は未集計"},"geometry":{"type":"Polygon","coordinates":[[[130.700109728,33.599507225],[130.700432218,33.598475828999995],[130.700379728,33.59796805399999],[130.700257497,33.597668892],[130.700324721,33.597474441],[130.700939442,33.597445828999994],[130.70155,33.597146387],[130.702032218,33.597259441],[130.702933061,33.596885],[130.703114994,33.596503054],[130.70314796183152,33.59583333333333],[130.7,33.59583333333334],[130.7,33.599445667000005],[130.700109728,33.599507225]]]}},{"type":"Feature","id":"40421:503035232","properties":{"id":"40421:503035232","meshCode":"503035232","cityCode":"40421","city":"桂川町","lat":33.6004801,"lon":130.6729429,"areaKm2":0.0362561,"populated2020":true,"population2020":null,"populationNote":"境界またぎ・原典収録外のため自治体内人口は未集計"},"geometry":{"type":"Polygon","coordinates":[[[130.66981511,33.60000000000001],[130.669986394,33.600275279],[130.670466394,33.600406946],[130.673955279,33.600958892],[130.674433333,33.600916387],[130.675,33.600696225],[130.675,33.6],[130.66981511,33.60000000000001]]]}},{"type":"Feature","id":"40421:503035241","properties":{"id":"40421:503035241","meshCode":"503035241","cityCode":"40421","city":"桂川町","lat":33.6003708,"lon":130.6759486,"areaKm2":0.0556736,"populated2020":true,"population2020":null,"populationNote":"境界またぎ・原典収録外のため自治体内人口は未集計"},"geometry":{"type":"MultiPolygon","coordinates":[[[[130.675,33.600696225],[130.676046109,33.600493054000005],[130.676855551,33.600480829],[130.676974643,33.60000000000001],[130.675,33.6],[130.675,33.600696225]]],[[[130.679209442,33.600027775],[130.679578327,33.600614721],[130.679422503,33.601222225],[130.679464994,33.601797495],[130.679660272,33.602488333],[130.68125000000003,33.602447807184795],[130.68125000000003,33.6],[130.679209442,33.600027775]]]]}},{"type":"Feature","id":"40421:503035242","properties":{"id":"40421:503035242","meshCode":"503035242","cityCode":"40421","city":"桂川町","lat":33.6013292,"lon":130.6818299,"areaKm2":0.0292298,"populated2020":true,"population2020":null,"populationNote":"境界またぎ・原典収録外のため自治体内人口は未集計"},"geometry":{"type":"Polygon","coordinates":[[[130.68125000000003,33.602447807184795],[130.682232218,33.602413613],[130.682581997,33.6],[130.68125000000003,33.6],[130.68125000000003,33.602447807184795]]]}}]}