{"type":"FeatureCollection","metadata":{"cityCode":"40448","city":"東峰村","resolution":1000,"boundaryDate":"2026-01-01","populationLabel":"2020年基準人口（国交省調整値）","method":"標準地域メッシュを行政界で切抜き。中心が区域外のとき区域内代表点を判定点にする。人口不明をゼロにしない。"},"features":[{"type":"Feature","id":"40448:50300648","properties":{"id":"40448:50300648","meshCode":"50300648","cityCode":"40448","city":"東峰村","lat":33.3743428,"lon":130.8601686,"areaKm2":0.0233128,"populated2020":false,"population2020":null,"populationNote":"境界またぎ・収録外等のため人口未集計"},"geometry":{"type":"Polygon","coordinates":[[[130.861452581,33.37500000000001],[130.86105904,33.374450252],[130.859719053,33.37296218],[130.859592101,33.374190523],[130.859170428,33.37462913499999],[130.859288418,33.375],[130.861452581,33.37500000000001]]]}},{"type":"Feature","id":"40448:50300658","properties":{"id":"40448:50300658","meshCode":"50300658","cityCode":"40448","city":"東峰村","lat":33.3789025,"lon":130.8610966,"areaKm2":0.2121491,"populated2020":false,"population2020":null,"populationNote":"境界またぎ・収録外等のため人口未集計"},"geometry":{"type":"Polygon","coordinates":[[[130.8625,33.37672995379584],[130.861452581,33.37500000000001],[130.859288418,33.375],[130.859235707,33.375273027],[130.8593007,33.375993865],[130.859506537,33.37645609],[130.8592607,33.377198865000004],[130.859345707,33.377420252],[130.859656265,33.377761649],[130.859686537,33.378314982],[130.859847095,33.37871359500001],[130.859635979,33.379343874],[130.859645979,33.379573315],[130.860157925,33.38024082],[130.860659598,33.380501649],[130.861051258,33.38109415299999],[130.861181816,33.381485260999995],[130.860358755,33.382142486000006],[130.860142918,33.382604712],[130.86010291800002,33.38303137799999],[130.85943558922492,33.38333333333333],[130.8625,33.38333333333334],[130.8625,33.37672995379584]]]}},{"type":"Feature","id":"40448:50300659","properties":{"id":"40448:50300659","meshCode":"50300659","cityCode":"40448","city":"東峰村","lat":33.3802997,"lon":130.8686232,"areaKm2":0.7800278,"populated2020":true,"population2020":4.0111,"populationNote":"収録500mメッシュ人口の合算（原典収録外は補完しない）"},"geometry":{"type":"Polygon","coordinates":[[[130.868335162,33.376572757],[130.867320441,33.37715025200001],[130.866796265,33.377202477000004],[130.865952659,33.377054703],[130.865175162,33.377198035999996],[130.864745162,33.37738470299999],[130.864101543,33.377241919],[130.863537095,33.377315811],[130.863302101,33.377263865],[130.8625,33.37672995379584],[130.8625,33.38333333333334],[130.875,33.38333333333333],[130.875,33.377967838],[130.873537393,33.377615261],[130.872637108,33.377832486],[130.871175162,33.37744081100001],[130.870468223,33.377353595],[130.869250169,33.376798586],[130.86882572,33.37675525200001],[130.868335162,33.376572757]]]}},{"type":"Feature","id":"40448:50300750","properties":{"id":"40448:50300750","meshCode":"50300750","cityCode":"40448","city":"東峰村","lat":33.3807498,"lon":130.8803465,"areaKm2":0.582085,"populated2020":true,"population2020":178.9837,"populationNote":"収録500mメッシュ人口の合算（原典収録外は補完しない）"},"geometry":{"type":"Polygon","coordinates":[[[130.880898197,33.37847332399999],[130.880728197,33.37852360400001],[130.87917904,33.37835332400001],[130.87901821,33.378276928],[130.878904319,33.37787332399999],[130.878763761,33.376524982],[130.878713489,33.376366649000005],[130.878579598,33.376313874],[130.87839543500002,33.376438036],[130.877712659,33.377968595],[130.877561829,33.37811082],[130.876597665,33.37829831500001],[130.875,33.377967838],[130.875,33.38333333333333],[130.8857421787913,33.38333333333333],[130.886053995,33.382842784],[130.886102049,33.38261666700001],[130.885719559,33.381800838],[130.886366226,33.380850829],[130.886429831,33.380637775000004],[130.886413995,33.379846946],[130.886222607,33.379508054000006],[130.885839831,33.37923166699999],[130.884994565,33.378855269999995],[130.883671232,33.378491108],[130.881312633,33.37815527],[130.881079027,33.37824748600001],[130.880898197,33.37847332399999]]]}},{"type":"Feature","id":"40448:50300668","properties":{"id":"40448:50300668","meshCode":"50300668","cityCode":"40448","city":"東峰村","lat":33.3879782,"lon":130.8604958,"areaKm2":0.3216246,"populated2020":false,"population2020":null,"populationNote":"境界またぎ・収録外等のため人口未集計"},"geometry":{"type":"Polygon","coordinates":[[[130.859380428,33.383357207],[130.858938482,33.383554694],[130.85835153,33.383629973],[130.858321543,33.383760234],[130.858667652,33.38419104500001],[130.859691556,33.384554351],[130.860027951,33.384759892],[130.860173243,33.38558344999999],[130.860418807,33.386168135000005],[130.8604038,33.386496171],[130.85974965,33.38677087400001],[130.858793813,33.386841982],[130.858447704,33.38699197299999],[130.858658547,33.387900523],[130.858513567,33.38868491899999],[130.857936641,33.390038162],[130.857374423,33.390662288],[130.857213606,33.39113059500001],[130.857176277987,33.391666666666666],[130.8625,33.391666666666666],[130.8625,33.38333333333334],[130.859380428,33.383357207]]]}},{"type":"Feature","id":"40448:50300669","properties":{"id":"40448:50300669","meshCode":"50300669","cityCode":"40448","city":"東峰村","lat":33.3875,"lon":130.86875,"areaKm2":1.0747346,"populated2020":true,"population2020":40.2552,"populationNote":"収録500mメッシュ人口の合算（原典収録外は補完しない）"},"geometry":{"type":"Polygon","coordinates":[[[130.875,33.38333333333333],[130.8625,33.38333333333334],[130.8625,33.391666666666666],[130.875,33.391666666666666],[130.875,33.38333333333333]]]}},{"type":"Feature","id":"40448:50300760","properties":{"id":"40448:50300760","meshCode":"50300760","cityCode":"40448","city":"東峰村","lat":33.3874319,"lon":130.8801225,"areaKm2":0.8792668,"populated2020":true,"population2020":89.6645,"populationNote":"収録500mメッシュ人口の合算（原典収録外は補完しない）"},"geometry":{"type":"Polygon","coordinates":[[[130.884929274,33.387110568],[130.885869818,33.385582784],[130.88582204900004,33.384591396],[130.885607601,33.38380917100001],[130.8857421787913,33.38333333333333],[130.875,33.38333333333333],[130.875,33.391666666666666],[130.88544657583284,33.391666666666666],[130.885280091,33.391337802],[130.885025097,33.39019557699999],[130.88459454,33.389570847],[130.884578431,33.389432793],[130.884929274,33.387110568]]]}},{"type":"Feature","id":"40448:50300678","properties":{"id":"40448:50300678","meshCode":"50300678","cityCode":"40448","city":"東峰村","lat":33.3955277,"lon":130.8602694,"areaKm2":0.360466,"populated2020":true,"population2020":19.1417,"populationNote":"収録500mメッシュ人口の合算（原典収録外は補完しない）"},"geometry":{"type":"MultiPolygon","coordinates":[[[[130.857158327,33.391960279],[130.857002776,33.392331667],[130.856947497,33.392948054],[130.856636394,33.39335416200001],[130.856696667,33.393498613],[130.856897224,33.393577775],[130.857198612,33.393466946000004],[130.857825551,33.393459441],[130.858086667,33.393621108],[130.858322503,33.394043892],[130.858694163,33.394352225],[130.858603606,33.394537775],[130.858632776,33.39577889200002],[130.858718054,33.396177224999995],[130.859041115,33.396805829],[130.858943606,33.397290279],[130.859016939,33.398021946],[130.859084163,33.398170829],[130.859352218,33.398381946],[130.859303606,33.39885222499999],[130.859608327,33.399409162],[130.85957166,33.399634721],[130.858821946,33.399812225],[130.858864449,33.399557775],[130.858688054,33.398938613],[130.858493061,33.398871387],[130.858377224,33.399068333],[130.858372503,33.399681667],[130.858155188,33.4],[130.8625,33.4],[130.8625,33.391666666666666],[130.857176277987,33.391666666666666],[130.857158327,33.391960279]]],[[[130.855909728,33.398462775000006],[130.855751115,33.398837225],[130.856445837,33.399499162],[130.856208054,33.399705559],[130.856744721,33.399873613],[130.856847367,33.400000000000006],[130.857283165,33.39999999999999],[130.856896939,33.399528054],[130.856647224,33.398961946],[130.85626917,33.39863555899999],[130.855909728,33.398462775000006]]]]}},{"type":"Feature","id":"40448:50300679","properties":{"id":"40448:50300679","meshCode":"50300679","cityCode":"40448","city":"東峰村","lat":33.3958333,"lon":130.86875,"areaKm2":1.0746336,"populated2020":true,"population2020":183.8771,"populationNote":"収録500mメッシュ人口の合算（原典収録外は補完しない）"},"geometry":{"type":"Polygon","coordinates":[[[130.875,33.391666666666666],[130.8625,33.391666666666666],[130.8625,33.4],[130.875,33.4],[130.875,33.391666666666666]]]}},{"type":"Feature","id":"40448:50300770","properties":{"id":"40448:50300770","meshCode":"50300770","cityCode":"40448","city":"東峰村","lat":33.3959289,"lon":130.8807655,"areaKm2":0.9896066,"populated2020":true,"population2020":18.0749,"populationNote":"収録500mメッシュ人口の合算（原典収録外は補完しない）"},"geometry":{"type":"Polygon","coordinates":[[[130.886522309,33.39478446799999],[130.88627703,33.39426474799999],[130.885933424,33.392854189],[130.88544657583284,33.391666666666666],[130.875,33.391666666666666],[130.875,33.4],[130.887405499,33.4],[130.887143684,33.399544198],[130.887048132,33.398389198],[130.886394527,33.39709641400001],[130.886761466,33.39640364],[130.886522309,33.39478446799999]]]}},{"type":"Feature","id":"40448:50300688","properties":{"id":"40448:50300688","meshCode":"50300688","cityCode":"40448","city":"東峰村","lat":33.4046004,"lon":130.8587965,"areaKm2":0.5955382,"populated2020":true,"population2020":159.0901,"populationNote":"収録500mメッシュ人口の合算（原典収録外は補完しない）"},"geometry":{"type":"Polygon","coordinates":[[[130.856049728,33.40053],[130.855537782,33.400304441],[130.855494994,33.40065],[130.854977224,33.400856387000005],[130.854684449,33.401206667000004],[130.854123606,33.401283333],[130.853977224,33.40150389200001],[130.854324721,33.401638332999994],[130.854812503,33.40160000000001],[130.85508083000002,33.401341108],[130.855623061,33.401053054],[130.855988885,33.400923613],[130.856153333,33.400938054],[130.856842503,33.400587495],[130.857128885,33.400534721],[130.857409442,33.400721946],[130.858042503,33.401541667000004],[130.858060558,33.402035829000006],[130.85742166000003,33.402788054000006],[130.857214449,33.40279277500001],[130.856824163,33.402557775],[130.856592503,33.402533613],[130.856409728,33.40261527900001],[130.856409728,33.402687225],[130.857031388,33.403200829000006],[130.857013333,33.40333027900001],[130.856915551,33.403368892],[130.855543891,33.403291946],[130.855275551,33.403085559],[130.85487944200003,33.40302805400001],[130.854300558,33.40299916200001],[130.854160272,33.403076108],[130.854068885,33.403268054],[130.854203061,33.403368892],[130.855678054,33.40368082900001],[130.856501115,33.403757495],[130.856787782,33.403714441],[130.856805279,33.403833892],[130.856323333,33.40461277499999],[130.856069728,33.404647775],[130.855523061,33.404490278999994],[130.85495,33.404521387],[130.85487,33.4047],[130.854923333,33.404783892],[130.855523061,33.404993892],[130.855656394,33.40510916200001],[130.85558972800004,33.405214162],[130.85495,33.405277225],[130.854896667,33.404920279],[130.85451166,33.40504527899999],[130.853418885,33.40492972100001],[130.853065551,33.404368333],[130.852952218,33.40458361300001],[130.852732218,33.404683333],[130.853058885,33.404908892],[130.853012218,33.40501889200001],[130.852832218,33.405113333],[130.853038885,33.405323333],[130.852525551,33.405611946],[130.852658885,33.405638054],[130.853583891,33.40539555899999],[130.854843333,33.40548472099999],[130.855196667,33.40583110800001],[130.85519,33.406292775],[130.854024163,33.407718613],[130.852944721,33.407713333000004],[130.85243360600003,33.407911387],[130.852107224,33.407906108],[130.852167224,33.408163054],[130.85193710746233,33.408333333333324],[130.8625,33.40833333333334],[130.8625,33.4],[130.858155188,33.4],[130.857756667,33.400171108],[130.857518885,33.40016138699999],[130.857283165,33.39999999999999],[130.856847367,33.400000000000006],[130.856836394,33.40019889199999],[130.856732776,33.40029],[130.856391115,33.40026610799999],[130.856049728,33.40053]]]}},{"type":"Feature","id":"40448:50300689","properties":{"id":"40448:50300689","meshCode":"50300689","cityCode":"40448","city":"東峰村","lat":33.4041667,"lon":130.86875,"areaKm2":1.0745324,"populated2020":true,"population2020":98.2423,"populationNote":"収録500mメッシュ人口の合算（原典収録外は補完しない）"},"geometry":{"type":"Polygon","coordinates":[[[130.875,33.4],[130.8625,33.4],[130.8625,33.40833333333334],[130.875,33.40833333333333],[130.875,33.4]]]}},{"type":"Feature","id":"40448:50300780","properties":{"id":"40448:50300780","meshCode":"50300780","cityCode":"40448","city":"東峰村","lat":33.404191,"lon":130.8811722,"areaKm2":1.0607346,"populated2020":true,"population2020":51.5567,"populationNote":"収録500mメッシュ人口の合算（原典収録外は補完しない）"},"geometry":{"type":"Polygon","coordinates":[[[130.8875,33.40406091062239],[130.887247043,33.40321170299999],[130.886672866,33.402119756999994],[130.8875,33.4007222864921],[130.8875,33.40016048012834],[130.887405499,33.4],[130.875,33.4],[130.875,33.40833333333333],[130.8875,33.40833333333333],[130.8875,33.40531085126329],[130.887342335,33.405216982],[130.8875,33.404945289246584],[130.8875,33.40406091062239]]]}},{"type":"Feature","id":"40448:50300781","properties":{"id":"40448:50300781","meshCode":"50300781","cityCode":"40448","city":"東峰村","lat":33.406922,"lon":130.8894997,"areaKm2":0.1191609,"populated2020":false,"population2020":null,"populationNote":"境界またぎ・収録外等のため人口未集計"},"geometry":{"type":"MultiPolygon","coordinates":[[[[130.88761368400003,33.400500586],[130.8875,33.40016048012834],[130.8875,33.4007222864921],[130.88761368400003,33.400500586]]],[[[130.8875,33.40406091062239],[130.8875,33.40416666666667],[130.8875,33.404945289246584],[130.887629274,33.404639486],[130.8875,33.40406091062239]]],[[[130.8914869907776,33.408333333333324],[130.891629014,33.407650342],[130.892011777,33.406520892],[130.891692892,33.406194505],[130.891214553,33.40589310800001],[130.890225668,33.40594338700001],[130.889699559,33.405391162],[130.888681777,33.405480604],[130.8875,33.40531085126329],[130.8875,33.40833333333333],[130.8914869907776,33.408333333333324]]]]}},{"type":"Feature","id":"40448:50300697","properties":{"id":"40448:50300697","meshCode":"50300697","cityCode":"40448","city":"東峰村","lat":33.4166174,"lon":130.8424296,"areaKm2":0.0364112,"populated2020":false,"population2020":null,"populationNote":"境界またぎ・収録外等のため人口未集計"},"geometry":{"type":"MultiPolygon","coordinates":[[[[130.85,33.409546892],[130.848482218,33.409246667],[130.848255551,33.409225559],[130.848095551,33.409304162],[130.848102218,33.409488054],[130.849141946,33.409918333],[130.848835279,33.41034305400001],[130.849028612,33.41048472100001],[130.849001946,33.4106],[130.848695279,33.410951667000006],[130.848848612,33.41100944099999],[130.849421946,33.410788892],[130.849588612,33.410867775],[130.849608612,33.411135279],[130.849188612,33.411612775],[130.84964166,33.411985279],[130.849914994,33.41239444099999],[130.85,33.41237486499999],[130.85,33.411838720999995],[130.849868327,33.411618054],[130.85,33.411320919],[130.85,33.409546892]]],[[[130.85,33.415172108],[130.849113891,33.416155829],[130.849096394,33.416666666666664],[130.85,33.41666666666667],[130.85,33.415172108]]],[[[130.84196247750913,33.416666666666664],[130.8429237733084,33.416666666666664],[130.842343333,33.41647110800001],[130.84196247750913,33.416666666666664]]]]}},{"type":"Feature","id":"40448:50300698","properties":{"id":"40448:50300698","meshCode":"50300698","cityCode":"40448","city":"東峰村","lat":33.412572,"lon":130.8565718,"areaKm2":1.0164827,"populated2020":true,"population2020":41.1273,"populationNote":"収録500mメッシュ人口の合算（原典収録外は補完しない）"},"geometry":{"type":"MultiPolygon","coordinates":[[[[130.851348327,33.408774721],[130.850881388,33.409435559],[130.85,33.409546892],[130.85,33.411320919],[130.850074994,33.410652495],[130.850188327,33.410553054],[130.851274721,33.409891946],[130.851441388,33.409955],[130.851481388,33.410080829],[130.851428054,33.410825829],[130.85112917,33.411607775],[130.850707497,33.411853892],[130.851,33.411939440999994],[130.851006667,33.411998333],[130.850891115,33.412389162000004],[130.85083,33.41395722499999],[130.850673606,33.41400555900001],[130.850353891,33.41388777499999],[130.850238327,33.413935829],[130.850143061,33.41410722500001],[130.850251946,33.41441222500001],[130.850565837,33.414597495],[130.850601115,33.414729162],[130.85,33.415172108],[130.85,33.41666666666667],[130.8625,33.416666666666664],[130.8625,33.40833333333334],[130.85193710746233,33.408333333333324],[130.851348327,33.408774721]]],[[[130.850328327,33.412168892000004],[130.850368327,33.41187],[130.85,33.411838720999995],[130.85,33.41237486499999],[130.850328327,33.412168892000004]]]]}},{"type":"Feature","id":"40448:50300699","properties":{"id":"40448:50300699","meshCode":"50300699","cityCode":"40448","city":"東峰村","lat":33.4125,"lon":130.86875,"areaKm2":1.0744312,"populated2020":false,"population2020":null,"populationNote":"境界またぎ・収録外等のため人口未集計"},"geometry":{"type":"Polygon","coordinates":[[[130.875,33.40833333333333],[130.8625,33.40833333333334],[130.8625,33.416666666666664],[130.875,33.416666666666664],[130.875,33.40833333333333]]]}},{"type":"Feature","id":"40448:50300790","properties":{"id":"40448:50300790","meshCode":"50300790","cityCode":"40448","city":"東峰村","lat":33.4125,"lon":130.88125,"areaKm2":1.0744306,"populated2020":true,"population2020":61.1972,"populationNote":"収録500mメッシュ人口の合算（原典収録外は補完しない）"},"geometry":{"type":"Polygon","coordinates":[[[130.8875,33.40833333333333],[130.875,33.40833333333333],[130.875,33.416666666666664],[130.8875,33.41666666666667],[130.8875,33.40833333333333]]]}},{"type":"Feature","id":"40448:50300791","properties":{"id":"40448:50300791","meshCode":"50300791","cityCode":"40448","city":"東峰村","lat":33.4121184,"lon":130.8889435,"areaKm2":0.2388315,"populated2020":false,"population2020":null,"populationNote":"境界またぎ・収録外等のため人口未集計"},"geometry":{"type":"Polygon","coordinates":[[[130.890799261,33.41211813500001],[130.89087898800003,33.41166618900001],[130.890401219,33.410119234],[130.890385123,33.409755342000004],[130.8914869907776,33.408333333333324],[130.8875,33.40833333333333],[130.8875,33.41666666666667],[130.8903177816895,33.416666666666664],[130.889946446,33.416165099],[130.889619235,33.415467595],[130.889539507,33.415178982],[130.889810636,33.414413423],[130.889555357,33.41406202700001],[130.889412023,33.41368536],[130.889635084,33.413348135],[130.890177315,33.412946467999994],[130.890799261,33.41211813500001]]]}},{"type":"Feature","id":"40448:50301606","properties":{"id":"40448:50301606","meshCode":"50301606","cityCode":"40448","city":"東峰村","lat":33.4232359,"lon":130.8366992,"areaKm2":0.0615266,"populated2020":true,"population2020":null,"populationNote":"境界またぎ・収録外等のため人口未集計"},"geometry":{"type":"Polygon","coordinates":[[[130.8375,33.420133922203455],[130.83660166,33.421186108],[130.836285551,33.421872225],[130.836285551,33.42208389200001],[130.836627497,33.423005559],[130.836634721,33.42343861300001],[130.836508327,33.423601108],[130.835406667,33.423969441000004],[130.834935837,33.425],[130.8375,33.425000000000004],[130.8375,33.420133922203455]]]}},{"type":"Feature","id":"40448:50301607","properties":{"id":"40448:50301607","meshCode":"50301607","cityCode":"40448","city":"東峰村","lat":33.4213019,"lon":130.8439381,"areaKm2":0.9407439,"populated2020":true,"population2020":null,"populationNote":"境界またぎ・収録外等のため人口未集計"},"geometry":{"type":"Polygon","coordinates":[[[130.841929728,33.416688333],[130.840471388,33.417897775],[130.83869,33.418452775],[130.838772776,33.418761946000004],[130.838723891,33.41896638699999],[130.837819857,33.419898559],[130.8375,33.420133922203455],[130.8375,33.425000000000004],[130.85,33.425],[130.85,33.41666666666667],[130.849096394,33.416666666666664],[130.849017224,33.416903892],[130.848718054,33.417118613],[130.848621115,33.417617495],[130.848753061,33.41801194600001],[130.848427497,33.418067494999995],[130.847662218,33.418018892000006],[130.846438327,33.41818361299999],[130.845733061,33.417945559],[130.844716394,33.417354161999995],[130.843928327,33.416993612999995],[130.8429237733084,33.416666666666664],[130.841929728,33.416688333]]]}},{"type":"Feature","id":"40448:50301608","properties":{"id":"40448:50301608","meshCode":"50301608","cityCode":"40448","city":"東峰村","lat":33.4208333,"lon":130.85625,"areaKm2":1.0743308,"populated2020":true,"population2020":24.1115,"populationNote":"収録500mメッシュ人口の合算（原典収録外は補完しない）"},"geometry":{"type":"Polygon","coordinates":[[[130.8625,33.416666666666664],[130.85,33.41666666666667],[130.85,33.425],[130.8625,33.425],[130.8625,33.416666666666664]]]}},{"type":"Feature","id":"40448:50301609","properties":{"id":"40448:50301609","meshCode":"50301609","cityCode":"40448","city":"東峰村","lat":33.4208333,"lon":130.86875,"areaKm2":1.07433,"populated2020":false,"population2020":null,"populationNote":"境界またぎ・収録外等のため人口未集計"},"geometry":{"type":"Polygon","coordinates":[[[130.875,33.416666666666664],[130.8625,33.416666666666664],[130.8625,33.425],[130.875,33.425],[130.875,33.416666666666664]]]}},{"type":"Feature","id":"40448:50301700","properties":{"id":"40448:50301700","meshCode":"50301700","cityCode":"40448","city":"東峰村","lat":33.4208333,"lon":130.88125,"areaKm2":1.0743294,"populated2020":true,"population2020":85.315,"populationNote":"収録500mメッシュ人口の合算（原典収録外は補完しない）"},"geometry":{"type":"Polygon","coordinates":[[[130.8875,33.41666666666667],[130.875,33.416666666666664],[130.875,33.425],[130.8875,33.425],[130.8875,33.41666666666667]]]}},{"type":"Feature","id":"40448:50301701","properties":{"id":"40448:50301701","meshCode":"50301701","cityCode":"40448","city":"東峰村","lat":33.4210808,"lon":130.889698,"areaKm2":0.3699883,"populated2020":false,"population2020":null,"populationNote":"境界またぎ・収録外等のため人口未集計"},"geometry":{"type":"Polygon","coordinates":[[[130.892445603,33.420728441],[130.892641167,33.420215658000004],[130.892525603,33.41998482899999],[130.891556991,33.41954177499999],[130.891094501,33.419152604],[130.89103061,33.418788432],[130.89114227,33.41817343200001],[130.891062555,33.417533432],[130.8903177816895,33.416666666666664],[130.8875,33.41666666666667],[130.8875,33.425],[130.892213774,33.425000000000004],[130.891834215,33.423939829],[130.892059222,33.423428721],[130.892360324,33.422234],[130.892445603,33.420728441]]]}},{"type":"Feature","id":"40448:50301616","properties":{"id":"40448:50301616","meshCode":"50301616","cityCode":"40448","city":"東峰村","lat":33.4293674,"lon":130.8359306,"areaKm2":0.2667537,"populated2020":false,"population2020":null,"populationNote":"境界またぎ・収録外等のため人口未集計"},"geometry":{"type":"Polygon","coordinates":[[[130.834935837,33.425],[130.834858612,33.42644527899999],[130.834762503,33.426814721],[130.834388327,33.427756108],[130.834022776,33.428384721],[130.834108885,33.428857775],[130.83434083,33.429346946],[130.834396939,33.430253891999996],[130.834675551,33.430736667000005],[130.834613891,33.431007224999995],[130.834104721,33.431458054],[130.833948054,33.431822495],[130.83404379967976,33.43333333333333],[130.8375,33.43333333333333],[130.8375,33.425000000000004],[130.834935837,33.425]]]}},{"type":"Feature","id":"40448:50301617","properties":{"id":"40448:50301617","meshCode":"50301617","cityCode":"40448","city":"東峰村","lat":33.4291667,"lon":130.84375,"areaKm2":1.0742306,"populated2020":true,"population2020":49.1842,"populationNote":"収録500mメッシュ人口の合算（原典収録外は補完しない）"},"geometry":{"type":"Polygon","coordinates":[[[130.85,33.425],[130.8375,33.425000000000004],[130.8375,33.43333333333333],[130.85,33.43333333333333],[130.85,33.425]]]}},{"type":"Feature","id":"40448:50301618","properties":{"id":"40448:50301618","meshCode":"50301618","cityCode":"40448","city":"東峰村","lat":33.4291667,"lon":130.85625,"areaKm2":1.0742296,"populated2020":false,"population2020":null,"populationNote":"境界またぎ・収録外等のため人口未集計"},"geometry":{"type":"Polygon","coordinates":[[[130.8625,33.425],[130.85,33.425],[130.85,33.43333333333333],[130.8625,33.43333333333332],[130.8625,33.425]]]}},{"type":"Feature","id":"40448:50301619","properties":{"id":"40448:50301619","meshCode":"50301619","cityCode":"40448","city":"東峰村","lat":33.4291667,"lon":130.86875,"areaKm2":1.0742288,"populated2020":true,"population2020":2.0,"populationNote":"収録500mメッシュ人口の合算（原典収録外は補完しない）"},"geometry":{"type":"Polygon","coordinates":[[[130.875,33.425],[130.8625,33.425],[130.8625,33.43333333333332],[130.875,33.43333333333333],[130.875,33.425]]]}},{"type":"Feature","id":"40448:50301710","properties":{"id":"40448:50301710","meshCode":"50301710","cityCode":"40448","city":"東峰村","lat":33.4291667,"lon":130.88125,"areaKm2":1.0742282,"populated2020":true,"population2020":106.5084,"populationNote":"収録500mメッシュ人口の合算（原典収録外は補完しない）"},"geometry":{"type":"Polygon","coordinates":[[[130.8875,33.425],[130.875,33.425],[130.875,33.43333333333333],[130.8875,33.43333333333333],[130.8875,33.425]]]}},{"type":"Feature","id":"40448:50301711","properties":{"id":"40448:50301711","meshCode":"50301711","cityCode":"40448","city":"東峰村","lat":33.4296662,"lon":130.8901007,"areaKm2":0.4175381,"populated2020":false,"population2020":null,"populationNote":"境界またぎ・収録外等のため人口未集計"},"geometry":{"type":"Polygon","coordinates":[[[130.891070091,33.427876216],[130.891019248,33.427299],[130.89108284,33.42655233299999],[130.892198949,33.425789],[130.892271167,33.425238171],[130.892213774,33.425000000000004],[130.8875,33.425],[130.8875,33.43333333333333],[130.89540243827884,33.43333333333334],[130.893606783,33.43166538700001],[130.893229274,33.431045946],[130.892831219,33.43061289199999],[130.89169345,33.429945108000005],[130.891070091,33.427876216]]]}},{"type":"Feature","id":"40448:50301626","properties":{"id":"40448:50301626","meshCode":"50301626","cityCode":"40448","city":"東峰村","lat":33.4382189,"lon":130.833949,"areaKm2":0.5571346,"populated2020":false,"population2020":null,"populationNote":"境界またぎ・収録外等のため人口未集計"},"geometry":{"type":"Polygon","coordinates":[[[130.83404379967976,33.43333333333333],[130.833282218,33.433932495],[130.832929442,33.43507027900001],[130.832580558,33.435345829],[130.832576939,33.43571361299999],[130.832708327,33.436037774999996],[130.83264166,33.43631527899999],[130.832367224,33.436481387],[130.83172083,33.436569162],[130.831613891,33.436786387],[130.831637782,33.437413892],[130.830747224,33.438910828999994],[130.830337224,33.439128054],[130.829216939,33.439201387],[130.829013606,33.43945472099999],[130.828487224,33.439694721],[130.82810166,33.439967225000004],[130.828041388,33.440171946],[130.828129728,33.440544162],[130.8277995850508,33.44166666666667],[130.8375,33.44166666666666],[130.8375,33.43333333333333],[130.83404379967976,33.43333333333333]]]}},{"type":"Feature","id":"40448:50301627","properties":{"id":"40448:50301627","meshCode":"50301627","cityCode":"40448","city":"東峰村","lat":33.4375,"lon":130.84375,"areaKm2":1.0741293,"populated2020":true,"population2020":45.111,"populationNote":"収録500mメッシュ人口の合算（原典収録外は補完しない）"},"geometry":{"type":"Polygon","coordinates":[[[130.85,33.43333333333333],[130.8375,33.43333333333333],[130.8375,33.44166666666666],[130.85,33.44166666666667],[130.85,33.43333333333333]]]}},{"type":"Feature","id":"40448:50301628","properties":{"id":"40448:50301628","meshCode":"50301628","cityCode":"40448","city":"東峰村","lat":33.4375,"lon":130.85625,"areaKm2":1.0741284,"populated2020":false,"population2020":null,"populationNote":"境界またぎ・収録外等のため人口未集計"},"geometry":{"type":"Polygon","coordinates":[[[130.8625,33.43333333333332],[130.85,33.43333333333333],[130.85,33.44166666666667],[130.8625,33.44166666666666],[130.8625,33.43333333333332]]]}},{"type":"Feature","id":"40448:50301629","properties":{"id":"40448:50301629","meshCode":"50301629","cityCode":"40448","city":"東峰村","lat":33.4375,"lon":130.86875,"areaKm2":1.0741276,"populated2020":true,"population2020":39.1892,"populationNote":"収録500mメッシュ人口の合算（原典収録外は補完しない）"},"geometry":{"type":"Polygon","coordinates":[[[130.875,33.43333333333333],[130.8625,33.43333333333332],[130.8625,33.44166666666666],[130.875,33.44166666666667],[130.875,33.43333333333333]]]}},{"type":"Feature","id":"40448:50301720","properties":{"id":"40448:50301720","meshCode":"50301720","cityCode":"40448","city":"東峰村","lat":33.4375,"lon":130.88125,"areaKm2":1.074127,"populated2020":true,"population2020":15.0563,"populationNote":"収録500mメッシュ人口の合算（原典収録外は補完しない）"},"geometry":{"type":"Polygon","coordinates":[[[130.8875,33.43333333333333],[130.875,33.43333333333333],[130.875,33.44166666666667],[130.8875,33.44166666666666],[130.8875,33.43333333333333]]]}},{"type":"Feature","id":"40448:50301721","properties":{"id":"40448:50301721","meshCode":"50301721","cityCode":"40448","city":"東峰村","lat":33.4376514,"lon":130.8922231,"areaKm2":0.8075823,"populated2020":false,"population2020":null,"populationNote":"境界またぎ・収録外等のため人口未集計"},"geometry":{"type":"Polygon","coordinates":[[[130.897249818,33.437170694],[130.897105655,33.436600135],[130.895972879,33.435159847],[130.89590511,33.434128449999996],[130.89540243827884,33.43333333333334],[130.8875,33.43333333333333],[130.8875,33.44166666666666],[130.8972283270723,33.44166666666666],[130.897449001,33.440488495000004],[130.897440389,33.439497928],[130.897610389,33.439177378],[130.897652607,33.438837099],[130.897232879,33.437834036],[130.897249818,33.437170694]]]}},{"type":"Feature","id":"40448:50301636","properties":{"id":"40448:50301636","meshCode":"50301636","cityCode":"40448","city":"東峰村","lat":33.4458793,"lon":130.832907,"areaKm2":0.786273,"populated2020":false,"population2020":null,"populationNote":"境界またぎ・収録外等のため人口未集計"},"geometry":{"type":"Polygon","coordinates":[[[130.827783606,33.442061667000004],[130.828331388,33.44279861300001],[130.828718612,33.443104999999996],[130.828866394,33.443428613],[130.828874721,33.44388555900001],[130.828588327,33.444226667],[130.828578054,33.444892225000004],[130.828425279,33.44536333300001],[130.828736939,33.445908613],[130.82881166,33.44647166699999],[130.828799442,33.446664999999996],[130.82846472100002,33.44704],[130.828787782,33.447354162],[130.828774163,33.44750166699999],[130.828360558,33.447889161999996],[130.828334721,33.448159720999996],[130.828417224,33.448431108],[130.828202503,33.448744721],[130.827893061,33.449504721],[130.827642503,33.44965666699999],[130.82739250300003,33.449663892],[130.826833061,33.449530829000004],[130.826549442,33.449575829],[130.82623,33.449795559],[130.826132192,33.45],[130.8375,33.45000000000001],[130.8375,33.44166666666666],[130.8277995850508,33.44166666666667],[130.827783606,33.442061667000004]]]}},{"type":"Feature","id":"40448:50301637","properties":{"id":"40448:50301637","meshCode":"50301637","cityCode":"40448","city":"東峰村","lat":33.4458333,"lon":130.84375,"areaKm2":1.074028,"populated2020":true,"population2020":62.3376,"populationNote":"収録500mメッシュ人口の合算（原典収録外は補完しない）"},"geometry":{"type":"Polygon","coordinates":[[[130.85,33.44166666666667],[130.8375,33.44166666666666],[130.8375,33.45000000000001],[130.85,33.45000000000001],[130.85,33.44166666666667]]]}},{"type":"Feature","id":"40448:50301638","properties":{"id":"40448:50301638","meshCode":"50301638","cityCode":"40448","city":"東峰村","lat":33.4450485,"lon":130.8559362,"areaKm2":0.8403657,"populated2020":false,"population2020":null,"populationNote":"境界またぎ・収録外等のため人口未集計"},"geometry":{"type":"Polygon","coordinates":[[[130.8625,33.44166666666666],[130.85,33.44166666666667],[130.85,33.45000000000001],[130.852643696,33.45000000000001],[130.85299166,33.449548892],[130.852970272,33.44911444099999],[130.853432776,33.44867166700001],[130.853434721,33.448456666999995],[130.853117497,33.447737225],[130.853913061,33.447242775],[130.854261388,33.447328891999994],[130.854481115,33.44730610799999],[130.855091946,33.446986387],[130.855511946,33.446920829],[130.856083061,33.446926387],[130.856883061,33.447047775],[130.857068885,33.447358892],[130.856982776,33.447764441000004],[130.857313061,33.447752495],[130.858348327,33.448059162],[130.859994994,33.447281387],[130.860814449,33.447055559000006],[130.861188612,33.446819162],[130.861922218,33.447735],[130.861886394,33.447938333],[130.86161917,33.448328333000006],[130.861553061,33.44869972099999],[130.861724721,33.449968891999994],[130.8625,33.45],[130.8625,33.44166666666666]]]}},{"type":"Feature","id":"40448:50301639","properties":{"id":"40448:50301639","meshCode":"50301639","cityCode":"40448","city":"東峰村","lat":33.4458065,"lon":130.8687207,"areaKm2":1.0669707,"populated2020":false,"population2020":null,"populationNote":"境界またぎ・収録外等のため人口未集計"},"geometry":{"type":"Polygon","coordinates":[[[130.875,33.44166666666667],[130.8625,33.44166666666666],[130.8625,33.45],[130.871510311,33.45000000000001],[130.871967224,33.449702775],[130.872486394,33.449815279],[130.873564163,33.44977277500001],[130.874499442,33.44982082899999],[130.875,33.449919559],[130.875,33.44166666666667]]]}},{"type":"Feature","id":"40448:50301730","properties":{"id":"40448:50301730","meshCode":"50301730","cityCode":"40448","city":"東峰村","lat":33.445833,"lon":130.8812504,"areaKm2":1.0739488,"populated2020":false,"population2020":null,"populationNote":"境界またぎ・収録外等のため人口未集計"},"geometry":{"type":"Polygon","coordinates":[[[130.8875,33.44166666666666],[130.875,33.44166666666667],[130.875,33.449919559],[130.87518527900002,33.45000000000001],[130.8875,33.45000000000001],[130.8875,33.44166666666666]]]}},{"type":"Feature","id":"40448:50301731","properties":{"id":"40448:50301731","meshCode":"50301731","cityCode":"40448","city":"東峰村","lat":33.4460901,"lon":130.8926796,"areaKm2":0.8687722,"populated2020":false,"population2020":null,"populationNote":"境界またぎ・収録外等のため人口未集計"},"geometry":{"type":"Polygon","coordinates":[[[130.895743748,33.445174883],[130.896757899,33.444328216],[130.896919287,33.44408099999999],[130.897038184,33.44371044100001],[130.8972283270723,33.44166666666666],[130.8875,33.44166666666666],[130.8875,33.45000000000001],[130.899944968,33.45000000000001],[130.9,33.449067459000005],[130.899764825,33.448584351],[130.899650934,33.44810240500001],[130.899480934,33.447885189],[130.897067341,33.446618225],[130.8949207,33.446155712],[130.895743748,33.445174883]]]}},{"type":"Feature","id":"40448:50301732","properties":{"id":"40448:50301732","meshCode":"50301732","cityCode":"40448","city":"東峰村","lat":33.4493959,"lon":130.9000948,"areaKm2":0.0011899,"populated2020":false,"population2020":null,"populationNote":"境界またぎ・収録外等のため人口未集計"},"geometry":{"type":"Polygon","coordinates":[[[130.9,33.449879063000004],[130.900280661,33.449211577],[130.9,33.449067459000005],[130.9,33.449879063000004]]]}},{"type":"Feature","id":"40448:50301641","properties":{"id":"40448:50301641","meshCode":"50301641","cityCode":"40448","city":"東峰村","lat":33.4545908,"lon":130.7711836,"areaKm2":0.3404093,"populated2020":false,"population2020":null,"populationNote":"境界またぎ・収録外等のため人口未集計"},"geometry":{"type":"Polygon","coordinates":[[[130.77460166,33.452130559000004],[130.774386109,33.452141387],[130.774091115,33.452028892],[130.773723333,33.452314162],[130.772719728,33.452527225],[130.771957782,33.452396667],[130.771098885,33.452472225],[130.770686667,33.45263694599999],[130.769730558,33.452674162],[130.769415279,33.452833612999996],[130.768455837,33.453070829],[130.768232503,33.453203892],[130.767853333,33.453255559000006],[130.767339728,33.453483332999994],[130.766675551,33.453506667000006],[130.766345837,33.453849162000004],[130.765874449,33.454075829000004],[130.765544721,33.454378613],[130.76537389100002,33.454462775],[130.764758327,33.454461108],[130.764424449,33.454784162],[130.765096667,33.455088613],[130.765588612,33.455416667],[130.76603,33.455581946],[130.767258054,33.455441108],[130.768999442,33.45583889200001],[130.770094994,33.455843892],[130.770994163,33.455990559],[130.771394163,33.456252225],[130.77195917,33.456344441000006],[130.772328885,33.456657775],[130.772938612,33.456893054],[130.773974721,33.457632495],[130.774557224,33.457846108000005],[130.775,33.458272558999994],[130.775,33.451774279],[130.77460166,33.452130559000004]]]}},{"type":"Feature","id":"40448:50301642","properties":{"id":"40448:50301642","meshCode":"50301642","cityCode":"40448","city":"東峰村","lat":33.4550582,"lon":130.7805441,"areaKm2":0.8041554,"populated2020":false,"population2020":null,"populationNote":"境界またぎ・収録外等のため人口未集計"},"geometry":{"type":"Polygon","coordinates":[[[130.780362218,33.451336667],[130.778865551,33.450760279],[130.778075551,33.45069527900001],[130.777611946,33.450495559],[130.777388612,33.450493613],[130.775,33.451774279],[130.7750378342052,33.45833333333334],[130.7875,33.45833333333334],[130.7875,33.45469935792713],[130.787264163,33.45489972100001],[130.786919442,33.45490082900001],[130.78623,33.454536108],[130.785262218,33.454236667],[130.785106394,33.454038613],[130.785102776,33.45355305399999],[130.784698612,33.452900279],[130.783996939,33.45278889200001],[130.783467782,33.45259582900001],[130.783263061,33.452165829],[130.783021115,33.451926946],[130.78191944200003,33.45171277499999],[130.78152083,33.45150389199999],[130.780362218,33.451336667]]]}},{"type":"Feature","id":"40448:50301643","properties":{"id":"40448:50301643","meshCode":"50301643","cityCode":"40448","city":"東峰村","lat":33.4565834,"lon":130.7922609,"areaKm2":0.3736614,"populated2020":false,"population2020":null,"populationNote":"境界またぎ・収録外等のため人口未集計"},"geometry":{"type":"Polygon","coordinates":[[[130.791666667,33.454011081],[130.790970558,33.45391194599999],[130.790672776,33.45370444099999],[130.79033166,33.45377],[130.789797497,33.45371444100001],[130.789518054,33.454068613],[130.787844163,33.454407495],[130.7875,33.45469935792713],[130.7875,33.45833333333334],[130.8,33.458333333333336],[130.8,33.45668610800001],[130.79947111500002,33.45685194600001],[130.798808327,33.456900559],[130.798598054,33.457179999999994],[130.798313606,33.457288333000015],[130.797586109,33.457114441],[130.797153061,33.456928612999995],[130.796146667,33.456804721],[130.794518612,33.45621194600001],[130.794075551,33.455401667000004],[130.793695279,33.454851667],[130.79350917,33.454733333],[130.79283917,33.454572495],[130.792089442,33.45415138700001],[130.791666667,33.454011081]]]}},{"type":"Feature","id":"40448:50301645","properties":{"id":"40448:50301645","meshCode":"50301645","cityCode":"40448","city":"東峰村","lat":33.4562096,"lon":130.8212443,"areaKm2":0.344666,"populated2020":false,"population2020":null,"populationNote":"境界またぎ・収録外等のため人口未集計"},"geometry":{"type":"Polygon","coordinates":[[[130.825,33.45126341400001],[130.82467083,33.451780559],[130.824494163,33.451798613],[130.823851388,33.451485279],[130.823447497,33.451649441],[130.823369728,33.452052225],[130.823188612,33.452152225000006],[130.823063061,33.452349999999996],[130.823013333,33.452871946],[130.822816667,33.453190829],[130.822451115,33.453495829],[130.822079728,33.454526108],[130.821942218,33.454659721],[130.82111917,33.454936667],[130.820555551,33.45534861299999],[130.820297782,33.455641667],[130.820333606,33.456012495],[130.819614721,33.456281387],[130.819594721,33.45639694599999],[130.81971166,33.456566945999995],[130.819658612,33.45665472099999],[130.818614449,33.456701667],[130.818468054,33.456812495],[130.818259728,33.457202225],[130.818146667,33.457245559],[130.816954449,33.456852225],[130.816555837,33.457030829],[130.81502,33.45730833300001],[130.814540272,33.45762],[130.81390917,33.457554162],[130.812970558,33.457275829],[130.8125,33.45725827633031],[130.8125,33.458333333333336],[130.825,33.458333333333336],[130.825,33.45126341400001]]]}},{"type":"Feature","id":"40448:50301646","properties":{"id":"40448:50301646","meshCode":"50301646","cityCode":"40448","city":"東峰村","lat":33.454184,"lon":130.8312763,"areaKm2":1.0691402,"populated2020":true,"population2020":12.1609,"populationNote":"収録500mメッシュ人口の合算（原典収録外は補完しない）"},"geometry":{"type":"Polygon","coordinates":[[[130.825353891,33.450443054],[130.825108054,33.450735559],[130.825,33.45126341400001],[130.825,33.458333333333336],[130.8375,33.45833333333334],[130.8375,33.45000000000001],[130.826132192,33.45],[130.826074163,33.450107775],[130.825353891,33.450443054]]]}},{"type":"Feature","id":"40448:50301647","properties":{"id":"40448:50301647","meshCode":"50301647","cityCode":"40448","city":"東峰村","lat":33.4538768,"lon":130.8430975,"areaKm2":0.9471066,"populated2020":false,"population2020":null,"populationNote":"境界またぎ・収録外等のため人口未集計"},"geometry":{"type":"Polygon","coordinates":[[[130.848631946,33.455018333],[130.848605551,33.453791387],[130.849165551,33.453395559],[130.84932,33.45313249500001],[130.85,33.452435],[130.85,33.45000000000001],[130.8375,33.45000000000001],[130.8375,33.45833333333334],[130.8461572235654,33.45833333333334],[130.84625083,33.458203613],[130.846186939,33.457912775],[130.84626166,33.457171667],[130.846850558,33.456841946000004],[130.847225551,33.456436387],[130.847295837,33.456218613],[130.848631946,33.455018333]]]}},{"type":"Feature","id":"40448:50301648","properties":{"id":"40448:50301648","meshCode":"50301648","cityCode":"40448","city":"東峰村","lat":33.4512092,"lon":130.8502506,"areaKm2":0.0139794,"populated2020":false,"population2020":null,"populationNote":"境界またぎ・収録外等のため人口未集計"},"geometry":{"type":"MultiPolygon","coordinates":[[[[130.861758197,33.45000000000001],[130.862453606,33.450089721],[130.8625,33.450102717852246],[130.8625,33.45],[130.861758197,33.45000000000001]]],[[[130.85013083,33.45239694599999],[130.850276394,33.45219416199999],[130.850246394,33.451467495],[130.850563606,33.451047495],[130.850644163,33.450131667],[130.851587782,33.45005972100001],[130.852370558,33.450320559],[130.85252917,33.450231108],[130.852643696,33.45000000000001],[130.85,33.45000000000001],[130.85,33.452435],[130.85013083,33.45239694599999]]]]}},{"type":"Feature","id":"40448:50301649","properties":{"id":"40448:50301649","meshCode":"50301649","cityCode":"40448","city":"東峰村","lat":33.4503673,"lon":130.8667814,"areaKm2":0.0586548,"populated2020":false,"population2020":null,"populationNote":"境界またぎ・収録外等のため人口未集計"},"geometry":{"type":"Polygon","coordinates":[[[130.869326109,33.450379162],[130.869778054,33.45049638700001],[130.870554721,33.450881667],[130.87069111500003,33.45088749500001],[130.871167224,33.450618613],[130.871362503,33.45014582899999],[130.871510311,33.45000000000001],[130.8625,33.45],[130.8625,33.450102717852246],[130.86284917,33.450237225],[130.863278054,33.450542225],[130.86366083,33.450609162000006],[130.86438083,33.451041667],[130.865946394,33.450834721],[130.866487782,33.450853892],[130.868401388,33.450313054],[130.869326109,33.450379162]]]}},{"type":"Feature","id":"40448:50301740","properties":{"id":"40448:50301740","meshCode":"50301740","cityCode":"40448","city":"東峰村","lat":33.4505908,"lon":130.8818106,"areaKm2":0.1223762,"populated2020":false,"population2020":null,"populationNote":"境界またぎ・収録外等のため人口未集計"},"geometry":{"type":"Polygon","coordinates":[[[130.881455084,33.451278847],[130.881841349,33.451111702999995],[130.882519689,33.451132847],[130.884987173,33.450968251999996],[130.8875,33.45064344077971],[130.8875,33.45000000000001],[130.87518527900002,33.45000000000001],[130.875678327,33.450163928],[130.877113878,33.450358441],[130.878201089,33.451052649],[130.879254695,33.45119186499999],[130.880492477,33.452097441],[130.881455084,33.451278847]]]}},{"type":"Feature","id":"40448:50301741","properties":{"id":"40448:50301741","meshCode":"50301741","cityCode":"40448","city":"東峰村","lat":33.4510152,"lon":130.8934658,"areaKm2":0.2345025,"populated2020":false,"population2020":null,"populationNote":"境界またぎ・収録外等のため人口未集計"},"geometry":{"type":"Polygon","coordinates":[[[130.894548755,33.452202856],[130.896322905,33.45163207200001],[130.897431505,33.451483207],[130.898372049,33.451585441000006],[130.899157328,33.451374072],[130.89945343700003,33.451052126],[130.899944968,33.45000000000001],[130.8875,33.45000000000001],[130.8875,33.45064344077971],[130.888015486,33.450642568],[130.888290208,33.450833108],[130.888762425,33.451200314999994],[130.889898249,33.452436081],[130.890186304,33.452642189],[130.891160467,33.452595820000006],[130.892779896,33.452274207],[130.894548755,33.452202856]]]}},{"type":"Feature","id":"40448:50301644","properties":{"id":"40448:50301644","meshCode":"50301644","cityCode":"40448","city":"東峰村","lat":33.4570072,"lon":130.8048195,"areaKm2":0.2658923,"populated2020":false,"population2020":null,"populationNote":"境界またぎ・収録外等のため人口未集計"},"geometry":{"type":"Polygon","coordinates":[[[130.806065837,33.45600249499999],[130.805639442,33.45564389199999],[130.804912503,33.45458722499999],[130.80435166,33.454484441],[130.803868327,33.454749721],[130.803154163,33.45476833299999],[130.802329728,33.455649162],[130.802180558,33.45568999999999],[130.801859442,33.455593054],[130.80169000000004,33.455624441],[130.800826667,33.45609722500001],[130.800673891,33.456281946],[130.8,33.45668610800001],[130.8,33.458333333333336],[130.8125,33.458333333333336],[130.8125,33.45725827633031],[130.812266109,33.45733777499999],[130.811928885,33.45773582900001],[130.811584994,33.45793361300001],[130.810731115,33.458088333],[130.809621388,33.457352495000016],[130.808334994,33.456990278999996],[130.808161946,33.456731108],[130.807460272,33.456122775],[130.806958327,33.456040559],[130.80645917,33.456149441],[130.806065837,33.45600249499999]]]}},{"type":"Feature","id":"40448:50301652","properties":{"id":"40448:50301652","meshCode":"50301652","cityCode":"40448","city":"東峰村","lat":33.4622439,"lon":130.7823586,"areaKm2":0.8728737,"populated2020":false,"population2020":null,"populationNote":"境界またぎ・収録外等のため人口未集計"},"geometry":{"type":"Polygon","coordinates":[[[130.775596667,33.458966387000004],[130.775774163,33.45931722500001],[130.776254449,33.45983749500001],[130.776922218,33.461538054],[130.777,33.46163416200001],[130.777543891,33.461784721],[130.777630272,33.461933892],[130.77777027200003,33.46302582900001],[130.777314994,33.464011387],[130.77788,33.464304441],[130.778333061,33.464440829],[130.778406394,33.46527472100001],[130.778844449,33.46595082900001],[130.779106667,33.466162225],[130.77932661485542,33.46666666666667],[130.7875,33.46666666666667],[130.7875,33.45833333333334],[130.7750378342052,33.45833333333334],[130.77520166,33.458599441000004],[130.775596667,33.458966387000004]]]}},{"type":"Feature","id":"40448:50301653","properties":{"id":"40448:50301653","meshCode":"50301653","cityCode":"40448","city":"東峰村","lat":33.4625,"lon":130.79375,"areaKm2":1.0738297,"populated2020":true,"population2020":6.0244,"populationNote":"収録500mメッシュ人口の合算（原典収録外は補完しない）"},"geometry":{"type":"Polygon","coordinates":[[[130.8,33.458333333333336],[130.7875,33.45833333333334],[130.7875,33.46666666666667],[130.8,33.466666666666676],[130.8,33.458333333333336]]]}},{"type":"Feature","id":"40448:50301654","properties":{"id":"40448:50301654","meshCode":"50301654","cityCode":"40448","city":"東峰村","lat":33.4625,"lon":130.80625,"areaKm2":1.0738285,"populated2020":false,"population2020":null,"populationNote":"境界またぎ・収録外等のため人口未集計"},"geometry":{"type":"Polygon","coordinates":[[[130.8125,33.458333333333336],[130.8,33.458333333333336],[130.8,33.466666666666676],[130.8125,33.46666666666667],[130.8125,33.458333333333336]]]}},{"type":"Feature","id":"40448:50301655","properties":{"id":"40448:50301655","meshCode":"50301655","cityCode":"40448","city":"東峰村","lat":33.4625,"lon":130.81875,"areaKm2":1.0738275,"populated2020":false,"population2020":null,"populationNote":"境界またぎ・収録外等のため人口未集計"},"geometry":{"type":"Polygon","coordinates":[[[130.825,33.458333333333336],[130.8125,33.458333333333336],[130.8125,33.46666666666667],[130.825,33.46666666666667],[130.825,33.458333333333336]]]}},{"type":"Feature","id":"40448:50301656","properties":{"id":"40448:50301656","meshCode":"50301656","cityCode":"40448","city":"東峰村","lat":33.4625,"lon":130.83125,"areaKm2":1.0738264,"populated2020":true,"population2020":152.0832,"populationNote":"収録500mメッシュ人口の合算（原典収録外は補完しない）"},"geometry":{"type":"Polygon","coordinates":[[[130.8375,33.45833333333334],[130.825,33.458333333333336],[130.825,33.46666666666667],[130.8375,33.466666666666676],[130.8375,33.45833333333334]]]}},{"type":"Feature","id":"40448:50301657","properties":{"id":"40448:50301657","meshCode":"50301657","cityCode":"40448","city":"東峰村","lat":33.461638,"lon":130.8407061,"areaKm2":0.4844665,"populated2020":false,"population2020":null,"populationNote":"境界またぎ・収録外等のため人口未集計"},"geometry":{"type":"Polygon","coordinates":[[[130.84436221800001,33.46213805399999],[130.844409728,33.461650559],[130.844794721,33.460668892],[130.844784449,33.460222495],[130.844909442,33.459720829],[130.845283606,33.459309721],[130.845666394,33.459143054],[130.845871115,33.458552774999994],[130.8461572235654,33.45833333333334],[130.8375,33.45833333333334],[130.8375,33.466666666666676],[130.83857869044044,33.46666666666666],[130.839206939,33.46610444099999],[130.84043917,33.465596667],[130.841112776,33.46500361299999],[130.841707497,33.46476055899999],[130.841863891,33.464561946],[130.842011946,33.463976108],[130.842744994,33.462963613],[130.84334917,33.462721108000004],[130.84409083,33.46263999999999],[130.84436221800001,33.46213805399999]]]}},{"type":"Feature","id":"40448:50301662","properties":{"id":"40448:50301662","meshCode":"50301662","cityCode":"40448","city":"東峰村","lat":33.4678249,"lon":130.784024,"areaKm2":0.1767366,"populated2020":false,"population2020":null,"populationNote":"境界またぎ・収録外等のため人口未集計"},"geometry":{"type":"Polygon","coordinates":[[[130.77932661485542,33.46666666666667],[130.779658054,33.467213892000004],[130.78031917,33.467853333],[130.781586667,33.468330279],[130.78182,33.468618613],[130.781901388,33.468865829],[130.782108054,33.469006667],[130.782845551,33.469101108],[130.783638054,33.46945861299999],[130.784692218,33.469134720999996],[130.785732218,33.46916361299999],[130.786650558,33.469099441],[130.787057782,33.46914194599999],[130.7875,33.469397225307546],[130.7875,33.46666666666667],[130.77932661485542,33.46666666666667]]]}},{"type":"Feature","id":"40448:50301663","properties":{"id":"40448:50301663","meshCode":"50301663","cityCode":"40448","city":"東峰村","lat":33.4691488,"lon":130.7943836,"areaKm2":0.6105354,"populated2020":false,"population2020":null,"populationNote":"境界またぎ・収録外等のため人口未集計"},"geometry":{"type":"Polygon","coordinates":[[[130.787784449,33.469598054],[130.788523333,33.469614441],[130.789904163,33.469836387],[130.791508885,33.471240279],[130.793424994,33.472246108],[130.793882776,33.472413613],[130.796051388,33.472461667],[130.79658444900002,33.472243892],[130.797095279,33.47216694600001],[130.797783333,33.471785279],[130.79830027200003,33.471660279000005],[130.798985551,33.47181305400001],[130.799410558,33.47208499999999],[130.8,33.472126027],[130.8,33.466666666666676],[130.7875,33.46666666666667],[130.7875,33.469397225307546],[130.787784449,33.469598054]]]}},{"type":"Feature","id":"40448:50301664","properties":{"id":"40448:50301664","meshCode":"50301664","cityCode":"40448","city":"東峰村","lat":33.4700624,"lon":130.8068821,"areaKm2":0.8408138,"populated2020":false,"population2020":null,"populationNote":"境界またぎ・収録外等のため人口未集計"},"geometry":{"type":"Polygon","coordinates":[[[130.8125,33.46666666666667],[130.8,33.466666666666676],[130.8,33.472126027],[130.801785837,33.472162225000005],[130.802228327,33.472251387],[130.802752503,33.471966108],[130.803237782,33.47239694600001],[130.803421388,33.47242582900001],[130.80408083,33.472294721000004],[130.804342218,33.472092495],[130.804860558,33.47196361299999],[130.805196667,33.471720559000005],[130.80583166,33.471778332999996],[130.806352503,33.47204194600001],[130.807184163,33.472796387],[130.807323606,33.473019162],[130.807682503,33.473243054],[130.808156667,33.47403722499998],[130.808429442,33.474253892],[130.808545837,33.474644721],[130.80897869,33.47500000000001],[130.8125,33.47500000000001],[130.8125,33.46666666666667]]]}},{"type":"Feature","id":"40448:50301665","properties":{"id":"40448:50301665","meshCode":"50301665","cityCode":"40448","city":"東峰村","lat":33.4708333,"lon":130.81875,"areaKm2":1.0737261,"populated2020":true,"population2020":136.7672,"populationNote":"収録500mメッシュ人口の合算（原典収録外は補完しない）"},"geometry":{"type":"Polygon","coordinates":[[[130.825,33.46666666666667],[130.8125,33.46666666666667],[130.8125,33.47500000000001],[130.825,33.47500000000001],[130.825,33.46666666666667]]]}},{"type":"Feature","id":"40448:50301666","properties":{"id":"40448:50301666","meshCode":"50301666","cityCode":"40448","city":"東峰村","lat":33.4708705,"lon":130.8308453,"areaKm2":1.0008742,"populated2020":true,"population2020":112.4045,"populationNote":"収録500mメッシュ人口の合算（原典収録外は補完しない）"},"geometry":{"type":"Polygon","coordinates":[[[130.836295551,33.472179721],[130.835863606,33.469699721],[130.835966939,33.46857833300001],[130.83606333300003,33.468370279],[130.83678000000003,33.468015279],[130.8375,33.467505864260524],[130.8375,33.466666666666676],[130.825,33.46666666666667],[130.825,33.47500000000001],[130.8375,33.475],[130.8375,33.473378117204646],[130.836947782,33.473043613],[130.83669917,33.472556387],[130.836295551,33.472179721]]]}},{"type":"Feature","id":"40448:50301667","properties":{"id":"40448:50301667","meshCode":"50301667","cityCode":"40448","city":"東峰村","lat":33.4742158,"lon":130.8393752,"areaKm2":0.0536363,"populated2020":false,"population2020":null,"populationNote":"境界またぎ・収録外等のため人口未集計"},"geometry":{"type":"MultiPolygon","coordinates":[[[[130.8375,33.467505864260524],[130.838121388,33.466954162],[130.83857869044044,33.46666666666666],[130.8375,33.466666666666676],[130.8375,33.467505864260524]]],[[[130.842298885,33.474569721],[130.842027497,33.474421667],[130.841516109,33.474390279],[130.840856939,33.47396305400001],[130.840302503,33.473765829],[130.839989442,33.473869162],[130.839666109,33.474099162],[130.839077497,33.47395722499999],[130.838225837,33.47400638700001],[130.838021946,33.473907775],[130.8375,33.473378117204646],[130.8375,33.475],[130.842724643,33.475],[130.842298885,33.474569721]]]]}},{"type":"Feature","id":"40448:50301674","properties":{"id":"40448:50301674","meshCode":"50301674","cityCode":"40448","city":"東峰村","lat":33.4793654,"lon":130.8108931,"areaKm2":0.2716485,"populated2020":true,"population2020":15.2009,"populationNote":"収録500mメッシュ人口の合算（原典収録外は補完しない）"},"geometry":{"type":"Polygon","coordinates":[[[130.809244994,33.475518333],[130.809371388,33.476140559],[130.80980083,33.476310279],[130.809872503,33.47644249499999],[130.809684449,33.476982775],[130.809833891,33.477947775],[130.809615551,33.478332775000005],[130.809538054,33.479148613],[130.80967,33.479683054],[130.809621115,33.479983892],[130.809282218,33.48050833300001],[130.808903061,33.481885],[130.809062503,33.48237],[130.808421946,33.482882225],[130.808266939,33.483137495],[130.80827428010232,33.48333333333333],[130.8125,33.48333333333334],[130.8125,33.47500000000001],[130.80897869,33.47500000000001],[130.809244994,33.475518333]]]}},{"type":"Feature","id":"40448:50301675","properties":{"id":"40448:50301675","meshCode":"50301675","cityCode":"40448","city":"東峰村","lat":33.4791667,"lon":130.81875,"areaKm2":1.0736248,"populated2020":true,"population2020":25.0608,"populationNote":"収録500mメッシュ人口の合算（原典収録外は補完しない）"},"geometry":{"type":"Polygon","coordinates":[[[130.825,33.47500000000001],[130.8125,33.47500000000001],[130.8125,33.48333333333334],[130.825,33.48333333333334],[130.825,33.47500000000001]]]}},{"type":"Feature","id":"40448:50301676","properties":{"id":"40448:50301676","meshCode":"50301676","cityCode":"40448","city":"東峰村","lat":33.4791667,"lon":130.83125,"areaKm2":1.0736238,"populated2020":true,"population2020":1.0,"populationNote":"収録500mメッシュ人口の合算（原典収録外は補完しない）"},"geometry":{"type":"Polygon","coordinates":[[[130.8375,33.475],[130.825,33.47500000000001],[130.825,33.48333333333334],[130.8375,33.483333333333334],[130.8375,33.475]]]}},{"type":"Feature","id":"40448:50301677","properties":{"id":"40448:50301677","meshCode":"50301677","cityCode":"40448","city":"東峰村","lat":33.4792623,"lon":130.8418481,"areaKm2":0.7227439,"populated2020":true,"population2020":9.0196,"populationNote":"収録500mメッシュ人口の合算（原典収録外は補完しない）"},"geometry":{"type":"Polygon","coordinates":[[[130.844139728,33.476008613],[130.842724643,33.475],[130.8375,33.475],[130.8375,33.483333333333334],[130.84318452705463,33.483333333333334],[130.843178885,33.483077775],[130.843341946,33.482912225],[130.844213061,33.482781667],[130.844673333,33.482559721],[130.845507497,33.482695829],[130.84579917,33.482278054000005],[130.846027497,33.481699721],[130.846212776,33.481576946000004],[130.846471946,33.481530559],[130.846627782,33.481375829],[130.846923061,33.48089138699999],[130.846710558,33.48051972100001],[130.84717083,33.480165279],[130.847415551,33.479619721],[130.847796939,33.479342495000004],[130.847792776,33.478663613],[130.847436394,33.478107775000005],[130.844941388,33.476634441],[130.844508327,33.476443613],[130.844139728,33.476008613]]]}},{"type":"Feature","id":"40448:50301684","properties":{"id":"40448:50301684","meshCode":"50301684","cityCode":"40448","city":"東峰村","lat":33.4847951,"lon":130.8111443,"areaKm2":0.0887729,"populated2020":false,"population2020":null,"populationNote":"境界またぎ・収録外等のため人口未集計"},"geometry":{"type":"Polygon","coordinates":[[[130.80827428010232,33.48333333333333],[130.808521115,33.48368500000001],[130.808997782,33.48383416200001],[130.809326939,33.48411472099998],[130.809454721,33.484563333],[130.809398612,33.48506777499999],[130.809927224,33.484954441],[130.810446939,33.484973892],[130.811183606,33.485362495],[130.81140917,33.48574861299999],[130.811160558,33.486385],[130.811259728,33.48677861300001],[130.811556939,33.487208333],[130.811717782,33.48730222500001],[130.8125,33.4874959363028],[130.8125,33.48333333333334],[130.80827428010232,33.48333333333333]]]}},{"type":"Feature","id":"40448:50301685","properties":{"id":"40448:50301685","meshCode":"50301685","cityCode":"40448","city":"東峰村","lat":33.4857984,"lon":130.8186612,"areaKm2":0.6230022,"populated2020":true,"population2020":1.0,"populationNote":"収録500mメッシュ人口の合算（原典収録外は補完しない）"},"geometry":{"type":"Polygon","coordinates":[[[130.821409442,33.48747722499999],[130.821934994,33.487513333],[130.822434163,33.48741277500001],[130.822964721,33.487409721],[130.823607497,33.487050559],[130.823945837,33.487619162],[130.824580272,33.487909162],[130.825,33.488267531999995],[130.825,33.48333333333334],[130.8125,33.48333333333334],[130.8125,33.4874959363028],[130.812876939,33.487604162000004],[130.813668054,33.487545279],[130.813874721,33.48773305400001],[130.814016939,33.4881],[130.814189442,33.488213054000006],[130.814534163,33.488218054],[130.815033891,33.48803249499999],[130.8159,33.488344162],[130.817096109,33.488458613000006],[130.817343061,33.488701387000006],[130.817626109,33.48884472100001],[130.818417497,33.488985559],[130.819166939,33.489638891999995],[130.81935,33.489709162],[130.819991946,33.489344721],[130.819974163,33.488954162],[130.82023917,33.488490559],[130.820228327,33.48820110799999],[130.820998885,33.488040559],[130.82122083,33.487854440999996],[130.821409442,33.48747722499999]]]}},{"type":"Feature","id":"40448:50301686","properties":{"id":"40448:50301686","meshCode":"50301686","cityCode":"40448","city":"東峰村","lat":33.4854704,"lon":130.8301573,"areaKm2":0.4964504,"populated2020":false,"population2020":null,"populationNote":"境界またぎ・収録外等のため人口未集計"},"geometry":{"type":"Polygon","coordinates":[[[130.83130917,33.487702774999995],[130.831914721,33.487346108],[130.832300272,33.48727805400001],[130.832498054,33.48710249500001],[130.83285083,33.486964441],[130.833223606,33.487036108],[130.83375,33.487367775],[130.834244721,33.48722749499999],[130.834355279,33.487055559],[130.834171388,33.486701667],[130.834156394,33.486482225],[130.834801115,33.486261946],[130.834918885,33.48611527900001],[130.834941115,33.48573666699999],[130.835074163,33.485500279],[130.835608885,33.48525666700001],[130.835923333,33.484972495],[130.836836109,33.484850829],[130.837216667,33.48435361300001],[130.8375,33.48425805789376],[130.8375,33.483333333333334],[130.825,33.48333333333334],[130.825,33.488267531999995],[130.825149728,33.488367225000005],[130.826028612,33.488591108],[130.826713061,33.488593892],[130.827356939,33.488263612999994],[130.827921388,33.487731667],[130.828345837,33.487786387],[130.828852218,33.488189162],[130.829279442,33.488241387],[130.830098612,33.487968892],[130.83048693900002,33.487753892],[130.83130917,33.487702774999995]]]}},{"type":"Feature","id":"40448:50301687","properties":{"id":"40448:50301687","meshCode":"50301687","cityCode":"40448","city":"東峰村","lat":33.4841946,"lon":130.8409329,"areaKm2":0.0870435,"populated2020":false,"population2020":null,"populationNote":"境界またぎ・収録外等のため人口未集計"},"geometry":{"type":"Polygon","coordinates":[[[130.837502503,33.484257495],[130.838562503,33.484139441],[130.839368054,33.484311667],[130.839816394,33.484257495],[130.84071083,33.484931387],[130.841087224,33.485468054],[130.841514449,33.485575829],[130.842118327,33.48554638699999],[130.842663333,33.485623892],[130.84283416300002,33.485503613],[130.843309728,33.484605829],[130.843117224,33.48411000000001],[130.84318452705463,33.483333333333334],[130.8375,33.483333333333334],[130.837502503,33.484257495]]]}}]}