{"type":"FeatureCollection","metadata":{"cityCode":"40447","city":"筑前町","resolution":1000,"boundaryDate":"2026-01-01","populationLabel":"2020年基準人口（国交省調整値）","method":"標準地域メッシュを行政界で切抜き。中心が区域外のとき区域内代表点を判定点にする。人口不明をゼロにしない。"},"features":[{"type":"Feature","id":"40447:50300489","properties":{"id":"40447:50300489","meshCode":"50300489","cityCode":"40447","city":"筑前町","lat":33.4070578,"lon":130.6157467,"areaKm2":0.0879359,"populated2020":true,"population2020":null,"populationNote":"境界またぎ・収録外等のため人口未集計"},"geometry":{"type":"Polygon","coordinates":[[[130.618103917,33.40833333300001],[130.616460272,33.407160829],[130.617737224,33.405872224999996],[130.616312218,33.404899162],[130.6129682746708,33.40833333333333],[130.618103917,33.40833333300001]]]}},{"type":"Feature","id":"40447:50300498","properties":{"id":"40447:50300498","meshCode":"50300498","cityCode":"40447","city":"筑前町","lat":33.4145933,"lon":130.6104069,"areaKm2":0.1894942,"populated2020":true,"population2020":null,"populationNote":"境界またぎ・収録外等のため人口未集計"},"geometry":{"type":"MultiPolygon","coordinates":[[[[130.61213138800002,33.409066667],[130.61213138800002,33.40925],[130.6125,33.409453675288354],[130.6125,33.408807521704674],[130.61213138800002,33.409066667]]],[[[130.611717497,33.41224055899999],[130.612121388,33.411665559],[130.612147782,33.411343613],[130.611863333,33.411279721],[130.611333606,33.411526946],[130.611048885,33.411971108],[130.610307224,33.412012775],[130.60933917,33.41195582900001],[130.609315837,33.412305829],[130.610166939,33.412371667],[130.608844994,33.413993333],[130.60688080425163,33.416666666666664],[130.6125,33.416666666666664],[130.6125,33.41306849628388],[130.612374721,33.412960829],[130.611712503,33.412846945999995],[130.611717497,33.41224055899999]]]]}},{"type":"Feature","id":"40447:50300499","properties":{"id":"40447:50300499","meshCode":"50300499","cityCode":"40447","city":"筑前町","lat":33.413072,"lon":130.618265,"areaKm2":0.8583499,"populated2020":true,"population2020":null,"populationNote":"境界またぎ・収録外等のため人口未集計"},"geometry":{"type":"Polygon","coordinates":[[[130.61810391746718,33.40833333333333],[130.6129682746708,33.40833333333333],[130.6125,33.408807521704674],[130.6125,33.409453675288354],[130.6133,33.409952495],[130.613465279,33.410208054],[130.613564449,33.41069638700001],[130.613524721,33.411046387],[130.613184163,33.41167110800001],[130.61340917,33.412715279],[130.61304499400003,33.41367582899999],[130.6128,33.413648054],[130.6125,33.41306849628388],[130.6125,33.416666666666664],[130.625,33.416666666666664],[130.625,33.41184594599999],[130.624608327,33.41182500000001],[130.623813333,33.41226833300001],[130.61810391746718,33.40833333333333]],[[130.618188054,33.41211138700001],[130.617741946,33.411930559],[130.617658612,33.411832225000005],[130.618428327,33.41091110799999],[130.620256667,33.41202138700001],[130.61980083,33.412173333],[130.619188054,33.412243333],[130.618188054,33.41211138700001]]]}},{"type":"Feature","id":"40447:50300590","properties":{"id":"40447:50300590","meshCode":"50300590","cityCode":"40447","city":"筑前町","lat":33.4142915,"lon":130.6310152,"areaKm2":0.6041346,"populated2020":true,"population2020":null,"populationNote":"境界またぎ・収録外等のため人口未集計"},"geometry":{"type":"Polygon","coordinates":[[[130.635986394,33.411895559],[130.635731388,33.411814162],[130.635332776,33.41192889199999],[130.634482503,33.411725559],[130.634319728,33.411751387],[130.633819728,33.41211722500001],[130.633643606,33.412131946],[130.633335279,33.412124721000005],[130.632989442,33.41195082899999],[130.632694449,33.411692224999996],[130.632311115,33.411592495],[130.630490272,33.411658892],[130.628655551,33.411899162],[130.6282,33.411625829],[130.62653277600003,33.411850829],[130.625,33.41184594599999],[130.625,33.416666666666664],[130.63750000000002,33.416666666666664],[130.63750000000002,33.4138611603446],[130.636873891,33.413443613],[130.636239728,33.413340279],[130.636045837,33.413207225],[130.636045837,33.412985559000006],[130.636253061,33.412531108],[130.635986394,33.411895559]]]}},{"type":"Feature","id":"40447:50300591","properties":{"id":"40447:50300591","meshCode":"50300591","cityCode":"40447","city":"筑前町","lat":33.4157459,"lon":130.638102,"areaKm2":0.0256788,"populated2020":true,"population2020":null,"populationNote":"境界またぎ・収録外等のため人口未集計"},"geometry":{"type":"Polygon","coordinates":[[[130.638834163,33.415867495],[130.638376109,33.415394441],[130.63750000000002,33.4138611603446],[130.63750000000002,33.416666666666664],[130.63931299580028,33.41666666666667],[130.638834163,33.415867495]]]}},{"type":"Feature","id":"40447:50301408","properties":{"id":"40447:50301408","meshCode":"50301408","cityCode":"40447","city":"筑前町","lat":33.4214485,"lon":130.6071324,"areaKm2":0.857865,"populated2020":true,"population2020":null,"populationNote":"境界またぎ・収録外等のため人口未集計"},"geometry":{"type":"Polygon","coordinates":[[[130.60664166,33.41726082899999],[130.606336109,33.417773333],[130.605055279,33.419291108],[130.60437408600004,33.419636],[130.602637224,33.420326667],[130.60202166,33.42050694600001],[130.600586394,33.420768333],[130.6,33.421646027],[130.6,33.425],[130.6125,33.42499999999999],[130.6125,33.416666666666664],[130.60688080425163,33.416666666666664],[130.606700272,33.416905829],[130.60664166,33.41726082899999]]]}},{"type":"Feature","id":"40447:50301409","properties":{"id":"40447:50301409","meshCode":"50301409","cityCode":"40447","city":"筑前町","lat":33.4208333,"lon":130.61875,"areaKm2":1.0743594,"populated2020":true,"population2020":1064.3999,"populationNote":"収録500mメッシュ人口の合算（原典収録外は補完しない）"},"geometry":{"type":"Polygon","coordinates":[[[130.625,33.416666666666664],[130.6125,33.416666666666664],[130.6125,33.42499999999999],[130.625,33.425],[130.625,33.416666666666664]]]}},{"type":"Feature","id":"40447:50301500","properties":{"id":"40447:50301500","meshCode":"50301500","cityCode":"40447","city":"筑前町","lat":33.4208333,"lon":130.63125,"areaKm2":1.0743573,"populated2020":true,"population2020":355.7823,"populationNote":"収録500mメッシュ人口の合算（原典収録外は補完しない）"},"geometry":{"type":"Polygon","coordinates":[[[130.63750000000002,33.416666666666664],[130.625,33.416666666666664],[130.625,33.425],[130.63750000000002,33.42499999999999],[130.63750000000002,33.416666666666664]]]}},{"type":"Feature","id":"40447:50301501","properties":{"id":"40447:50301501","meshCode":"50301501","cityCode":"40447","city":"筑前町","lat":33.4218417,"lon":130.6409243,"areaKm2":0.4922398,"populated2020":true,"population2020":null,"populationNote":"境界またぎ・収録外等のため人口未集計"},"geometry":{"type":"Polygon","coordinates":[[[130.642064994,33.420389162000006],[130.641868612,33.419680279000005],[130.641648327,33.419281387000005],[130.640974449,33.419074441],[130.640833333,33.418956107999996],[130.63931299580028,33.41666666666667],[130.63750000000002,33.416666666666664],[130.63750000000002,33.42499999999999],[130.646546783,33.425],[130.645536939,33.423413333000006],[130.645813061,33.423185829],[130.64520527900004,33.421886667],[130.645132218,33.420801108],[130.645207224,33.420465],[130.644994449,33.420341108],[130.642608885,33.421421387],[130.642064994,33.420389162000006]]]}},{"type":"Feature","id":"40447:50301407","properties":{"id":"40447:50301407","meshCode":"50301407","cityCode":"40447","city":"筑前町","lat":33.4240117,"lon":130.5986132,"areaKm2":0.0632477,"populated2020":true,"population2020":11.2077,"populationNote":"収録500mメッシュ人口の合算（原典収録外は補完しない）"},"geometry":{"type":"Polygon","coordinates":[[[130.599676667,33.422113613],[130.598354163,33.423402775],[130.596008612,33.42477249499999],[130.595497717,33.425],[130.6,33.425],[130.6,33.421646027],[130.599676667,33.422113613]]]}},{"type":"Feature","id":"40447:50301417","properties":{"id":"40447:50301417","meshCode":"50301417","cityCode":"40447","city":"筑前町","lat":33.4297108,"lon":130.5945889,"areaKm2":0.8793572,"populated2020":true,"population2020":null,"populationNote":"境界またぎ・収録外等のため人口未集計"},"geometry":{"type":"Polygon","coordinates":[[[130.595497717,33.425],[130.592227224,33.426665],[130.591037782,33.42750499999999],[130.590188054,33.42827610799999],[130.589782218,33.42838110800001],[130.589334449,33.428659721],[130.588341388,33.429458054],[130.588344994,33.42963889199999],[130.58855083,33.429743054],[130.588466939,33.429887494999996],[130.58783,33.430255],[130.5875,33.43035169536194],[130.5875,33.43333333333334],[130.6,33.43333333333334],[130.6,33.425],[130.595497717,33.425]]]}},{"type":"Feature","id":"40447:50301418","properties":{"id":"40447:50301418","meshCode":"50301418","cityCode":"40447","city":"筑前町","lat":33.4291667,"lon":130.60625,"areaKm2":1.0742604,"populated2020":true,"population2020":52.8965,"populationNote":"収録500mメッシュ人口の合算（原典収録外は補完しない）"},"geometry":{"type":"Polygon","coordinates":[[[130.6125,33.42499999999999],[130.6,33.425],[130.6,33.43333333333334],[130.6125,33.43333333333334],[130.6125,33.42499999999999]]]}},{"type":"Feature","id":"40447:50301419","properties":{"id":"40447:50301419","meshCode":"50301419","cityCode":"40447","city":"筑前町","lat":33.4291667,"lon":130.61875,"areaKm2":1.0742582,"populated2020":true,"population2020":560.7293,"populationNote":"収録500mメッシュ人口の合算（原典収録外は補完しない）"},"geometry":{"type":"Polygon","coordinates":[[[130.625,33.425],[130.6125,33.42499999999999],[130.6125,33.43333333333334],[130.625,33.43333333333333],[130.625,33.425]]]}},{"type":"Feature","id":"40447:50301510","properties":{"id":"40447:50301510","meshCode":"50301510","cityCode":"40447","city":"筑前町","lat":33.4291667,"lon":130.63125,"areaKm2":1.0742561,"populated2020":true,"population2020":999.8415,"populationNote":"収録500mメッシュ人口の合算（原典収録外は補完しない）"},"geometry":{"type":"Polygon","coordinates":[[[130.63750000000002,33.42499999999999],[130.625,33.425],[130.625,33.43333333333333],[130.63750000000002,33.43333333333333],[130.63750000000002,33.42499999999999]]]}},{"type":"Feature","id":"40447:50301511","properties":{"id":"40447:50301511","meshCode":"50301511","cityCode":"40447","city":"筑前町","lat":33.429402,"lon":130.6432475,"areaKm2":0.9776119,"populated2020":true,"population2020":null,"populationNote":"境界またぎ・収録外等のため人口未集計"},"geometry":{"type":"Polygon","coordinates":[[[130.65,33.430302586],[130.647165837,33.426100000000005],[130.647048612,33.425768613],[130.646546783,33.425],[130.63750000000002,33.42499999999999],[130.63750000000002,33.43333333333333],[130.65,33.43333333333332],[130.65,33.430302586]]]}},{"type":"Feature","id":"40447:50301416","properties":{"id":"40447:50301416","meshCode":"50301416","cityCode":"40447","city":"筑前町","lat":33.4319119,"lon":130.5861267,"areaKm2":0.0839203,"populated2020":true,"population2020":null,"populationNote":"境界またぎ・収録外等のため人口未集計"},"geometry":{"type":"Polygon","coordinates":[[[130.5875,33.43035169536194],[130.586023606,33.430125],[130.585761115,33.43063333300001],[130.585337782,33.430656387],[130.58512778200003,33.431068054],[130.584942776,33.431041667],[130.584729442,33.431427225],[130.584354994,33.431323892],[130.584208327,33.431689162],[130.585012776,33.432096108],[130.58431114082236,33.43333333333333],[130.5875,33.43333333333334],[130.5875,33.43035169536194]]]}},{"type":"Feature","id":"40447:50301512","properties":{"id":"40447:50301512","meshCode":"50301512","cityCode":"40447","city":"筑前町","lat":33.4322944,"lon":130.6523882,"areaKm2":0.1060457,"populated2020":true,"population2020":null,"populationNote":"境界またぎ・収録外等のため人口未集計"},"geometry":{"type":"Polygon","coordinates":[[[130.655877691,33.433333333],[130.654716109,33.432479441],[130.65447083,33.43206582900001],[130.654431946,33.431781667],[130.65396166,33.431204441000006],[130.651814449,33.43099333300001],[130.651591115,33.431553333],[130.65102166,33.431801667],[130.65,33.430302586],[130.65,33.43333333333332],[130.655877691,33.433333333]]]}},{"type":"Feature","id":"40447:50301426","properties":{"id":"40447:50301426","meshCode":"50301426","cityCode":"40447","city":"筑前町","lat":33.4372172,"lon":130.5848618,"areaKm2":0.4293856,"populated2020":true,"population2020":null,"populationNote":"境界またぎ・収録外等のため人口未集計"},"geometry":{"type":"Polygon","coordinates":[[[130.583333333,33.433359613],[130.583166109,33.433387225000004],[130.582707782,33.434059721],[130.581431115,33.435336946],[130.581298327,33.435589721],[130.58137166,33.435832495],[130.581532503,33.436006387],[130.582772776,33.436910559],[130.582496667,33.43731999999999],[130.581190272,33.43649333300001],[130.58095083,33.436416387],[130.580662218,33.436475279],[130.579765551,33.436971108],[130.580195227,33.437032892],[130.580441946,33.436982252],[130.580937977,33.437252224999995],[130.581892918,33.438187802],[130.58263808,33.439061946],[130.582798833,33.439081],[130.582788664,33.439361440999996],[130.583807782,33.440134441],[130.584545837,33.440928333],[130.584619442,33.441026667],[130.584409442,33.441246667],[130.58350444982852,33.44166666666667],[130.5875,33.44166666666667],[130.5875,33.43333333333334],[130.58431114082236,33.43333333333333],[130.584110272,33.43371027900001],[130.583333333,33.433359613]]]}},{"type":"Feature","id":"40447:50301427","properties":{"id":"40447:50301427","meshCode":"50301427","cityCode":"40447","city":"筑前町","lat":33.4375,"lon":130.59375,"areaKm2":1.0741615,"populated2020":true,"population2020":352.014,"populationNote":"収録500mメッシュ人口の合算（原典収録外は補完しない）"},"geometry":{"type":"Polygon","coordinates":[[[130.6,33.43333333333334],[130.5875,33.43333333333334],[130.5875,33.44166666666667],[130.6,33.441666666666656],[130.6,33.43333333333334]]]}},{"type":"Feature","id":"40447:50301428","properties":{"id":"40447:50301428","meshCode":"50301428","cityCode":"40447","city":"筑前町","lat":33.4375,"lon":130.60625,"areaKm2":1.0741592,"populated2020":true,"population2020":408.0517,"populationNote":"収録500mメッシュ人口の合算（原典収録外は補完しない）"},"geometry":{"type":"Polygon","coordinates":[[[130.6125,33.43333333333334],[130.6,33.43333333333334],[130.6,33.441666666666656],[130.6125,33.44166666666667],[130.6125,33.43333333333334]]]}},{"type":"Feature","id":"40447:50301429","properties":{"id":"40447:50301429","meshCode":"50301429","cityCode":"40447","city":"筑前町","lat":33.4375,"lon":130.61875,"areaKm2":1.074157,"populated2020":true,"population2020":618.4663,"populationNote":"収録500mメッシュ人口の合算（原典収録外は補完しない）"},"geometry":{"type":"Polygon","coordinates":[[[130.625,33.43333333333333],[130.6125,33.43333333333334],[130.6125,33.44166666666667],[130.625,33.44166666666666],[130.625,33.43333333333333]]]}},{"type":"Feature","id":"40447:50301520","properties":{"id":"40447:50301520","meshCode":"50301520","cityCode":"40447","city":"筑前町","lat":33.4375,"lon":130.63125,"areaKm2":1.0741549,"populated2020":true,"population2020":817.8806,"populationNote":"収録500mメッシュ人口の合算（原典収録外は補完しない）"},"geometry":{"type":"Polygon","coordinates":[[[130.63750000000002,33.43333333333333],[130.625,33.43333333333333],[130.625,33.44166666666666],[130.63750000000002,33.44166666666666],[130.63750000000002,33.43333333333333]]]}},{"type":"Feature","id":"40447:50301521","properties":{"id":"40447:50301521","meshCode":"50301521","cityCode":"40447","city":"筑前町","lat":33.4375,"lon":130.64375,"areaKm2":1.0741527,"populated2020":true,"population2020":996.913,"populationNote":"収録500mメッシュ人口の合算（原典収録外は補完しない）"},"geometry":{"type":"Polygon","coordinates":[[[130.65,33.43333333333332],[130.63750000000002,33.43333333333333],[130.63750000000002,33.44166666666666],[130.65,33.44166666666666],[130.65,33.43333333333332]]]}},{"type":"Feature","id":"40447:50301522","properties":{"id":"40447:50301522","meshCode":"50301522","cityCode":"40447","city":"筑前町","lat":33.437685,"lon":130.6537926,"areaKm2":0.6408254,"populated2020":true,"population2020":null,"populationNote":"境界またぎ・収録外等のため人口未集計"},"geometry":{"type":"Polygon","coordinates":[[[130.655936394,33.433375278999996],[130.65,33.43333333333332],[130.65,33.44166666666666],[130.6581761348039,33.44166666666667],[130.659190558,33.441106667],[130.657587224,33.43884082899999],[130.657437224,33.43884555900001],[130.656840558,33.439129441000006],[130.655876109,33.437738333000006],[130.656289442,33.43745833300001],[130.657800558,33.436760279],[130.658448327,33.43619638700001],[130.656685551,33.434533613],[130.65650917,33.434232225],[130.656405837,33.433633333],[130.655936394,33.433375278999996]]]}},{"type":"Feature","id":"40447:50301435","properties":{"id":"40447:50301435","meshCode":"50301435","cityCode":"40447","city":"筑前町","lat":33.4487948,"lon":130.5737301,"areaKm2":0.0682311,"populated2020":true,"population2020":null,"populationNote":"境界またぎ・収録外等のため人口未集計"},"geometry":{"type":"MultiPolygon","coordinates":[[[[130.575,33.445542945999996],[130.575,33.445498775000004],[130.574973061,33.445516946],[130.575,33.445542945999996]]],[[[130.575,33.44705561300001],[130.575,33.446351027],[130.574589728,33.446598054],[130.575,33.44705561300001]]],[[[130.573879728,33.44746582900001],[130.573124449,33.447957225],[130.572904449,33.447324441000006],[130.572750558,33.44768527899999],[130.572708612,33.448170829000006],[130.57197083,33.449565],[130.571883528,33.45],[130.575,33.45000000000001],[130.575,33.447083721],[130.574036394,33.447663613],[130.573879728,33.44746582900001]]]]}},{"type":"Feature","id":"40447:50301436","properties":{"id":"40447:50301436","meshCode":"50301436","cityCode":"40447","city":"筑前町","lat":33.4463554,"lon":130.5818957,"areaKm2":0.9074595,"populated2020":true,"population2020":null,"populationNote":"境界またぎ・収録外等のため人口未集計"},"geometry":{"type":"Polygon","coordinates":[[[130.58350444982852,33.44166666666667],[130.578537224,33.443839441],[130.576973333,33.444409162],[130.57695138800003,33.445037774999996],[130.576054163,33.445044441],[130.575900272,33.445188892],[130.57557138800001,33.445113333],[130.575,33.445498775000004],[130.575522218,33.446046667],[130.575,33.446351027],[130.575,33.45000000000001],[130.5875,33.45],[130.5875,33.44166666666667],[130.58350444982852,33.44166666666667]]]}},{"type":"Feature","id":"40447:50301437","properties":{"id":"40447:50301437","meshCode":"50301437","cityCode":"40447","city":"筑前町","lat":33.4458333,"lon":130.59375,"areaKm2":1.0740602,"populated2020":true,"population2020":856.0227,"populationNote":"収録500mメッシュ人口の合算（原典収録外は補完しない）"},"geometry":{"type":"Polygon","coordinates":[[[130.6,33.441666666666656],[130.5875,33.44166666666667],[130.5875,33.45],[130.6,33.45],[130.6,33.441666666666656]]]}},{"type":"Feature","id":"40447:50301438","properties":{"id":"40447:50301438","meshCode":"50301438","cityCode":"40447","city":"筑前町","lat":33.4458333,"lon":130.60625,"areaKm2":1.074058,"populated2020":true,"population2020":1003.5882,"populationNote":"収録500mメッシュ人口の合算（原典収録外は補完しない）"},"geometry":{"type":"Polygon","coordinates":[[[130.6125,33.44166666666667],[130.6,33.441666666666656],[130.6,33.45],[130.6125,33.45],[130.6125,33.44166666666667]]]}},{"type":"Feature","id":"40447:50301439","properties":{"id":"40447:50301439","meshCode":"50301439","cityCode":"40447","city":"筑前町","lat":33.4458333,"lon":130.61875,"areaKm2":1.0740557,"populated2020":true,"population2020":737.8872,"populationNote":"収録500mメッシュ人口の合算（原典収録外は補完しない）"},"geometry":{"type":"Polygon","coordinates":[[[130.625,33.44166666666666],[130.6125,33.44166666666667],[130.6125,33.45],[130.625,33.45],[130.625,33.44166666666666]]]}},{"type":"Feature","id":"40447:50301530","properties":{"id":"40447:50301530","meshCode":"50301530","cityCode":"40447","city":"筑前町","lat":33.4458333,"lon":130.63125,"areaKm2":1.0740536,"populated2020":true,"population2020":365.5426,"populationNote":"収録500mメッシュ人口の合算（原典収録外は補完しない）"},"geometry":{"type":"Polygon","coordinates":[[[130.63750000000002,33.44166666666666],[130.625,33.44166666666666],[130.625,33.45],[130.63750000000002,33.45],[130.63750000000002,33.44166666666666]]]}},{"type":"Feature","id":"40447:50301531","properties":{"id":"40447:50301531","meshCode":"50301531","cityCode":"40447","city":"筑前町","lat":33.4456724,"lon":130.6434319,"areaKm2":1.0124271,"populated2020":true,"population2020":53.0576,"populationNote":"収録500mメッシュ人口の合算（原典収録外は補完しない）"},"geometry":{"type":"Polygon","coordinates":[[[130.65,33.44166666666666],[130.63750000000002,33.44166666666666],[130.63750000000002,33.45],[130.648555616,33.45],[130.648286667,33.449477225],[130.647513891,33.44842666700001],[130.647346939,33.448021387000004],[130.64747917,33.447881108],[130.647912218,33.447741946],[130.648736109,33.447161946],[130.649724721,33.446888054],[130.65,33.446691892],[130.65,33.44166666666666]]]}},{"type":"Feature","id":"40447:50301532","properties":{"id":"40447:50301532","meshCode":"50301532","cityCode":"40447","city":"筑前町","lat":33.4437495,"lon":130.6532087,"areaKm2":0.2935536,"populated2020":true,"population2020":null,"populationNote":"境界またぎ・収録外等のため人口未集計"},"geometry":{"type":"Polygon","coordinates":[[[130.656456109,33.443146387000006],[130.658419728,33.44208],[130.6581761348039,33.44166666666667],[130.65,33.44166666666666],[130.65,33.446691892],[130.650158885,33.44656333300001],[130.650407782,33.446053054000004],[130.650741946,33.445922225000004],[130.652130558,33.446330829],[130.652718054,33.44639527900001],[130.653821115,33.44624499999999],[130.654304163,33.44667999999999],[130.654777782,33.44680055900001],[130.655053333,33.446395559],[130.654708885,33.445995],[130.654653061,33.445775278999996],[130.65576,33.44403027900001],[130.656456109,33.443146387000006]]]}},{"type":"Feature","id":"40447:50301445","properties":{"id":"40447:50301445","meshCode":"50301445","cityCode":"40447","city":"筑前町","lat":33.4551596,"lon":130.571345,"areaKm2":0.5292647,"populated2020":true,"population2020":null,"populationNote":"境界またぎ・収録外等のため人口未集計"},"geometry":{"type":"Polygon","coordinates":[[[130.571883528,33.45],[130.571806667,33.450772775000004],[130.571607782,33.45146389200001],[130.57063917,33.452660828999996],[130.570960558,33.452970279000006],[130.570852218,33.45335833299999],[130.57101306100003,33.453502775000004],[130.571037497,33.45430889200001],[130.570666667,33.454529441],[130.570252218,33.454068613],[130.569551946,33.454459441],[130.569377224,33.454251108],[130.568926109,33.454023054],[130.56855,33.454254721],[130.565873891,33.456544162],[130.56432191968062,33.458333333333336],[130.575,33.45833333333334],[130.575,33.45000000000001],[130.571883528,33.45]]]}},{"type":"Feature","id":"40447:50301446","properties":{"id":"40447:50301446","meshCode":"50301446","cityCode":"40447","city":"筑前町","lat":33.4541667,"lon":130.58125,"areaKm2":1.0739614,"populated2020":true,"population2020":431.6135,"populationNote":"収録500mメッシュ人口の合算（原典収録外は補完しない）"},"geometry":{"type":"Polygon","coordinates":[[[130.5875,33.45],[130.575,33.45000000000001],[130.575,33.45833333333334],[130.5875,33.458333333333336],[130.5875,33.45]]]}},{"type":"Feature","id":"40447:50301447","properties":{"id":"40447:50301447","meshCode":"50301447","cityCode":"40447","city":"筑前町","lat":33.4541667,"lon":130.59375,"areaKm2":1.073959,"populated2020":true,"population2020":2866.0272,"populationNote":"収録500mメッシュ人口の合算（原典収録外は補完しない）"},"geometry":{"type":"Polygon","coordinates":[[[130.6,33.45],[130.5875,33.45],[130.5875,33.458333333333336],[130.6,33.458333333333336],[130.6,33.45]]]}},{"type":"Feature","id":"40447:50301448","properties":{"id":"40447:50301448","meshCode":"50301448","cityCode":"40447","city":"筑前町","lat":33.4541667,"lon":130.60625,"areaKm2":1.0739567,"populated2020":true,"population2020":1071.0132,"populationNote":"収録500mメッシュ人口の合算（原典収録外は補完しない）"},"geometry":{"type":"Polygon","coordinates":[[[130.6125,33.45],[130.6,33.45],[130.6,33.458333333333336],[130.6125,33.458333333333336],[130.6125,33.45]]]}},{"type":"Feature","id":"40447:50301449","properties":{"id":"40447:50301449","meshCode":"50301449","cityCode":"40447","city":"筑前町","lat":33.4541667,"lon":130.61875,"areaKm2":1.0739545,"populated2020":true,"population2020":311.7868,"populationNote":"収録500mメッシュ人口の合算（原典収録外は補完しない）"},"geometry":{"type":"Polygon","coordinates":[[[130.625,33.45],[130.6125,33.45],[130.6125,33.458333333333336],[130.625,33.458333333333336],[130.625,33.45]]]}},{"type":"Feature","id":"40447:50301540","properties":{"id":"40447:50301540","meshCode":"50301540","cityCode":"40447","city":"筑前町","lat":33.4541667,"lon":130.63125,"areaKm2":1.0739523,"populated2020":true,"population2020":228.5158,"populationNote":"収録500mメッシュ人口の合算（原典収録外は補完しない）"},"geometry":{"type":"Polygon","coordinates":[[[130.63750000000002,33.45],[130.625,33.45],[130.625,33.458333333333336],[130.63750000000002,33.458333333333336],[130.63750000000002,33.45]]]}},{"type":"Feature","id":"40447:50301541","properties":{"id":"40447:50301541","meshCode":"50301541","cityCode":"40447","city":"筑前町","lat":33.4540867,"lon":130.6429834,"areaKm2":0.940009,"populated2020":false,"population2020":null,"populationNote":"境界またぎ・収録外等のため人口未集計"},"geometry":{"type":"Polygon","coordinates":[[[130.648300558,33.45399499999999],[130.64801083,33.453458892],[130.649386109,33.45198610800001],[130.649562503,33.451654440999995],[130.649532503,33.451279721],[130.648753333,33.45069389199999],[130.648555616,33.45],[130.63750000000002,33.45],[130.63750000000002,33.458333333333336],[130.64842852109854,33.458333333333336],[130.648350272,33.457675828999996],[130.647711115,33.45611972100001],[130.647801946,33.455466387],[130.648168054,33.45486333300001],[130.648363891,33.454307495],[130.648300558,33.45399499999999]]]}},{"type":"Feature","id":"40447:50301454","properties":{"id":"40447:50301454","meshCode":"50301454","cityCode":"40447","city":"筑前町","lat":33.4643254,"lon":130.562255,"areaKm2":0.0192428,"populated2020":true,"population2020":null,"populationNote":"境界またぎ・収録外等のため人口未集計"},"geometry":{"type":"Polygon","coordinates":[[[130.5625,33.46227208874493],[130.56189166,33.46294000000001],[130.561835837,33.46316972099999],[130.562119442,33.463636107999996],[130.561991946,33.464028054],[130.562075837,33.464290559],[130.561858885,33.464874721],[130.562005837,33.465344721],[130.562355837,33.46590889200001],[130.562334721,33.46622389200001],[130.56209422811182,33.466666666666676],[130.5625,33.46666666666667],[130.5625,33.46227208874493]]]}},{"type":"Feature","id":"40447:50301455","properties":{"id":"40447:50301455","meshCode":"50301455","cityCode":"40447","city":"筑前町","lat":33.4625877,"lon":130.5689328,"areaKm2":1.0406845,"populated2020":true,"population2020":675.5452,"populationNote":"収録500mメッシュ人口の合算（原典収録外は補完しない）"},"geometry":{"type":"Polygon","coordinates":[[[130.5636,33.45929666699999],[130.563007782,33.460642224999994],[130.56299917,33.460894161999995],[130.563104994,33.46107444100001],[130.563066667,33.461601667000004],[130.5625,33.46227208874493],[130.5625,33.46666666666667],[130.575,33.466666666666676],[130.575,33.45833333333334],[130.56432191968062,33.458333333333336],[130.563952776,33.45871861300001],[130.5636,33.45929666699999]]]}},{"type":"Feature","id":"40447:50301456","properties":{"id":"40447:50301456","meshCode":"50301456","cityCode":"40447","city":"筑前町","lat":33.4625,"lon":130.58125,"areaKm2":1.07386,"populated2020":true,"population2020":1382.7189,"populationNote":"収録500mメッシュ人口の合算（原典収録外は補完しない）"},"geometry":{"type":"Polygon","coordinates":[[[130.5875,33.458333333333336],[130.575,33.45833333333334],[130.575,33.466666666666676],[130.5875,33.466666666666676],[130.5875,33.458333333333336]]]}},{"type":"Feature","id":"40447:50301457","properties":{"id":"40447:50301457","meshCode":"50301457","cityCode":"40447","city":"筑前町","lat":33.4625,"lon":130.59375,"areaKm2":1.0738576,"populated2020":true,"population2020":580.6534,"populationNote":"収録500mメッシュ人口の合算（原典収録外は補完しない）"},"geometry":{"type":"Polygon","coordinates":[[[130.6,33.458333333333336],[130.5875,33.458333333333336],[130.5875,33.466666666666676],[130.6,33.466666666666676],[130.6,33.458333333333336]]]}},{"type":"Feature","id":"40447:50301458","properties":{"id":"40447:50301458","meshCode":"50301458","cityCode":"40447","city":"筑前町","lat":33.4625,"lon":130.60625,"areaKm2":1.0738554,"populated2020":true,"population2020":211.1894,"populationNote":"収録500mメッシュ人口の合算（原典収録外は補完しない）"},"geometry":{"type":"Polygon","coordinates":[[[130.6125,33.458333333333336],[130.6,33.458333333333336],[130.6,33.466666666666676],[130.6125,33.46666666666666],[130.6125,33.458333333333336]]]}},{"type":"Feature","id":"40447:50301459","properties":{"id":"40447:50301459","meshCode":"50301459","cityCode":"40447","city":"筑前町","lat":33.4625,"lon":130.61875,"areaKm2":1.0738532,"populated2020":true,"population2020":80.189,"populationNote":"収録500mメッシュ人口の合算（原典収録外は補完しない）"},"geometry":{"type":"Polygon","coordinates":[[[130.625,33.458333333333336],[130.6125,33.458333333333336],[130.6125,33.46666666666666],[130.625,33.46666666666667],[130.625,33.458333333333336]]]}},{"type":"Feature","id":"40447:50301550","properties":{"id":"40447:50301550","meshCode":"50301550","cityCode":"40447","city":"筑前町","lat":33.4625,"lon":130.63125,"areaKm2":1.0738511,"populated2020":true,"population2020":59.8807,"populationNote":"収録500mメッシュ人口の合算（原典収録外は補完しない）"},"geometry":{"type":"Polygon","coordinates":[[[130.63750000000002,33.458333333333336],[130.625,33.458333333333336],[130.625,33.46666666666667],[130.63750000000002,33.46666666666667],[130.63750000000002,33.458333333333336]]]}},{"type":"Feature","id":"40447:50301551","properties":{"id":"40447:50301551","meshCode":"50301551","cityCode":"40447","city":"筑前町","lat":33.4625976,"lon":130.643531,"areaKm2":1.0341229,"populated2020":false,"population2020":null,"populationNote":"境界またぎ・収録外等のため人口未集計"},"geometry":{"type":"Polygon","coordinates":[[[130.65,33.462243559],[130.649674163,33.462028054],[130.648962218,33.461063613],[130.648916394,33.460264441],[130.649024994,33.459661946],[130.648877224,33.459161667],[130.648517782,33.458635279],[130.64842852109854,33.458333333333336],[130.63750000000002,33.458333333333336],[130.63750000000002,33.46666666666667],[130.65,33.46666666666666],[130.65,33.462243559]]]}},{"type":"Feature","id":"40447:50301552","properties":{"id":"40447:50301552","meshCode":"50301552","cityCode":"40447","city":"筑前町","lat":33.4648139,"lon":130.6516994,"areaKm2":0.1415589,"populated2020":false,"population2020":null,"populationNote":"境界またぎ・収録外等のため人口未集計"},"geometry":{"type":"Polygon","coordinates":[[[130.651466109,33.462823332999996],[130.650634721,33.462147775],[130.650203606,33.462277224999994],[130.65,33.462243559],[130.65,33.46666666666666],[130.65392489009184,33.46666666666667],[130.654254163,33.465953892],[130.654191388,33.465801946],[130.653476667,33.465398054],[130.653385551,33.465129440999995],[130.653550558,33.464590559],[130.653546667,33.464333333000006],[130.653352503,33.463921946],[130.653158054,33.463701108],[130.652308054,33.463174441],[130.651466109,33.462823332999996]]]}},{"type":"Feature","id":"40447:50301464","properties":{"id":"40447:50301464","meshCode":"50301464","cityCode":"40447","city":"筑前町","lat":33.4701065,"lon":130.5620501,"areaKm2":0.0391374,"populated2020":true,"population2020":null,"populationNote":"境界またぎ・収録外等のため人口未集計"},"geometry":{"type":"MultiPolygon","coordinates":[[[[130.56209422811182,33.466666666666676],[130.562152776,33.466916108],[130.5625,33.46725720802324],[130.5625,33.46666666666667],[130.56209422811182,33.466666666666676]]],[[[130.561848327,33.468919721],[130.561694994,33.469245829],[130.561757782,33.46959],[130.561586394,33.470234441],[130.561743606,33.470496946],[130.562296109,33.470972775],[130.562446667,33.471409162],[130.5625,33.47207699021962],[130.5625,33.468106221980484],[130.561848327,33.468919721]]],[[[130.5625,33.47251894146846],[130.562225837,33.473560829],[130.56189,33.473902225],[130.560851388,33.474321667000005],[130.56106166,33.47476944100001],[130.560939663,33.475],[130.5625,33.47500000000001],[130.5625,33.47251894146846]]]]}},{"type":"Feature","id":"40447:50301465","properties":{"id":"40447:50301465","meshCode":"50301465","cityCode":"40447","city":"筑前町","lat":33.4707595,"lon":130.5686721,"areaKm2":1.0513158,"populated2020":true,"population2020":2192.8088,"populationNote":"収録500mメッシュ人口の合算（原典収録外は補完しない）"},"geometry":{"type":"Polygon","coordinates":[[[130.562691115,33.467691946],[130.5625,33.468106221980484],[130.5625,33.47500000000001],[130.570375837,33.475],[130.570876939,33.474629441],[130.571562503,33.474314721000006],[130.57315722400003,33.474717775],[130.573968327,33.47500000000001],[130.574425331,33.475],[130.574490272,33.474521387],[130.574276939,33.474424721000005],[130.574210558,33.473953892000004],[130.575,33.473803667],[130.575,33.466666666666676],[130.5625,33.46666666666667],[130.5625,33.46725720802324],[130.562680558,33.467524721000004],[130.562691115,33.467691946]]]}},{"type":"Feature","id":"40447:50301466","properties":{"id":"40447:50301466","meshCode":"50301466","cityCode":"40447","city":"筑前町","lat":33.4704589,"lon":130.5816125,"areaKm2":0.9630199,"populated2020":true,"population2020":873.2524,"populationNote":"収録500mメッシュ人口の合算（原典収録外は補完しない）"},"geometry":{"type":"Polygon","coordinates":[[[130.5875,33.466666666666676],[130.575,33.466666666666676],[130.575,33.473803667],[130.575364994,33.473734162],[130.575323061,33.473615829],[130.576327224,33.473301108],[130.576387782,33.47345555900001],[130.577931946,33.472568892],[130.578767782,33.473513892],[130.580086394,33.47273277499999],[130.580876939,33.473656387],[130.580663606,33.473695559],[130.580516667,33.473817225000005],[130.580670272,33.474189161999995],[130.581286109,33.474740559],[130.581849663,33.475],[130.5875,33.47500000000001],[130.5875,33.466666666666676]]]}},{"type":"Feature","id":"40447:50301467","properties":{"id":"40447:50301467","meshCode":"50301467","cityCode":"40447","city":"筑前町","lat":33.4708333,"lon":130.59375,"areaKm2":1.0737564,"populated2020":true,"population2020":235.0012,"populationNote":"収録500mメッシュ人口の合算（原典収録外は補完しない）"},"geometry":{"type":"Polygon","coordinates":[[[130.6,33.466666666666676],[130.5875,33.466666666666676],[130.5875,33.47500000000001],[130.6,33.47500000000001],[130.6,33.466666666666676]]]}},{"type":"Feature","id":"40447:50301468","properties":{"id":"40447:50301468","meshCode":"50301468","cityCode":"40447","city":"筑前町","lat":33.4708333,"lon":130.60625,"areaKm2":1.073754,"populated2020":true,"population2020":170.5947,"populationNote":"収録500mメッシュ人口の合算（原典収録外は補完しない）"},"geometry":{"type":"Polygon","coordinates":[[[130.6125,33.46666666666666],[130.6,33.466666666666676],[130.6,33.47500000000001],[130.6125,33.475],[130.6125,33.46666666666666]]]}},{"type":"Feature","id":"40447:50301469","properties":{"id":"40447:50301469","meshCode":"50301469","cityCode":"40447","city":"筑前町","lat":33.4708333,"lon":130.61875,"areaKm2":1.0737519,"populated2020":true,"population2020":139.1561,"populationNote":"収録500mメッシュ人口の合算（原典収録外は補完しない）"},"geometry":{"type":"Polygon","coordinates":[[[130.625,33.46666666666667],[130.6125,33.46666666666666],[130.6125,33.475],[130.625,33.47500000000001],[130.625,33.46666666666667]]]}},{"type":"Feature","id":"40447:50301560","properties":{"id":"40447:50301560","meshCode":"50301560","cityCode":"40447","city":"筑前町","lat":33.4708333,"lon":130.63125,"areaKm2":1.0737497,"populated2020":true,"population2020":133.0072,"populationNote":"収録500mメッシュ人口の合算（原典収録外は補完しない）"},"geometry":{"type":"Polygon","coordinates":[[[130.63750000000002,33.46666666666667],[130.625,33.46666666666667],[130.625,33.47500000000001],[130.63750000000002,33.47500000000001],[130.63750000000002,33.46666666666667]]]}},{"type":"Feature","id":"40447:50301561","properties":{"id":"40447:50301561","meshCode":"50301561","cityCode":"40447","city":"筑前町","lat":33.4708333,"lon":130.64375,"areaKm2":1.0737476,"populated2020":false,"population2020":null,"populationNote":"境界またぎ・収録外等のため人口未集計"},"geometry":{"type":"Polygon","coordinates":[[[130.65,33.46666666666666],[130.63750000000002,33.46666666666667],[130.63750000000002,33.47500000000001],[130.65,33.475],[130.65,33.46666666666666]]]}},{"type":"Feature","id":"40447:50301562","properties":{"id":"40447:50301562","meshCode":"50301562","cityCode":"40447","city":"筑前町","lat":33.4716741,"lon":130.6535805,"areaKm2":0.5338921,"populated2020":false,"population2020":null,"populationNote":"境界またぎ・収録外等のため人口未集計"},"geometry":{"type":"Polygon","coordinates":[[[130.655535837,33.470543333],[130.654701115,33.47016444100001],[130.654425837,33.469759999999994],[130.654422218,33.469366387],[130.654531388,33.469102775],[130.654077782,33.46853],[130.654059442,33.468357774999994],[130.654241388,33.467833613],[130.653889442,33.467243613],[130.653832776,33.467008613],[130.65392489009184,33.46666666666667],[130.65,33.46666666666666],[130.65,33.475],[130.661141777,33.47500000000001],[130.661182776,33.474712495000006],[130.661107224,33.474288892000004],[130.660758327,33.474110559],[130.660311115,33.474060279],[130.660137224,33.473875279],[130.66017083,33.473306946],[130.659893891,33.473072495],[130.659315279,33.473109162],[130.659009442,33.473423613],[130.658747224,33.473569721],[130.658446109,33.47359055900001],[130.658139442,33.47350749499999],[130.657347224,33.473496667],[130.656485279,33.473031946],[130.65636166,33.472906946],[130.656316667,33.472601108],[130.656536109,33.472011667000004],[130.656531388,33.47179527899999],[130.655784449,33.471090279],[130.655535837,33.470543333]]]}},{"type":"Feature","id":"40447:50301474","properties":{"id":"40447:50301474","meshCode":"50301474","cityCode":"40447","city":"筑前町","lat":33.4757472,"lon":130.5618677,"areaKm2":0.0217453,"populated2020":true,"population2020":null,"populationNote":"境界またぎ・収録外等のため人口未集計"},"geometry":{"type":"Polygon","coordinates":[[[130.560848054,33.475173054],[130.560911115,33.475383054],[130.561652776,33.476380559000006],[130.562246394,33.47677916200001],[130.5625,33.47718545205964],[130.5625,33.47500000000001],[130.560939663,33.475],[130.560848054,33.475173054]]]}},{"type":"Feature","id":"40447:50301475","properties":{"id":"40447:50301475","meshCode":"50301475","cityCode":"40447","city":"筑前町","lat":33.4776484,"lon":130.5658993,"areaKm2":0.3002267,"populated2020":true,"population2020":null,"populationNote":"境界またぎ・収録外等のため人口未集計"},"geometry":{"type":"MultiPolygon","coordinates":[[[[130.574425331,33.475],[130.573968327,33.47500000000001],[130.574369442,33.475126387],[130.574425331,33.475]]],[[[130.569557782,33.475961387],[130.570093333,33.475252775],[130.570375837,33.475],[130.5625,33.47500000000001],[130.5625,33.47718545205964],[130.56278166,33.477760279],[130.563750558,33.478778892],[130.564609728,33.479446108],[130.565616939,33.480793613],[130.566783061,33.481861946],[130.567251946,33.481898054],[130.568014721,33.481612495],[130.568210558,33.481419162],[130.568333061,33.481140279],[130.568399442,33.480677775],[130.56823166,33.48006555900001],[130.567462218,33.478433054],[130.566313061,33.47680749500001],[130.566484721,33.476722225],[130.567026939,33.476840279],[130.567953606,33.476784721],[130.56819166,33.476525279],[130.569078612,33.476312495],[130.569557782,33.475961387]]]]}},{"type":"Feature","id":"40447:50301476","properties":{"id":"40447:50301476","meshCode":"50301476","cityCode":"40447","city":"筑前町","lat":33.4774555,"lon":130.5855864,"areaKm2":0.2154179,"populated2020":true,"population2020":null,"populationNote":"境界またぎ・収録外等のため人口未集計"},"geometry":{"type":"Polygon","coordinates":[[[130.581849663,33.475],[130.582487497,33.475592495],[130.582784721,33.47575666699999],[130.58318,33.476742775],[130.583131115,33.47692638699999],[130.58330250300003,33.47749082899999],[130.583819728,33.478122225],[130.585260272,33.478909162],[130.585557782,33.479240559000004],[130.58548083,33.479801108000004],[130.585574721,33.480799721],[130.585655279,33.48097055899999],[130.586068054,33.481],[130.586284994,33.481141108],[130.5875,33.481354884572596],[130.5875,33.47500000000001],[130.581849663,33.475]]]}},{"type":"Feature","id":"40447:50301477","properties":{"id":"40447:50301477","meshCode":"50301477","cityCode":"40447","city":"筑前町","lat":33.4790817,"lon":130.5938926,"areaKm2":1.0467684,"populated2020":true,"population2020":175.8162,"populationNote":"収録500mメッシュ人口の合算（原典収録外は補完しない）"},"geometry":{"type":"Polygon","coordinates":[[[130.6,33.47500000000001],[130.5875,33.47500000000001],[130.5875,33.481354884572596],[130.588082776,33.481392225],[130.588398054,33.481484162],[130.588515279,33.48162389200001],[130.588616667,33.48201110800001],[130.588907224,33.482368892],[130.5892149160436,33.483333333333334],[130.6,33.48333333333334],[130.6,33.47500000000001]]]}},{"type":"Feature","id":"40447:50301478","properties":{"id":"40447:50301478","meshCode":"50301478","cityCode":"40447","city":"筑前町","lat":33.4791667,"lon":130.60625,"areaKm2":1.0736528,"populated2020":true,"population2020":168.4513,"populationNote":"収録500mメッシュ人口の合算（原典収録外は補完しない）"},"geometry":{"type":"Polygon","coordinates":[[[130.6125,33.475],[130.6,33.47500000000001],[130.6,33.48333333333334],[130.6125,33.483333333333334],[130.6125,33.475]]]}},{"type":"Feature","id":"40447:50301479","properties":{"id":"40447:50301479","meshCode":"50301479","cityCode":"40447","city":"筑前町","lat":33.4791667,"lon":130.61875,"areaKm2":1.0736505,"populated2020":true,"population2020":215.2637,"populationNote":"収録500mメッシュ人口の合算（原典収録外は補完しない）"},"geometry":{"type":"Polygon","coordinates":[[[130.625,33.47500000000001],[130.6125,33.475],[130.6125,33.483333333333334],[130.625,33.48333333333334],[130.625,33.47500000000001]]]}},{"type":"Feature","id":"40447:50301570","properties":{"id":"40447:50301570","meshCode":"50301570","cityCode":"40447","city":"筑前町","lat":33.4791667,"lon":130.63125,"areaKm2":1.0736484,"populated2020":false,"population2020":null,"populationNote":"境界またぎ・収録外等のため人口未集計"},"geometry":{"type":"Polygon","coordinates":[[[130.63750000000002,33.47500000000001],[130.625,33.47500000000001],[130.625,33.48333333333334],[130.63750000000002,33.48333333333334],[130.63750000000002,33.47500000000001]]]}},{"type":"Feature","id":"40447:50301571","properties":{"id":"40447:50301571","meshCode":"50301571","cityCode":"40447","city":"筑前町","lat":33.4791667,"lon":130.64375,"areaKm2":1.0736463,"populated2020":true,"population2020":5.0829,"populationNote":"収録500mメッシュ人口の合算（原典収録外は補完しない）"},"geometry":{"type":"Polygon","coordinates":[[[130.65,33.475],[130.63750000000002,33.47500000000001],[130.63750000000002,33.48333333333334],[130.65,33.483333333333334],[130.65,33.475]]]}},{"type":"Feature","id":"40447:50301572","properties":{"id":"40447:50301572","meshCode":"50301572","cityCode":"40447","city":"筑前町","lat":33.4792395,"lon":130.6561211,"areaKm2":1.0499188,"populated2020":true,"population2020":3.0561,"populationNote":"収録500mメッシュ人口の合算（原典収録外は補完しない）"},"geometry":{"type":"Polygon","coordinates":[[[130.6625,33.47747953773219],[130.661983061,33.477048333],[130.661624449,33.476401667],[130.66133083,33.476045],[130.661162503,33.475518054],[130.661141777,33.47500000000001],[130.65,33.475],[130.65,33.483333333333334],[130.6625,33.48333333333333],[130.6625,33.47747953773219]]]}},{"type":"Feature","id":"40447:50301573","properties":{"id":"40447:50301573","meshCode":"50301573","cityCode":"40447","city":"筑前町","lat":33.4812327,"lon":130.663515,"areaKm2":0.0934371,"populated2020":false,"population2020":null,"populationNote":"境界またぎ・収録外等のため人口未集計"},"geometry":{"type":"Polygon","coordinates":[[[130.662983891,33.47910972099999],[130.662806109,33.478586108],[130.662832776,33.477839162],[130.6625,33.47747953773219],[130.6625,33.48333333333333],[130.66510975425246,33.48333333333334],[130.664666939,33.482666667],[130.664574721,33.482136387],[130.664723891,33.481305559],[130.664666394,33.480495279],[130.664857224,33.480091946],[130.664182503,33.47967222500001],[130.663203606,33.479331667],[130.662983891,33.47910972099999]]]}},{"type":"Feature","id":"40447:50301487","properties":{"id":"40447:50301487","meshCode":"50301487","cityCode":"40447","city":"筑前町","lat":33.4854583,"lon":130.595161,"areaKm2":0.45872,"populated2020":true,"population2020":null,"populationNote":"境界またぎ・収録外等のため人口未集計"},"geometry":{"type":"Polygon","coordinates":[[[130.5892149160436,33.483333333333334],[130.58913083,33.484075000000004],[130.588760272,33.484680279],[130.588788327,33.484998613],[130.589015837,33.485422225],[130.589019442,33.485734162],[130.589997224,33.486025],[130.591054721,33.486757225],[130.591528054,33.486068613],[130.591780272,33.486134162],[130.592211946,33.486418891999996],[130.592567224,33.486998332999995],[130.592714449,33.48711333300001],[130.593327224,33.487273892],[130.594260558,33.48733861299999],[130.595402218,33.488087495],[130.596018327,33.488317495000004],[130.596312503,33.488330559],[130.598000558,33.48793638699999],[130.598644994,33.488100559],[130.599422218,33.488488054],[130.6,33.488909135],[130.6,33.48333333333334],[130.5892149160436,33.483333333333334]]]}},{"type":"Feature","id":"40447:50301488","properties":{"id":"40447:50301488","meshCode":"50301488","cityCode":"40447","city":"筑前町","lat":33.4872353,"lon":130.6066428,"areaKm2":0.9876438,"populated2020":false,"population2020":null,"populationNote":"境界またぎ・収録外等のため人口未集計"},"geometry":{"type":"Polygon","coordinates":[[[130.6125,33.483333333333334],[130.6,33.48333333333334],[130.6,33.488909135],[130.600303061,33.488972775],[130.601325837,33.488861108],[130.601583061,33.488905829],[130.60198917,33.489135559],[130.602710558,33.490311387000006],[130.604156394,33.491477225],[130.604464721,33.491562775],[130.604891946,33.491588892],[130.605473333,33.491438054],[130.606033606,33.491595559000004],[130.606698885,33.49146416199999],[130.60711027169376,33.491666666666674],[130.6125,33.491666666666674],[130.6125,33.483333333333334]]]}},{"type":"Feature","id":"40447:50301489","properties":{"id":"40447:50301489","meshCode":"50301489","cityCode":"40447","city":"筑前町","lat":33.4875,"lon":130.61875,"areaKm2":1.0735492,"populated2020":true,"population2020":38.6048,"populationNote":"収録500mメッシュ人口の合算（原典収録外は補完しない）"},"geometry":{"type":"Polygon","coordinates":[[[130.625,33.48333333333334],[130.6125,33.483333333333334],[130.6125,33.491666666666674],[130.625,33.491666666666674],[130.625,33.48333333333334]]]}},{"type":"Feature","id":"40447:50301580","properties":{"id":"40447:50301580","meshCode":"50301580","cityCode":"40447","city":"筑前町","lat":33.4875,"lon":130.63125,"areaKm2":1.073547,"populated2020":false,"population2020":null,"populationNote":"境界またぎ・収録外等のため人口未集計"},"geometry":{"type":"Polygon","coordinates":[[[130.63750000000002,33.48333333333334],[130.625,33.48333333333334],[130.625,33.491666666666674],[130.63750000000002,33.491666666666674],[130.63750000000002,33.48333333333334]]]}},{"type":"Feature","id":"40447:50301581","properties":{"id":"40447:50301581","meshCode":"50301581","cityCode":"40447","city":"筑前町","lat":33.4875,"lon":130.64375,"areaKm2":1.0735449,"populated2020":false,"population2020":null,"populationNote":"境界またぎ・収録外等のため人口未集計"},"geometry":{"type":"Polygon","coordinates":[[[130.65,33.483333333333334],[130.63750000000002,33.48333333333334],[130.63750000000002,33.491666666666674],[130.65,33.491666666666674],[130.65,33.483333333333334]]]}},{"type":"Feature","id":"40447:50301582","properties":{"id":"40447:50301582","meshCode":"50301582","cityCode":"40447","city":"筑前町","lat":33.4874991,"lon":130.6562395,"areaKm2":1.0717077,"populated2020":true,"population2020":83.3596,"populationNote":"収録500mメッシュ人口の合算（原典収録外は補完しない）"},"geometry":{"type":"Polygon","coordinates":[[[130.6625,33.48746701757306],[130.6625,33.48333333333333],[130.65,33.483333333333334],[130.65,33.491666666666674],[130.6625,33.49166666666667],[130.6625,33.48848568082481],[130.662184721,33.488139161999996],[130.6625,33.48746701757306]]]}},{"type":"Feature","id":"40447:50301583","properties":{"id":"40447:50301583","meshCode":"50301583","cityCode":"40447","city":"筑前町","lat":33.4899599,"lon":130.6642451,"areaKm2":0.2081375,"populated2020":false,"population2020":null,"populationNote":"境界またぎ・収録外等のため人口未集計"},"geometry":{"type":"MultiPolygon","coordinates":[[[[130.6625,33.48746701757306],[130.66295917,33.486886387000006],[130.663453606,33.48678749500001],[130.663836667,33.486421667],[130.664363333,33.486070279],[130.664789728,33.486205829],[130.665903606,33.485720279],[130.665924994,33.48556527899999],[130.665628327,33.484545559],[130.665227224,33.483473892],[130.66510975425246,33.48333333333334],[130.6625,33.48333333333333],[130.6625,33.48746701757306]]],[[[130.66563267251783,33.49166666666667],[130.666209728,33.491258333],[130.666564721,33.491129441],[130.666624994,33.490892495],[130.666044163,33.490389162],[130.66595832700003,33.490212495],[130.666044449,33.48958638700001],[130.665853333,33.489051108],[130.66561083,33.48872],[130.665509442,33.488629162],[130.66524,33.48857916199999],[130.664352218,33.488636946],[130.663687497,33.488736946],[130.66326166,33.489003613],[130.66302917,33.488927225],[130.6625,33.48848568082481],[130.6625,33.49166666666667],[130.66563267251783,33.49166666666667]]]]}},{"type":"Feature","id":"40447:50301498","properties":{"id":"40447:50301498","meshCode":"50301498","cityCode":"40447","city":"筑前町","lat":33.4943142,"lon":130.6110152,"areaKm2":0.168895,"populated2020":false,"population2020":null,"populationNote":"境界またぎ・収録外等のため人口未集計"},"geometry":{"type":"Polygon","coordinates":[[[130.60711027169376,33.491666666666674],[130.60789639400002,33.49244305399999],[130.608274721,33.49266638700001],[130.609414163,33.49280194600001],[130.610163606,33.492808333],[130.610317782,33.492886946000006],[130.61045083,33.493320559],[130.61048583700003,33.49410889200001],[130.60996749700004,33.495251667],[130.610009728,33.495921387],[130.610728054,33.49693555900001],[130.611078054,33.497631946],[130.611736667,33.498013054],[130.612191946,33.498584441],[130.6125,33.49871576141949],[130.6125,33.491666666666674],[130.60711027169376,33.491666666666674]]]}},{"type":"Feature","id":"40447:50301499","properties":{"id":"40447:50301499","meshCode":"50301499","cityCode":"40447","city":"筑前町","lat":33.4957871,"lon":130.6188201,"areaKm2":1.0602417,"populated2020":false,"population2020":null,"populationNote":"境界またぎ・収録外等のため人口未集計"},"geometry":{"type":"Polygon","coordinates":[[[130.625,33.491666666666674],[130.6125,33.491666666666674],[130.6125,33.49871576141949],[130.613795551,33.499530279000005],[130.614110558,33.49979305400001],[130.614156394,33.5],[130.625,33.5],[130.625,33.491666666666674]]]}},{"type":"Feature","id":"40447:50301590","properties":{"id":"40447:50301590","meshCode":"50301590","cityCode":"40447","city":"筑前町","lat":33.4958333,"lon":130.63125,"areaKm2":1.0734456,"populated2020":false,"population2020":null,"populationNote":"境界またぎ・収録外等のため人口未集計"},"geometry":{"type":"Polygon","coordinates":[[[130.63750000000002,33.491666666666674],[130.625,33.491666666666674],[130.625,33.5],[130.63750000000002,33.5],[130.63750000000002,33.491666666666674]]]}},{"type":"Feature","id":"40447:50301591","properties":{"id":"40447:50301591","meshCode":"50301591","cityCode":"40447","city":"筑前町","lat":33.4958333,"lon":130.64375,"areaKm2":1.0734436,"populated2020":true,"population2020":25.4423,"populationNote":"収録500mメッシュ人口の合算（原典収録外は補完しない）"},"geometry":{"type":"Polygon","coordinates":[[[130.65,33.491666666666674],[130.63750000000002,33.491666666666674],[130.63750000000002,33.5],[130.65,33.5],[130.65,33.491666666666674]]]}},{"type":"Feature","id":"40447:50301592","properties":{"id":"40447:50301592","meshCode":"50301592","cityCode":"40447","city":"筑前町","lat":33.4958333,"lon":130.65625,"areaKm2":1.0734415,"populated2020":true,"population2020":19.3451,"populationNote":"収録500mメッシュ人口の合算（原典収録外は補完しない）"},"geometry":{"type":"Polygon","coordinates":[[[130.6625,33.49166666666667],[130.65,33.491666666666674],[130.65,33.5],[130.6625,33.5],[130.6625,33.49166666666667]]]}},{"type":"Feature","id":"40447:50301593","properties":{"id":"40447:50301593","meshCode":"50301593","cityCode":"40447","city":"筑前町","lat":33.4966697,"lon":130.6647622,"areaKm2":0.3408002,"populated2020":false,"population2020":null,"populationNote":"境界またぎ・収録外等のため人口未集計"},"geometry":{"type":"Polygon","coordinates":[[[130.665917224,33.495638054],[130.665646394,33.495365828999994],[130.665511115,33.49508138699999],[130.665570272,33.49464499999999],[130.665718612,33.494397495],[130.665647497,33.494233892],[130.665063606,33.494395279],[130.664874163,33.494218892],[130.664994721,33.493276386999995],[130.664558054,33.49272166699999],[130.664566667,33.492545279],[130.664856667,33.492218054000006],[130.66563267251783,33.49166666666667],[130.6625,33.49166666666667],[130.6625,33.5],[130.667478275,33.5],[130.668063333,33.499842495],[130.668280558,33.49957610800001],[130.668594994,33.499042495],[130.668742503,33.498598054],[130.668676394,33.498091108000004],[130.668124994,33.497546107999995],[130.667374994,33.497206108],[130.666266109,33.496535558999994],[130.665917224,33.495638054]]]}},{"type":"Feature","id":"40447:50302409","properties":{"id":"40447:50302409","meshCode":"50302409","cityCode":"40447","city":"筑前町","lat":33.5024392,"lon":130.6207237,"areaKm2":0.4568883,"populated2020":false,"population2020":null,"populationNote":"境界またぎ・収録外等のため人口未集計"},"geometry":{"type":"Polygon","coordinates":[[[130.614149442,33.500635559],[130.614373606,33.500865559],[130.614828612,33.50101],[130.616313333,33.500990279],[130.616341388,33.502178892],[130.617252218,33.503303054],[130.618576109,33.504599162],[130.61942,33.505040559],[130.620423891,33.505753892],[130.621446394,33.506098892],[130.622452503,33.505779440999994],[130.622691946,33.50527000000001],[130.622986394,33.505129162],[130.623505551,33.505190559000006],[130.623733061,33.505151667],[130.62396499400003,33.505051667],[130.62407000000002,33.504895],[130.624666394,33.504907225],[130.625,33.504678162],[130.625,33.5],[130.614156394,33.5],[130.614149442,33.500635559]]]}},{"type":"Feature","id":"40447:50302500","properties":{"id":"40447:50302500","meshCode":"50302500","cityCode":"40447","city":"筑前町","lat":33.5030349,"lon":130.6316237,"areaKm2":0.7456207,"populated2020":false,"population2020":null,"populationNote":"境界またぎ・収録外等のため人口未集計"},"geometry":{"type":"Polygon","coordinates":[[[130.626711946,33.504080829],[130.627251388,33.50419082900001],[130.627925837,33.504510279],[130.62808666700002,33.504883054000004],[130.628311388,33.505082775000005],[130.62886917,33.505375828999995],[130.629232218,33.50603972100001],[130.629549728,33.50636138699999],[130.631030272,33.505885],[130.63141416300002,33.505891108],[130.63192083,33.506017494999995],[130.632684994,33.506626387],[130.632801115,33.506858613],[130.633086667,33.507701387],[130.6330701950865,33.50833333333333],[130.63452160797195,33.50833333333333],[130.634443891,33.507943892],[130.634585279,33.507556946],[130.634804994,33.507294162],[130.634968054,33.507249441],[130.6352,33.507322775],[130.635307782,33.507251387000004],[130.635371946,33.506651108],[130.635288612,33.505553613],[130.635384163,33.505341667],[130.636024449,33.504810559],[130.63750000000002,33.505105285136466],[130.63750000000002,33.5],[130.625,33.5],[130.625,33.504678162],[130.626236667,33.504449162],[130.626534994,33.50412749499999],[130.626711946,33.504080829]]]}},{"type":"Feature","id":"40447:50302501","properties":{"id":"40447:50302501","meshCode":"50302501","cityCode":"40447","city":"筑前町","lat":33.5034598,"lon":130.6444303,"areaKm2":0.857651,"populated2020":true,"population2020":6.1014,"populationNote":"収録500mメッシュ人口の合算（原典収録外は補完しない）"},"geometry":{"type":"Polygon","coordinates":[[[130.65,33.5],[130.63750000000002,33.5],[130.63750000000002,33.505105285136466],[130.639973606,33.505329721],[130.64087000000004,33.50534582899999],[130.641494994,33.505543333000006],[130.642144163,33.505504721],[130.644930272,33.50682222500001],[130.645258054,33.507321108000006],[130.645554163,33.507533054],[130.64606802959327,33.50833333333333],[130.65,33.50833333333334],[130.65,33.5]]]}},{"type":"Feature","id":"40447:50302502","properties":{"id":"40447:50302502","meshCode":"50302502","cityCode":"40447","city":"筑前町","lat":33.5038925,"lon":130.6556671,"areaKm2":0.9582554,"populated2020":true,"population2020":6.12,"populationNote":"収録500mメッシュ人口の合算（原典収録外は補完しない）"},"geometry":{"type":"Polygon","coordinates":[[[130.660228885,33.504193892],[130.660666394,33.50407555899999],[130.661615551,33.504362775],[130.662032776,33.504377225],[130.662213891,33.504020829000005],[130.6625,33.5037216070819],[130.6625,33.5],[130.65,33.5],[130.65,33.50833333333334],[130.65874472049842,33.50833333333334],[130.658915837,33.50819472100001],[130.658981115,33.507974721],[130.659574163,33.507233613000004],[130.659469442,33.506429440999995],[130.659572218,33.506278613000006],[130.66030083,33.506070829],[130.660576939,33.505673892000004],[130.660591115,33.505248054],[130.660093606,33.50491027900001],[130.659954994,33.504568053999996],[130.660228885,33.504193892]]]}},{"type":"Feature","id":"40447:50302503","properties":{"id":"40447:50302503","meshCode":"50302503","cityCode":"40447","city":"筑前町","lat":33.5013491,"lon":130.6642364,"areaKm2":0.1077211,"populated2020":false,"population2020":null,"populationNote":"境界またぎ・収録外等のため人口未集計"},"geometry":{"type":"Polygon","coordinates":[[[130.6625,33.5037216070819],[130.663064721,33.503428054],[130.663740558,33.50336805399999],[130.664209442,33.503048613],[130.664413606,33.502764441],[130.664566109,33.50232277500001],[130.665050558,33.502041108],[130.665683606,33.501518333],[130.666339442,33.500748054000006],[130.666495551,33.500689162],[130.66690639400002,33.500711667],[130.667069728,33.50079361299999],[130.667375279,33.500741946],[130.667306394,33.50019972100001],[130.667396667,33.500015279],[130.667478275,33.5],[130.6625,33.5],[130.6625,33.5037216070819]]]}},{"type":"Feature","id":"40447:50302510","properties":{"id":"40447:50302510","meshCode":"50302510","cityCode":"40447","city":"筑前町","lat":33.5088079,"lon":130.6338248,"areaKm2":0.0127137,"populated2020":true,"population2020":null,"populationNote":"境界またぎ・収録外等のため人口未集計"},"geometry":{"type":"Polygon","coordinates":[[[130.633215837,33.508894721],[130.633416394,33.509216387],[130.633915279,33.509493333],[130.634151388,33.509371387],[130.634336394,33.509141108],[130.63452160797195,33.50833333333333],[130.6330701950865,33.50833333333333],[130.633215837,33.508894721]]]}},{"type":"Feature","id":"40447:50302511","properties":{"id":"40447:50302511","meshCode":"50302511","cityCode":"40447","city":"筑前町","lat":33.508838,"lon":130.6485849,"areaKm2":0.0299978,"populated2020":false,"population2020":null,"populationNote":"境界またぎ・収録外等のため人口未集計"},"geometry":{"type":"Polygon","coordinates":[[[130.646198054,33.508406387],[130.647039728,33.50846555900001],[130.647481388,33.509031667],[130.648686109,33.509771107999995],[130.649085837,33.509378054],[130.649340272,33.50926],[130.65,33.509265586],[130.65,33.50833333333334],[130.64606802959327,33.50833333333333],[130.646198054,33.508406387]]]}},{"type":"Feature","id":"40447:50302512","properties":{"id":"40447:50302512","meshCode":"50302512","cityCode":"40447","city":"筑前町","lat":33.5092936,"lon":130.6541581,"areaKm2":0.1401034,"populated2020":false,"population2020":null,"populationNote":"境界またぎ・収録外等のため人口未集計"},"geometry":{"type":"Polygon","coordinates":[[[130.656561388,33.510151667],[130.656976667,33.509813613],[130.657082503,33.509394441],[130.65756360600002,33.509172495],[130.658048054,33.508677495],[130.65874472049842,33.50833333333334],[130.65,33.50833333333334],[130.65,33.509265586],[130.650891388,33.509072495],[130.651135837,33.509170279],[130.651759442,33.509528613],[130.651940558,33.509705829],[130.652075837,33.51006833299999],[130.652856394,33.510819999999995],[130.653135279,33.510954162],[130.653904449,33.510728333],[130.654398054,33.510685559],[130.655125551,33.510281946000006],[130.655563061,33.510420559],[130.655929442,33.510410279],[130.656561388,33.510151667]]]}}]}