{"type":"FeatureCollection","metadata":{"cityCode":"40503","city":"大刀洗町","resolution":500,"boundaryDate":"2026-01-01","populationLabel":"2020年基準人口（国交省調整値）","method":"標準地域メッシュを行政界で切抜き。中心が区域外のとき区域内代表点を判定点にする。人口不明をゼロにしない。"},"features":[{"type":"Feature","id":"40503:503005201","properties":{"id":"40503:503005201","meshCode":"503005201","cityCode":"40503","city":"大刀洗町","lat":33.3536937,"lon":130.6309442,"areaKm2":0.0062976,"populated2020":true,"population2020":null,"populationNote":"境界またぎ・原典収録外のため自治体内人口は未集計"},"geometry":{"type":"Polygon","coordinates":[[[130.63125,33.35294218943188],[130.63025317361055,33.354166666666664],[130.63125,33.354166666666664],[130.63125,33.35294218943188]]]}},{"type":"Feature","id":"40503:503005202","properties":{"id":"40503:503005202","meshCode":"503005202","cityCode":"40503","city":"大刀洗町","lat":33.3535321,"lon":130.6318314,"areaKm2":0.0152641,"populated2020":true,"population2020":null,"populationNote":"境界またぎ・原典収録外のため自治体内人口は未集計"},"geometry":{"type":"Polygon","coordinates":[[[130.63340305158192,33.354166666666664],[130.63333325600001,33.35412194600013],[130.631332983,33.35284013500007],[130.63125,33.35294218943188],[130.63125,33.354166666666664],[130.63340305158192,33.354166666666664]]]}},{"type":"Feature","id":"40503:503005203","properties":{"id":"40503:503005203","meshCode":"503005203","cityCode":"40503","city":"大刀洗町","lat":33.3564515,"lon":130.6303416,"areaKm2":0.0884017,"populated2020":true,"population2020":null,"populationNote":"境界またぎ・原典収録外のため自治体内人口は未集計"},"geometry":{"type":"Polygon","coordinates":[[[130.63025317361055,33.354166666666664],[130.62927520100004,33.35536763100009],[130.62919076499998,33.355946523],[130.62950631600006,33.35598957700005],[130.629352153,33.35696291],[130.62871354100014,33.356913468000016],[130.62859965000007,33.357769297],[130.62846770400017,33.357738468000036],[130.62821884586123,33.358333333333334],[130.63125,33.358333333333334],[130.63125,33.354166666666664],[130.63025317361055,33.354166666666664]]]}},{"type":"Feature","id":"40503:503005204","properties":{"id":"40503:503005204","meshCode":"503005204","cityCode":"40503","city":"大刀洗町","lat":33.35625,"lon":130.634375,"areaKm2":0.2133225,"populated2020":true,"population2020":null,"populationNote":"境界またぎ・原典収録外のため自治体内人口は未集計"},"geometry":{"type":"Polygon","coordinates":[[[130.63750000000002,33.35678438445968],[130.63340305158192,33.354166666666664],[130.63125,33.354166666666664],[130.63125,33.358333333333334],[130.63750000000002,33.358333333333334],[130.63750000000002,33.35678438445968]]]}},{"type":"Feature","id":"40503:503005213","properties":{"id":"40503:503005213","meshCode":"503005213","cityCode":"40503","city":"大刀洗町","lat":33.357188,"lon":130.6378182,"areaKm2":0.0195291,"populated2020":true,"population2020":null,"populationNote":"境界またぎ・原典収録外のため自治体内人口は未集計"},"geometry":{"type":"Polygon","coordinates":[[[130.6399431780002,33.35833333299997],[130.63958297,33.35810486500009],[130.63750000000002,33.35678438445968],[130.63750000000002,33.358333333333334],[130.6399431780002,33.35833333299997]]]}},{"type":"Feature","id":"40503:503005301","properties":{"id":"40503:503005301","meshCode":"503005301","cityCode":"40503","city":"大刀洗町","lat":33.3606604,"lon":130.629812,"areaKm2":0.1341076,"populated2020":true,"population2020":null,"populationNote":"境界またぎ・原典収録外のため自治体内人口は未集計"},"geometry":{"type":"Polygon","coordinates":[[[130.62821867700006,33.358333738999995],[130.62758658899997,33.35984485600005],[130.62844548600015,33.36012207200008],[130.62830965,33.36114401800011],[130.62807492900004,33.36155679300004],[130.62742520100016,33.36220345900011],[130.62837214,33.3624129100001],[130.6284307520001,33.36220346800002],[130.62904381299995,33.362240405000136],[130.63049542312174,33.3625],[130.63125,33.362500000000004],[130.63125,33.358333333333334],[130.62821867700006,33.358333738999995]]]}},{"type":"Feature","id":"40503:503005302","properties":{"id":"40503:503005302","meshCode":"503005302","cityCode":"40503","city":"大刀洗町","lat":33.3604167,"lon":130.634375,"areaKm2":0.2687713,"populated2020":true,"population2020":104.7267,"populationNote":"2020年基準の国交省調整値"},"geometry":{"type":"Polygon","coordinates":[[[130.63125,33.362500000000004],[130.63750000000002,33.362500000000004],[130.63750000000002,33.358333333333334],[130.63125,33.358333333333334],[130.63125,33.362500000000004]]]}},{"type":"Feature","id":"40503:503005311","properties":{"id":"40503:503005311","meshCode":"503005311","cityCode":"40503","city":"大刀洗町","lat":33.3604167,"lon":130.640625,"areaKm2":0.2273277,"populated2020":true,"population2020":74.0432,"populationNote":"2020年基準の国交省調整値"},"geometry":{"type":"Polygon","coordinates":[[[130.64226574600013,33.35963181099992],[130.6399431785199,33.35833333333334],[130.63750000000002,33.358333333333334],[130.63750000000002,33.362500000000004],[130.64375,33.3625],[130.64375,33.36033297816205],[130.64226574600013,33.35963181099992]]]}},{"type":"Feature","id":"40503:503005312","properties":{"id":"40503:503005312","meshCode":"503005312","cityCode":"40503","city":"大刀洗町","lat":33.3614872,"lon":130.6451066,"areaKm2":0.0588828,"populated2020":true,"population2020":null,"populationNote":"境界またぎ・原典収録外のため自治体内人口は未集計"},"geometry":{"type":"Polygon","coordinates":[[[130.64936822868697,33.3625],[130.64588990900006,33.361261540999976],[130.64375,33.36033297816205],[130.64375,33.3625],[130.64936822868697,33.3625]]]}},{"type":"Feature","id":"40503:503005321","properties":{"id":"40503:503005321","meshCode":"503005321","cityCode":"40503","city":"大刀洗町","lat":33.3624516,"lon":130.6560691,"areaKm2":0.0003617,"populated2020":true,"population2020":null,"populationNote":"境界またぎ・原典収録外のため自治体内人口は未集計"},"geometry":{"type":"Polygon","coordinates":[[[130.65552645452078,33.362500000000004],[130.65625,33.3625],[130.65625,33.36240311903098],[130.65552645452078,33.362500000000004]]]}},{"type":"Feature","id":"40503:503005322","properties":{"id":"40503:503005322","meshCode":"503005322","cityCode":"40503","city":"大刀洗町","lat":33.362219,"lon":130.6601383,"areaKm2":0.0243402,"populated2020":true,"population2020":null,"populationNote":"境界またぎ・原典収録外のため自治体内人口は未集計"},"geometry":{"type":"Polygon","coordinates":[[[130.6625,33.36209218935094],[130.65958935100002,33.36200627000006],[130.656560454,33.36236155000012],[130.65625,33.36240311903098],[130.65625,33.3625],[130.6625,33.3625],[130.6625,33.36209218935094]]]}},{"type":"Feature","id":"40503:503005331","properties":{"id":"40503:503005331","meshCode":"503005331","cityCode":"40503","city":"大刀洗町","lat":33.3622719,"lon":130.6646151,"areaKm2":0.0152089,"populated2020":true,"population2020":null,"populationNote":"境界またぎ・原典収録外のため自治体内人口は未集計"},"geometry":{"type":"Polygon","coordinates":[[[130.66654723422016,33.3625],[130.66679378700007,33.362192667000095],[130.6625,33.36209218935094],[130.6625,33.3625],[130.66654723422016,33.3625]]]}},{"type":"Feature","id":"40503:503004383","properties":{"id":"40503:503004383","meshCode":"503004383","cityCode":"40503","city":"大刀洗町","lat":33.365005,"lon":130.6050141,"areaKm2":0.079073,"populated2020":true,"population2020":null,"populationNote":"境界またぎ・原典収録外のため自治体内人口は未集計"},"geometry":{"type":"Polygon","coordinates":[[[130.60625,33.36459757965686],[130.605412503,33.36460064],[130.605027484,33.364043919],[130.6039707,33.36345033300001],[130.603764254,33.36378455],[130.603777224,33.365572162],[130.60342201,33.36545555000001],[130.602601621,33.36541605400001],[130.602587951,33.366560495],[130.60330794455004,33.36666666666666],[130.604934397,33.366600747999996],[130.60625,33.366666666666674],[130.60625,33.36459757965686]]]}},{"type":"Feature","id":"40503:503004384","properties":{"id":"40503:503004384","meshCode":"503004384","cityCode":"40503","city":"大刀洗町","lat":33.3656122,"lon":130.610721,"areaKm2":0.0698647,"populated2020":true,"population2020":null,"populationNote":"境界またぎ・原典収録外のため自治体内人口は未集計"},"geometry":{"type":"Polygon","coordinates":[[[130.6125,33.36666666666666],[130.611740208,33.36650345000001],[130.611745201,33.365585117],[130.609745006,33.365587252],[130.609535032,33.36569602699999],[130.609255097,33.365569117],[130.60885131,33.36559178400001],[130.608317977,33.36576178399999],[130.607149339,33.36581],[130.607176952,33.365419558999996],[130.607374786,33.36525864],[130.607419235,33.364608225],[130.60625,33.36459757965686],[130.60625,33.366666666666674],[130.6125,33.36666666666666]]]}},{"type":"Feature","id":"40503:503004393","properties":{"id":"40503:503004393","meshCode":"503004393","cityCode":"40503","city":"大刀洗町","lat":33.3666504,"lon":130.6138851,"areaKm2":0.0009894,"populated2020":true,"population2020":null,"populationNote":"境界またぎ・原典収録外のため自治体内人口は未集計"},"geometry":{"type":"Polygon","coordinates":[[[130.615270117,33.36666666666667],[130.6125,33.36663419982512],[130.6125,33.36666666666666],[130.615270117,33.36666666666667]]]}},{"type":"Feature","id":"40503:503005303","properties":{"id":"40503:503005303","meshCode":"503005303","cityCode":"40503","city":"大刀洗町","lat":33.3658494,"lon":130.6307648,"areaKm2":0.0272696,"populated2020":true,"population2020":null,"populationNote":"境界またぎ・原典収録外のため自治体内人口は未集計"},"geometry":{"type":"MultiPolygon","coordinates":[[[[130.63049542312174,33.3625],[130.63125,33.362678946556976],[130.63125,33.362500000000004],[130.63049542312174,33.3625]]],[[[130.63125,33.36458846125994],[130.62966770399998,33.36501763100006],[130.63046408599996,33.3660831890001],[130.629605201,33.36617568500015],[130.62946020809832,33.36666666666667],[130.63125,33.36666666666666],[130.63125,33.36458846125994]]]]}},{"type":"Feature","id":"40503:503005304","properties":{"id":"40503:503005304","meshCode":"503005304","cityCode":"40503","city":"大刀洗町","lat":33.3645833,"lon":130.634375,"areaKm2":0.2469515,"populated2020":true,"population2020":41.564,"populationNote":"2020年基準の国交省調整値"},"geometry":{"type":"MultiPolygon","coordinates":[[[[130.63140019500008,33.36271457700013],[130.63147352800004,33.36252985600004],[130.6322482490001,33.362696243000016],[130.63241125771106,33.3625],[130.63125,33.362500000000004],[130.63125,33.362678946556976],[130.63140019500008,33.36271457700013]]],[[[130.63292714700015,33.36325652300002],[130.63245741900016,33.36331818899999],[130.6324354730001,33.36384180200002],[130.632104916,33.36387236000007],[130.63209408600017,33.36413124300009],[130.63125,33.36458846125994],[130.63125,33.36666666666666],[130.63750000000002,33.36666666666666],[130.63750000000002,33.362500000000004],[130.63242188225223,33.362500000000004],[130.63292714700015,33.36325652300002]]]]}},{"type":"Feature","id":"40503:503005313","properties":{"id":"40503:503005313","meshCode":"503005313","cityCode":"40503","city":"大刀洗町","lat":33.3645833,"lon":130.640625,"areaKm2":0.2687596,"populated2020":false,"population2020":null,"populationNote":"境界またぎ・原典収録外のため自治体内人口は未集計"},"geometry":{"type":"Polygon","coordinates":[[[130.63750000000002,33.362500000000004],[130.63750000000002,33.36666666666666],[130.64375,33.36666666666666],[130.64375,33.3625],[130.63750000000002,33.362500000000004]]]}},{"type":"Feature","id":"40503:503005314","properties":{"id":"40503:503005314","meshCode":"503005314","cityCode":"40503","city":"大刀洗町","lat":33.3645833,"lon":130.646875,"areaKm2":0.2681163,"populated2020":true,"population2020":253.0699,"populationNote":"2020年基準の国交省調整値"},"geometry":{"type":"Polygon","coordinates":[[[130.64999990900014,33.36268773900002],[130.64936822868697,33.3625],[130.64375,33.3625],[130.64375,33.36666666666666],[130.65,33.36666666666666],[130.64999990900014,33.36268773900002]]]}},{"type":"Feature","id":"40503:503005323","properties":{"id":"40503:503005323","meshCode":"503005323","cityCode":"40503","city":"大刀洗町","lat":33.3645833,"lon":130.653125,"areaKm2":0.2528847,"populated2020":true,"population2020":46.3082,"populationNote":"2020年基準の国交省調整値"},"geometry":{"type":"Polygon","coordinates":[[[130.65612766526837,33.36666666666666],[130.65625,33.366572199681784],[130.65625,33.3625],[130.65552645452078,33.362500000000004],[130.65306073900013,33.36282987399994],[130.651790182,33.36292571200011],[130.65058990900013,33.36284682000013],[130.65,33.362687757],[130.65,33.36666666666666],[130.65612766526837,33.36666666666666]]]}},{"type":"Feature","id":"40503:503005324","properties":{"id":"40503:503005324","meshCode":"503005324","cityCode":"40503","city":"大刀洗町","lat":33.3645833,"lon":130.659375,"areaKm2":0.1738203,"populated2020":true,"population2020":null,"populationNote":"境界またぎ・原典収録外のため自治体内人口は未集計"},"geometry":{"type":"Polygon","coordinates":[[[130.65625,33.366572199681784],[130.65692573299998,33.36654487400005],[130.65819823599998,33.366312936999925],[130.65831073899994,33.36542321600012],[130.65847156899997,33.36530460400007],[130.66059268499998,33.364409604000116],[130.6625,33.364048097041646],[130.6625,33.3625],[130.65625,33.3625],[130.65625,33.366572199681784]]]}},{"type":"Feature","id":"40503:503005333","properties":{"id":"40503:503005333","meshCode":"503005333","cityCode":"40503","city":"大刀洗町","lat":33.3632709,"lon":130.6638229,"areaKm2":0.0391188,"populated2020":false,"population2020":null,"populationNote":"境界またぎ・原典収録外のため自治体内人口は未集計"},"geometry":{"type":"Polygon","coordinates":[[[130.6625,33.364048097041646],[130.66597267200007,33.363012946000026],[130.66616573300007,33.36291572100004],[130.66654723422016,33.3625],[130.6625,33.3625],[130.6625,33.364048097041646]]]}},{"type":"Feature","id":"40503:503004461","properties":{"id":"40503:503004461","meshCode":"503004461","cityCode":"40503","city":"大刀洗町","lat":33.3687186,"lon":130.5801366,"areaKm2":0.1032605,"populated2020":false,"population2020":null,"populationNote":"境界またぎ・原典収録外のため自治体内人口は未集計"},"geometry":{"type":"Polygon","coordinates":[[[130.58125000000004,33.36712831738707],[130.578430454,33.367072865000004],[130.579188794,33.36756981100001],[130.579018236,33.367963982],[130.579027121,33.36928731500001],[130.577951842,33.369302036],[130.57793907180792,33.37083333333333],[130.58125000000004,33.37083333333333],[130.58125000000004,33.36712831738707]]]}},{"type":"Feature","id":"40503:503004462","properties":{"id":"40503:503004462","meshCode":"503004462","cityCode":"40503","city":"大刀洗町","lat":33.36875,"lon":130.584375,"areaKm2":0.238405,"populated2020":true,"population2020":43.543,"populationNote":"2020年基準の国交省調整値"},"geometry":{"type":"Polygon","coordinates":[[[130.58125000000004,33.36712831738707],[130.58125000000004,33.37083333333333],[130.5875,33.37083333333333],[130.5875,33.36710047575533],[130.584824903,33.36716481999999],[130.58125000000004,33.36712831738707]]]}},{"type":"Feature","id":"40503:503004471","properties":{"id":"40503:503004471","meshCode":"503004471","cityCode":"40503","city":"大刀洗町","lat":33.36875,"lon":130.590625,"areaKm2":0.2364333,"populated2020":true,"population2020":154.5073,"populationNote":"2020年基準の国交省調整値"},"geometry":{"type":"Polygon","coordinates":[[[130.59375,33.367234904680686],[130.5875,33.36710047575533],[130.5875,33.37083333333333],[130.59375,33.37083333333332],[130.59375,33.367234904680686]]]}},{"type":"Feature","id":"40503:503004472","properties":{"id":"40503:503004472","meshCode":"503004472","cityCode":"40503","city":"大刀洗町","lat":33.36875,"lon":130.596875,"areaKm2":0.2277492,"populated2020":true,"population2020":126.5145,"populationNote":"2020年基準の国交省調整値"},"geometry":{"type":"Polygon","coordinates":[[[130.599999922,33.367369721],[130.59375,33.367234904680686],[130.59375,33.37083333333332],[130.6,33.37083333333334],[130.599999922,33.367369721]]]}},{"type":"Feature","id":"40503:503004481","properties":{"id":"40503:503004481","meshCode":"503004481","cityCode":"40503","city":"大刀洗町","lat":33.36875,"lon":130.603125,"areaKm2":0.2239439,"populated2020":true,"population2020":126.8165,"populationNote":"2020年基準の国交省調整値"},"geometry":{"type":"MultiPolygon","coordinates":[[[[130.60330794455004,33.36666666666666],[130.603697147,33.366686775],[130.60398366274882,33.36666666666667],[130.60330794455004,33.36666666666666]]],[[[130.605480324,33.366666667],[130.605716563,33.366951559],[130.605730752,33.367368162000005],[130.605805344,33.36746913499999],[130.6,33.367369721],[130.6,33.37083333333334],[130.60625,33.37083333333332],[130.60625,33.366666666666674],[130.605480324,33.366666667]]]]}},{"type":"Feature","id":"40503:503004482","properties":{"id":"40503:503004482","meshCode":"503004482","cityCode":"40503","city":"大刀洗町","lat":33.36875,"lon":130.609375,"areaKm2":0.2687483,"populated2020":false,"population2020":null,"populationNote":"境界またぎ・原典収録外のため自治体内人口は未集計"},"geometry":{"type":"Polygon","coordinates":[[[130.60625,33.366666666666674],[130.60625,33.37083333333332],[130.6125,33.37083333333332],[130.6125,33.36666666666666],[130.60625,33.366666666666674]]]}},{"type":"Feature","id":"40503:503004491","properties":{"id":"40503:503004491","meshCode":"503004491","cityCode":"40503","city":"大刀洗町","lat":33.36875,"lon":130.615625,"areaKm2":0.2402552,"populated2020":false,"population2020":null,"populationNote":"境界またぎ・原典収録外のため自治体内人口は未集計"},"geometry":{"type":"Polygon","coordinates":[[[130.61875,33.367497254412164],[130.615270117,33.367422955],[130.615270117,33.36666666666667],[130.6125,33.36666666666666],[130.6125,33.37083333333332],[130.61875,33.37083333333332],[130.61875,33.367497254412164]]]}},{"type":"Feature","id":"40503:503004492","properties":{"id":"40503:503004492","meshCode":"503004492","cityCode":"40503","city":"大刀洗町","lat":33.36875,"lon":130.621875,"areaKm2":0.2008592,"populated2020":true,"population2020":null,"populationNote":"境界またぎ・原典収録外のため自治体内人口は未集計"},"geometry":{"type":"Polygon","coordinates":[[[130.624999922,33.36769718],[130.624429922,33.367690405000005],[130.624132983,33.367917072000004],[130.624194371,33.36811679299999],[130.623622425,33.368398739],[130.623490195,33.368386234],[130.62233965,33.367563739],[130.61875,33.367497254412164],[130.61875,33.37083333333332],[130.625,33.37083333333332],[130.624999922,33.36769718]]]}},{"type":"Feature","id":"40503:503005401","properties":{"id":"40503:503005401","meshCode":"503005401","cityCode":"40503","city":"大刀洗町","lat":33.36875,"lon":130.628125,"areaKm2":0.2477509,"populated2020":true,"population2020":133.0485,"populationNote":"2020年基準の国交省調整値"},"geometry":{"type":"Polygon","coordinates":[[[130.62946020800007,33.36666666700006],[130.62939963700012,33.366871522999986],[130.62756075200002,33.36666818900005],[130.6272452010002,33.36729624300012],[130.62686352800017,33.36717291000013],[130.62662131000013,33.367480964000045],[130.6256557590001,33.36733929700012],[130.62547214000006,33.36770263099998],[130.625,33.36769718],[130.625,33.37083333333332],[130.63125,33.37083333333332],[130.63125,33.36666666666666],[130.62946020800007,33.36666666700006]]]}},{"type":"Feature","id":"40503:503005402","properties":{"id":"40503:503005402","meshCode":"503005402","cityCode":"40503","city":"大刀洗町","lat":33.36875,"lon":130.634375,"areaKm2":0.2687472,"populated2020":true,"population2020":45.2187,"populationNote":"2020年基準の国交省調整値"},"geometry":{"type":"Polygon","coordinates":[[[130.63125,33.36666666666666],[130.63125,33.37083333333332],[130.63750000000002,33.37083333333333],[130.63750000000002,33.36666666666666],[130.63125,33.36666666666666]]]}},{"type":"Feature","id":"40503:503005411","properties":{"id":"40503:503005411","meshCode":"503005411","cityCode":"40503","city":"大刀洗町","lat":33.36875,"lon":130.640625,"areaKm2":0.2687469,"populated2020":false,"population2020":null,"populationNote":"境界またぎ・原典収録外のため自治体内人口は未集計"},"geometry":{"type":"Polygon","coordinates":[[[130.63750000000002,33.36666666666666],[130.63750000000002,33.37083333333333],[130.64375,33.37083333333333],[130.64375,33.36666666666666],[130.63750000000002,33.36666666666666]]]}},{"type":"Feature","id":"40503:503005412","properties":{"id":"40503:503005412","meshCode":"503005412","cityCode":"40503","city":"大刀洗町","lat":33.36875,"lon":130.646875,"areaKm2":0.2687467,"populated2020":true,"population2020":69.9819,"populationNote":"2020年基準の国交省調整値"},"geometry":{"type":"Polygon","coordinates":[[[130.64375,33.36666666666666],[130.64375,33.37083333333333],[130.65,33.37083333333333],[130.65,33.36666666666666],[130.64375,33.36666666666666]]]}},{"type":"Feature","id":"40503:503005421","properties":{"id":"40503:503005421","meshCode":"503005421","cityCode":"40503","city":"大刀洗町","lat":33.36875,"lon":130.653125,"areaKm2":0.1537368,"populated2020":true,"population2020":null,"populationNote":"境界またぎ・原典収録外のため自治体内人口は未集計"},"geometry":{"type":"Polygon","coordinates":[[[130.65312689999996,33.37056717100006],[130.65262216600013,33.36993636900007],[130.65237160800018,33.369402793],[130.65241965000007,33.368928090000054],[130.65386604399998,33.36875560400001],[130.65381464300015,33.368539774999974],[130.65416797700004,33.3684320090001],[130.65407186799996,33.3681353510001],[130.6537182620001,33.36821618000011],[130.65357686100015,33.36780120699996],[130.65551462999997,33.36691709000013],[130.65601295700014,33.36680903600006],[130.65612766526837,33.36666666666666],[130.65,33.36666666666666],[130.65,33.37083333333333],[130.6534671283836,33.37083333333332],[130.65312689999996,33.37056717100006]]]}},{"type":"Feature","id":"40503:503004463","properties":{"id":"40503:503004463","meshCode":"503004463","cityCode":"40503","city":"大刀洗町","lat":33.3731855,"lon":130.5797905,"areaKm2":0.1171599,"populated2020":false,"population2020":null,"populationNote":"境界またぎ・原典収録外のため自治体内人口は未集計"},"geometry":{"type":"Polygon","coordinates":[[[130.57793907180792,33.37083333333333],[130.577937121,33.37107370299999],[130.578151569,33.371080928],[130.57805767800002,33.371810649],[130.578186848,33.371800649],[130.578101569,33.372862874],[130.578336563,33.37284314400001],[130.578324903,33.373567315],[130.578712399,33.373508144],[130.578835733,33.373562595],[130.57931463,33.374452036],[130.579502049,33.37500000000001],[130.58125000000004,33.37500000000001],[130.58125000000004,33.37083333333333],[130.57793907180792,33.37083333333333]]]}},{"type":"Feature","id":"40503:503004464","properties":{"id":"40503:503004464","meshCode":"503004464","cityCode":"40503","city":"大刀洗町","lat":33.3729167,"lon":130.584375,"areaKm2":0.2687368,"populated2020":false,"population2020":null,"populationNote":"境界またぎ・原典収録外のため自治体内人口は未集計"},"geometry":{"type":"Polygon","coordinates":[[[130.58125000000004,33.37083333333333],[130.58125000000004,33.37500000000001],[130.5875,33.375],[130.5875,33.37083333333333],[130.58125000000004,33.37083333333333]]]}},{"type":"Feature","id":"40503:503004473","properties":{"id":"40503:503004473","meshCode":"503004473","cityCode":"40503","city":"大刀洗町","lat":33.3729167,"lon":130.590625,"areaKm2":0.2687365,"populated2020":true,"population2020":421.2591,"populationNote":"2020年基準の国交省調整値"},"geometry":{"type":"Polygon","coordinates":[[[130.5875,33.37083333333333],[130.5875,33.375],[130.59375,33.37500000000001],[130.59375,33.37083333333332],[130.5875,33.37083333333333]]]}},{"type":"Feature","id":"40503:503004474","properties":{"id":"40503:503004474","meshCode":"503004474","cityCode":"40503","city":"大刀洗町","lat":33.3729167,"lon":130.596875,"areaKm2":0.2687362,"populated2020":true,"population2020":476.8555,"populationNote":"2020年基準の国交省調整値"},"geometry":{"type":"Polygon","coordinates":[[[130.59375,33.37083333333332],[130.59375,33.37500000000001],[130.6,33.375],[130.6,33.37083333333334],[130.59375,33.37083333333332]]]}},{"type":"Feature","id":"40503:503004483","properties":{"id":"40503:503004483","meshCode":"503004483","cityCode":"40503","city":"大刀洗町","lat":33.3729167,"lon":130.603125,"areaKm2":0.2687359,"populated2020":true,"population2020":479.9321,"populationNote":"2020年基準の国交省調整値"},"geometry":{"type":"Polygon","coordinates":[[[130.6,33.37083333333334],[130.6,33.375],[130.60625,33.37500000000001],[130.60625,33.37083333333332],[130.6,33.37083333333334]]]}},{"type":"Feature","id":"40503:503004484","properties":{"id":"40503:503004484","meshCode":"503004484","cityCode":"40503","city":"大刀洗町","lat":33.3729167,"lon":130.609375,"areaKm2":0.2687356,"populated2020":true,"population2020":71.7976,"populationNote":"2020年基準の国交省調整値"},"geometry":{"type":"Polygon","coordinates":[[[130.60625,33.37083333333332],[130.60625,33.37500000000001],[130.6125,33.375],[130.6125,33.37083333333332],[130.60625,33.37083333333332]]]}},{"type":"Feature","id":"40503:503004493","properties":{"id":"40503:503004493","meshCode":"503004493","cityCode":"40503","city":"大刀洗町","lat":33.3729167,"lon":130.615625,"areaKm2":0.2687354,"populated2020":true,"population2020":22.1485,"populationNote":"2020年基準の国交省調整値"},"geometry":{"type":"Polygon","coordinates":[[[130.6125,33.37083333333332],[130.6125,33.375],[130.61875,33.375],[130.61875,33.37083333333332],[130.6125,33.37083333333332]]]}},{"type":"Feature","id":"40503:503004494","properties":{"id":"40503:503004494","meshCode":"503004494","cityCode":"40503","city":"大刀洗町","lat":33.3729167,"lon":130.621875,"areaKm2":0.2687351,"populated2020":true,"population2020":343.1585,"populationNote":"2020年基準の国交省調整値"},"geometry":{"type":"Polygon","coordinates":[[[130.61875,33.37083333333332],[130.61875,33.375],[130.625,33.375],[130.625,33.37083333333332],[130.61875,33.37083333333332]]]}},{"type":"Feature","id":"40503:503005403","properties":{"id":"40503:503005403","meshCode":"503005403","cityCode":"40503","city":"大刀洗町","lat":33.3729167,"lon":130.628125,"areaKm2":0.2687348,"populated2020":true,"population2020":632.4533,"populationNote":"2020年基準の国交省調整値"},"geometry":{"type":"Polygon","coordinates":[[[130.625,33.37083333333332],[130.625,33.375],[130.63125,33.37500000000001],[130.63125,33.37083333333332],[130.625,33.37083333333332]]]}},{"type":"Feature","id":"40503:503005404","properties":{"id":"40503:503005404","meshCode":"503005404","cityCode":"40503","city":"大刀洗町","lat":33.3729167,"lon":130.634375,"areaKm2":0.2687346,"populated2020":true,"population2020":124.3111,"populationNote":"2020年基準の国交省調整値"},"geometry":{"type":"Polygon","coordinates":[[[130.63125,33.37083333333332],[130.63125,33.37500000000001],[130.63750000000002,33.37500000000001],[130.63750000000002,33.37083333333333],[130.63125,33.37083333333332]]]}},{"type":"Feature","id":"40503:503005413","properties":{"id":"40503:503005413","meshCode":"503005413","cityCode":"40503","city":"大刀洗町","lat":33.373018,"lon":130.6381584,"areaKm2":0.1487314,"populated2020":false,"population2020":null,"populationNote":"境界またぎ・原典収録外のため自治体内人口は未集計"},"geometry":{"type":"Polygon","coordinates":[[[130.64158145299987,33.375],[130.64080299600005,33.374174757000105],[130.640855772,33.37408836900005],[130.64114604400004,33.374059477],[130.64111299599995,33.37393753200012],[130.64030965000018,33.37338200900006],[130.639727977,33.37315564000006],[130.6395224250001,33.373182585999984],[130.63946131000012,33.37384591],[130.63937770400014,33.37398064000013],[130.63892770400003,33.37401843200007],[130.638863528,33.373953711999995],[130.63882158200013,33.37289121600003],[130.63893741900017,33.37279427000004],[130.639381038,33.37276731500004],[130.63949992200014,33.371494819999945],[130.64068882000004,33.37146785600003],[130.64068882000004,33.37174840500006],[130.64149242500002,33.37184005400013],[130.64293549900003,33.372195856000076],[130.64375,33.37225822488067],[130.64375,33.37083333333333],[130.63750000000002,33.37083333333333],[130.63750000000002,33.37500000000001],[130.64158145299987,33.375]]]}},{"type":"Feature","id":"40503:503005414","properties":{"id":"40503:503005414","meshCode":"503005414","cityCode":"40503","city":"大刀洗町","lat":33.3715458,"lon":130.646875,"areaKm2":0.1110235,"populated2020":true,"population2020":null,"populationNote":"境界またぎ・原典収録外のため自治体内人口は未集計"},"geometry":{"type":"Polygon","coordinates":[[[130.64375,33.37225822488067],[130.6473257980001,33.37228214400011],[130.648845811,33.37311762200011],[130.65,33.3732997578307],[130.65,33.37083333333333],[130.64375,33.37083333333333],[130.64375,33.37225822488067]]]}},{"type":"Feature","id":"40503:503005423","properties":{"id":"40503:503005423","meshCode":"503005423","cityCode":"40503","city":"大刀洗町","lat":33.3729167,"lon":130.653125,"areaKm2":0.1210812,"populated2020":true,"population2020":null,"populationNote":"境界またぎ・原典収録外のため自治体内人口は未集計"},"geometry":{"type":"Polygon","coordinates":[[[130.65,33.3732997578307],[130.651767211,33.37352729700001],[130.65223665400003,33.373770063],[130.6524872110001,33.37379173000011],[130.65300804200012,33.373592018000124],[130.65320053200003,33.37343036000005],[130.65344164700002,33.372918162000126],[130.65479163400005,33.37255707200011],[130.65492024600007,33.372476243000115],[130.654952192,33.37224430599997],[130.65483968900003,33.371559341999955],[130.65465967599994,33.371090206999945],[130.654325512,33.370863829000086],[130.65371495500005,33.37095548600013],[130.6534671283836,33.37083333333332],[130.65,33.37083333333333],[130.65,33.3732997578307]]]}},{"type":"Feature","id":"40503:503004561","properties":{"id":"40503:503004561","meshCode":"503004561","cityCode":"40503","city":"大刀洗町","lat":33.37693,"lon":130.5808588,"areaKm2":0.03354,"populated2020":true,"population2020":null,"populationNote":"境界またぎ・原典収録外のため自治体内人口は未集計"},"geometry":{"type":"Polygon","coordinates":[[[130.579502179,33.375000369],[130.579731855,33.375275081000005],[130.580636602,33.377310269999995],[130.581074384,33.378682982],[130.58107644975922,33.37916666666666],[130.58125000000004,33.37916666666666],[130.58125000000004,33.37500000000001],[130.579502179,33.375000369]]]}},{"type":"Feature","id":"40503:503004562","properties":{"id":"40503:503004562","meshCode":"503004562","cityCode":"40503","city":"大刀洗町","lat":33.3770833,"lon":130.584375,"areaKm2":0.2687242,"populated2020":true,"population2020":126.0127,"populationNote":"2020年基準の国交省調整値"},"geometry":{"type":"Polygon","coordinates":[[[130.58125000000004,33.37500000000001],[130.58125000000004,33.37916666666666],[130.5875,33.37916666666666],[130.5875,33.375],[130.58125000000004,33.37500000000001]]]}},{"type":"Feature","id":"40503:503004571","properties":{"id":"40503:503004571","meshCode":"503004571","cityCode":"40503","city":"大刀洗町","lat":33.3770833,"lon":130.590625,"areaKm2":0.2687239,"populated2020":true,"population2020":242.746,"populationNote":"2020年基準の国交省調整値"},"geometry":{"type":"Polygon","coordinates":[[[130.5875,33.375],[130.5875,33.37916666666666],[130.59375,33.37916666666667],[130.59375,33.37500000000001],[130.5875,33.375]]]}},{"type":"Feature","id":"40503:503004572","properties":{"id":"40503:503004572","meshCode":"503004572","cityCode":"40503","city":"大刀洗町","lat":33.3770833,"lon":130.596875,"areaKm2":0.2687236,"populated2020":false,"population2020":null,"populationNote":"境界またぎ・原典収録外のため自治体内人口は未集計"},"geometry":{"type":"Polygon","coordinates":[[[130.59375,33.37500000000001],[130.59375,33.37916666666667],[130.6,33.37916666666667],[130.6,33.375],[130.59375,33.37500000000001]]]}},{"type":"Feature","id":"40503:503004581","properties":{"id":"40503:503004581","meshCode":"503004581","cityCode":"40503","city":"大刀洗町","lat":33.3770833,"lon":130.603125,"areaKm2":0.2687233,"populated2020":true,"population2020":29.3796,"populationNote":"2020年基準の国交省調整値"},"geometry":{"type":"Polygon","coordinates":[[[130.6,33.375],[130.6,33.37916666666667],[130.60625,33.37916666666667],[130.60625,33.37500000000001],[130.6,33.375]]]}},{"type":"Feature","id":"40503:503004582","properties":{"id":"40503:503004582","meshCode":"503004582","cityCode":"40503","city":"大刀洗町","lat":33.3770833,"lon":130.609375,"areaKm2":0.268723,"populated2020":true,"population2020":138.3481,"populationNote":"2020年基準の国交省調整値"},"geometry":{"type":"Polygon","coordinates":[[[130.60625,33.37500000000001],[130.60625,33.37916666666667],[130.6125,33.37916666666667],[130.6125,33.375],[130.60625,33.37500000000001]]]}},{"type":"Feature","id":"40503:503004591","properties":{"id":"40503:503004591","meshCode":"503004591","cityCode":"40503","city":"大刀洗町","lat":33.3770833,"lon":130.615625,"areaKm2":0.2687227,"populated2020":true,"population2020":61.4079,"populationNote":"2020年基準の国交省調整値"},"geometry":{"type":"Polygon","coordinates":[[[130.6125,33.375],[130.6125,33.37916666666667],[130.61875,33.37916666666666],[130.61875,33.375],[130.6125,33.375]]]}},{"type":"Feature","id":"40503:503004592","properties":{"id":"40503:503004592","meshCode":"503004592","cityCode":"40503","city":"大刀洗町","lat":33.3770833,"lon":130.621875,"areaKm2":0.2687225,"populated2020":true,"population2020":105.1703,"populationNote":"2020年基準の国交省調整値"},"geometry":{"type":"Polygon","coordinates":[[[130.61875,33.375],[130.61875,33.37916666666666],[130.625,33.37916666666666],[130.625,33.375],[130.61875,33.375]]]}},{"type":"Feature","id":"40503:503005501","properties":{"id":"40503:503005501","meshCode":"503005501","cityCode":"40503","city":"大刀洗町","lat":33.3770833,"lon":130.628125,"areaKm2":0.2687222,"populated2020":true,"population2020":149.8399,"populationNote":"2020年基準の国交省調整値"},"geometry":{"type":"Polygon","coordinates":[[[130.625,33.375],[130.625,33.37916666666666],[130.63125,33.37916666666667],[130.63125,33.37500000000001],[130.625,33.375]]]}},{"type":"Feature","id":"40503:503005502","properties":{"id":"40503:503005502","meshCode":"503005502","cityCode":"40503","city":"大刀洗町","lat":33.3770833,"lon":130.634375,"areaKm2":0.2687219,"populated2020":false,"population2020":null,"populationNote":"境界またぎ・原典収録外のため自治体内人口は未集計"},"geometry":{"type":"Polygon","coordinates":[[[130.63125,33.37500000000001],[130.63125,33.37916666666667],[130.63750000000002,33.37916666666666],[130.63750000000002,33.37500000000001],[130.63125,33.37500000000001]]]}},{"type":"Feature","id":"40503:503005511","properties":{"id":"40503:503005511","meshCode":"503005511","cityCode":"40503","city":"大刀洗町","lat":33.3770833,"lon":130.640625,"areaKm2":0.2280905,"populated2020":true,"population2020":82.7052,"populationNote":"2020年基準の国交省調整値"},"geometry":{"type":"Polygon","coordinates":[[[130.6436233070001,33.377244045000054],[130.64269552500014,33.378022378000026],[130.64248968900006,33.37801099100011],[130.64237552500003,33.3779265500001],[130.642320519,33.377838505],[130.6425032940001,33.37731295500004],[130.6425494030001,33.3763504860001],[130.64158145299987,33.375],[130.63750000000002,33.37500000000001],[130.63750000000002,33.37916666666666],[130.64375,33.37916666666666],[130.64375,33.377443662197486],[130.6436233070001,33.377244045000054]]]}},{"type":"Feature","id":"40503:503005512","properties":{"id":"40503:503005512","meshCode":"503005512","cityCode":"40503","city":"大刀洗町","lat":33.3782682,"lon":130.6440115,"areaKm2":0.0097165,"populated2020":true,"population2020":null,"populationNote":"境界またぎ・原典収録外のため自治体内人口は未集計"},"geometry":{"type":"Polygon","coordinates":[[[130.64484309015862,33.37916666666666],[130.64395914400006,33.377773188999925],[130.64375,33.377443662197486],[130.64375,33.37916666666666],[130.64484309015862,33.37916666666666]]]}},{"type":"Feature","id":"40503:503004563","properties":{"id":"40503:503004563","meshCode":"503004563","cityCode":"40503","city":"大刀洗町","lat":33.3792513,"lon":130.5811634,"areaKm2":0.0003026,"populated2020":true,"population2020":null,"populationNote":"境界またぎ・原典収録外のため自治体内人口は未集計"},"geometry":{"type":"Polygon","coordinates":[[[130.581077173,33.379336009],[130.58125000000004,33.379336009],[130.58125000000004,33.37916666666666],[130.58107644975922,33.37916666666666],[130.581077173,33.379336009]]]}},{"type":"Feature","id":"40503:503004564","properties":{"id":"40503:503004564","meshCode":"503004564","cityCode":"40503","city":"大刀洗町","lat":33.38125,"lon":130.584375,"areaKm2":0.2226922,"populated2020":true,"population2020":17.3686,"populationNote":"2020年基準の国交省調整値"},"geometry":{"type":"Polygon","coordinates":[[[130.581611894,33.379336009],[130.581635512,33.380139027000006],[130.582240791,33.380124306000006],[130.582267198,33.381285090000006],[130.582443593,33.381289811],[130.582610545,33.382558919000004],[130.582857497,33.383051676],[130.583351102,33.383130568],[130.5836481714883,33.38333333333333],[130.5875,33.38333333333333],[130.5875,33.37916666666666],[130.58125000000004,33.37916666666666],[130.58125000000004,33.379336009],[130.581611894,33.379336009]]]}},{"type":"Feature","id":"40503:503004573","properties":{"id":"40503:503004573","meshCode":"503004573","cityCode":"40503","city":"大刀洗町","lat":33.38125,"lon":130.590625,"areaKm2":0.2687112,"populated2020":true,"population2020":2.0396,"populationNote":"2020年基準の国交省調整値"},"geometry":{"type":"Polygon","coordinates":[[[130.5875,33.37916666666666],[130.5875,33.38333333333333],[130.59375,33.38333333333333],[130.59375,33.37916666666667],[130.5875,33.37916666666666]]]}},{"type":"Feature","id":"40503:503004574","properties":{"id":"40503:503004574","meshCode":"503004574","cityCode":"40503","city":"大刀洗町","lat":33.38125,"lon":130.596875,"areaKm2":0.2687109,"populated2020":false,"population2020":null,"populationNote":"境界またぎ・原典収録外のため自治体内人口は未集計"},"geometry":{"type":"Polygon","coordinates":[[[130.59375,33.37916666666667],[130.59375,33.38333333333333],[130.6,33.38333333333333],[130.6,33.37916666666667],[130.59375,33.37916666666667]]]}},{"type":"Feature","id":"40503:503004583","properties":{"id":"40503:503004583","meshCode":"503004583","cityCode":"40503","city":"大刀洗町","lat":33.38125,"lon":130.603125,"areaKm2":0.2687107,"populated2020":false,"population2020":null,"populationNote":"境界またぎ・原典収録外のため自治体内人口は未集計"},"geometry":{"type":"Polygon","coordinates":[[[130.6,33.37916666666667],[130.6,33.38333333333333],[130.60625,33.383333333333326],[130.60625,33.37916666666667],[130.6,33.37916666666667]]]}},{"type":"Feature","id":"40503:503004584","properties":{"id":"40503:503004584","meshCode":"503004584","cityCode":"40503","city":"大刀洗町","lat":33.38125,"lon":130.609375,"areaKm2":0.2687104,"populated2020":true,"population2020":5.0499,"populationNote":"2020年基準の国交省調整値"},"geometry":{"type":"Polygon","coordinates":[[[130.60625,33.37916666666667],[130.60625,33.383333333333326],[130.6125,33.38333333333333],[130.6125,33.37916666666667],[130.60625,33.37916666666667]]]}},{"type":"Feature","id":"40503:503004593","properties":{"id":"40503:503004593","meshCode":"503004593","cityCode":"40503","city":"大刀洗町","lat":33.38125,"lon":130.615625,"areaKm2":0.2687101,"populated2020":true,"population2020":26.6571,"populationNote":"2020年基準の国交省調整値"},"geometry":{"type":"Polygon","coordinates":[[[130.6125,33.37916666666667],[130.6125,33.38333333333333],[130.61875,33.38333333333334],[130.61875,33.37916666666666],[130.6125,33.37916666666667]]]}},{"type":"Feature","id":"40503:503004594","properties":{"id":"40503:503004594","meshCode":"503004594","cityCode":"40503","city":"大刀洗町","lat":33.38125,"lon":130.621875,"areaKm2":0.2687098,"populated2020":true,"population2020":345.9025,"populationNote":"2020年基準の国交省調整値"},"geometry":{"type":"Polygon","coordinates":[[[130.61875,33.37916666666666],[130.61875,33.38333333333334],[130.625,33.38333333333333],[130.625,33.37916666666666],[130.61875,33.37916666666666]]]}},{"type":"Feature","id":"40503:503005503","properties":{"id":"40503:503005503","meshCode":"503005503","cityCode":"40503","city":"大刀洗町","lat":33.38125,"lon":130.628125,"areaKm2":0.2687096,"populated2020":true,"population2020":63.0251,"populationNote":"2020年基準の国交省調整値"},"geometry":{"type":"Polygon","coordinates":[[[130.625,33.37916666666666],[130.625,33.38333333333333],[130.63125,33.38333333333333],[130.63125,33.37916666666667],[130.625,33.37916666666666]]]}},{"type":"Feature","id":"40503:503005504","properties":{"id":"40503:503005504","meshCode":"503005504","cityCode":"40503","city":"大刀洗町","lat":33.38125,"lon":130.634375,"areaKm2":0.2687093,"populated2020":true,"population2020":22.023,"populationNote":"2020年基準の国交省調整値"},"geometry":{"type":"Polygon","coordinates":[[[130.63125,33.37916666666667],[130.63125,33.38333333333333],[130.63750000000002,33.383333333333326],[130.63750000000002,33.37916666666666],[130.63125,33.37916666666667]]]}},{"type":"Feature","id":"40503:503005513","properties":{"id":"40503:503005513","meshCode":"503005513","cityCode":"40503","city":"大刀洗町","lat":33.38125,"lon":130.640625,"areaKm2":0.268709,"populated2020":true,"population2020":191.3383,"populationNote":"2020年基準の国交省調整値"},"geometry":{"type":"Polygon","coordinates":[[[130.63750000000002,33.37916666666666],[130.63750000000002,33.383333333333326],[130.64375,33.38333333333333],[130.64375,33.37916666666666],[130.63750000000002,33.37916666666666]]]}},{"type":"Feature","id":"40503:503005514","properties":{"id":"40503:503005514","meshCode":"503005514","cityCode":"40503","city":"大刀洗町","lat":33.3816331,"lon":130.6445836,"areaKm2":0.0745856,"populated2020":true,"population2020":null,"populationNote":"境界またぎ・原典収録外のため自治体内人口は未集計"},"geometry":{"type":"Polygon","coordinates":[[[130.64680435800017,33.38333333300011],[130.64649610900017,33.38248584699994],[130.64571,33.38242835099999],[130.64489193300005,33.38012367599998],[130.64496054500012,33.37946396400013],[130.64484309015862,33.37916666666666],[130.64375,33.37916666666666],[130.64375,33.38333333333333],[130.64680435800017,33.38333333300011]]]}},{"type":"Feature","id":"40503:503004662","properties":{"id":"40503:503004662","meshCode":"503004662","cityCode":"40503","city":"大刀洗町","lat":33.3854224,"lon":130.586533,"areaKm2":0.0596102,"populated2020":true,"population2020":null,"populationNote":"境界またぎ・原典収録外のため自治体内人口は未集計"},"geometry":{"type":"Polygon","coordinates":[[[130.584076667,33.383625829],[130.584952218,33.38368499999999],[130.585516394,33.38397582899999],[130.586036109,33.384742225],[130.585801115,33.38489],[130.58569166,33.38507666700001],[130.585577782,33.385279440999994],[130.585554163,33.385565279000005],[130.585742218,33.385762495],[130.586697224,33.385971946],[130.58707917,33.386257775],[130.587361115,33.38662249499999],[130.587355279,33.387066108],[130.58715191851306,33.3875],[130.5875,33.38750000000001],[130.5875,33.38333333333333],[130.5836481714883,33.38333333333333],[130.584076667,33.383625829]]]}},{"type":"Feature","id":"40503:503004671","properties":{"id":"40503:503004671","meshCode":"503004671","cityCode":"40503","city":"大刀洗町","lat":33.3854167,"lon":130.590625,"areaKm2":0.2686986,"populated2020":true,"population2020":71.6596,"populationNote":"2020年基準の国交省調整値"},"geometry":{"type":"Polygon","coordinates":[[[130.5875,33.38333333333333],[130.5875,33.38750000000001],[130.59375,33.3875],[130.59375,33.38333333333333],[130.5875,33.38333333333333]]]}},{"type":"Feature","id":"40503:503004672","properties":{"id":"40503:503004672","meshCode":"503004672","cityCode":"40503","city":"大刀洗町","lat":33.3854167,"lon":130.596875,"areaKm2":0.2686983,"populated2020":true,"population2020":236.6811,"populationNote":"2020年基準の国交省調整値"},"geometry":{"type":"Polygon","coordinates":[[[130.59375,33.38333333333333],[130.59375,33.3875],[130.6,33.3875],[130.6,33.38333333333333],[130.59375,33.38333333333333]]]}},{"type":"Feature","id":"40503:503004681","properties":{"id":"40503:503004681","meshCode":"503004681","cityCode":"40503","city":"大刀洗町","lat":33.3854167,"lon":130.603125,"areaKm2":0.268698,"populated2020":true,"population2020":247.4479,"populationNote":"2020年基準の国交省調整値"},"geometry":{"type":"Polygon","coordinates":[[[130.6,33.38333333333333],[130.6,33.3875],[130.60625,33.387499999999996],[130.60625,33.383333333333326],[130.6,33.38333333333333]]]}},{"type":"Feature","id":"40503:503004682","properties":{"id":"40503:503004682","meshCode":"503004682","cityCode":"40503","city":"大刀洗町","lat":33.3854167,"lon":130.609375,"areaKm2":0.2686977,"populated2020":true,"population2020":1.9941,"populationNote":"2020年基準の国交省調整値"},"geometry":{"type":"Polygon","coordinates":[[[130.60625,33.383333333333326],[130.60625,33.387499999999996],[130.6125,33.3875],[130.6125,33.38333333333333],[130.60625,33.383333333333326]]]}},{"type":"Feature","id":"40503:503004691","properties":{"id":"40503:503004691","meshCode":"503004691","cityCode":"40503","city":"大刀洗町","lat":33.3854167,"lon":130.615625,"areaKm2":0.2686975,"populated2020":true,"population2020":331.4006,"populationNote":"2020年基準の国交省調整値"},"geometry":{"type":"Polygon","coordinates":[[[130.6125,33.38333333333333],[130.6125,33.3875],[130.61875,33.3875],[130.61875,33.38333333333334],[130.6125,33.38333333333333]]]}},{"type":"Feature","id":"40503:503004692","properties":{"id":"40503:503004692","meshCode":"503004692","cityCode":"40503","city":"大刀洗町","lat":33.3854167,"lon":130.621875,"areaKm2":0.2686972,"populated2020":true,"population2020":686.968,"populationNote":"2020年基準の国交省調整値"},"geometry":{"type":"Polygon","coordinates":[[[130.61875,33.38333333333334],[130.61875,33.3875],[130.625,33.3875],[130.625,33.38333333333333],[130.61875,33.38333333333334]]]}},{"type":"Feature","id":"40503:503005601","properties":{"id":"40503:503005601","meshCode":"503005601","cityCode":"40503","city":"大刀洗町","lat":33.3854167,"lon":130.628125,"areaKm2":0.2686969,"populated2020":true,"population2020":392.1422,"populationNote":"2020年基準の国交省調整値"},"geometry":{"type":"Polygon","coordinates":[[[130.625,33.38333333333333],[130.625,33.3875],[130.63125,33.3875],[130.63125,33.38333333333333],[130.625,33.38333333333333]]]}},{"type":"Feature","id":"40503:503005602","properties":{"id":"40503:503005602","meshCode":"503005602","cityCode":"40503","city":"大刀洗町","lat":33.3854167,"lon":130.634375,"areaKm2":0.2686967,"populated2020":true,"population2020":155.0114,"populationNote":"2020年基準の国交省調整値"},"geometry":{"type":"Polygon","coordinates":[[[130.63125,33.38333333333333],[130.63125,33.3875],[130.63750000000002,33.3875],[130.63750000000002,33.383333333333326],[130.63125,33.38333333333333]]]}},{"type":"Feature","id":"40503:503005611","properties":{"id":"40503:503005611","meshCode":"503005611","cityCode":"40503","city":"大刀洗町","lat":33.3854167,"lon":130.640625,"areaKm2":0.2535382,"populated2020":true,"population2020":107.5115,"populationNote":"2020年基準の国交省調整値"},"geometry":{"type":"Polygon","coordinates":[[[130.6400601678171,33.3875],[130.64141083000015,33.38707944100008],[130.6423366670001,33.38697582900005],[130.64375,33.38696595870899],[130.64375,33.38333333333333],[130.63750000000002,33.383333333333326],[130.63750000000002,33.3875],[130.6400601678171,33.3875]]]}},{"type":"Feature","id":"40503:503005612","properties":{"id":"40503:503005612","meshCode":"503005612","cityCode":"40503","city":"大刀洗町","lat":33.3851374,"lon":130.6447128,"areaKm2":0.0694726,"populated2020":true,"population2020":null,"populationNote":"境界またぎ・原典収録外のため自治体内人口は未集計"},"geometry":{"type":"Polygon","coordinates":[[[130.64375,33.38696595870899],[130.64479333300017,33.38696055899999],[130.64465861200006,33.38594472099999],[130.64592472100014,33.385917775000046],[130.64565277600013,33.38500889200009],[130.64572805400007,33.38382389200012],[130.64703333299997,33.38382389200012],[130.6468043581557,33.38333333333333],[130.64375,33.38333333333333],[130.64375,33.38696595870899]]]}},{"type":"Feature","id":"40503:503004664","properties":{"id":"40503:503004664","meshCode":"503004664","cityCode":"40503","city":"大刀洗町","lat":33.3879039,"lon":130.5873248,"areaKm2":0.0030946,"populated2020":true,"population2020":null,"populationNote":"境界またぎ・原典収録外のため自治体内人口は未集計"},"geometry":{"type":"MultiPolygon","coordinates":[[[[130.58715191851306,33.3875],[130.587181946,33.388143054],[130.5875,33.38840066984546],[130.5875,33.38750000000001],[130.58715191851306,33.3875]]],[[[130.5875,33.388745092167945],[130.58738166,33.388857495],[130.5875,33.38915793286109],[130.5875,33.388745092167945]]]]}},{"type":"Feature","id":"40503:503004673","properties":{"id":"40503:503004673","meshCode":"503004673","cityCode":"40503","city":"大刀洗町","lat":33.3895833,"lon":130.590625,"areaKm2":0.248427,"populated2020":true,"population2020":18.2002,"populationNote":"2020年基準の国交省調整値"},"geometry":{"type":"Polygon","coordinates":[[[130.58761083,33.388468333],[130.587646109,33.388606108],[130.5875,33.388745092167945],[130.5875,33.38915793286109],[130.587584449,33.389372775000005],[130.58808083,33.39004055899999],[130.588304163,33.39060249500001],[130.588941388,33.39139333300001],[130.5889970819321,33.39166666666666],[130.59375,33.39166666666666],[130.59375,33.3875],[130.5875,33.38750000000001],[130.5875,33.38840066984546],[130.58761083,33.388468333]]]}},{"type":"Feature","id":"40503:503004674","properties":{"id":"40503:503004674","meshCode":"503004674","cityCode":"40503","city":"大刀洗町","lat":33.3895833,"lon":130.596875,"areaKm2":0.2686857,"populated2020":true,"population2020":1.0174,"populationNote":"2020年基準の国交省調整値"},"geometry":{"type":"Polygon","coordinates":[[[130.59375,33.3875],[130.59375,33.39166666666666],[130.6,33.391666666666666],[130.6,33.3875],[130.59375,33.3875]]]}},{"type":"Feature","id":"40503:503004683","properties":{"id":"40503:503004683","meshCode":"503004683","cityCode":"40503","city":"大刀洗町","lat":33.3895833,"lon":130.603125,"areaKm2":0.2686854,"populated2020":true,"population2020":116.4517,"populationNote":"2020年基準の国交省調整値"},"geometry":{"type":"Polygon","coordinates":[[[130.6,33.3875],[130.6,33.391666666666666],[130.60625,33.39166666666667],[130.60625,33.387499999999996],[130.6,33.3875]]]}},{"type":"Feature","id":"40503:503004684","properties":{"id":"40503:503004684","meshCode":"503004684","cityCode":"40503","city":"大刀洗町","lat":33.3895833,"lon":130.609375,"areaKm2":0.2686851,"populated2020":true,"population2020":271.4691,"populationNote":"2020年基準の国交省調整値"},"geometry":{"type":"Polygon","coordinates":[[[130.60625,33.387499999999996],[130.60625,33.39166666666667],[130.6125,33.39166666666666],[130.6125,33.3875],[130.60625,33.387499999999996]]]}},{"type":"Feature","id":"40503:503004693","properties":{"id":"40503:503004693","meshCode":"503004693","cityCode":"40503","city":"大刀洗町","lat":33.3895833,"lon":130.615625,"areaKm2":0.2686848,"populated2020":true,"population2020":481.1478,"populationNote":"2020年基準の国交省調整値"},"geometry":{"type":"Polygon","coordinates":[[[130.6125,33.3875],[130.6125,33.39166666666666],[130.61875,33.39166666666667],[130.61875,33.3875],[130.6125,33.3875]]]}},{"type":"Feature","id":"40503:503004694","properties":{"id":"40503:503004694","meshCode":"503004694","cityCode":"40503","city":"大刀洗町","lat":33.3895833,"lon":130.621875,"areaKm2":0.2686846,"populated2020":true,"population2020":208.6502,"populationNote":"2020年基準の国交省調整値"},"geometry":{"type":"Polygon","coordinates":[[[130.61875,33.3875],[130.61875,33.39166666666667],[130.625,33.39166666666666],[130.625,33.3875],[130.61875,33.3875]]]}},{"type":"Feature","id":"40503:503005603","properties":{"id":"40503:503005603","meshCode":"503005603","cityCode":"40503","city":"大刀洗町","lat":33.3895833,"lon":130.628125,"areaKm2":0.1838527,"populated2020":true,"population2020":null,"populationNote":"境界またぎ・原典収録外のため自治体内人口は未集計"},"geometry":{"type":"Polygon","coordinates":[[[130.62532333299998,33.39159610799994],[130.62545832699996,33.39137],[130.625417224,33.39097499999999],[130.6255952790001,33.390687224999965],[130.62616888499997,33.39055694600012],[130.6271883270001,33.390625829000044],[130.62770027200008,33.39033472099993],[130.62846583700014,33.39003194600002],[130.62888861199997,33.38995889200004],[130.62951944199995,33.39000889200008],[130.630076939,33.39030416200001],[130.63041055800002,33.390043332999994],[130.63125,33.38970288995829],[130.63125,33.3875],[130.625,33.3875],[130.625,33.39166666666666],[130.62532333299998,33.39159610799994]]]}},{"type":"Feature","id":"40503:503005604","properties":{"id":"40503:503005604","meshCode":"503005604","cityCode":"40503","city":"大刀洗町","lat":33.3886133,"lon":130.6328537,"areaKm2":0.0794264,"populated2020":true,"population2020":34.4116,"populationNote":"2020年基準の国交省調整値"},"geometry":{"type":"Polygon","coordinates":[[[130.63125,33.38970288995829],[130.63309389100004,33.38899277500013],[130.63528333299996,33.388394721],[130.63750000000002,33.38812457024073],[130.63750000000002,33.3875],[130.63125,33.3875],[130.63125,33.38970288995829]]]}},{"type":"Feature","id":"40503:503005613","properties":{"id":"40503:503005613","meshCode":"503005613","cityCode":"40503","city":"大刀洗町","lat":33.3878062,"lon":130.6382828,"areaKm2":0.0094927,"populated2020":true,"population2020":null,"populationNote":"境界またぎ・原典収録外のため自治体内人口は未集計"},"geometry":{"type":"Polygon","coordinates":[[[130.63750000000002,33.38812457024073],[130.63866138799995,33.38793082900003],[130.6400601678171,33.3875],[130.63750000000002,33.3875],[130.63750000000002,33.38812457024073]]]}},{"type":"Feature","id":"40503:503004771","properties":{"id":"40503:503004771","meshCode":"503004771","cityCode":"40503","city":"大刀洗町","lat":33.39375,"lon":130.590625,"areaKm2":0.1725571,"populated2020":true,"population2020":17.5075,"populationNote":"2020年基準の国交省調整値"},"geometry":{"type":"Polygon","coordinates":[[[130.588997082,33.391666667],[130.589106109,33.392201666999995],[130.589455551,33.39272166700001],[130.58954083,33.394074721],[130.590395837,33.39532861299999],[130.591018612,33.395397775000006],[130.59104981195088,33.395833333333336],[130.59375,33.395833333333336],[130.59375,33.39166666666666],[130.588997082,33.391666667]]]}},{"type":"Feature","id":"40503:503004772","properties":{"id":"40503:503004772","meshCode":"503004772","cityCode":"40503","city":"大刀洗町","lat":33.39375,"lon":130.596875,"areaKm2":0.268673,"populated2020":true,"population2020":149.5459,"populationNote":"2020年基準の国交省調整値"},"geometry":{"type":"Polygon","coordinates":[[[130.59375,33.39166666666666],[130.59375,33.395833333333336],[130.6,33.395833333333336],[130.6,33.391666666666666],[130.59375,33.39166666666666]]]}},{"type":"Feature","id":"40503:503004781","properties":{"id":"40503:503004781","meshCode":"503004781","cityCode":"40503","city":"大刀洗町","lat":33.39375,"lon":130.603125,"areaKm2":0.2686727,"populated2020":true,"population2020":29.3953,"populationNote":"2020年基準の国交省調整値"},"geometry":{"type":"Polygon","coordinates":[[[130.6,33.391666666666666],[130.6,33.395833333333336],[130.60625,33.39583333333334],[130.60625,33.39166666666667],[130.6,33.391666666666666]]]}},{"type":"Feature","id":"40503:503004782","properties":{"id":"40503:503004782","meshCode":"503004782","cityCode":"40503","city":"大刀洗町","lat":33.39375,"lon":130.609375,"areaKm2":0.2686725,"populated2020":true,"population2020":71.9933,"populationNote":"2020年基準の国交省調整値"},"geometry":{"type":"Polygon","coordinates":[[[130.60625,33.39166666666667],[130.60625,33.39583333333334],[130.6125,33.395833333333336],[130.6125,33.39166666666666],[130.60625,33.39166666666667]]]}},{"type":"Feature","id":"40503:503004791","properties":{"id":"40503:503004791","meshCode":"503004791","cityCode":"40503","city":"大刀洗町","lat":33.39375,"lon":130.615625,"areaKm2":0.2678726,"populated2020":true,"population2020":53.0411,"populationNote":"2020年基準の国交省調整値"},"geometry":{"type":"Polygon","coordinates":[[[130.618516667,33.39563666699999],[130.61875,33.395483725168226],[130.61875,33.39166666666667],[130.6125,33.39166666666666],[130.6125,33.395833333333336],[130.6184139215447,33.395833333333336],[130.618516667,33.39563666699999]]]}},{"type":"Feature","id":"40503:503004792","properties":{"id":"40503:503004792","meshCode":"503004792","cityCode":"40503","city":"大刀洗町","lat":33.39375,"lon":130.621875,"areaKm2":0.1934855,"populated2020":true,"population2020":26.2086,"populationNote":"2020年基準の国交省調整値"},"geometry":{"type":"Polygon","coordinates":[[[130.618768054,33.395475559],[130.619281388,33.395339721],[130.619883891,33.395389721],[130.620208054,33.39504527900001],[130.620618612,33.39493972099999],[130.623156667,33.394958892000005],[130.623442218,33.394464441],[130.624379442,33.394376108],[130.624443333,33.394234162],[130.624342776,33.39372805400001],[130.624612503,33.392428333],[130.624354163,33.391776387],[130.625,33.391734973],[130.625,33.39166666666666],[130.61875,33.39166666666667],[130.618768054,33.395475559]]]}},{"type":"Feature","id":"40503:503005701","properties":{"id":"40503:503005701","meshCode":"503005701","cityCode":"40503","city":"大刀洗町","lat":33.3916985,"lon":130.6250536,"areaKm2":7.14e-05,"populated2020":true,"population2020":null,"populationNote":"境界またぎ・原典収録外のため自治体内人口は未集計"},"geometry":{"type":"Polygon","coordinates":[[[130.62504,33.391730279000114],[130.62517450100006,33.39166666700003],[130.62517450170324,33.39166666666666],[130.625,33.39166666666666],[130.62504,33.391730279000114]]]}},{"type":"Feature","id":"40503:503004773","properties":{"id":"40503:503004773","meshCode":"503004773","cityCode":"40503","city":"大刀洗町","lat":33.3978408,"lon":130.592544,"areaKm2":0.1016159,"populated2020":true,"population2020":null,"populationNote":"境界またぎ・原典収録外のため自治体内人口は未集計"},"geometry":{"type":"Polygon","coordinates":[[[130.59104981195088,33.395833333333336],[130.591186109,33.396947775],[130.591532776,33.397066108],[130.591485837,33.397421108],[130.591068612,33.397342225],[130.590998054,33.397573613],[130.591471115,33.39794555899999],[130.591388885,33.39822666700001],[130.591979442,33.39865805400001],[130.591632503,33.399027495000006],[130.591418054,33.399660829],[130.591482776,33.399808892],[130.591431505,33.4],[130.59375,33.400000000000006],[130.59375,33.395833333333336],[130.59104981195088,33.395833333333336]]]}},{"type":"Feature","id":"40503:503004774","properties":{"id":"40503:503004774","meshCode":"503004774","cityCode":"40503","city":"大刀洗町","lat":33.3979167,"lon":130.596875,"areaKm2":0.2686604,"populated2020":true,"population2020":735.6111,"populationNote":"2020年基準の国交省調整値"},"geometry":{"type":"Polygon","coordinates":[[[130.59375,33.395833333333336],[130.59375,33.400000000000006],[130.6,33.4],[130.6,33.395833333333336],[130.59375,33.395833333333336]]]}},{"type":"Feature","id":"40503:503004783","properties":{"id":"40503:503004783","meshCode":"503004783","cityCode":"40503","city":"大刀洗町","lat":33.3979167,"lon":130.603125,"areaKm2":0.2686601,"populated2020":true,"population2020":133.8827,"populationNote":"2020年基準の国交省調整値"},"geometry":{"type":"Polygon","coordinates":[[[130.6,33.395833333333336],[130.6,33.4],[130.60625,33.4],[130.60625,33.39583333333334],[130.6,33.395833333333336]]]}},{"type":"Feature","id":"40503:503004784","properties":{"id":"40503:503004784","meshCode":"503004784","cityCode":"40503","city":"大刀洗町","lat":33.3979167,"lon":130.609375,"areaKm2":0.2686598,"populated2020":true,"population2020":217.6707,"populationNote":"2020年基準の国交省調整値"},"geometry":{"type":"Polygon","coordinates":[[[130.60625,33.39583333333334],[130.60625,33.4],[130.6125,33.39999999999999],[130.6125,33.395833333333336],[130.60625,33.39583333333334]]]}},{"type":"Feature","id":"40503:503004793","properties":{"id":"40503:503004793","meshCode":"503004793","cityCode":"40503","city":"大刀洗町","lat":33.3979167,"lon":130.615625,"areaKm2":0.1931029,"populated2020":true,"population2020":null,"populationNote":"境界またぎ・原典収録外のため自治体内人口は未集計"},"geometry":{"type":"Polygon","coordinates":[[[130.615491388,33.39992722499999],[130.618235279,33.397011108],[130.61777166,33.39675],[130.617169442,33.397444162],[130.616858327,33.397360829],[130.617023891,33.39688333299999],[130.617222503,33.396672225],[130.617506939,33.39657222500001],[130.617616109,33.396214162],[130.617728612,33.39610305400001],[130.618304721,33.395991946],[130.6184139215447,33.395833333333336],[130.6125,33.395833333333336],[130.6125,33.39999999999999],[130.615597834,33.39999999999999],[130.615491388,33.39992722499999]]]}},{"type":"Feature","id":"40503:503004871","properties":{"id":"40503:503004871","meshCode":"503004871","cityCode":"40503","city":"大刀洗町","lat":33.4014646,"lon":130.5930748,"areaKm2":0.0426001,"populated2020":true,"population2020":null,"populationNote":"境界またぎ・原典収録外のため自治体内人口は未集計"},"geometry":{"type":"Polygon","coordinates":[[[130.591300558,33.400488892],[130.591738327,33.401200829000004],[130.592149442,33.401067774999994],[130.593066109,33.40252194600001],[130.59375,33.40233156338042],[130.59375,33.400000000000006],[130.591431505,33.4],[130.591300558,33.400488892]]]}},{"type":"Feature","id":"40503:503004872","properties":{"id":"40503:503004872","meshCode":"503004872","cityCode":"40503","city":"大刀洗町","lat":33.4020833,"lon":130.596875,"areaKm2":0.2028056,"populated2020":true,"population2020":null,"populationNote":"境界またぎ・原典収録外のため自治体内人口は未集計"},"geometry":{"type":"Polygon","coordinates":[[[130.59442917,33.402142495],[130.595378327,33.402933613],[130.595818885,33.402770829],[130.596112776,33.40300249500001],[130.596711946,33.402963054],[130.596873333,33.403221945999995],[130.59790166,33.40308389199999],[130.597978054,33.403290829],[130.598512776,33.403187225],[130.5986812071155,33.40416666666666],[130.6,33.40416666666667],[130.6,33.4],[130.59375,33.400000000000006],[130.59375,33.40233156338042],[130.59442917,33.402142495]]]}},{"type":"Feature","id":"40503:503004881","properties":{"id":"40503:503004881","meshCode":"503004881","cityCode":"40503","city":"大刀洗町","lat":33.4020833,"lon":130.603125,"areaKm2":0.2686475,"populated2020":true,"population2020":245.1554,"populationNote":"2020年基準の国交省調整値"},"geometry":{"type":"Polygon","coordinates":[[[130.6,33.4],[130.6,33.40416666666667],[130.60625,33.40416666666667],[130.60625,33.4],[130.6,33.4]]]}},{"type":"Feature","id":"40503:503004882","properties":{"id":"40503:503004882","meshCode":"503004882","cityCode":"40503","city":"大刀洗町","lat":33.4020833,"lon":130.609375,"areaKm2":0.2686472,"populated2020":true,"population2020":199.2319,"populationNote":"2020年基準の国交省調整値"},"geometry":{"type":"Polygon","coordinates":[[[130.60625,33.4],[130.60625,33.40416666666667],[130.6125,33.40416666666667],[130.6125,33.39999999999999],[130.60625,33.4]]]}},{"type":"Feature","id":"40503:503004891","properties":{"id":"40503:503004891","meshCode":"503004891","cityCode":"40503","city":"大刀洗町","lat":33.4020833,"lon":130.615625,"areaKm2":0.2113122,"populated2020":true,"population2020":null,"populationNote":"境界またぎ・原典収録外のため自治体内人口は未集計"},"geometry":{"type":"Polygon","coordinates":[[[130.61669922833886,33.40416666666667],[130.618691946,33.40211444100001],[130.615597834,33.39999999999999],[130.6125,33.39999999999999],[130.6125,33.40416666666667],[130.61669922833886,33.40416666666667]]]}},{"type":"Feature","id":"40503:503004874","properties":{"id":"40503:503004874","meshCode":"503004874","cityCode":"40503","city":"大刀洗町","lat":33.406126,"lon":130.5995201,"areaKm2":0.03978,"populated2020":true,"population2020":null,"populationNote":"境界またぎ・原典収録外のため自治体内人口は未集計"},"geometry":{"type":"Polygon","coordinates":[[[130.5986812071155,33.40416666666666],[130.598756667,33.404604441],[130.599156109,33.405008613],[130.598703891,33.405521108],[130.599144449,33.405969441],[130.598935837,33.406282495],[130.599206109,33.406528892],[130.59910917,33.40665944100001],[130.59945272406836,33.40833333333333],[130.6,33.40833333333333],[130.6,33.40416666666667],[130.5986812071155,33.40416666666666]]]}},{"type":"Feature","id":"40503:503004883","properties":{"id":"40503:503004883","meshCode":"503004883","cityCode":"40503","city":"大刀洗町","lat":33.40625,"lon":130.603125,"areaKm2":0.2686348,"populated2020":true,"population2020":1129.7296,"populationNote":"2020年基準の国交省調整値"},"geometry":{"type":"Polygon","coordinates":[[[130.6,33.40416666666667],[130.6,33.40833333333333],[130.60625,33.40833333333333],[130.60625,33.40416666666667],[130.6,33.40416666666667]]]}},{"type":"Feature","id":"40503:503004884","properties":{"id":"40503:503004884","meshCode":"503004884","cityCode":"40503","city":"大刀洗町","lat":33.40625,"lon":130.609375,"areaKm2":0.2686345,"populated2020":true,"population2020":562.6709,"populationNote":"2020年基準の国交省調整値"},"geometry":{"type":"Polygon","coordinates":[[[130.60625,33.40416666666667],[130.60625,33.40833333333333],[130.6125,33.40833333333333],[130.6125,33.40416666666667],[130.60625,33.40416666666667]]]}},{"type":"Feature","id":"40503:503004893","properties":{"id":"40503:503004893","meshCode":"503004893","cityCode":"40503","city":"大刀洗町","lat":33.4061626,"lon":130.6138041,"areaKm2":0.1057435,"populated2020":true,"population2020":null,"populationNote":"境界またぎ・原典収録外のため自治体内人口は未集計"},"geometry":{"type":"Polygon","coordinates":[[[130.612968275,33.408333333],[130.616312218,33.404899162],[130.616133333,33.404749441],[130.61669922833886,33.40416666666667],[130.6125,33.40416666666667],[130.6125,33.40833333333333],[130.612968275,33.408333333]]]}},{"type":"Feature","id":"40503:503004972","properties":{"id":"40503:503004972","meshCode":"503004972","cityCode":"40503","city":"大刀洗町","lat":33.4088939,"lon":130.599784,"areaKm2":0.0065551,"populated2020":true,"population2020":null,"populationNote":"境界またぎ・原典収録外のため自治体内人口は未集計"},"geometry":{"type":"Polygon","coordinates":[[[130.59945272406836,33.40833333333333],[130.599799728,33.410023054],[130.6,33.410063640000004],[130.6,33.40833333333333],[130.59945272406836,33.40833333333333]]]}},{"type":"Feature","id":"40503:503004981","properties":{"id":"40503:503004981","meshCode":"503004981","cityCode":"40503","city":"大刀洗町","lat":33.4104167,"lon":130.603125,"areaKm2":0.1625645,"populated2020":true,"population2020":null,"populationNote":"境界またぎ・原典収録外のため自治体内人口は未集計"},"geometry":{"type":"Polygon","coordinates":[[[130.601488612,33.410365829],[130.603025279,33.410545559],[130.604094721,33.41105833300001],[130.604212218,33.41136389199999],[130.604438327,33.411479721],[130.605554449,33.411647225],[130.60625,33.411949180923],[130.60625,33.40833333333333],[130.6,33.40833333333333],[130.6,33.410063640000004],[130.601488612,33.410365829]]]}},{"type":"Feature","id":"40503:503004982","properties":{"id":"40503:503004982","meshCode":"503004982","cityCode":"40503","city":"大刀洗町","lat":33.4104167,"lon":130.609375,"areaKm2":0.238565,"populated2020":true,"population2020":696.5209,"populationNote":"2020年基準の国交省調整値"},"geometry":{"type":"Polygon","coordinates":[[[130.60625,33.411949180923],[130.606864994,33.412115559],[130.609315837,33.412305829],[130.60933917,33.41195582900001],[130.610307224,33.412012775],[130.611048885,33.411971108],[130.611333606,33.411526946],[130.611677782,33.41131861299999],[130.612028612,33.41127972100001],[130.612147782,33.411343613],[130.612121388,33.411665559],[130.611717497,33.41224055899999],[130.6117154170909,33.4125],[130.6125,33.41250000000001],[130.6125,33.409453675288354],[130.61213138800002,33.40925],[130.61213138800002,33.409066667],[130.6125,33.408807521704674],[130.6125,33.40833333333333],[130.60625,33.40833333333333],[130.60625,33.411949180923]]]}},{"type":"Feature","id":"40503:503004991","properties":{"id":"40503:503004991","meshCode":"503004991","cityCode":"40503","city":"大刀洗町","lat":33.4109974,"lon":130.6130151,"areaKm2":0.0268039,"populated2020":true,"population2020":null,"populationNote":"境界またぎ・原典収録外のため自治体内人口は未集計"},"geometry":{"type":"MultiPolygon","coordinates":[[[[130.61338643451947,33.4125],[130.613184163,33.41167110800001],[130.613524721,33.411046387],[130.613564449,33.41069638700001],[130.613465279,33.410208054],[130.613081388,33.409774999999996],[130.6125,33.409453675288354],[130.6125,33.41250000000001],[130.61338643451947,33.4125]]],[[[130.6129682746708,33.40833333333333],[130.6125,33.40833333333333],[130.6125,33.408807521704674],[130.6129682746708,33.40833333333333]]]]}},{"type":"Feature","id":"40503:503004984","properties":{"id":"40503:503004984","meshCode":"503004984","cityCode":"40503","city":"大刀洗町","lat":33.4126821,"lon":130.6121069,"areaKm2":0.0034781,"populated2020":true,"population2020":null,"populationNote":"境界またぎ・原典収録外のため自治体内人口は未集計"},"geometry":{"type":"Polygon","coordinates":[[[130.611715279,33.412517224999995],[130.611712503,33.412846945999995],[130.612374721,33.412960829],[130.6125,33.41306849628388],[130.6125,33.41250000000001],[130.611715279,33.412517224999995]]]}},{"type":"Feature","id":"40503:503004993","properties":{"id":"40503:503004993","meshCode":"503004993","cityCode":"40503","city":"大刀洗町","lat":33.4132724,"lon":130.6129103,"areaKm2":0.0085155,"populated2020":true,"population2020":null,"populationNote":"境界またぎ・原典収録外のため自治体内人口は未集計"},"geometry":{"type":"Polygon","coordinates":[[[130.612516939,33.413083054],[130.6128,33.413648054],[130.61304499400003,33.41367582899999],[130.61340917,33.412715279],[130.61338643451947,33.4125],[130.6125,33.41250000000001],[130.612516939,33.413083054]]]}}]}