{"type":"FeatureCollection","metadata":{"cityCode":"40503","city":"大刀洗町","resolution":1000,"boundaryDate":"2026-01-01","populationLabel":"2020年基準人口（国交省調整値）","method":"標準地域メッシュを行政界で切抜き。中心が区域外のとき区域内代表点を判定点にする。人口不明をゼロにしない。"},"features":[{"type":"Feature","id":"40503:50300520","properties":{"id":"40503:50300520","meshCode":"50300520","cityCode":"40503","city":"大刀洗町","lat":33.3563688,"lon":130.6327375,"areaKm2":0.3232859,"populated2020":true,"population2020":null,"populationNote":"境界またぎ・収録外等のため人口未集計"},"geometry":{"type":"Polygon","coordinates":[[[130.631332983,33.35284013500007],[130.62927520100004,33.35536763100009],[130.62919076499998,33.355946523],[130.62950631600006,33.35598957700005],[130.629352153,33.35696291],[130.62871354100014,33.356913468000016],[130.62859965000007,33.357769297],[130.62846770400017,33.357738468000036],[130.62821884586123,33.358333333333334],[130.63750000000002,33.358333333333334],[130.63750000000002,33.35678438445968],[130.631332983,33.35284013500007]]]}},{"type":"Feature","id":"40503:50300521","properties":{"id":"40503:50300521","meshCode":"50300521","cityCode":"40503","city":"大刀洗町","lat":33.357817,"lon":130.6383144,"areaKm2":0.0195291,"populated2020":true,"population2020":null,"populationNote":"境界またぎ・収録外等のため人口未集計"},"geometry":{"type":"Polygon","coordinates":[[[130.6399431780002,33.35833333299997],[130.63958297,33.35810486500009],[130.63750000000002,33.35678438445968],[130.63750000000002,33.358333333333334],[130.6399431780002,33.35833333299997]]]}},{"type":"Feature","id":"40503:50300530","properties":{"id":"40503:50300530","meshCode":"50300530","cityCode":"40503","city":"大刀洗町","lat":33.3621744,"lon":130.633366,"areaKm2":0.6771,"populated2020":true,"population2020":null,"populationNote":"境界またぎ・収録外等のため人口未集計"},"geometry":{"type":"Polygon","coordinates":[[[130.62821884586123,33.358333333333334],[130.62758658899997,33.35984485600005],[130.62844548600015,33.36012207200008],[130.62823631599997,33.36129818900015],[130.62807492900004,33.36155679300004],[130.62742520100016,33.36220345900011],[130.62837214,33.3624129100001],[130.6284307520001,33.36220346800002],[130.62904381299995,33.362240405000136],[130.63007520100007,33.36240041399997],[130.63140019500008,33.36271457700013],[130.63147352800004,33.36252985600004],[130.6322482490001,33.362696243000016],[130.63241714700018,33.362492909999965],[130.63292714700015,33.36325652300002],[130.63245741900016,33.36331818899999],[130.6324354730001,33.36384180200002],[130.632104916,33.36387236000007],[130.63209408600017,33.36413124300009],[130.6315432560001,33.364469856000134],[130.62966770399998,33.36501763100006],[130.63046408599996,33.3660831890001],[130.629605201,33.36617568500015],[130.62946020809832,33.36666666666667],[130.63750000000002,33.36666666666666],[130.63750000000002,33.358333333333334],[130.62821884586123,33.358333333333334]]]}},{"type":"Feature","id":"40503:50300531","properties":{"id":"40503:50300531","meshCode":"50300531","cityCode":"40503","city":"大刀洗町","lat":33.3633055,"lon":130.6429202,"areaKm2":0.8230864,"populated2020":true,"population2020":null,"populationNote":"境界またぎ・収録外等のため人口未集計"},"geometry":{"type":"Polygon","coordinates":[[[130.641666589,33.35932591900001],[130.6399431785199,33.35833333333334],[130.63750000000002,33.358333333333334],[130.63750000000002,33.36666666666666],[130.65,33.36666666666666],[130.65,33.362687757],[130.64703630400015,33.36171292800009],[130.64588990900006,33.361261540999976],[130.64393686099993,33.36042125199998],[130.641666589,33.35932591900001]]]}},{"type":"Feature","id":"40503:50300532","properties":{"id":"40503:50300532","meshCode":"50300532","cityCode":"40503","city":"大刀洗町","lat":33.3643037,"lon":130.6556975,"areaKm2":0.4514069,"populated2020":true,"population2020":null,"populationNote":"境界またぎ・収録外等のため人口未集計"},"geometry":{"type":"Polygon","coordinates":[[[130.6590476780001,33.36206988300006],[130.652495746,33.362886261000085],[130.65109407300008,33.362903207000095],[130.65,33.362687757],[130.65,33.36666666666666],[130.65612766526837,33.36666666666666],[130.65634712100007,33.36653960400014],[130.65692573299998,33.36654487400005],[130.65819823599998,33.366312936999925],[130.65831073899994,33.36542321600012],[130.65847156899997,33.36530460400007],[130.66059268499998,33.364409604000116],[130.6625,33.364048097041646],[130.6625,33.36209218935094],[130.66023823600005,33.361989324000035],[130.6590476780001,33.36206988300006]]]}},{"type":"Feature","id":"40503:50300533","properties":{"id":"40503:50300533","meshCode":"50300533","cityCode":"40503","city":"大刀洗町","lat":33.3628432,"lon":130.6641765,"areaKm2":0.0543277,"populated2020":true,"population2020":null,"populationNote":"境界またぎ・収録外等のため人口未集計"},"geometry":{"type":"Polygon","coordinates":[[[130.666352114,33.362743224999974],[130.66679378700007,33.362192667000095],[130.6625,33.36209218935094],[130.6625,33.364048097041646],[130.66597267200007,33.363012946000026],[130.666352114,33.362743224999974]]]}},{"type":"Feature","id":"40503:50300438","properties":{"id":"40503:50300438","meshCode":"50300438","cityCode":"40503","city":"大刀洗町","lat":33.3657126,"lon":130.6065249,"areaKm2":0.1489377,"populated2020":true,"population2020":null,"populationNote":"境界またぎ・収録外等のため人口未集計"},"geometry":{"type":"Polygon","coordinates":[[[130.605412503,33.36460064],[130.605027484,33.364043919],[130.6039707,33.36345033300001],[130.603764254,33.36378455],[130.603777224,33.365572162],[130.60342201,33.36545555000001],[130.602601621,33.36541605400001],[130.602587951,33.366560495],[130.60330794455004,33.36666666666666],[130.604934397,33.366600747999996],[130.605426226,33.366606495],[130.60548032370033,33.36666666666667],[130.6125,33.36666666666666],[130.611740208,33.36650345000001],[130.611745201,33.365585117],[130.609745006,33.365587252],[130.609535032,33.36569602699999],[130.609255097,33.365569117],[130.60885131,33.36559178400001],[130.608317977,33.36576178399999],[130.607149339,33.36581],[130.607176952,33.365419558999996],[130.607374786,33.36525864],[130.607419235,33.364608225],[130.605412503,33.36460064]]]}},{"type":"Feature","id":"40503:50300439","properties":{"id":"40503:50300439","meshCode":"50300439","cityCode":"40503","city":"大刀洗町","lat":33.3666493,"lon":130.6139167,"areaKm2":0.0009894,"populated2020":true,"population2020":null,"populationNote":"境界またぎ・収録外等のため人口未集計"},"geometry":{"type":"Polygon","coordinates":[[[130.615270117,33.36666666666667],[130.6125,33.36663419982512],[130.6125,33.36666666666666],[130.615270117,33.36666666666667]]]}},{"type":"Feature","id":"40503:50300446","properties":{"id":"40503:50300446","meshCode":"50300446","cityCode":"40503","city":"大刀洗町","lat":33.371059,"lon":130.5830041,"areaKm2":0.7275622,"populated2020":true,"population2020":43.543,"populationNote":"収録500mメッシュ人口の合算（原典収録外は補完しない）"},"geometry":{"type":"Polygon","coordinates":[[[130.578430454,33.367072865000004],[130.579188794,33.36756981100001],[130.579018236,33.367963982],[130.579027121,33.36928731500001],[130.577951842,33.369302036],[130.577937121,33.37107370299999],[130.578151569,33.371080928],[130.57805767800002,33.371810649],[130.578186848,33.371800649],[130.578101569,33.372862874],[130.578336563,33.37284314400001],[130.578324903,33.373567315],[130.578712399,33.373508144],[130.578835733,33.373562595],[130.57931463,33.374452036],[130.579502049,33.37500000000001],[130.5875,33.375],[130.5875,33.36710047575533],[130.584824903,33.36716481999999],[130.578430454,33.367072865000004]]]}},{"type":"Feature","id":"40503:50300447","properties":{"id":"40503:50300447","meshCode":"50300447","cityCode":"40503","city":"大刀洗町","lat":33.3711171,"lon":130.5937139,"areaKm2":1.0016552,"populated2020":true,"population2020":1179.1364,"populationNote":"収録500mメッシュ人口の合算（原典収録外は補完しない）"},"geometry":{"type":"Polygon","coordinates":[[[130.6,33.367369721],[130.5875,33.36710047575533],[130.5875,33.375],[130.6,33.375],[130.6,33.367369721]]]}},{"type":"Feature","id":"40503:50300448","properties":{"id":"40503:50300448","meshCode":"50300448","cityCode":"40503","city":"大刀洗町","lat":33.3709978,"lon":130.6063948,"areaKm2":1.0301637,"populated2020":true,"population2020":678.5462,"populationNote":"収録500mメッシュ人口の合算（原典収録外は補完しない）"},"geometry":{"type":"MultiPolygon","coordinates":[[[[130.603315422,33.366667054000004],[130.60398366274882,33.36666666666667],[130.60330794455004,33.36666666666666],[130.603315422,33.366667054000004]]],[[[130.60548032370033,33.36666666666667],[130.605716563,33.366951559],[130.605730752,33.367368162000005],[130.605805344,33.36746913499999],[130.6,33.367369721],[130.6,33.375],[130.6125,33.375],[130.6125,33.36666666666666],[130.60548032370033,33.36666666666667]]]]}},{"type":"Feature","id":"40503:50300449","properties":{"id":"40503:50300449","meshCode":"50300449","cityCode":"40503","city":"大刀洗町","lat":33.371193,"lon":130.6185609,"areaKm2":0.9785849,"populated2020":true,"population2020":null,"populationNote":"境界またぎ・収録外等のため人口未集計"},"geometry":{"type":"Polygon","coordinates":[[[130.615270117,33.367422955],[130.615270117,33.36666666666667],[130.6125,33.36666666666666],[130.6125,33.375],[130.625,33.375],[130.625,33.36769718],[130.624429922,33.367690405000005],[130.624132983,33.367917072000004],[130.624194371,33.36811679299999],[130.623622425,33.368398739],[130.623490195,33.368386234],[130.62233965,33.367563739],[130.615270117,33.367422955]]]}},{"type":"Feature","id":"40503:50300540","properties":{"id":"40503:50300540","meshCode":"50300540","cityCode":"40503","city":"大刀洗町","lat":33.3709091,"lon":130.6313477,"areaKm2":1.0539675,"populated2020":true,"population2020":935.0316,"populationNote":"収録500mメッシュ人口の合算（原典収録外は補完しない）"},"geometry":{"type":"Polygon","coordinates":[[[130.62946020809832,33.36666666666667],[130.62939963700012,33.366871522999986],[130.62756075200002,33.36666818900005],[130.6272452010002,33.36729624300012],[130.62686352800017,33.36717291000013],[130.62662131000013,33.367480964000045],[130.6256557590001,33.36733929700012],[130.62547214000006,33.36770263099998],[130.625,33.36769718],[130.625,33.375],[130.63750000000002,33.37500000000001],[130.63750000000002,33.36666666666666],[130.62946020809832,33.36666666666667]]]}},{"type":"Feature","id":"40503:50300541","properties":{"id":"40503:50300541","meshCode":"50300541","cityCode":"40503","city":"大刀洗町","lat":33.3698958,"lon":130.643503,"areaKm2":0.7972485,"populated2020":true,"population2020":null,"populationNote":"境界またぎ・収録外等のため人口未集計"},"geometry":{"type":"Polygon","coordinates":[[[130.65,33.36666666666666],[130.63750000000002,33.36666666666666],[130.63750000000002,33.37500000000001],[130.64158145299987,33.375],[130.64080299600005,33.374174757000105],[130.640855772,33.37408836900005],[130.64114604400004,33.374059477],[130.64111299599995,33.37393753200012],[130.64030965000018,33.37338200900006],[130.639727977,33.37315564000006],[130.6395224250001,33.373182585999984],[130.63946131000012,33.37384591],[130.63937770400014,33.37398064000013],[130.63892770400003,33.37401843200007],[130.638863528,33.373953711999995],[130.63882158200013,33.37289121600003],[130.63893741900017,33.37279427000004],[130.639381038,33.37276731500004],[130.63949992200014,33.371494819999945],[130.64068882000004,33.37146785600003],[130.64068882000004,33.37174840500006],[130.64149242500002,33.37184005400013],[130.64256910500012,33.37213114400004],[130.64332771700003,33.372249730000085],[130.6473257980001,33.37228214400011],[130.648845811,33.37311762200011],[130.65,33.3732997578307],[130.65,33.36666666666666]]]}},{"type":"Feature","id":"40503:50300542","properties":{"id":"40503:50300542","meshCode":"50300542","cityCode":"40503","city":"大刀洗町","lat":33.370072,"lon":130.6520776,"areaKm2":0.274818,"populated2020":true,"population2020":null,"populationNote":"境界またぎ・収録外等のため人口未集計"},"geometry":{"type":"Polygon","coordinates":[[[130.65283773,33.37025968500001],[130.65237160800018,33.369402793],[130.65241965000007,33.368928090000054],[130.65386604399998,33.36875560400001],[130.65381464300015,33.368539774999974],[130.65416797700004,33.3684320090001],[130.65407186799996,33.3681353510001],[130.6537182620001,33.36821618000011],[130.65357686100015,33.36780120699996],[130.65551462999997,33.36691709000013],[130.65601295700014,33.36680903600006],[130.65612766526837,33.36666666666666],[130.65,33.36666666666666],[130.65,33.3732997578307],[130.651767211,33.37352729700001],[130.65223665400003,33.373770063],[130.6524872110001,33.37379173000011],[130.65300804200012,33.373592018000124],[130.65320053200003,33.37343036000005],[130.65344164700002,33.372918162000126],[130.654213035,33.37275622499999],[130.65492024600007,33.372476243000115],[130.65483968900003,33.371559341999955],[130.65465967599994,33.371090206999945],[130.654325512,33.370863829000086],[130.65381134899997,33.370955486000135],[130.6535543970001,33.3709016040001],[130.65283773,33.37025968500001]]]}},{"type":"Feature","id":"40503:50300456","properties":{"id":"40503:50300456","meshCode":"50300456","cityCode":"40503","city":"大刀洗町","lat":33.3787594,"lon":130.5843562,"areaKm2":0.525259,"populated2020":true,"population2020":null,"populationNote":"境界またぎ・収録外等のため人口未集計"},"geometry":{"type":"Polygon","coordinates":[[[130.579731855,33.375275081000005],[130.580636602,33.377310269999995],[130.581074384,33.378682982],[130.581077173,33.379336009],[130.581611894,33.379336009],[130.581635512,33.380139027000006],[130.582240791,33.380124306000006],[130.582267198,33.381285090000006],[130.582443593,33.381289811],[130.582610545,33.382558919000004],[130.582857497,33.383051676],[130.583351102,33.383130568],[130.5836481714883,33.38333333333333],[130.5875,33.38333333333333],[130.5875,33.375],[130.579502049,33.37500000000001],[130.579731855,33.375275081000005]]]}},{"type":"Feature","id":"40503:50300457","properties":{"id":"40503:50300457","meshCode":"50300457","cityCode":"40503","city":"大刀洗町","lat":33.3791667,"lon":130.59375,"areaKm2":1.0748696,"populated2020":true,"population2020":244.7856,"populationNote":"収録500mメッシュ人口の合算（原典収録外は補完しない）"},"geometry":{"type":"Polygon","coordinates":[[[130.6,33.375],[130.5875,33.375],[130.5875,33.38333333333333],[130.6,33.38333333333333],[130.6,33.375]]]}},{"type":"Feature","id":"40503:50300458","properties":{"id":"40503:50300458","meshCode":"50300458","cityCode":"40503","city":"大刀洗町","lat":33.3791667,"lon":130.60625,"areaKm2":1.0748674,"populated2020":true,"population2020":172.7776,"populationNote":"収録500mメッシュ人口の合算（原典収録外は補完しない）"},"geometry":{"type":"Polygon","coordinates":[[[130.6125,33.375],[130.6,33.375],[130.6,33.38333333333333],[130.6125,33.38333333333333],[130.6125,33.375]]]}},{"type":"Feature","id":"40503:50300459","properties":{"id":"40503:50300459","meshCode":"50300459","cityCode":"40503","city":"大刀洗町","lat":33.3791667,"lon":130.61875,"areaKm2":1.0748651,"populated2020":true,"population2020":539.1378,"populationNote":"収録500mメッシュ人口の合算（原典収録外は補完しない）"},"geometry":{"type":"Polygon","coordinates":[[[130.625,33.375],[130.6125,33.375],[130.6125,33.38333333333333],[130.625,33.38333333333333],[130.625,33.375]]]}},{"type":"Feature","id":"40503:50300550","properties":{"id":"40503:50300550","meshCode":"50300550","cityCode":"40503","city":"大刀洗町","lat":33.3791667,"lon":130.63125,"areaKm2":1.074863,"populated2020":true,"population2020":234.888,"populationNote":"収録500mメッシュ人口の合算（原典収録外は補完しない）"},"geometry":{"type":"Polygon","coordinates":[[[130.63750000000002,33.37500000000001],[130.625,33.375],[130.625,33.38333333333333],[130.63750000000002,33.383333333333326],[130.63750000000002,33.37500000000001]]]}},{"type":"Feature","id":"40503:50300551","properties":{"id":"40503:50300551","meshCode":"50300551","cityCode":"40503","city":"大刀洗町","lat":33.3796811,"lon":130.6410479,"areaKm2":0.5811016,"populated2020":true,"population2020":null,"populationNote":"境界またぎ・収録外等のため人口未集計"},"geometry":{"type":"Polygon","coordinates":[[[130.6436233070001,33.377244045000054],[130.64269552500014,33.378022378000026],[130.64248968900006,33.37801099100011],[130.642320519,33.377838505],[130.6425032940001,33.37731295500004],[130.6425494030001,33.3763504860001],[130.64158145299987,33.375],[130.63750000000002,33.37500000000001],[130.63750000000002,33.383333333333326],[130.6468043581557,33.38333333333333],[130.64649610900017,33.38248584699994],[130.64571,33.38242835099999],[130.64489193300005,33.38012367599998],[130.64494665400014,33.37932980200003],[130.6436233070001,33.377244045000054]]]}},{"type":"Feature","id":"40503:50300466","properties":{"id":"40503:50300466","meshCode":"50300466","cityCode":"40503","city":"大刀洗町","lat":33.3848028,"lon":130.5864975,"areaKm2":0.0627048,"populated2020":true,"population2020":null,"populationNote":"境界またぎ・収録外等のため人口未集計"},"geometry":{"type":"MultiPolygon","coordinates":[[[[130.584076667,33.383625829],[130.584952218,33.38368499999999],[130.585516394,33.38397582899999],[130.586036109,33.384742225],[130.585801115,33.38489],[130.585577782,33.385279440999994],[130.585554163,33.385565279000005],[130.585636394,33.38569833299999],[130.586697224,33.385971946],[130.58707917,33.386257775],[130.587361115,33.38662249499999],[130.587355279,33.387066108],[130.587117224,33.38766472100001],[130.587181946,33.388143054],[130.5875,33.38840066984546],[130.5875,33.38333333333333],[130.5836481714883,33.38333333333333],[130.584076667,33.383625829]]],[[[130.5875,33.38915793286109],[130.5875,33.388745092167945],[130.58738166,33.388857495],[130.5875,33.38915793286109]]]]}},{"type":"Feature","id":"40503:50300467","properties":{"id":"40503:50300467","meshCode":"50300467","cityCode":"40503","city":"大刀洗町","lat":33.3874364,"lon":130.5938602,"areaKm2":1.0545096,"populated2020":true,"population2020":327.5583,"populationNote":"収録500mメッシュ人口の合算（原典収録外は補完しない）"},"geometry":{"type":"Polygon","coordinates":[[[130.6,33.38333333333333],[130.5875,33.38333333333333],[130.5875,33.38840066984546],[130.58761083,33.388468333],[130.587646109,33.388606108],[130.5875,33.388745092167945],[130.5875,33.38915793286109],[130.58808083,33.39004055899999],[130.588304163,33.39060249500001],[130.588941388,33.39139333300001],[130.5889970819321,33.39166666666666],[130.6,33.391666666666666],[130.6,33.38333333333333]]]}},{"type":"Feature","id":"40503:50300468","properties":{"id":"40503:50300468","meshCode":"50300468","cityCode":"40503","city":"大刀洗町","lat":33.3875,"lon":130.60625,"areaKm2":1.0747662,"populated2020":true,"population2020":637.3628,"populationNote":"収録500mメッシュ人口の合算（原典収録外は補完しない）"},"geometry":{"type":"Polygon","coordinates":[[[130.6125,33.38333333333333],[130.6,33.38333333333333],[130.6,33.391666666666666],[130.6125,33.39166666666666],[130.6125,33.38333333333333]]]}},{"type":"Feature","id":"40503:50300469","properties":{"id":"40503:50300469","meshCode":"50300469","cityCode":"40503","city":"大刀洗町","lat":33.3875,"lon":130.61875,"areaKm2":1.0747641,"populated2020":true,"population2020":1708.1666,"populationNote":"収録500mメッシュ人口の合算（原典収録外は補完しない）"},"geometry":{"type":"Polygon","coordinates":[[[130.625,33.38333333333333],[130.6125,33.38333333333333],[130.6125,33.39166666666666],[130.625,33.39166666666666],[130.625,33.38333333333333]]]}},{"type":"Feature","id":"40503:50300560","properties":{"id":"40503:50300560","meshCode":"50300560","cityCode":"40503","city":"大刀洗町","lat":33.386507,"lon":130.6307211,"areaKm2":0.8006727,"populated2020":true,"population2020":null,"populationNote":"境界またぎ・収録外等のため人口未集計"},"geometry":{"type":"Polygon","coordinates":[[[130.63750000000002,33.383333333333326],[130.625,33.38333333333333],[130.625,33.39166666666666],[130.62532333299998,33.39159610799994],[130.62545832699996,33.39137],[130.625417224,33.39097499999999],[130.6255952790001,33.390687224999965],[130.62616888499997,33.39055694600012],[130.6271883270001,33.390625829000044],[130.62770027200008,33.39033472099993],[130.62846583700014,33.39003194600002],[130.62888861199997,33.38995889200004],[130.62951944199995,33.39000889200008],[130.630076939,33.39030416200001],[130.63060277600005,33.389951387000046],[130.63309389100004,33.38899277500013],[130.63528333299996,33.388394721],[130.63750000000002,33.38812457024073],[130.63750000000002,33.383333333333326]]]}},{"type":"Feature","id":"40503:50300561","properties":{"id":"40503:50300561","meshCode":"50300561","cityCode":"40503","city":"大刀洗町","lat":33.3852745,"lon":130.641358,"areaKm2":0.3325035,"populated2020":true,"population2020":null,"populationNote":"境界またぎ・収録外等のため人口未集計"},"geometry":{"type":"Polygon","coordinates":[[[130.64479333300017,33.38696055899999],[130.64465861200006,33.38594472099999],[130.64592472100014,33.385917775000046],[130.64565277600013,33.38500889200009],[130.64572805400007,33.38382389200012],[130.64703333299997,33.38382389200012],[130.6468043581557,33.38333333333333],[130.63750000000002,33.383333333333326],[130.63750000000002,33.38812457024073],[130.63866138799995,33.38793082900003],[130.64141083000015,33.38707944100008],[130.6423366670001,33.38697582900005],[130.64479333300017,33.38696055899999]]]}},{"type":"Feature","id":"40503:50300477","properties":{"id":"40503:50300477","meshCode":"50300477","cityCode":"40503","city":"大刀洗町","lat":33.3956061,"lon":130.5952339,"areaKm2":0.8115064,"populated2020":true,"population2020":null,"populationNote":"境界またぎ・収録外等のため人口未集計"},"geometry":{"type":"Polygon","coordinates":[[[130.589106109,33.392201666999995],[130.589455551,33.39272166700001],[130.58954083,33.394074721],[130.590395837,33.39532861299999],[130.591018612,33.395397775000006],[130.591186109,33.396947775],[130.591532776,33.397066108],[130.591485837,33.397421108],[130.591068612,33.397342225],[130.590998054,33.397573613],[130.591471115,33.39794555899999],[130.591388885,33.39822666700001],[130.591979442,33.39865805400001],[130.591632503,33.399027495000006],[130.591418054,33.399660829],[130.591482776,33.399808892],[130.591431505,33.4],[130.6,33.4],[130.6,33.391666666666666],[130.5889970819321,33.39166666666666],[130.589106109,33.392201666999995]]]}},{"type":"Feature","id":"40503:50300478","properties":{"id":"40503:50300478","meshCode":"50300478","cityCode":"40503","city":"大刀洗町","lat":33.3958333,"lon":130.60625,"areaKm2":1.0746651,"populated2020":true,"population2020":452.942,"populationNote":"収録500mメッシュ人口の合算（原典収録外は補完しない）"},"geometry":{"type":"Polygon","coordinates":[[[130.6125,33.39166666666666],[130.6,33.391666666666666],[130.6,33.4],[130.6125,33.39999999999999],[130.6125,33.39166666666666]]]}},{"type":"Feature","id":"40503:50300479","properties":{"id":"40503:50300479","meshCode":"50300479","cityCode":"40503","city":"大刀洗町","lat":33.3947902,"lon":130.617113,"areaKm2":0.654461,"populated2020":true,"population2020":null,"populationNote":"境界またぎ・収録外等のため人口未集計"},"geometry":{"type":"Polygon","coordinates":[[[130.618596109,33.39555333300001],[130.619281388,33.395339721],[130.619883891,33.395389721],[130.620208054,33.39504527900001],[130.620618612,33.39493972099999],[130.623156667,33.394958892000005],[130.623442218,33.394464441],[130.624379442,33.394376108],[130.624443333,33.394234162],[130.624342776,33.39372805400001],[130.624612503,33.392428333],[130.624354163,33.391776387],[130.625,33.391734973],[130.625,33.39166666666666],[130.6125,33.39166666666666],[130.6125,33.39999999999999],[130.615597834,33.39999999999999],[130.615477782,33.39991805399999],[130.618235279,33.397011108],[130.61777166,33.39675],[130.617169442,33.397444162],[130.616858327,33.397360829],[130.617023891,33.39688333299999],[130.617222503,33.396672225],[130.617506939,33.39657222500001],[130.617616109,33.396214162],[130.617728612,33.39610305400001],[130.618304721,33.395991946],[130.618596109,33.39555333300001]]]}},{"type":"Feature","id":"40503:50300570","properties":{"id":"40503:50300570","meshCode":"50300570","cityCode":"40503","city":"大刀洗町","lat":33.3916924,"lon":130.62506,"areaKm2":7.14e-05,"populated2020":true,"population2020":null,"populationNote":"境界またぎ・収録外等のため人口未集計"},"geometry":{"type":"Polygon","coordinates":[[[130.62504,33.391730279000114],[130.62517450100006,33.39166666700003],[130.62517450170324,33.39166666666666],[130.625,33.39166666666666],[130.62504,33.391730279000114]]]}},{"type":"Feature","id":"40503:50300487","properties":{"id":"40503:50300487","meshCode":"50300487","cityCode":"40503","city":"大刀洗町","lat":33.4021447,"lon":130.5968752,"areaKm2":0.2851857,"populated2020":true,"population2020":null,"populationNote":"境界またぎ・収録外等のため人口未集計"},"geometry":{"type":"Polygon","coordinates":[[[130.591326939,33.400570279],[130.591738327,33.401200829000004],[130.592149442,33.401067774999994],[130.593066109,33.40252194600001],[130.59442917,33.402142495],[130.595378327,33.402933613],[130.595818885,33.402770829],[130.596112776,33.40300249500001],[130.596711946,33.402963054],[130.596873333,33.403221945999995],[130.59790166,33.40308389199999],[130.597978054,33.403290829],[130.598512776,33.403187225],[130.598756667,33.404604441],[130.599156109,33.405008613],[130.598703891,33.405521108],[130.599144449,33.405969441],[130.598935837,33.406282495],[130.599206109,33.406528892],[130.59910917,33.40665944100001],[130.59945272406836,33.40833333333333],[130.6,33.40833333333333],[130.6,33.4],[130.591431505,33.4],[130.591326939,33.400570279]]]}},{"type":"Feature","id":"40503:50300488","properties":{"id":"40503:50300488","meshCode":"50300488","cityCode":"40503","city":"大刀洗町","lat":33.4041667,"lon":130.60625,"areaKm2":1.074564,"populated2020":true,"population2020":2136.7878,"populationNote":"収録500mメッシュ人口の合算（原典収録外は補完しない）"},"geometry":{"type":"Polygon","coordinates":[[[130.6125,33.39999999999999],[130.6,33.4],[130.6,33.40833333333333],[130.6125,33.40833333333333],[130.6125,33.39999999999999]]]}},{"type":"Feature","id":"40503:50300489","properties":{"id":"40503:50300489","meshCode":"50300489","cityCode":"40503","city":"大刀洗町","lat":33.4033479,"lon":130.6146742,"areaKm2":0.3170557,"populated2020":true,"population2020":null,"populationNote":"境界またぎ・収録外等のため人口未集計"},"geometry":{"type":"Polygon","coordinates":[[[130.616133333,33.404749441],[130.618691946,33.40211444100001],[130.615597834,33.39999999999999],[130.6125,33.39999999999999],[130.6125,33.40833333333333],[130.6129682746708,33.40833333333333],[130.615818885,33.405440829],[130.616312218,33.404899162],[130.616133333,33.404749441]]]}},{"type":"Feature","id":"40503:50300497","properties":{"id":"40503:50300497","meshCode":"50300497","cityCode":"40503","city":"大刀洗町","lat":33.4090537,"lon":130.5998006,"areaKm2":0.0065551,"populated2020":true,"population2020":null,"populationNote":"境界またぎ・収録外等のため人口未集計"},"geometry":{"type":"Polygon","coordinates":[[[130.59945272406836,33.40833333333333],[130.599799728,33.410023054],[130.6,33.410063640000004],[130.6,33.40833333333333],[130.59945272406836,33.40833333333333]]]}},{"type":"Feature","id":"40503:50300498","properties":{"id":"40503:50300498","meshCode":"50300498","cityCode":"40503","city":"大刀洗町","lat":33.4100159,"lon":130.6070189,"areaKm2":0.4046076,"populated2020":true,"population2020":null,"populationNote":"境界またぎ・収録外等のため人口未集計"},"geometry":{"type":"Polygon","coordinates":[[[130.60163166,33.410386108],[130.603025279,33.410545559],[130.604094721,33.41105833300001],[130.604212218,33.41136389199999],[130.604438327,33.411479721],[130.605554449,33.411647225],[130.606383061,33.412006946000005],[130.606864994,33.412115559],[130.609315837,33.412305829],[130.60933917,33.41195582900001],[130.610307224,33.412012775],[130.611048885,33.411971108],[130.611333606,33.411526946],[130.611677782,33.41131861299999],[130.612028612,33.41127972100001],[130.612147782,33.411343613],[130.612164449,33.411460279],[130.612121388,33.411665559],[130.611717497,33.41224055899999],[130.611712503,33.412846945999995],[130.612374721,33.412960829],[130.6125,33.41306849628388],[130.6125,33.409453675288354],[130.61213138800002,33.40925],[130.61213138800002,33.409066667],[130.6125,33.408807521704674],[130.6125,33.40833333333333],[130.6,33.40833333333333],[130.6,33.410063640000004],[130.60163166,33.410386108]]]}},{"type":"Feature","id":"40503:50300499","properties":{"id":"40503:50300499","meshCode":"50300499","cityCode":"40503","city":"大刀洗町","lat":33.411433,"lon":130.6129268,"areaKm2":0.0353194,"populated2020":true,"population2020":null,"populationNote":"境界またぎ・収録外等のため人口未集計"},"geometry":{"type":"MultiPolygon","coordinates":[[[[130.6125,33.40833333333333],[130.6125,33.408807521704674],[130.6129682746708,33.40833333333333],[130.6125,33.40833333333333]]],[[[130.61340917,33.412715279],[130.613184163,33.41167110800001],[130.613524721,33.411046387],[130.613564449,33.41069638700001],[130.613465279,33.410208054],[130.613081388,33.409774999999996],[130.6125,33.409453675288354],[130.6125,33.41306849628388],[130.612713891,33.41354805400001],[130.612886109,33.413686946000006],[130.613104721,33.413631386999995],[130.61340917,33.412715279]]]]}}]}