{"type":"FeatureCollection","metadata":{"cityCode":"40522","city":"大木町","resolution":1000,"boundaryDate":"2026-01-01","populationLabel":"2020年基準人口（国交省調整値）","method":"標準地域メッシュを行政界で切抜き。中心が区域外のとき区域内代表点を判定点にする。人口不明をゼロにしない。"},"features":[{"type":"Feature","id":"40522:49306314","properties":{"id":"40522:49306314","meshCode":"49306314","cityCode":"40522","city":"大木町","lat":33.1824722,"lon":130.4362157,"areaKm2":0.0419894,"populated2020":true,"population2020":null,"populationNote":"境界またぎ・収録外等のため人口未集計"},"geometry":{"type":"Polygon","coordinates":[[[130.4375,33.182060591723335],[130.435743606,33.181312225],[130.435168612,33.181221108],[130.435328885,33.182985559],[130.43471166,33.182965],[130.4347205580088,33.18333333333333],[130.4375,33.18333333333333],[130.4375,33.182060591723335]]]}},{"type":"Feature","id":"40522:49306315","properties":{"id":"40522:49306315","meshCode":"49306315","cityCode":"40522","city":"大木町","lat":33.1829031,"lon":130.4387438,"areaKm2":0.0248954,"populated2020":true,"population2020":null,"populationNote":"境界またぎ・収録外等のため人口未集計"},"geometry":{"type":"Polygon","coordinates":[[[130.441239663,33.18333333300001],[130.439484721,33.18270138700001],[130.4375,33.182060591723335],[130.4375,33.18333333333333],[130.441239663,33.18333333300001]]]}},{"type":"Feature","id":"40522:49306324","properties":{"id":"40522:49306324","meshCode":"49306324","cityCode":"40522","city":"大木町","lat":33.1880669,"lon":130.4352552,"areaKm2":0.3635641,"populated2020":true,"population2020":258.9995,"populationNote":"収録500mメッシュ人口の合算（原典収録外は補完しない）"},"geometry":{"type":"Polygon","coordinates":[[[130.434734721,33.184083892],[130.434431115,33.184095829],[130.434617224,33.185099441],[130.434363606,33.185377225],[130.434554163,33.18661555900001],[130.433186667,33.186665],[130.43317527900004,33.18752610800001],[130.432316109,33.187588892],[130.432464994,33.189704162],[130.43181452716726,33.19166666666668],[130.4375,33.19166666666667],[130.4375,33.18333333333333],[130.4347205580088,33.18333333333333],[130.434734721,33.184083892]]]}},{"type":"Feature","id":"40522:49306325","properties":{"id":"40522:49306325","meshCode":"49306325","cityCode":"40522","city":"大木町","lat":33.1878943,"lon":130.4433641,"areaKm2":0.9636063,"populated2020":true,"population2020":null,"populationNote":"境界またぎ・収録外等のため人口未集計"},"geometry":{"type":"Polygon","coordinates":[[[130.44358083,33.184028054],[130.441778885,33.183541387],[130.44123966391,33.18333333333332],[130.4375,33.18333333333333],[130.4375,33.19166666666667],[130.45,33.19166666666667],[130.45,33.185685198],[130.44866166,33.185448054],[130.44683888500003,33.184996946],[130.446091388,33.184907775],[130.445923891,33.184456667],[130.444610558,33.18454444100001],[130.444478885,33.184072775],[130.44358083,33.184028054]]]}},{"type":"Feature","id":"40522:49306326","properties":{"id":"40522:49306326","meshCode":"49306326","cityCode":"40522","city":"大木町","lat":33.1888679,"lon":130.4542606,"areaKm2":0.5023386,"populated2020":true,"population2020":null,"populationNote":"境界またぎ・収録外等のため人口未集計"},"geometry":{"type":"Polygon","coordinates":[[[130.456083891,33.185798333],[130.45393888500004,33.186053613],[130.453252776,33.185898333000004],[130.452886109,33.186172775],[130.452723061,33.186199162],[130.45,33.185685198],[130.45,33.19166666666667],[130.4572500009513,33.19166666666667],[130.458650272,33.19106694599999],[130.459507224,33.190528613],[130.458918612,33.189098333],[130.458451946,33.188691667],[130.458202503,33.188251107999996],[130.458137497,33.188021946000006],[130.458286394,33.187729721000004],[130.458046394,33.186755559],[130.457249442,33.186068054],[130.457123606,33.185776667],[130.456083891,33.185798333]]]}},{"type":"Feature","id":"40522:49306333","properties":{"id":"40522:49306333","meshCode":"49306333","cityCode":"40522","city":"大木町","lat":33.1973741,"lon":130.4230955,"areaKm2":0.1722274,"populated2020":true,"population2020":null,"populationNote":"境界またぎ・収録外等のため人口未集計"},"geometry":{"type":"Polygon","coordinates":[[[130.425,33.195786414],[130.420343061,33.19451082900001],[130.420330272,33.194857495],[130.421512049,33.197227414000004],[130.421878145,33.197174586],[130.421925227,33.197438775],[130.422453476,33.198332613],[130.42184153,33.19850874800001],[130.422193891,33.199748054000004],[130.4209962,33.19980163999999],[130.42105869,33.2],[130.425,33.199999999999996],[130.425,33.195786414]]]}},{"type":"Feature","id":"40522:49306334","properties":{"id":"40522:49306334","meshCode":"49306334","cityCode":"40522","city":"大木町","lat":33.1964607,"lon":130.4322357,"areaKm2":0.8407684,"populated2020":true,"population2020":null,"populationNote":"境界またぎ・収録外等のため人口未集計"},"geometry":{"type":"Polygon","coordinates":[[[130.43181452716726,33.19166666666668],[130.430341115,33.19453777499999],[130.428405279,33.19429222499999],[130.42824917,33.195987495],[130.428105837,33.19657222499999],[130.426847224,33.196318333],[130.425,33.195786414],[130.425,33.199999999999996],[130.4375,33.199999999999996],[130.4375,33.19166666666667],[130.43181452716726,33.19166666666668]]]}},{"type":"Feature","id":"40522:49306335","properties":{"id":"40522:49306335","meshCode":"49306335","cityCode":"40522","city":"大木町","lat":33.1958333,"lon":130.44375,"areaKm2":1.0771212,"populated2020":true,"population2020":948.8603,"populationNote":"収録500mメッシュ人口の合算（原典収録外は補完しない）"},"geometry":{"type":"Polygon","coordinates":[[[130.45,33.19166666666667],[130.4375,33.19166666666667],[130.4375,33.199999999999996],[130.45,33.199999999999996],[130.45,33.19166666666667]]]}},{"type":"Feature","id":"40522:49306336","properties":{"id":"40522:49306336","meshCode":"49306336","cityCode":"40522","city":"大木町","lat":33.1953073,"lon":130.4517905,"areaKm2":0.2876016,"populated2020":true,"population2020":null,"populationNote":"境界またぎ・収録外等のため人口未集計"},"geometry":{"type":"Polygon","coordinates":[[[130.455762218,33.192040000000006],[130.4572500009513,33.19166666666667],[130.45,33.19166666666667],[130.45,33.199999999999996],[130.45248297,33.199999999999996],[130.452957224,33.196654162],[130.453166939,33.195775279],[130.453190558,33.194317495],[130.453345279,33.19382916200001],[130.453648054,33.193799721],[130.454395551,33.192203892],[130.455762218,33.192040000000006]]]}},{"type":"Feature","id":"40522:49306343","properties":{"id":"40522:49306343","meshCode":"49306343","cityCode":"40522","city":"大木町","lat":33.2046454,"lon":130.4214608,"areaKm2":0.5384817,"populated2020":true,"population2020":null,"populationNote":"境界またぎ・収録外等のため人口未集計"},"geometry":{"type":"Polygon","coordinates":[[[130.421364553,33.200828586],[130.421236446,33.20084816200001],[130.421283022,33.201014865],[130.421421141,33.200999468000006],[130.421382892,33.201211027],[130.421018444,33.201226414000004],[130.42095022,33.201052694],[130.420341997,33.201114387],[130.420400272,33.201559720999995],[130.42022277600003,33.201595829000006],[130.420128327,33.201246667],[130.419851946,33.201327225],[130.419884838,33.201443586],[130.419804449,33.201463333],[130.419953061,33.20196264000001],[130.419894838,33.202118162],[130.419648612,33.202176945999994],[130.419523891,33.201937494999996],[130.418532776,33.202209161999996],[130.418638885,33.202493054],[130.418895279,33.202415],[130.419087224,33.20304082900001],[130.418754916,33.203198225],[130.419064163,33.203880559],[130.419293333,33.203940829],[130.419525279,33.204407775],[130.420089442,33.20427777500001],[130.420304449,33.204910559],[130.41674978000003,33.20576513500001],[130.415448327,33.20623749500001],[130.41525083,33.206220829],[130.414591414,33.206392775],[130.414679637,33.20660853200001],[130.414408366,33.206747252],[130.414483256,33.206880332999994],[130.41429022,33.20694619799999],[130.41437011700003,33.207300613],[130.413558054,33.207568613],[130.413695551,33.207934161999994],[130.416078327,33.207229162],[130.41632166,33.20773472100001],[130.419284721,33.207008892],[130.419548327,33.20776],[130.420620558,33.207693613],[130.42075408604313,33.20833333333334],[130.425,33.20833333333334],[130.425,33.199999999999996],[130.42105869,33.2],[130.421364553,33.200828586]]]}},{"type":"Feature","id":"40522:49306344","properties":{"id":"40522:49306344","meshCode":"49306344","cityCode":"40522","city":"大木町","lat":33.2041667,"lon":130.43125,"areaKm2":1.0770239,"populated2020":true,"population2020":999.9236,"populationNote":"収録500mメッシュ人口の合算（原典収録外は補完しない）"},"geometry":{"type":"Polygon","coordinates":[[[130.4375,33.199999999999996],[130.425,33.199999999999996],[130.425,33.20833333333334],[130.4375,33.20833333333334],[130.4375,33.199999999999996]]]}},{"type":"Feature","id":"40522:49306345","properties":{"id":"40522:49306345","meshCode":"49306345","cityCode":"40522","city":"大木町","lat":33.2041667,"lon":130.44375,"areaKm2":1.0770206,"populated2020":true,"population2020":718.7365,"populationNote":"収録500mメッシュ人口の合算（原典収録外は補完しない）"},"geometry":{"type":"Polygon","coordinates":[[[130.45,33.199999999999996],[130.4375,33.199999999999996],[130.4375,33.20833333333334],[130.45,33.20833333333334],[130.45,33.199999999999996]]]}},{"type":"Feature","id":"40522:49306346","properties":{"id":"40522:49306346","meshCode":"49306346","cityCode":"40522","city":"大木町","lat":33.2054444,"lon":130.4527585,"areaKm2":0.3325556,"populated2020":true,"population2020":118.454,"populationNote":"収録500mメッシュ人口の合算（原典収録外は補完しない）"},"geometry":{"type":"Polygon","coordinates":[[[130.45159166,33.204839441],[130.452239728,33.202349162000004],[130.452231115,33.201642775],[130.45248297,33.199999999999996],[130.45,33.199999999999996],[130.45,33.20833333333334],[130.45842360607145,33.208333333333336],[130.45804555100003,33.20680999999999],[130.45318166,33.205383333],[130.45159166,33.204839441]]]}},{"type":"Feature","id":"40522:49306353","properties":{"id":"40522:49306353","meshCode":"49306353","cityCode":"40522","city":"大木町","lat":33.2125137,"lon":130.4226165,"areaKm2":0.4030702,"populated2020":true,"population2020":null,"populationNote":"境界またぎ・収録外等のため人口未集計"},"geometry":{"type":"Polygon","coordinates":[[[130.420839715,33.209078919],[130.42075524,33.21117373],[130.419247458,33.211449297],[130.419165785,33.21153485600001],[130.419194397,33.211801811],[130.419705486,33.213011306],[130.419526316,33.21328436900001],[130.419860195,33.21373077500001],[130.420129351,33.214493586],[130.420561842,33.215314449999994],[130.420435733,33.215367234],[130.420720726,33.215986982],[130.420929883,33.215989486],[130.42102489,33.216392387],[130.421904825,33.216409495],[130.42199935087243,33.216666666666676],[130.425,33.216666666666676],[130.425,33.20833333333334],[130.42075408604313,33.20833333333334],[130.420839715,33.209078919]]]}},{"type":"Feature","id":"40522:49306354","properties":{"id":"40522:49306354","meshCode":"49306354","cityCode":"40522","city":"大木町","lat":33.2125,"lon":130.43125,"areaKm2":1.0769232,"populated2020":true,"population2020":1113.1308,"populationNote":"収録500mメッシュ人口の合算（原典収録外は補完しない）"},"geometry":{"type":"Polygon","coordinates":[[[130.4375,33.20833333333334],[130.425,33.20833333333334],[130.425,33.216666666666676],[130.4375,33.21666666666667],[130.4375,33.20833333333334]]]}},{"type":"Feature","id":"40522:49306355","properties":{"id":"40522:49306355","meshCode":"49306355","cityCode":"40522","city":"大木町","lat":33.2125,"lon":130.44375,"areaKm2":1.07692,"populated2020":true,"population2020":821.1189,"populationNote":"収録500mメッシュ人口の合算（原典収録外は補完しない）"},"geometry":{"type":"Polygon","coordinates":[[[130.45,33.20833333333334],[130.4375,33.20833333333334],[130.4375,33.21666666666667],[130.45,33.21666666666667],[130.45,33.20833333333334]]]}},{"type":"Feature","id":"40522:49306356","properties":{"id":"40522:49306356","meshCode":"49306356","cityCode":"40522","city":"大木町","lat":33.2126302,"lon":130.4546997,"areaKm2":0.8073511,"populated2020":true,"population2020":null,"populationNote":"境界またぎ・収録外等のため人口未集計"},"geometry":{"type":"Polygon","coordinates":[[[130.459985681,33.21521027],[130.459043567,33.21052425199999],[130.45884607000002,33.210468414],[130.45842360607145,33.208333333333336],[130.45,33.20833333333334],[130.45,33.21666666666667],[130.46000832700608,33.21666666666666],[130.459985681,33.21521027]]]}},{"type":"Feature","id":"40522:49306363","properties":{"id":"40522:49306363","meshCode":"49306363","cityCode":"40522","city":"大木町","lat":33.2222649,"lon":130.4207087,"areaKm2":0.4579462,"populated2020":true,"population2020":null,"populationNote":"境界またぎ・収録外等のため人口未集計"},"geometry":{"type":"Polygon","coordinates":[[[130.421999494,33.216667009],[130.422412101,33.21774256799999],[130.422807095,33.21765590099999],[130.422971816,33.217998955],[130.42303904,33.21826728799999],[130.422892931,33.218457287999996],[130.423418482,33.22054034200001],[130.41302904,33.223294243],[130.412967652,33.223504793000004],[130.413753489,33.223881459],[130.413764877,33.22415591],[130.413639598,33.224397297],[130.4125,33.22461981743108],[130.4125,33.2247275458634],[130.413360428,33.224832856],[130.413885966,33.22500000000001],[130.41469786000002,33.225],[130.414942088,33.224680631],[130.415384034,33.224570351],[130.415555707,33.224604243],[130.415701258,33.224825071999994],[130.416287652,33.224692018],[130.416404189,33.22500000000001],[130.420702815,33.225],[130.420658755,33.22489728800001],[130.420744864,33.224808126],[130.42124847,33.224607072000005],[130.421206329,33.224475288],[130.423139079,33.223973459],[130.423527419,33.22498473900001],[130.423452853,33.224999999999994],[130.425,33.22500000000001],[130.425,33.216666666666676],[130.421999494,33.216667009]]]}},{"type":"Feature","id":"40522:49306364","properties":{"id":"40522:49306364","meshCode":"49306364","cityCode":"40522","city":"大木町","lat":33.2208333,"lon":130.43125,"areaKm2":1.0768226,"populated2020":true,"population2020":518.7121,"populationNote":"収録500mメッシュ人口の合算（原典収録外は補完しない）"},"geometry":{"type":"Polygon","coordinates":[[[130.4375,33.21666666666667],[130.425,33.216666666666676],[130.425,33.22500000000001],[130.4375,33.225],[130.4375,33.21666666666667]]]}},{"type":"Feature","id":"40522:49306365","properties":{"id":"40522:49306365","meshCode":"49306365","cityCode":"40522","city":"大木町","lat":33.2208333,"lon":130.44375,"areaKm2":1.0768192,"populated2020":true,"population2020":1085.2376,"populationNote":"収録500mメッシュ人口の合算（原典収録外は補完しない）"},"geometry":{"type":"Polygon","coordinates":[[[130.45,33.21666666666667],[130.4375,33.21666666666667],[130.4375,33.225],[130.45,33.224999999999994],[130.45,33.21666666666667]]]}},{"type":"Feature","id":"40522:49306366","properties":{"id":"40522:49306366","meshCode":"49306366","cityCode":"40522","city":"大木町","lat":33.2209872,"lon":130.4555804,"areaKm2":0.9556907,"populated2020":true,"population2020":null,"populationNote":"境界またぎ・収録外等のため人口未集計"},"geometry":{"type":"Polygon","coordinates":[[[130.460833424,33.22098088299999],[130.460590649,33.220404775],[130.460831479,33.220322270000004],[130.460820921,33.220180604],[130.460241764,33.218885883],[130.460173424,33.218504775],[130.460318988,33.218285324],[130.46000832700608,33.21666666666666],[130.45,33.21666666666667],[130.45,33.224999999999994],[130.461148949,33.22500000000001],[130.461251193,33.224226162],[130.46155786,33.22419726999999],[130.461595084,33.224057829],[130.461695084,33.224014495],[130.4625,33.224026993966156],[130.4625,33.22243137007905],[130.462059805,33.222314495],[130.461872023,33.222179216],[130.461564527,33.221799495000006],[130.461377588,33.22134782900001],[130.460833424,33.22098088299999]]]}},{"type":"Feature","id":"40522:49306362","properties":{"id":"40522:49306362","meshCode":"49306362","cityCode":"40522","city":"大木町","lat":33.2246753,"lon":130.4124474,"areaKm2":0.0001104,"populated2020":true,"population2020":null,"populationNote":"境界またぎ・収録外等のため人口未集計"},"geometry":{"type":"Polygon","coordinates":[[[130.412388482,33.224720631000004],[130.4125,33.2247275458634],[130.4125,33.22461981743108],[130.412394604,33.22463118900001],[130.412388482,33.224720631000004]]]}},{"type":"Feature","id":"40522:49306367","properties":{"id":"40522:49306367","meshCode":"49306367","cityCode":"40522","city":"大木町","lat":33.2234332,"lon":130.4630259,"areaKm2":0.0147287,"populated2020":true,"population2020":null,"populationNote":"境界またぎ・収録外等のため人口未集計"},"geometry":{"type":"Polygon","coordinates":[[[130.4625,33.224026993966156],[130.463700908,33.22410616200001],[130.463700908,33.223788658],[130.463643969,33.223488657999994],[130.463375084,33.222998658],[130.463157302,33.222802829],[130.462750636,33.22267310800001],[130.4625,33.22243137007905],[130.4625,33.224026993966156]]]}},{"type":"Feature","id":"40522:49306373","properties":{"id":"40522:49306373","meshCode":"49306373","cityCode":"40522","city":"大木町","lat":33.2255826,"lon":130.4180281,"areaKm2":0.0761961,"populated2020":true,"population2020":null,"populationNote":"境界またぎ・収録外等のため人口未集計"},"geometry":{"type":"MultiPolygon","coordinates":[[[[130.414274034,33.225134793],[130.414552646,33.225112577],[130.41469786000002,33.225],[130.413885966,33.22500000000001],[130.414274034,33.225134793]]],[[[130.420950389,33.225263485999996],[130.420702815,33.225],[130.416404189,33.22500000000001],[130.416477367,33.225240072000005],[130.41632904,33.225972297000006],[130.416493204,33.226125631],[130.416723761,33.226093126],[130.4169807,33.225952847],[130.417292698,33.225623432],[130.417647925,33.226110045],[130.420950389,33.225263485999996]]],[[[130.423304669,33.22503034199999],[130.424593126,33.228413927999995],[130.42450882,33.228444342],[130.424797847,33.22928582000001],[130.425,33.229218045],[130.425,33.22500000000001],[130.423304669,33.22503034199999]]]]}},{"type":"Feature","id":"40522:49306374","properties":{"id":"40522:49306374","meshCode":"49306374","cityCode":"40522","city":"大木町","lat":33.2277818,"lon":130.4314935,"areaKm2":0.6723087,"populated2020":true,"population2020":null,"populationNote":"境界またぎ・収録外等のため人口未集計"},"geometry":{"type":"MultiPolygon","coordinates":[[[[130.434272335,33.229486171],[130.4375,33.228913746372235],[130.4375,33.225],[130.425,33.22500000000001],[130.425,33.229218045],[130.425122957,33.22917681999999],[130.425499287,33.230114568],[130.426318119,33.229894062999996],[130.426450597,33.230134846999995],[130.428402529,33.229619422999995],[130.428739728,33.230306288],[130.429275616,33.23020490100001],[130.429425668,33.23071978400001],[130.429556783,33.230708676],[130.429969831,33.23061923400001],[130.429882257,33.230339261],[130.429960532,33.230270811],[130.431390532,33.229994541],[130.431682892,33.229985063],[130.43178511,33.230051171],[130.43281594,33.229874784],[130.434272335,33.229486171]]],[[[130.4375,33.23025017533151],[130.436563995,33.23034950500001],[130.435620376,33.231612838],[130.43534677,33.232852288],[130.435366213,33.233029783999996],[130.43570865102527,33.233333333333334],[130.4375,33.233333333333334],[130.4375,33.23025017533151]]]]}},{"type":"Feature","id":"40522:49306375","properties":{"id":"40522:49306375","meshCode":"49306375","cityCode":"40522","city":"大木町","lat":33.2291659,"lon":130.4437593,"areaKm2":1.0751024,"populated2020":true,"population2020":1811.5056,"populationNote":"収録500mメッシュ人口の合算（原典収録外は補完しない）"},"geometry":{"type":"Polygon","coordinates":[[[130.437600376,33.229154224999995],[130.437648988,33.230214225],[130.4375,33.23025017533151],[130.4375,33.233333333333334],[130.45,33.233333333333334],[130.45,33.224999999999994],[130.4375,33.225],[130.4375,33.228913746372235],[130.437600376,33.229154224999995]]]}},{"type":"Feature","id":"40522:49306376","properties":{"id":"40522:49306376","meshCode":"49306376","cityCode":"40522","city":"大木町","lat":33.2289137,"lon":130.4547552,"areaKm2":0.8087152,"populated2020":true,"population2020":null,"populationNote":"境界またぎ・収録外等のため人口未集計"},"geometry":{"type":"Polygon","coordinates":[[[130.458976744,33.228959216],[130.460354799,33.227248937],[130.460864527,33.22611393700001],[130.461517575,33.226025054000004],[130.461487575,33.225644775000006],[130.461016472,33.225736162],[130.461148949,33.22500000000001],[130.45,33.224999999999994],[130.45,33.233333333333334],[130.458502425,33.233333333333334],[130.458373126,33.23056366699999],[130.458507017,33.22986755],[130.458976744,33.228959216]]]}},{"type":"Feature","id":"40522:49306384","properties":{"id":"40522:49306384","meshCode":"49306384","cityCode":"40522","city":"大木町","lat":33.2352689,"lon":130.4365212,"areaKm2":0.0756861,"populated2020":true,"population2020":null,"populationNote":"境界またぎ・収録外等のため人口未集計"},"geometry":{"type":"Polygon","coordinates":[[[130.435708677,33.23333367600001],[130.435627601,33.234643955],[130.435671206,33.234867288],[130.435855927,33.23495255900001],[130.43587537,33.235079505],[130.435462036,33.235143955000005],[130.4353362,33.236892288],[130.435682036,33.236907288],[130.435973709,33.237073396],[130.4375,33.23710881858039],[130.4375,33.233333333333334],[130.435708677,33.23333367600001]]]}},{"type":"Feature","id":"40522:49306385","properties":{"id":"40522:49306385","meshCode":"49306385","cityCode":"40522","city":"大木町","lat":33.2369728,"lon":130.4446859,"areaKm2":0.8478996,"populated2020":true,"population2020":null,"populationNote":"境界またぎ・収録外等のため人口未集計"},"geometry":{"type":"Polygon","coordinates":[[[130.438027588,33.237055342],[130.442249585,33.237174946],[130.442168301,33.238378864999994],[130.442360973,33.238383946],[130.442309805,33.23928119800001],[130.441957549,33.239265973],[130.441916913,33.240386279],[130.442090078,33.240383667],[130.44205869,33.241533946],[130.441602581,33.24153339600001],[130.44151961111058,33.24166666666666],[130.4485776909342,33.24166666666667],[130.448606459,33.241244775],[130.449147289,33.24079533300001],[130.449537575,33.240762279],[130.45,33.24093164],[130.45,33.233333333333334],[130.4375,33.233333333333334],[130.4375,33.23710881858039],[130.438027588,33.237055342]]]}},{"type":"Feature","id":"40522:49306386","properties":{"id":"40522:49306386","meshCode":"49306386","cityCode":"40522","city":"大木町","lat":33.2363777,"lon":130.4534851,"areaKm2":0.4839855,"populated2020":true,"population2020":null,"populationNote":"境界またぎ・収録外等のため人口未集計"},"geometry":{"type":"Polygon","coordinates":[[[130.456237017,33.237113666999996],[130.456978949,33.237313387],[130.457511453,33.237282],[130.457955616,33.236988387000004],[130.457954228,33.236024775],[130.457837289,33.235625883000004],[130.458393684,33.234383667],[130.458502425,33.233333333333334],[130.45,33.233333333333334],[130.45,33.24093164],[130.450752283,33.241203387],[130.451286459,33.24091810800001],[130.452080623,33.24076366700001],[130.452369792,33.240474775],[130.452344228,33.24003089200001],[130.452467847,33.23988477500001],[130.454227289,33.239094775000005],[130.455170895,33.238571162],[130.455326174,33.23820755900001],[130.455700623,33.237759225000005],[130.455846732,33.237103387],[130.456237017,33.237113666999996]]]}},{"type":"Feature","id":"40522:49306395","properties":{"id":"40522:49306395","meshCode":"49306395","cityCode":"40522","city":"大木町","lat":33.2429311,"lon":130.4441502,"areaKm2":0.1539716,"populated2020":true,"population2020":null,"populationNote":"境界またぎ・収録外等のため人口未集計"},"geometry":{"type":"Polygon","coordinates":[[[130.441519494,33.241667],[130.441195357,33.24250145],[130.441475357,33.242590892],[130.441295629,33.243435063],[130.441614241,33.244098946],[130.44157479900002,33.244236730000004],[130.44308146600002,33.24455061300001],[130.443880065,33.245212559],[130.444494514,33.24480339600001],[130.444696459,33.243973117],[130.444877575,33.24375589200001],[130.445837289,33.243817279],[130.446344786,33.243441450000006],[130.446317017,33.243087],[130.446402853,33.24278005400001],[130.446595344,33.242695333],[130.446851738,33.242795333000004],[130.447143398,33.242762559],[130.448587847,33.24177144099999],[130.4485776909342,33.24166666666667],[130.441519494,33.241667]]]}}]}