{"type":"FeatureCollection","metadata":{"cityCode":"40522","city":"大木町","resolution":500,"boundaryDate":"2026-01-01","populationLabel":"2020年基準人口（国交省調整値）","method":"標準地域メッシュを行政界で切抜き。中心が区域外のとき区域内代表点を判定点にする。人口不明をゼロにしない。"},"features":[{"type":"Feature","id":"40522:493063144","properties":{"id":"40522:493063144","meshCode":"493063144","cityCode":"40522","city":"大木町","lat":33.1822172,"lon":130.4363795,"areaKm2":0.0419894,"populated2020":true,"population2020":null,"populationNote":"境界またぎ・原典収録外のため自治体内人口は未集計"},"geometry":{"type":"Polygon","coordinates":[[[130.4375,33.182060591723335],[130.435743606,33.181312225],[130.435168612,33.181221108],[130.435328885,33.182985559],[130.43471166,33.182965],[130.4347205580088,33.18333333333333],[130.4375,33.18333333333333],[130.4375,33.182060591723335]]]}},{"type":"Feature","id":"40522:493063153","properties":{"id":"40522:493063153","meshCode":"493063153","cityCode":"40522","city":"大木町","lat":33.1826735,"lon":130.438446,"areaKm2":0.0248954,"populated2020":true,"population2020":null,"populationNote":"境界またぎ・原典収録外のため自治体内人口は未集計"},"geometry":{"type":"Polygon","coordinates":[[[130.441239663,33.18333333300001],[130.439484721,33.18270138700001],[130.4375,33.182060591723335],[130.4375,33.18333333333333],[130.441239663,33.18333333300001]]]}},{"type":"Feature","id":"40522:493063242","properties":{"id":"40522:493063242","meshCode":"493063242","cityCode":"40522","city":"大木町","lat":33.1854167,"lon":130.434375,"areaKm2":0.1393864,"populated2020":true,"population2020":37.8876,"populationNote":"2020年基準の国交省調整値"},"geometry":{"type":"Polygon","coordinates":[[[130.4347205580088,33.18333333333333],[130.434734721,33.184083892],[130.434431115,33.184095829],[130.434617224,33.185099441],[130.434363606,33.185377225],[130.434554163,33.18661555900001],[130.433186667,33.186665],[130.43317608348468,33.1875],[130.4375,33.1875],[130.4375,33.18333333333333],[130.4347205580088,33.18333333333333]]]}},{"type":"Feature","id":"40522:493063251","properties":{"id":"40522:493063251","meshCode":"493063251","cityCode":"40522","city":"大木町","lat":33.1854167,"lon":130.440625,"areaKm2":0.2590961,"populated2020":true,"population2020":109.6283,"populationNote":"2020年基準の国交省調整値"},"geometry":{"type":"Polygon","coordinates":[[[130.443741115,33.18403555900001],[130.443316109,33.183987225],[130.44123966391,33.18333333333332],[130.4375,33.18333333333333],[130.4375,33.1875],[130.44375,33.1875],[130.443741115,33.18403555900001]]]}},{"type":"Feature","id":"40522:493063252","properties":{"id":"40522:493063252","meshCode":"493063252","cityCode":"40522","city":"大木町","lat":33.1854167,"lon":130.446875,"areaKm2":0.1659118,"populated2020":true,"population2020":null,"populationNote":"境界またぎ・原典収録外のため自治体内人口は未集計"},"geometry":{"type":"Polygon","coordinates":[[[130.45,33.185685198],[130.44683888500003,33.184996946],[130.446091388,33.184907775],[130.445923891,33.184456667],[130.444610558,33.18454444100001],[130.444513333,33.18409194600001],[130.44375,33.18403597785712],[130.44375,33.1875],[130.45,33.1875],[130.45,33.185685198]]]}},{"type":"Feature","id":"40522:493063261","properties":{"id":"40522:493063261","meshCode":"493063261","cityCode":"40522","city":"大木町","lat":33.1868496,"lon":130.453125,"areaKm2":0.1003242,"populated2020":true,"population2020":null,"populationNote":"境界またぎ・原典収録外のため自治体内人口は未集計"},"geometry":{"type":"Polygon","coordinates":[[[130.45625,33.18579468158966],[130.45393888500004,33.186053613],[130.453252776,33.185898333000004],[130.452886109,33.186172775],[130.452723061,33.186199162],[130.45,33.185685198],[130.45,33.1875],[130.45625,33.1875],[130.45625,33.18579468158966]]]}},{"type":"Feature","id":"40522:493063262","properties":{"id":"40522:493063262","meshCode":"493063262","cityCode":"40522","city":"大木町","lat":33.1866663,"lon":130.4570969,"areaKm2":0.0272933,"populated2020":true,"population2020":null,"populationNote":"境界またぎ・原典収録外のため自治体内人口は未集計"},"geometry":{"type":"Polygon","coordinates":[[[130.458221115,33.18748861299999],[130.458107497,33.186848892],[130.457249442,33.186068054],[130.457123606,33.185776667],[130.45625,33.18579468158966],[130.45625,33.1875],[130.458221115,33.18748861299999]]]}},{"type":"Feature","id":"40522:493063244","properties":{"id":"40522:493063244","meshCode":"493063244","cityCode":"40522","city":"大木町","lat":33.1895833,"lon":130.434375,"areaKm2":0.2241777,"populated2020":true,"population2020":221.1119,"populationNote":"2020年基準の国交省調整値"},"geometry":{"type":"Polygon","coordinates":[[[130.43317527900004,33.18752610800001],[130.432316109,33.187588892],[130.432464994,33.189704162],[130.43181452716726,33.19166666666668],[130.4375,33.19166666666667],[130.4375,33.1875],[130.43317527900004,33.18752610800001]]]}},{"type":"Feature","id":"40522:493063253","properties":{"id":"40522:493063253","meshCode":"493063253","cityCode":"40522","city":"大木町","lat":33.1895833,"lon":130.440625,"areaKm2":0.2692994,"populated2020":true,"population2020":336.0862,"populationNote":"2020年基準の国交省調整値"},"geometry":{"type":"Polygon","coordinates":[[[130.4375,33.1875],[130.4375,33.19166666666667],[130.44375,33.19166666666667],[130.44375,33.1875],[130.4375,33.1875]]]}},{"type":"Feature","id":"40522:493063254","properties":{"id":"40522:493063254","meshCode":"493063254","cityCode":"40522","city":"大木町","lat":33.1895833,"lon":130.446875,"areaKm2":0.269299,"populated2020":true,"population2020":41.7381,"populationNote":"2020年基準の国交省調整値"},"geometry":{"type":"Polygon","coordinates":[[[130.44375,33.1875],[130.44375,33.19166666666667],[130.45,33.19166666666667],[130.45,33.1875],[130.44375,33.1875]]]}},{"type":"Feature","id":"40522:493063263","properties":{"id":"40522:493063263","meshCode":"493063263","cityCode":"40522","city":"大木町","lat":33.1895833,"lon":130.453125,"areaKm2":0.2692986,"populated2020":true,"population2020":57.3017,"populationNote":"2020年基準の国交省調整値"},"geometry":{"type":"Polygon","coordinates":[[[130.45,33.1875],[130.45,33.19166666666667],[130.45625,33.19166666666667],[130.45625,33.1875],[130.45,33.1875]]]}},{"type":"Feature","id":"40522:493063264","properties":{"id":"40522:493063264","meshCode":"493063264","cityCode":"40522","city":"大木町","lat":33.1897371,"lon":130.4577234,"areaKm2":0.1054225,"populated2020":true,"population2020":null,"populationNote":"境界またぎ・原典収録外のため自治体内人口は未集計"},"geometry":{"type":"Polygon","coordinates":[[[130.4572500009513,33.19166666666667],[130.458650272,33.19106694599999],[130.459489442,33.19054500000001],[130.459456394,33.190274721],[130.458918612,33.189098333],[130.458451946,33.188691667],[130.458202503,33.188251107999996],[130.458137497,33.188021946000006],[130.458286394,33.187729721000004],[130.4582257826794,33.1875],[130.45625,33.1875],[130.45625,33.19166666666667],[130.4572500009513,33.19166666666667]]]}},{"type":"Feature","id":"40522:493063332","properties":{"id":"40522:493063332","meshCode":"493063332","cityCode":"40522","city":"大木町","lat":33.1951349,"lon":130.4215837,"areaKm2":0.0310344,"populated2020":true,"population2020":null,"populationNote":"境界またぎ・原典収録外のため自治体内人口は未集計"},"geometry":{"type":"Polygon","coordinates":[[[130.424581946,33.195663892],[130.423990272,33.19555666699999],[130.42239917,33.195047495000004],[130.420343061,33.19451082900001],[130.420330272,33.194857495],[130.42083048555386,33.19583333333335],[130.425,33.19583333333335],[130.424581946,33.195663892]]]}},{"type":"Feature","id":"40522:493063341","properties":{"id":"40522:493063341","meshCode":"493063341","cityCode":"40522","city":"大木町","lat":33.1943433,"lon":130.4308438,"areaKm2":0.049527,"populated2020":true,"population2020":null,"populationNote":"境界またぎ・原典収録外のため自治体内人口は未集計"},"geometry":{"type":"MultiPolygon","coordinates":[[[[130.43124333300003,33.192881946],[130.430341115,33.19453777499999],[130.428405279,33.19429222499999],[130.42825268035986,33.19583333333333],[130.43125,33.195833333333326],[130.43124333300003,33.192881946]]],[[[130.425,33.195786414],[130.425,33.19583333333335],[130.42516008421592,33.19583333333333],[130.425,33.195786414]]]]}},{"type":"Feature","id":"40522:493063342","properties":{"id":"40522:493063342","meshCode":"493063342","cityCode":"40522","city":"大木町","lat":33.19375,"lon":130.434375,"areaKm2":0.2658474,"populated2020":true,"population2020":155.9212,"populationNote":"2020年基準の国交省調整値"},"geometry":{"type":"Polygon","coordinates":[[[130.431814527,33.19166666699999],[130.43125,33.192867615758324],[130.43125,33.195833333333326],[130.4375,33.19583333333333],[130.4375,33.19166666666667],[130.431814527,33.19166666699999]]]}},{"type":"Feature","id":"40522:493063351","properties":{"id":"40522:493063351","meshCode":"493063351","cityCode":"40522","city":"大木町","lat":33.19375,"lon":130.440625,"areaKm2":0.2692868,"populated2020":true,"population2020":322.6968,"populationNote":"2020年基準の国交省調整値"},"geometry":{"type":"Polygon","coordinates":[[[130.4375,33.19166666666667],[130.4375,33.19583333333333],[130.44375,33.19583333333333],[130.44375,33.19166666666667],[130.4375,33.19166666666667]]]}},{"type":"Feature","id":"40522:493063352","properties":{"id":"40522:493063352","meshCode":"493063352","cityCode":"40522","city":"大木町","lat":33.19375,"lon":130.446875,"areaKm2":0.2692864,"populated2020":true,"population2020":226.9782,"populationNote":"2020年基準の国交省調整値"},"geometry":{"type":"Polygon","coordinates":[[[130.44375,33.19166666666667],[130.44375,33.19583333333333],[130.45,33.19583333333333],[130.45,33.19166666666667],[130.44375,33.19166666666667]]]}},{"type":"Feature","id":"40522:493063361","properties":{"id":"40522:493063361","meshCode":"493063361","cityCode":"40522","city":"大木町","lat":33.19375,"lon":130.453125,"areaKm2":0.1660213,"populated2020":true,"population2020":null,"populationNote":"境界またぎ・原典収録外のため自治体内人口は未集計"},"geometry":{"type":"Polygon","coordinates":[[[130.45315320379544,33.19583333333333],[130.453231388,33.194141387],[130.453381115,33.193798892],[130.453648054,33.193799721],[130.454395551,33.192203892],[130.45625,33.191927538201064],[130.45625,33.19166666666667],[130.45,33.19166666666667],[130.45,33.19583333333333],[130.45315320379544,33.19583333333333]]]}},{"type":"Feature","id":"40522:493063362","properties":{"id":"40522:493063362","meshCode":"493063362","cityCode":"40522","city":"大木町","lat":33.1917703,"lon":130.4565976,"areaKm2":0.0015215,"populated2020":true,"population2020":null,"populationNote":"境界またぎ・原典収録外のため自治体内人口は未集計"},"geometry":{"type":"Polygon","coordinates":[[[130.45625,33.191927538201064],[130.456887224,33.191798613],[130.4572500009513,33.19166666666667],[130.45625,33.19166666666667],[130.45625,33.191927538201064]]]}},{"type":"Feature","id":"40522:493063334","properties":{"id":"40522:493063334","meshCode":"493063334","cityCode":"40522","city":"大木町","lat":33.1978857,"lon":130.4235947,"areaKm2":0.141193,"populated2020":true,"population2020":null,"populationNote":"境界またぎ・原典収録外のため自治体内人口は未集計"},"geometry":{"type":"Polygon","coordinates":[[[130.42083048555386,33.19583333333335],[130.421512049,33.197227414000004],[130.421878145,33.197174586],[130.421925227,33.197438775],[130.422453476,33.198332613],[130.42184153,33.19850874800001],[130.422193891,33.199748054000004],[130.4209962,33.19980163999999],[130.42105869,33.2],[130.425,33.199999999999996],[130.425,33.19583333333335],[130.42083048555386,33.19583333333335]]]}},{"type":"Feature","id":"40522:493063343","properties":{"id":"40522:493063343","meshCode":"493063343","cityCode":"40522","city":"大木町","lat":33.1979167,"lon":130.428125,"areaKm2":0.2561194,"populated2020":true,"population2020":183.1234,"populationNote":"2020年基準の国交省調整値"},"geometry":{"type":"Polygon","coordinates":[[[130.42825268035986,33.19583333333333],[130.428105837,33.19657222499999],[130.428011388,33.196586667000005],[130.425,33.19583333333335],[130.425,33.199999999999996],[130.43125,33.199999999999996],[130.43125,33.195833333333326],[130.42825268035986,33.19583333333333]]]}},{"type":"Feature","id":"40522:493063344","properties":{"id":"40522:493063344","meshCode":"493063344","cityCode":"40522","city":"大木町","lat":33.1979167,"lon":130.434375,"areaKm2":0.2692746,"populated2020":true,"population2020":39.8023,"populationNote":"2020年基準の国交省調整値"},"geometry":{"type":"Polygon","coordinates":[[[130.43125,33.195833333333326],[130.43125,33.199999999999996],[130.4375,33.199999999999996],[130.4375,33.19583333333333],[130.43125,33.195833333333326]]]}},{"type":"Feature","id":"40522:493063353","properties":{"id":"40522:493063353","meshCode":"493063353","cityCode":"40522","city":"大木町","lat":33.1979167,"lon":130.440625,"areaKm2":0.2692742,"populated2020":true,"population2020":238.4138,"populationNote":"2020年基準の国交省調整値"},"geometry":{"type":"Polygon","coordinates":[[[130.4375,33.19583333333333],[130.4375,33.199999999999996],[130.44375,33.2],[130.44375,33.19583333333333],[130.4375,33.19583333333333]]]}},{"type":"Feature","id":"40522:493063354","properties":{"id":"40522:493063354","meshCode":"493063354","cityCode":"40522","city":"大木町","lat":33.1979167,"lon":130.446875,"areaKm2":0.2692738,"populated2020":true,"population2020":160.7715,"populationNote":"2020年基準の国交省調整値"},"geometry":{"type":"Polygon","coordinates":[[[130.44375,33.19583333333333],[130.44375,33.2],[130.45,33.199999999999996],[130.45,33.19583333333333],[130.44375,33.19583333333333]]]}},{"type":"Feature","id":"40522:493063363","properties":{"id":"40522:493063363","meshCode":"493063363","cityCode":"40522","city":"大木町","lat":33.1977768,"lon":130.4514112,"areaKm2":0.1200588,"populated2020":true,"population2020":null,"populationNote":"境界またぎ・原典収録外のため自治体内人口は未集計"},"geometry":{"type":"Polygon","coordinates":[[[130.45248297,33.199999999999996],[130.452957224,33.196654162],[130.45315320379544,33.19583333333333],[130.45,33.19583333333333],[130.45,33.199999999999996],[130.45248297,33.199999999999996]]]}},{"type":"Feature","id":"40522:493063431","properties":{"id":"40522:493063431","meshCode":"493063431","cityCode":"40522","city":"大木町","lat":33.2023342,"lon":130.4186648,"areaKm2":0.0005334,"populated2020":true,"population2020":null,"populationNote":"境界またぎ・原典収録外のため自治体内人口は未集計"},"geometry":{"type":"Polygon","coordinates":[[[130.418532776,33.202209161999996],[130.418638885,33.202493054],[130.41875,33.202459227271575],[130.41875,33.20214600492916],[130.418532776,33.202209161999996]]]}},{"type":"Feature","id":"40522:493063432","properties":{"id":"40522:493063432","meshCode":"493063432","cityCode":"40522","city":"大木町","lat":33.2020833,"lon":130.421875,"areaKm2":0.2232995,"populated2020":true,"population2020":null,"populationNote":"境界またぎ・原典収録外のため自治体内人口は未集計"},"geometry":{"type":"Polygon","coordinates":[[[130.42105869,33.2],[130.421364553,33.200828586],[130.421236446,33.20084816200001],[130.421283022,33.201014865],[130.421421141,33.200999468000006],[130.421382892,33.201211027],[130.421018444,33.201226414000004],[130.42095022,33.201052694],[130.420341997,33.201114387],[130.420400272,33.201559720999995],[130.42022277600003,33.201595829000006],[130.420128327,33.201246667],[130.419851946,33.201327225],[130.419884838,33.201443586],[130.419804449,33.201463333],[130.419953061,33.20196264000001],[130.419894838,33.202118162],[130.419648612,33.202176945999994],[130.419523891,33.201937494999996],[130.41875,33.20214600492916],[130.41875,33.202459227271575],[130.418895279,33.202415],[130.419087224,33.20304082900001],[130.418754916,33.203198225],[130.419064163,33.203880559],[130.419293333,33.203940829],[130.4194055133023,33.20416666666666],[130.425,33.204166666666666],[130.425,33.199999999999996],[130.42105869,33.2]]]}},{"type":"Feature","id":"40522:493063441","properties":{"id":"40522:493063441","meshCode":"493063441","cityCode":"40522","city":"大木町","lat":33.2020833,"lon":130.428125,"areaKm2":0.2692625,"populated2020":true,"population2020":181.3353,"populationNote":"2020年基準の国交省調整値"},"geometry":{"type":"Polygon","coordinates":[[[130.425,33.199999999999996],[130.425,33.204166666666666],[130.43125,33.204166666666666],[130.43125,33.199999999999996],[130.425,33.199999999999996]]]}},{"type":"Feature","id":"40522:493063442","properties":{"id":"40522:493063442","meshCode":"493063442","cityCode":"40522","city":"大木町","lat":33.2020833,"lon":130.434375,"areaKm2":0.269262,"populated2020":true,"population2020":151.1829,"populationNote":"2020年基準の国交省調整値"},"geometry":{"type":"Polygon","coordinates":[[[130.43125,33.199999999999996],[130.43125,33.204166666666666],[130.4375,33.204166666666666],[130.4375,33.199999999999996],[130.43125,33.199999999999996]]]}},{"type":"Feature","id":"40522:493063451","properties":{"id":"40522:493063451","meshCode":"493063451","cityCode":"40522","city":"大木町","lat":33.2020833,"lon":130.440625,"areaKm2":0.2692616,"populated2020":true,"population2020":186.9046,"populationNote":"2020年基準の国交省調整値"},"geometry":{"type":"Polygon","coordinates":[[[130.4375,33.199999999999996],[130.4375,33.204166666666666],[130.44375,33.204166666666666],[130.44375,33.2],[130.4375,33.199999999999996]]]}},{"type":"Feature","id":"40522:493063452","properties":{"id":"40522:493063452","meshCode":"493063452","cityCode":"40522","city":"大木町","lat":33.2020833,"lon":130.446875,"areaKm2":0.2692612,"populated2020":true,"population2020":96.1849,"populationNote":"2020年基準の国交省調整値"},"geometry":{"type":"Polygon","coordinates":[[[130.44375,33.2],[130.44375,33.204166666666666],[130.45,33.204166666666666],[130.45,33.199999999999996],[130.44375,33.2]]]}},{"type":"Feature","id":"40522:493063461","properties":{"id":"40522:493063461","meshCode":"493063461","cityCode":"40522","city":"大木町","lat":33.2021274,"lon":130.4511215,"areaKm2":0.093819,"populated2020":true,"population2020":33.1212,"populationNote":"2020年基準の国交省調整値"},"geometry":{"type":"Polygon","coordinates":[[[130.45175774988374,33.204166666666666],[130.452239728,33.202349162000004],[130.452231115,33.201642775],[130.45248297,33.199999999999996],[130.45,33.199999999999996],[130.45,33.204166666666666],[130.45175774988374,33.204166666666666]]]}},{"type":"Feature","id":"40522:493063433","properties":{"id":"40522:493063433","meshCode":"493063433","cityCode":"40522","city":"大木町","lat":33.20625,"lon":130.415625,"areaKm2":0.0748762,"populated2020":true,"population2020":null,"populationNote":"境界またぎ・原典収録外のため自治体内人口は未集計"},"geometry":{"type":"Polygon","coordinates":[[[130.41875,33.20527186474029],[130.41674978000003,33.20576513500001],[130.415448327,33.20623749500001],[130.41525083,33.206220829],[130.414591414,33.206392775],[130.414679637,33.20660853200001],[130.414408366,33.206747252],[130.414483256,33.206880332999994],[130.41429022,33.20694619799999],[130.41437011700003,33.207300613],[130.413558054,33.207568613],[130.413695551,33.207934161999994],[130.416078327,33.207229162],[130.41632166,33.20773472100001],[130.41875,33.20714286192273],[130.41875,33.20527186474029]]]}},{"type":"Feature","id":"40522:493063434","properties":{"id":"40522:493063434","meshCode":"493063434","cityCode":"40522","city":"大木町","lat":33.20625,"lon":130.421875,"areaKm2":0.2397726,"populated2020":false,"population2020":null,"populationNote":"境界またぎ・原典収録外のため自治体内人口は未集計"},"geometry":{"type":"Polygon","coordinates":[[[130.419525279,33.204407775],[130.420089442,33.20427777500001],[130.420304449,33.204910559],[130.41875,33.20527186474029],[130.41875,33.20714286192273],[130.419284721,33.207008892],[130.419548327,33.20776],[130.420620558,33.207693613],[130.42075408604313,33.20833333333334],[130.425,33.20833333333334],[130.425,33.204166666666666],[130.4194055133023,33.20416666666666],[130.419525279,33.204407775]]]}},{"type":"Feature","id":"40522:493063443","properties":{"id":"40522:493063443","meshCode":"493063443","cityCode":"40522","city":"大木町","lat":33.20625,"lon":130.428125,"areaKm2":0.2692499,"populated2020":true,"population2020":185.3715,"populationNote":"2020年基準の国交省調整値"},"geometry":{"type":"Polygon","coordinates":[[[130.425,33.204166666666666],[130.425,33.20833333333334],[130.43125,33.20833333333334],[130.43125,33.204166666666666],[130.425,33.204166666666666]]]}},{"type":"Feature","id":"40522:493063444","properties":{"id":"40522:493063444","meshCode":"493063444","cityCode":"40522","city":"大木町","lat":33.20625,"lon":130.434375,"areaKm2":0.2692495,"populated2020":true,"population2020":482.0339,"populationNote":"2020年基準の国交省調整値"},"geometry":{"type":"Polygon","coordinates":[[[130.43125,33.204166666666666],[130.43125,33.20833333333334],[130.4375,33.20833333333334],[130.4375,33.204166666666666],[130.43125,33.204166666666666]]]}},{"type":"Feature","id":"40522:493063453","properties":{"id":"40522:493063453","meshCode":"493063453","cityCode":"40522","city":"大木町","lat":33.20625,"lon":130.440625,"areaKm2":0.2692491,"populated2020":true,"population2020":238.4451,"populationNote":"2020年基準の国交省調整値"},"geometry":{"type":"Polygon","coordinates":[[[130.4375,33.204166666666666],[130.4375,33.20833333333334],[130.44375,33.20833333333334],[130.44375,33.204166666666666],[130.4375,33.204166666666666]]]}},{"type":"Feature","id":"40522:493063454","properties":{"id":"40522:493063454","meshCode":"493063454","cityCode":"40522","city":"大木町","lat":33.20625,"lon":130.446875,"areaKm2":0.2692487,"populated2020":true,"population2020":197.2019,"populationNote":"2020年基準の国交省調整値"},"geometry":{"type":"Polygon","coordinates":[[[130.44375,33.204166666666666],[130.44375,33.20833333333334],[130.45,33.20833333333334],[130.45,33.204166666666666],[130.44375,33.204166666666666]]]}},{"type":"Feature","id":"40522:493063463","properties":{"id":"40522:493063463","meshCode":"493063463","cityCode":"40522","city":"大木町","lat":33.20625,"lon":130.453125,"areaKm2":0.2021004,"populated2020":true,"population2020":56.179,"populationNote":"2020年基準の国交省調整値"},"geometry":{"type":"Polygon","coordinates":[[[130.456244721,33.206263333],[130.45318166,33.205383333],[130.45159166,33.204839441],[130.45175774988374,33.204166666666666],[130.45,33.204166666666666],[130.45,33.20833333333334],[130.45625,33.20833333333334],[130.456244721,33.206263333]]]}},{"type":"Feature","id":"40522:493063464","properties":{"id":"40522:493063464","meshCode":"493063464","cityCode":"40522","city":"大木町","lat":33.2071793,"lon":130.4572058,"areaKm2":0.0366362,"populated2020":true,"population2020":29.1538,"populationNote":"2020年基準の国交省調整値"},"geometry":{"type":"Polygon","coordinates":[[[130.458423606,33.208333333],[130.458081946,33.206843892],[130.45625,33.20626490102494],[130.45625,33.20833333333334],[130.458423606,33.208333333]]]}},{"type":"Feature","id":"40522:493063532","properties":{"id":"40522:493063532","meshCode":"493063532","cityCode":"40522","city":"大木町","lat":33.2104167,"lon":130.421875,"areaKm2":0.1996902,"populated2020":true,"population2020":null,"populationNote":"境界またぎ・原典収録外のため自治体内人口は未集計"},"geometry":{"type":"Polygon","coordinates":[[[130.42075408604313,33.20833333333334],[130.420843878,33.209484495],[130.420766628,33.21114483800001],[130.419174397,33.21149401800001],[130.419194397,33.211801811],[130.41949211793553,33.212500000000006],[130.425,33.212500000000006],[130.425,33.20833333333334],[130.42075408604313,33.20833333333334]]]}},{"type":"Feature","id":"40522:493063541","properties":{"id":"40522:493063541","meshCode":"493063541","cityCode":"40522","city":"大木町","lat":33.2104167,"lon":130.428125,"areaKm2":0.2692373,"populated2020":true,"population2020":339.4003,"populationNote":"2020年基準の国交省調整値"},"geometry":{"type":"Polygon","coordinates":[[[130.425,33.20833333333334],[130.425,33.212500000000006],[130.43125,33.212500000000006],[130.43125,33.20833333333334],[130.425,33.20833333333334]]]}},{"type":"Feature","id":"40522:493063542","properties":{"id":"40522:493063542","meshCode":"493063542","cityCode":"40522","city":"大木町","lat":33.2104167,"lon":130.434375,"areaKm2":0.2692369,"populated2020":true,"population2020":348.8993,"populationNote":"2020年基準の国交省調整値"},"geometry":{"type":"Polygon","coordinates":[[[130.43125,33.20833333333334],[130.43125,33.212500000000006],[130.4375,33.212500000000006],[130.4375,33.20833333333334],[130.43125,33.20833333333334]]]}},{"type":"Feature","id":"40522:493063551","properties":{"id":"40522:493063551","meshCode":"493063551","cityCode":"40522","city":"大木町","lat":33.2104167,"lon":130.440625,"areaKm2":0.2692365,"populated2020":true,"population2020":372.1566,"populationNote":"2020年基準の国交省調整値"},"geometry":{"type":"Polygon","coordinates":[[[130.4375,33.20833333333334],[130.4375,33.212500000000006],[130.44375,33.212500000000006],[130.44375,33.20833333333334],[130.4375,33.20833333333334]]]}},{"type":"Feature","id":"40522:493063552","properties":{"id":"40522:493063552","meshCode":"493063552","cityCode":"40522","city":"大木町","lat":33.2104167,"lon":130.446875,"areaKm2":0.2692361,"populated2020":true,"population2020":178.9142,"populationNote":"2020年基準の国交省調整値"},"geometry":{"type":"Polygon","coordinates":[[[130.44375,33.20833333333334],[130.44375,33.212500000000006],[130.45,33.212500000000006],[130.45,33.20833333333334],[130.44375,33.20833333333334]]]}},{"type":"Feature","id":"40522:493063561","properties":{"id":"40522:493063561","meshCode":"493063561","cityCode":"40522","city":"大木町","lat":33.2104167,"lon":130.453125,"areaKm2":0.2692357,"populated2020":true,"population2020":178.4169,"populationNote":"2020年基準の国交省調整値"},"geometry":{"type":"Polygon","coordinates":[[[130.45,33.20833333333334],[130.45,33.212500000000006],[130.45625,33.2125],[130.45625,33.20833333333334],[130.45,33.20833333333334]]]}},{"type":"Feature","id":"40522:493063562","properties":{"id":"40522:493063562","meshCode":"493063562","cityCode":"40522","city":"大木町","lat":33.2104424,"lon":130.457545,"areaKm2":0.1153904,"populated2020":true,"population2020":null,"populationNote":"境界またぎ・原典収録外のため自治体内人口は未集計"},"geometry":{"type":"Polygon","coordinates":[[[130.45943320735597,33.212500000000006],[130.459043567,33.21052425199999],[130.45884607000002,33.210468414],[130.45842360607145,33.208333333333336],[130.45625,33.20833333333334],[130.45625,33.2125],[130.45943320735597,33.212500000000006]]]}},{"type":"Feature","id":"40522:493063534","properties":{"id":"40522:493063534","meshCode":"493063534","cityCode":"40522","city":"大木町","lat":33.2145833,"lon":130.421875,"areaKm2":0.20338,"populated2020":false,"population2020":null,"populationNote":"境界またぎ・原典収録外のため自治体内人口は未集計"},"geometry":{"type":"Polygon","coordinates":[[[130.41949211793553,33.212500000000006],[130.419705486,33.213011306],[130.419526316,33.21328436900001],[130.419860195,33.21373077500001],[130.420129351,33.214493586],[130.420561842,33.215314449999994],[130.420435733,33.215367234],[130.420720726,33.215986982],[130.420929883,33.215989486],[130.42102489,33.216392387],[130.421904825,33.216409495],[130.42199935087243,33.216666666666676],[130.425,33.216666666666676],[130.425,33.212500000000006],[130.41949211793553,33.212500000000006]]]}},{"type":"Feature","id":"40522:493063543","properties":{"id":"40522:493063543","meshCode":"493063543","cityCode":"40522","city":"大木町","lat":33.2145833,"lon":130.428125,"areaKm2":0.2692247,"populated2020":true,"population2020":112.9787,"populationNote":"2020年基準の国交省調整値"},"geometry":{"type":"Polygon","coordinates":[[[130.425,33.212500000000006],[130.425,33.216666666666676],[130.43125,33.21666666666667],[130.43125,33.212500000000006],[130.425,33.212500000000006]]]}},{"type":"Feature","id":"40522:493063544","properties":{"id":"40522:493063544","meshCode":"493063544","cityCode":"40522","city":"大木町","lat":33.2145833,"lon":130.434375,"areaKm2":0.2692243,"populated2020":true,"population2020":311.8525,"populationNote":"2020年基準の国交省調整値"},"geometry":{"type":"Polygon","coordinates":[[[130.43125,33.212500000000006],[130.43125,33.21666666666667],[130.4375,33.21666666666667],[130.4375,33.212500000000006],[130.43125,33.212500000000006]]]}},{"type":"Feature","id":"40522:493063553","properties":{"id":"40522:493063553","meshCode":"493063553","cityCode":"40522","city":"大木町","lat":33.2145833,"lon":130.440625,"areaKm2":0.2692239,"populated2020":true,"population2020":228.3529,"populationNote":"2020年基準の国交省調整値"},"geometry":{"type":"Polygon","coordinates":[[[130.4375,33.212500000000006],[130.4375,33.21666666666667],[130.44375,33.21666666666667],[130.44375,33.212500000000006],[130.4375,33.212500000000006]]]}},{"type":"Feature","id":"40522:493063554","properties":{"id":"40522:493063554","meshCode":"493063554","cityCode":"40522","city":"大木町","lat":33.2145833,"lon":130.446875,"areaKm2":0.2692235,"populated2020":true,"population2020":41.6952,"populationNote":"2020年基準の国交省調整値"},"geometry":{"type":"Polygon","coordinates":[[[130.44375,33.212500000000006],[130.44375,33.21666666666667],[130.45,33.21666666666667],[130.45,33.212500000000006],[130.44375,33.212500000000006]]]}},{"type":"Feature","id":"40522:493063563","properties":{"id":"40522:493063563","meshCode":"493063563","cityCode":"40522","city":"大木町","lat":33.2145833,"lon":130.453125,"areaKm2":0.2692231,"populated2020":true,"population2020":131.2961,"populationNote":"2020年基準の国交省調整値"},"geometry":{"type":"Polygon","coordinates":[[[130.45,33.212500000000006],[130.45,33.21666666666667],[130.45625,33.21666666666667],[130.45625,33.2125],[130.45,33.212500000000006]]]}},{"type":"Feature","id":"40522:493063564","properties":{"id":"40522:493063564","meshCode":"493063564","cityCode":"40522","city":"大木町","lat":33.2145833,"lon":130.459375,"areaKm2":0.1535019,"populated2020":true,"population2020":null,"populationNote":"境界またぎ・原典収録外のため自治体内人口は未集計"},"geometry":{"type":"Polygon","coordinates":[[[130.46000832700608,33.21666666666666],[130.459985681,33.21521027],[130.45943320735597,33.212500000000006],[130.45625,33.2125],[130.45625,33.21666666666667],[130.46000832700608,33.21666666666666]]]}},{"type":"Feature","id":"40522:493063632","properties":{"id":"40522:493063632","meshCode":"493063632","cityCode":"40522","city":"大木町","lat":33.2188519,"lon":130.4240028,"areaKm2":0.0915012,"populated2020":true,"population2020":null,"populationNote":"境界またぎ・原典収録外のため自治体内人口は未集計"},"geometry":{"type":"Polygon","coordinates":[[[130.421999351,33.216666667],[130.422412101,33.21774256799999],[130.422807095,33.21765590099999],[130.422971816,33.217998955],[130.42303904,33.21826728799999],[130.422892931,33.218457287999996],[130.423438482,33.22051867599999],[130.42238444920258,33.22083333333333],[130.425,33.22083333333333],[130.425,33.216666666666676],[130.421999351,33.216666667]]]}},{"type":"Feature","id":"40522:493063641","properties":{"id":"40522:493063641","meshCode":"493063641","cityCode":"40522","city":"大木町","lat":33.21875,"lon":130.428125,"areaKm2":0.2692121,"populated2020":true,"population2020":153.804,"populationNote":"2020年基準の国交省調整値"},"geometry":{"type":"Polygon","coordinates":[[[130.425,33.216666666666676],[130.425,33.22083333333333],[130.43125,33.22083333333334],[130.43125,33.21666666666667],[130.425,33.216666666666676]]]}},{"type":"Feature","id":"40522:493063642","properties":{"id":"40522:493063642","meshCode":"493063642","cityCode":"40522","city":"大木町","lat":33.21875,"lon":130.434375,"areaKm2":0.2692117,"populated2020":true,"population2020":89.3877,"populationNote":"2020年基準の国交省調整値"},"geometry":{"type":"Polygon","coordinates":[[[130.43125,33.21666666666667],[130.43125,33.22083333333334],[130.4375,33.22083333333334],[130.4375,33.21666666666667],[130.43125,33.21666666666667]]]}},{"type":"Feature","id":"40522:493063651","properties":{"id":"40522:493063651","meshCode":"493063651","cityCode":"40522","city":"大木町","lat":33.21875,"lon":130.440625,"areaKm2":0.2692113,"populated2020":true,"population2020":170.2386,"populationNote":"2020年基準の国交省調整値"},"geometry":{"type":"Polygon","coordinates":[[[130.4375,33.21666666666667],[130.4375,33.22083333333334],[130.44375,33.22083333333333],[130.44375,33.21666666666667],[130.4375,33.21666666666667]]]}},{"type":"Feature","id":"40522:493063652","properties":{"id":"40522:493063652","meshCode":"493063652","cityCode":"40522","city":"大木町","lat":33.21875,"lon":130.446875,"areaKm2":0.2692109,"populated2020":true,"population2020":103.7057,"populationNote":"2020年基準の国交省調整値"},"geometry":{"type":"Polygon","coordinates":[[[130.44375,33.21666666666667],[130.44375,33.22083333333333],[130.45,33.22083333333333],[130.45,33.21666666666667],[130.44375,33.21666666666667]]]}},{"type":"Feature","id":"40522:493063661","properties":{"id":"40522:493063661","meshCode":"493063661","cityCode":"40522","city":"大木町","lat":33.21875,"lon":130.453125,"areaKm2":0.2692105,"populated2020":true,"population2020":136.5251,"populationNote":"2020年基準の国交省調整値"},"geometry":{"type":"Polygon","coordinates":[[[130.45,33.21666666666667],[130.45,33.22083333333333],[130.45625,33.22083333333334],[130.45625,33.21666666666667],[130.45,33.21666666666667]]]}},{"type":"Feature","id":"40522:493063662","properties":{"id":"40522:493063662","meshCode":"493063662","cityCode":"40522","city":"大木町","lat":33.21875,"lon":130.459375,"areaKm2":0.177247,"populated2020":true,"population2020":null,"populationNote":"境界またぎ・原典収録外のため自治体内人口は未集計"},"geometry":{"type":"Polygon","coordinates":[[[130.46076703,33.220821711999996],[130.460590649,33.220404775],[130.460831479,33.220322270000004],[130.460820921,33.220180604],[130.460241764,33.218885883],[130.460173424,33.218504775],[130.460318988,33.218285324],[130.46000832700608,33.21666666666666],[130.45625,33.21666666666667],[130.45625,33.22083333333334],[130.46076703,33.220821711999996]]]}},{"type":"Feature","id":"40522:493063624","properties":{"id":"40522:493063624","meshCode":"493063624","cityCode":"40522","city":"大木町","lat":33.2246759,"lon":130.4124458,"areaKm2":0.0001104,"populated2020":true,"population2020":null,"populationNote":"境界またぎ・原典収録外のため自治体内人口は未集計"},"geometry":{"type":"Polygon","coordinates":[[[130.412388482,33.224720631000004],[130.4125,33.2247275458634],[130.4125,33.22461981743108],[130.412394604,33.22463118900001],[130.412388482,33.224720631000004]]]}},{"type":"Feature","id":"40522:493063633","properties":{"id":"40522:493063633","meshCode":"493063633","cityCode":"40522","city":"大木町","lat":33.2229167,"lon":130.415625,"areaKm2":0.1343497,"populated2020":true,"population2020":null,"populationNote":"境界またぎ・原典収録外のため自治体内人口は未集計"},"geometry":{"type":"Polygon","coordinates":[[[130.4125,33.2247275458634],[130.413885966,33.22500000000001],[130.41469786000002,33.225],[130.414942088,33.224680631],[130.415384034,33.224570351],[130.415555707,33.224604243],[130.415701258,33.224825071999994],[130.416287652,33.224692018],[130.416404189,33.22500000000001],[130.41875,33.225],[130.41875,33.22178606434459],[130.412966265,33.223323126],[130.412967652,33.223504793000004],[130.413656265,33.223818964],[130.413805149,33.223968126],[130.413639598,33.224397297],[130.4125,33.22461981743108],[130.4125,33.2247275458634]]]}},{"type":"Feature","id":"40522:493063634","properties":{"id":"40522:493063634","meshCode":"493063634","cityCode":"40522","city":"大木町","lat":33.2229167,"lon":130.421875,"areaKm2":0.2320953,"populated2020":true,"population2020":51.4378,"populationNote":"2020年基準の国交省調整値"},"geometry":{"type":"Polygon","coordinates":[[[130.420660415,33.22492256799999],[130.420744864,33.224808126],[130.42124847,33.224607072000005],[130.421206329,33.224475288],[130.423139079,33.223973459],[130.423527419,33.22498473900001],[130.423452853,33.224999999999994],[130.425,33.22500000000001],[130.425,33.22083333333333],[130.42238444920258,33.22083333333333],[130.41875,33.22178606434459],[130.41875,33.225],[130.420702815,33.225],[130.420660415,33.22492256799999]]]}},{"type":"Feature","id":"40522:493063643","properties":{"id":"40522:493063643","meshCode":"493063643","cityCode":"40522","city":"大木町","lat":33.2229167,"lon":130.428125,"areaKm2":0.2691996,"populated2020":true,"population2020":42.6191,"populationNote":"2020年基準の国交省調整値"},"geometry":{"type":"Polygon","coordinates":[[[130.425,33.22083333333333],[130.425,33.22500000000001],[130.43125,33.225],[130.43125,33.22083333333334],[130.425,33.22083333333333]]]}},{"type":"Feature","id":"40522:493063644","properties":{"id":"40522:493063644","meshCode":"493063644","cityCode":"40522","city":"大木町","lat":33.2229167,"lon":130.434375,"areaKm2":0.2691992,"populated2020":true,"population2020":232.9013,"populationNote":"2020年基準の国交省調整値"},"geometry":{"type":"Polygon","coordinates":[[[130.43125,33.22083333333334],[130.43125,33.225],[130.4375,33.225],[130.4375,33.22083333333334],[130.43125,33.22083333333334]]]}},{"type":"Feature","id":"40522:493063653","properties":{"id":"40522:493063653","meshCode":"493063653","cityCode":"40522","city":"大木町","lat":33.2229167,"lon":130.440625,"areaKm2":0.2691987,"populated2020":true,"population2020":217.0972,"populationNote":"2020年基準の国交省調整値"},"geometry":{"type":"Polygon","coordinates":[[[130.4375,33.22083333333334],[130.4375,33.225],[130.44375,33.225],[130.44375,33.22083333333333],[130.4375,33.22083333333334]]]}},{"type":"Feature","id":"40522:493063654","properties":{"id":"40522:493063654","meshCode":"493063654","cityCode":"40522","city":"大木町","lat":33.2229167,"lon":130.446875,"areaKm2":0.2691983,"populated2020":true,"population2020":594.1961,"populationNote":"2020年基準の国交省調整値"},"geometry":{"type":"Polygon","coordinates":[[[130.44375,33.22083333333333],[130.44375,33.225],[130.45,33.224999999999994],[130.45,33.22083333333333],[130.44375,33.22083333333333]]]}},{"type":"Feature","id":"40522:493063663","properties":{"id":"40522:493063663","meshCode":"493063663","cityCode":"40522","city":"大木町","lat":33.2229167,"lon":130.453125,"areaKm2":0.269198,"populated2020":true,"population2020":271.1301,"populationNote":"2020年基準の国交省調整値"},"geometry":{"type":"Polygon","coordinates":[[[130.45,33.22083333333333],[130.45,33.224999999999994],[130.45625,33.225],[130.45625,33.22083333333334],[130.45,33.22083333333333]]]}},{"type":"Feature","id":"40522:493063664","properties":{"id":"40522:493063664","meshCode":"493063664","cityCode":"40522","city":"大木町","lat":33.2229167,"lon":130.459375,"areaKm2":0.2400352,"populated2020":true,"population2020":45.7164,"populationNote":"2020年基準の国交省調整値"},"geometry":{"type":"Polygon","coordinates":[[[130.461148949,33.22500000000001],[130.461251193,33.224226162],[130.46155786,33.22419726999999],[130.461595084,33.224057829],[130.461695084,33.224014495],[130.4625,33.224026993966156],[130.4625,33.22243137007905],[130.462059805,33.222314495],[130.461872023,33.222179216],[130.461564527,33.221799495000006],[130.461377588,33.22134782900001],[130.460833424,33.22098088299999],[130.4607718775338,33.22083333333334],[130.45625,33.22083333333334],[130.45625,33.225],[130.461148949,33.22500000000001]]]}},{"type":"Feature","id":"40522:493063673","properties":{"id":"40522:493063673","meshCode":"493063673","cityCode":"40522","city":"大木町","lat":33.2232819,"lon":130.4630242,"areaKm2":0.0147287,"populated2020":true,"population2020":null,"populationNote":"境界またぎ・原典収録外のため自治体内人口は未集計"},"geometry":{"type":"Polygon","coordinates":[[[130.4625,33.224026993966156],[130.463700908,33.22410616200001],[130.463700908,33.223788658],[130.463643969,33.223488657999994],[130.463375084,33.222998658],[130.463157302,33.222802829],[130.462750636,33.22267310800001],[130.4625,33.22243137007905],[130.4625,33.224026993966156]]]}},{"type":"Feature","id":"40522:493063731","properties":{"id":"40522:493063731","meshCode":"493063731","cityCode":"40522","city":"大木町","lat":33.2255826,"lon":130.417563,"areaKm2":0.0240097,"populated2020":true,"population2020":null,"populationNote":"境界またぎ・原典収録外のため自治体内人口は未集計"},"geometry":{"type":"MultiPolygon","coordinates":[[[[130.413886732,33.225000351],[130.414342931,33.225144523],[130.414552646,33.225112577],[130.41469786000002,33.225],[130.413886732,33.225000351]]],[[[130.416404345,33.22500035099999],[130.416477367,33.225240072000005],[130.41632904,33.225972297000006],[130.416493204,33.226125631],[130.416723761,33.226093126],[130.4169807,33.225952847],[130.417292698,33.225623432],[130.417647925,33.226110045],[130.41875,33.22582137163767],[130.41875,33.225],[130.416404345,33.22500035099999]]]]}},{"type":"Feature","id":"40522:493063732","properties":{"id":"40522:493063732","meshCode":"493063732","cityCode":"40522","city":"大木町","lat":33.2268767,"lon":130.4245053,"areaKm2":0.0519813,"populated2020":true,"population2020":null,"populationNote":"境界またぎ・原典収録外のため自治体内人口は未集計"},"geometry":{"type":"MultiPolygon","coordinates":[[[[130.41875,33.22582137163767],[130.420950389,33.225263485999996],[130.420702815,33.225],[130.41875,33.225],[130.41875,33.22582137163767]]],[[[130.425,33.22500000000001],[130.423304669,33.22503034199999],[130.424593126,33.228413927999995],[130.42450882,33.228444342],[130.4247540428906,33.22916666666667],[130.425,33.22916666666667],[130.425,33.22500000000001]]]]}},{"type":"Feature","id":"40522:493063741","properties":{"id":"40522:493063741","meshCode":"493063741","cityCode":"40522","city":"大木町","lat":33.2270833,"lon":130.428125,"areaKm2":0.269187,"populated2020":true,"population2020":52.4184,"populationNote":"2020年基準の国交省調整値"},"geometry":{"type":"Polygon","coordinates":[[[130.425,33.22500000000001],[130.425,33.22916666666667],[130.43125,33.22916666666668],[130.43125,33.225],[130.425,33.22500000000001]]]}},{"type":"Feature","id":"40522:493063742","properties":{"id":"40522:493063742","meshCode":"493063742","cityCode":"40522","city":"大木町","lat":33.2270833,"lon":130.434375,"areaKm2":0.267261,"populated2020":true,"population2020":464.6517,"populationNote":"2020年基準の国交省調整値"},"geometry":{"type":"Polygon","coordinates":[[[130.436059831,33.229166171],[130.4375,33.228913746372235],[130.4375,33.225],[130.43125,33.225],[130.43125,33.22916666666668],[130.436059831,33.229166171]]]}},{"type":"Feature","id":"40522:493063751","properties":{"id":"40522:493063751","meshCode":"493063751","cityCode":"40522","city":"大木町","lat":33.2270833,"lon":130.440625,"areaKm2":0.2690364,"populated2020":true,"population2020":502.8346,"populationNote":"2020年基準の国交省調整値"},"geometry":{"type":"Polygon","coordinates":[[[130.437510661,33.22891645],[130.43760120564042,33.22916666666667],[130.44375,33.22916666666667],[130.44375,33.225],[130.4375,33.225],[130.437510661,33.22891645]]]}},{"type":"Feature","id":"40522:493063752","properties":{"id":"40522:493063752","meshCode":"493063752","cityCode":"40522","city":"大木町","lat":33.2270833,"lon":130.446875,"areaKm2":0.2691858,"populated2020":true,"population2020":467.6743,"populationNote":"2020年基準の国交省調整値"},"geometry":{"type":"Polygon","coordinates":[[[130.44375,33.225],[130.44375,33.22916666666667],[130.45,33.22916666666668],[130.45,33.224999999999994],[130.44375,33.225]]]}},{"type":"Feature","id":"40522:493063761","properties":{"id":"40522:493063761","meshCode":"493063761","cityCode":"40522","city":"大木町","lat":33.2270833,"lon":130.453125,"areaKm2":0.2691854,"populated2020":true,"population2020":543.338,"populationNote":"2020年基準の国交省調整値"},"geometry":{"type":"Polygon","coordinates":[[[130.45,33.224999999999994],[130.45,33.22916666666668],[130.45625,33.22916666666667],[130.45625,33.225],[130.45,33.224999999999994]]]}},{"type":"Feature","id":"40522:493063762","properties":{"id":"40522:493063762","meshCode":"493063762","cityCode":"40522","city":"大木町","lat":33.2270833,"lon":130.459375,"areaKm2":0.1743763,"populated2020":true,"population2020":null,"populationNote":"境界またぎ・原典収録外のため自治体内人口は未集計"},"geometry":{"type":"Polygon","coordinates":[[[130.4588540631285,33.22916666666667],[130.460354799,33.227248937],[130.460864527,33.22611393700001],[130.461517575,33.226025054000004],[130.461487575,33.225644775000006],[130.461016472,33.225736162],[130.461148949,33.22500000000001],[130.45625,33.225],[130.45625,33.22916666666667],[130.4588540631285,33.22916666666667]]]}},{"type":"Feature","id":"40522:493063734","properties":{"id":"40522:493063734","meshCode":"493063734","cityCode":"40522","city":"大木町","lat":33.229252,"lon":130.4248421,"areaKm2":0.0002051,"populated2020":true,"population2020":null,"populationNote":"境界またぎ・原典収録外のため自治体内人口は未集計"},"geometry":{"type":"Polygon","coordinates":[[[130.424797847,33.22928582000001],[130.425,33.229218045],[130.425,33.22916666666667],[130.4247540428906,33.22916666666667],[130.424797847,33.22928582000001]]]}},{"type":"Feature","id":"40522:493063743","properties":{"id":"40522:493063743","meshCode":"493063743","cityCode":"40522","city":"大木町","lat":33.2299544,"lon":130.4298932,"areaKm2":0.0566722,"populated2020":true,"population2020":null,"populationNote":"境界またぎ・原典収録外のため自治体内人口は未集計"},"geometry":{"type":"Polygon","coordinates":[[[130.425122957,33.22917681999999],[130.425499287,33.230114568],[130.426318119,33.229894062999996],[130.426450597,33.230134846999995],[130.428402529,33.229619422999995],[130.428739728,33.230306288],[130.429275616,33.23020490100001],[130.429425668,33.23071978400001],[130.429969831,33.23061923400001],[130.429882257,33.230339261],[130.429960532,33.230270811],[130.43125,33.230021688012926],[130.43125,33.22916666666668],[130.425,33.22916666666667],[130.425,33.229218045],[130.425122957,33.22917681999999]]]}},{"type":"Feature","id":"40522:493063744","properties":{"id":"40522:493063744","meshCode":"493063744","cityCode":"40522","city":"大木町","lat":33.229607,"lon":130.432599,"areaKm2":0.0791885,"populated2020":true,"population2020":null,"populationNote":"境界またぎ・原典収録外のため自治体内人口は未集計"},"geometry":{"type":"MultiPolygon","coordinates":[[[[130.43125,33.230021688012926],[130.431682892,33.229985063],[130.43178511,33.230051171],[130.43281594,33.229874784],[130.434272335,33.229486171],[130.4360570590799,33.22916666666667],[130.43125,33.22916666666668],[130.43125,33.230021688012926]]],[[[130.4375,33.23025017533151],[130.436592049,33.230320063],[130.435620376,33.231612838],[130.43534677,33.232852288],[130.435366213,33.233029783999996],[130.43570865102527,33.233333333333334],[130.4375,33.233333333333334],[130.4375,33.23025017533151]]]]}},{"type":"Feature","id":"40522:493063753","properties":{"id":"40522:493063753","meshCode":"493063753","cityCode":"40522","city":"大木町","lat":33.23125,"lon":130.440625,"areaKm2":0.267707,"populated2020":true,"population2020":262.7133,"populationNote":"2020年基準の国交省調整値"},"geometry":{"type":"Polygon","coordinates":[[[130.43760120564042,33.22916666666667],[130.437648988,33.230214225],[130.4375,33.23025017533151],[130.4375,33.233333333333334],[130.44375,33.233333333333334],[130.44375,33.22916666666667],[130.43760120564042,33.22916666666667]]]}},{"type":"Feature","id":"40522:493063754","properties":{"id":"40522:493063754","meshCode":"493063754","cityCode":"40522","city":"大木町","lat":33.23125,"lon":130.446875,"areaKm2":0.2691732,"populated2020":true,"population2020":578.2834,"populationNote":"2020年基準の国交省調整値"},"geometry":{"type":"Polygon","coordinates":[[[130.44375,33.22916666666667],[130.44375,33.233333333333334],[130.45,33.233333333333334],[130.45,33.22916666666668],[130.44375,33.22916666666667]]]}},{"type":"Feature","id":"40522:493063763","properties":{"id":"40522:493063763","meshCode":"493063763","cityCode":"40522","city":"大木町","lat":33.23125,"lon":130.453125,"areaKm2":0.2691728,"populated2020":true,"population2020":224.7751,"populationNote":"2020年基準の国交省調整値"},"geometry":{"type":"Polygon","coordinates":[[[130.45,33.22916666666668],[130.45,33.233333333333334],[130.45625,33.233333333333334],[130.45625,33.22916666666667],[130.45,33.22916666666668]]]}},{"type":"Feature","id":"40522:493063764","properties":{"id":"40522:493063764","meshCode":"493063764","cityCode":"40522","city":"大木町","lat":33.2312069,"lon":130.4573224,"areaKm2":0.0959807,"populated2020":true,"population2020":null,"populationNote":"境界またぎ・原典収録外のため自治体内人口は未集計"},"geometry":{"type":"Polygon","coordinates":[[[130.458502425,33.233333333],[130.458373126,33.23056366699999],[130.458507017,33.22986755],[130.4588540631285,33.22916666666667],[130.45625,33.22916666666667],[130.45625,33.233333333333334],[130.458502425,33.233333333]]]}},{"type":"Feature","id":"40522:493063842","properties":{"id":"40522:493063842","meshCode":"493063842","cityCode":"40522","city":"大木町","lat":33.2352009,"lon":130.4364757,"areaKm2":0.0756861,"populated2020":true,"population2020":null,"populationNote":"境界またぎ・原典収録外のため自治体内人口は未集計"},"geometry":{"type":"Polygon","coordinates":[[[130.435708677,33.23333367600001],[130.435627601,33.234643955],[130.435671206,33.234867288],[130.435855927,33.23495255900001],[130.43587537,33.235079505],[130.435462036,33.235143955000005],[130.4353362,33.236892288],[130.435682036,33.236907288],[130.435973709,33.237073396],[130.4375,33.23710881858039],[130.4375,33.233333333333334],[130.435708677,33.23333367600001]]]}},{"type":"Feature","id":"40522:493063851","properties":{"id":"40522:493063851","meshCode":"493063851","cityCode":"40522","city":"大木町","lat":33.2354167,"lon":130.440625,"areaKm2":0.2501619,"populated2020":true,"population2020":132.172,"populationNote":"2020年基準の国交省調整値"},"geometry":{"type":"Polygon","coordinates":[[[130.437552594,33.237107559],[130.438027588,33.237055342],[130.442249585,33.237174946],[130.44221744877316,33.2375],[130.44375,33.23749999999999],[130.44375,33.233333333333334],[130.4375,33.233333333333334],[130.437552594,33.237107559]]]}},{"type":"Feature","id":"40522:493063852","properties":{"id":"40522:493063852","meshCode":"493063852","cityCode":"40522","city":"大木町","lat":33.2354167,"lon":130.446875,"areaKm2":0.2691606,"populated2020":true,"population2020":322.0534,"populationNote":"2020年基準の国交省調整値"},"geometry":{"type":"Polygon","coordinates":[[[130.44375,33.233333333333334],[130.44375,33.23749999999999],[130.45,33.2375],[130.45,33.233333333333334],[130.44375,33.233333333333334]]]}},{"type":"Feature","id":"40522:493063861","properties":{"id":"40522:493063861","meshCode":"493063861","cityCode":"40522","city":"大木町","lat":33.2354167,"lon":130.453125,"areaKm2":0.267346,"populated2020":true,"population2020":163.441,"populationNote":"2020年基準の国交省調整値"},"geometry":{"type":"Polygon","coordinates":[[[130.455768119,33.237481161999995],[130.455846732,33.237103387],[130.45625,33.23711745588798],[130.45625,33.233333333333334],[130.45,33.233333333333334],[130.45,33.2375],[130.455768119,33.237481161999995]]]}},{"type":"Feature","id":"40522:493063862","properties":{"id":"40522:493063862","meshCode":"493063862","cityCode":"40522","city":"大木町","lat":33.2354634,"lon":130.457083,"areaKm2":0.076668,"populated2020":true,"population2020":null,"populationNote":"境界またぎ・原典収録外のため自治体内人口は未集計"},"geometry":{"type":"Polygon","coordinates":[[[130.45625,33.23711745588798],[130.456978949,33.237313387],[130.457379792,33.237300054],[130.457695616,33.237215333],[130.457955616,33.236988387000004],[130.457954228,33.236024775],[130.457837289,33.235625883000004],[130.458393684,33.234383667],[130.458502425,33.233333333333334],[130.45625,33.233333333333334],[130.45625,33.23711745588798]]]}},{"type":"Feature","id":"40522:493063853","properties":{"id":"40522:493063853","meshCode":"493063853","cityCode":"40522","city":"大木町","lat":33.2398324,"lon":130.4428435,"areaKm2":0.0709611,"populated2020":true,"population2020":null,"populationNote":"境界またぎ・原典収録外のため自治体内人口は未集計"},"geometry":{"type":"Polygon","coordinates":[[[130.442168301,33.238378864999994],[130.442360973,33.238383946],[130.442309805,33.23928119800001],[130.441957549,33.239265973],[130.441916913,33.240386279],[130.442090078,33.240383667],[130.44205869,33.241533946],[130.441602581,33.24153339600001],[130.44151961111058,33.24166666666666],[130.44375,33.24166666666667],[130.44375,33.23749999999999],[130.44221744877316,33.2375],[130.442168301,33.238378864999994]]]}},{"type":"Feature","id":"40522:493063854","properties":{"id":"40522:493063854","meshCode":"493063854","cityCode":"40522","city":"大木町","lat":33.2395833,"lon":130.446875,"areaKm2":0.257616,"populated2020":true,"population2020":223.7421,"populationNote":"2020年基準の国交省調整値"},"geometry":{"type":"Polygon","coordinates":[[[130.448575344,33.241654775],[130.448606459,33.241244775],[130.449147289,33.24079533300001],[130.449537575,33.240762279],[130.45,33.24093164],[130.45,33.2375],[130.44375,33.23749999999999],[130.44375,33.24166666666667],[130.448575344,33.241654775]]]}},{"type":"Feature","id":"40522:493063863","properties":{"id":"40522:493063863","meshCode":"493063863","cityCode":"40522","city":"大木町","lat":33.2395833,"lon":130.453125,"areaKm2":0.1399715,"populated2020":true,"population2020":null,"populationNote":"境界またぎ・原典収録外のため自治体内人口は未集計"},"geometry":{"type":"Polygon","coordinates":[[[130.45,33.24093164],[130.450752283,33.241203387],[130.451286459,33.24091810800001],[130.452080623,33.24076366700001],[130.452369792,33.240474775],[130.452344228,33.24003089200001],[130.452467847,33.23988477500001],[130.455103398,33.23863366700001],[130.455326174,33.23820755900001],[130.455653398,33.237848387],[130.45576357195367,33.2375],[130.45,33.2375],[130.45,33.24093164]]]}},{"type":"Feature","id":"40522:493063951","properties":{"id":"40522:493063951","meshCode":"493063951","cityCode":"40522","city":"大木町","lat":33.2433478,"lon":130.4425346,"areaKm2":0.0689118,"populated2020":true,"population2020":null,"populationNote":"境界またぎ・原典収録外のため自治体内人口は未集計"},"geometry":{"type":"Polygon","coordinates":[[[130.441519611,33.241666667],[130.441195357,33.24250145],[130.441475357,33.242590892],[130.441295629,33.243435063],[130.441614241,33.244098946],[130.44157479900002,33.244236730000004],[130.44308146600002,33.24455061300001],[130.44375,33.24513243928991],[130.44375,33.24166666666667],[130.441519611,33.241666667]]]}},{"type":"Feature","id":"40522:493063952","properties":{"id":"40522:493063952","meshCode":"493063952","cityCode":"40522","city":"大木町","lat":33.2434199,"lon":130.4450514,"areaKm2":0.0850598,"populated2020":true,"population2020":null,"populationNote":"境界またぎ・原典収録外のため自治体内人口は未集計"},"geometry":{"type":"Polygon","coordinates":[[[130.443752568,33.245133946],[130.443904514,33.24521145],[130.444494514,33.24480339600001],[130.444696459,33.243973117],[130.444877575,33.24375589200001],[130.445837289,33.243817279],[130.446344786,33.243441450000006],[130.446317017,33.243087],[130.446402853,33.24278005400001],[130.446595344,33.242695333],[130.446851738,33.242795333000004],[130.447143398,33.242762559],[130.448538962,33.24184255899999],[130.4485776909342,33.24166666666667],[130.44375,33.24166666666667],[130.443752568,33.245133946]]]}}]}