{"type":"FeatureCollection","metadata":{"cityCode":"40544","city":"広川町","resolution":1000,"boundaryDate":"2026-01-01","populationLabel":"2020年基準人口（国交省調整値）","method":"標準地域メッシュを行政界で切抜き。中心が区域外のとき区域内代表点を判定点にする。人口不明をゼロにしない。"},"features":[{"type":"Feature","id":"40544:49306471","properties":{"id":"40544:49306471","meshCode":"49306471","cityCode":"40544","city":"広川町","lat":33.2319315,"lon":130.521265,"areaKm2":0.1146678,"populated2020":true,"population2020":null,"populationNote":"境界またぎ・収録外等のため人口未集計"},"geometry":{"type":"MultiPolygon","coordinates":[[[[130.525,33.23024181099999],[130.524065084,33.230012045],[130.523204527,33.230083990999994],[130.522923969,33.229943712],[130.522694254,33.23000120700001],[130.522407302,33.230319541],[130.522101193,33.230032874],[130.521884254,33.230166766],[130.520935914,33.230062874],[130.520411193,33.230224261],[130.519618132,33.230263423],[130.519393696,33.230337874],[130.519869248,33.230650928],[130.520704527,33.230873982000006],[130.523683696,33.230686207],[130.524598975,33.230721486],[130.525,33.230859495],[130.525,33.23024181099999]]],[[[130.524426187,33.232926486],[130.524373969,33.23277648599999],[130.524032568,33.232652604],[130.522938405,33.23272231499999],[130.522318132,33.232202874],[130.521572853,33.231846207000004],[130.521138405,33.231815099],[130.520905629,33.23195482],[130.520727017,33.232225928000005],[130.520393411,33.23218731499999],[130.520245914,33.232070928000006],[130.520036472,33.231636757],[130.51894035000004,33.231242874],[130.518655914,33.231266477],[130.518605629,33.231346477],[130.518685914,33.23165759500001],[130.518334527,33.23187814400001],[130.51838207504684,33.233333333333334],[130.5243007648751,33.233333333333334],[130.524426187,33.232926486]]],[[[130.524997302,33.232976486],[130.525,33.233051685],[130.525,33.23293983800001],[130.524997302,33.232976486]]]]}},{"type":"Feature","id":"40544:49306472","properties":{"id":"40544:49306472","meshCode":"49306472","cityCode":"40544","city":"広川町","lat":33.2321439,"lon":130.5275628,"areaKm2":0.0891761,"populated2020":true,"population2020":null,"populationNote":"境界またぎ・収録外等のため人口未集計"},"geometry":{"type":"MultiPolygon","coordinates":[[[[130.526851751,33.230781494999995],[130.527650078,33.230966495000004],[130.527857302,33.23077955],[130.527875914,33.23060455],[130.526891193,33.23021427],[130.526566472,33.230151495],[130.526339533,33.230137054],[130.525861193,33.230287883],[130.525,33.23024181099999],[130.525,33.230859495],[130.525551466,33.23089371199999],[130.526851751,33.230781494999995]]],[[[130.529433684,33.233001495],[130.529149805,33.231828162],[130.528992581,33.231719279],[130.526793696,33.23104065799999],[130.526694799,33.23149010800001],[130.526787575,33.23170704499999],[130.52674869,33.231916216],[130.525065071,33.23269899099999],[130.525,33.23293983800001],[130.5250259270343,33.233333333333334],[130.52935438402233,33.233333333333334],[130.529433684,33.233001495]]],[[[130.536393411,33.23331123399999],[130.5375,33.233333333333334],[130.5375,33.23283565535039],[130.537083969,33.232977901],[130.536393411,33.23331123399999]]]]}},{"type":"Feature","id":"40544:49306473","properties":{"id":"40544:49306473","meshCode":"49306473","cityCode":"40544","city":"広川町","lat":33.2320821,"lon":130.5448294,"areaKm2":0.2878234,"populated2020":true,"population2020":null,"populationNote":"境界またぎ・収録外等のため人口未集計"},"geometry":{"type":"Polygon","coordinates":[[[130.55,33.23064693700001],[130.548482322,33.230745703],[130.547372866,33.230714865],[130.547170934,33.230102360000004],[130.547046757,33.230048198000006],[130.545611479,33.230288468],[130.545169261,33.23019541399999],[130.544982866,33.230226252],[130.543462309,33.230861802],[130.54116537,33.231450964],[130.5375,33.23283565535039],[130.5375,33.233333333333334],[130.55,33.233333333333334],[130.55,33.23064693700001]]]}},{"type":"Feature","id":"40544:49306474","properties":{"id":"40544:49306474","meshCode":"49306474","cityCode":"40544","city":"広川町","lat":33.232637,"lon":130.5557193,"areaKm2":0.1683909,"populated2020":true,"population2020":null,"populationNote":"境界またぎ・収録外等のため人口未集計"},"geometry":{"type":"Polygon","coordinates":[[[130.560003152,33.232110432],[130.55458898800003,33.231931540999994],[130.551079818,33.232239586],[130.550996485,33.231823198],[130.550670649,33.231350423],[130.550460934,33.230730423],[130.55034454,33.230621811000006],[130.55,33.23064693700001],[130.55,33.233333333333334],[130.5625,33.233333333333334],[130.5625,33.23242878562984],[130.56239511,33.232404054],[130.562068988,33.23246627],[130.560003152,33.232110432]]]}},{"type":"Feature","id":"40544:49306475","properties":{"id":"40544:49306475","meshCode":"49306475","cityCode":"40544","city":"広川町","lat":33.2330998,"lon":130.5637861,"areaKm2":0.0134032,"populated2020":true,"population2020":null,"populationNote":"境界またぎ・収録外等のため人口未集計"},"geometry":{"type":"Polygon","coordinates":[[[130.566265486,33.233333333],[130.565475668,33.233202387],[130.564621777,33.232923495],[130.563434553,33.23296988300001],[130.5625,33.23242878562984],[130.5625,33.233333333333334],[130.566265486,33.233333333]]]}},{"type":"Feature","id":"40544:49306481","properties":{"id":"40544:49306481","meshCode":"49306481","cityCode":"40544","city":"広川町","lat":33.2379903,"lon":130.5197385,"areaKm2":0.8437194,"populated2020":true,"population2020":null,"populationNote":"境界またぎ・収録外等のため人口未集計"},"geometry":{"type":"MultiPolygon","coordinates":[[[[130.51838207504684,33.233333333333334],[130.518615629,33.233793422999995],[130.517029507,33.23445509],[130.516939235,33.23455536],[130.516949235,33.235307586],[130.516450065,33.23709258600001],[130.515933943,33.237019532000005],[130.516405616,33.236229532],[130.516154786,33.23596536],[130.515518677,33.23590535999999],[130.514924501,33.236998414],[130.514480895,33.23728091],[130.51468033700002,33.237736748],[130.514821725,33.237839523],[130.514963113,33.23782008100001],[130.515143113,33.237582586],[130.515271453,33.237531189],[130.51638367100003,33.23740313500001],[130.516030065,33.237647306],[130.516043113,33.238180081],[130.516371167,33.238661748],[130.516338949,33.238796189],[130.516075331,33.238937586000006],[130.515477562,33.238879802],[130.515252555,33.238404802],[130.515104773,33.238353414],[130.514963385,33.238481748],[130.515137004,33.23903369400001],[130.515053385,33.239136468],[130.514963385,33.239117306],[130.514764228,33.238706468],[130.514391167,33.23856536],[130.514217562,33.238045639999996],[130.514288392,33.23774397300001],[130.514146732,33.237422856],[130.513440065,33.237500081],[130.513330895,33.23763480200001],[130.513407562,33.237859523],[130.513773943,33.23791091],[130.513806174,33.237987856000004],[130.512688106,33.238520631],[130.512803385,33.239137018],[130.5125,33.23934531182477],[130.5125,33.24053825035729],[130.51352643300004,33.241250631],[130.513881712,33.24104091],[130.514149209,33.241246468],[130.51433782100003,33.24152201799999],[130.51421293162457,33.241666666666674],[130.525,33.24166666666667],[130.525,33.23479131500001],[130.524467575,33.23475315300001],[130.524226732,33.234404261],[130.524180065,33.233660099000005],[130.5243007648751,33.233333333333334],[130.51838207504684,33.233333333333334]]],[[[130.513039767,33.241291739000005],[130.512652542,33.241455351],[130.512525499161,33.24166666666667],[130.51363329350136,33.24166666666667],[130.513039767,33.241291739000005]]]]}},{"type":"Feature","id":"40544:49306482","properties":{"id":"40544:49306482","meshCode":"49306482","cityCode":"40544","city":"広川町","lat":33.2376928,"lon":130.5312404,"areaKm2":1.0231041,"populated2020":true,"population2020":230.6635,"populationNote":"収録500mメッシュ人口の合算（原典収録外は補完しない）"},"geometry":{"type":"Polygon","coordinates":[[[130.531024241,33.23411705400001],[130.530316744,33.233902883],[130.52935438402233,33.233333333333334],[130.5250259270343,33.233333333333334],[130.525114799,33.233968712],[130.525617575,33.234163991],[130.52679867700002,33.234365937],[130.527035629,33.234481766],[130.527074514,33.234574829],[130.526989235,33.23464455],[130.52580201,33.23467565800001],[130.525,33.23479131500001],[130.525,33.24166666666667],[130.5375,33.24166666666667],[130.5375,33.233333333333334],[130.53635534343323,33.233333333333334],[130.535726187,33.23369873],[130.534810636,33.234024008999995],[130.531024241,33.23411705400001]]]}},{"type":"Feature","id":"40544:49306483","properties":{"id":"40544:49306483","meshCode":"49306483","cityCode":"40544","city":"広川町","lat":33.2375,"lon":130.54375,"areaKm2":1.0765946,"populated2020":true,"population2020":1366.7579,"populationNote":"収録500mメッシュ人口の合算（原典収録外は補完しない）"},"geometry":{"type":"Polygon","coordinates":[[[130.55,33.233333333333334],[130.5375,33.233333333333334],[130.5375,33.24166666666667],[130.55,33.24166666666667],[130.55,33.233333333333334]]]}},{"type":"Feature","id":"40544:49306484","properties":{"id":"40544:49306484","meshCode":"49306484","cityCode":"40544","city":"広川町","lat":33.2375,"lon":130.55625,"areaKm2":1.0765921,"populated2020":true,"population2020":1516.0556,"populationNote":"収録500mメッシュ人口の合算（原典収録外は補完しない）"},"geometry":{"type":"Polygon","coordinates":[[[130.5625,33.233333333333334],[130.55,33.233333333333334],[130.55,33.24166666666667],[130.5625,33.24166666666667],[130.5625,33.233333333333334]]]}},{"type":"Feature","id":"40544:49306485","properties":{"id":"40544:49306485","meshCode":"49306485","cityCode":"40544","city":"広川町","lat":33.2378643,"lon":130.5684459,"areaKm2":0.9749027,"populated2020":true,"population2020":null,"populationNote":"境界またぎ・収録外等のため人口未集計"},"geometry":{"type":"Polygon","coordinates":[[[130.567975837,33.233944667],[130.567547328,33.233791279],[130.566577328,33.233597667],[130.5662654867828,33.233333333333334],[130.5625,33.233333333333334],[130.5625,33.24166666666667],[130.575,33.241666666666674],[130.575,33.234990279],[130.574165953,33.234830171],[130.573382062,33.23481461299999],[130.572807899,33.235116837999996],[130.572606226,33.235147946],[130.57174511,33.234806838],[130.570030389,33.234667387],[130.56987511,33.23429516200001],[130.56975094700002,33.234233225],[130.567975837,33.233944667]]]}},{"type":"Feature","id":"40544:49306486","properties":{"id":"40544:49306486","meshCode":"49306486","cityCode":"40544","city":"広川町","lat":33.2389727,"lon":130.5804003,"areaKm2":0.6576304,"populated2020":true,"population2020":null,"populationNote":"境界またぎ・収録外等のため人口未集計"},"geometry":{"type":"Polygon","coordinates":[[[130.579767899,33.236024089999994],[130.578402348,33.235233243],[130.57789040200004,33.23503991],[130.577246511,33.234962126],[130.575624838,33.235055171],[130.575,33.234990279],[130.575,33.241666666666674],[130.5875,33.24166666666667],[130.5875,33.23909635942877],[130.58696818400003,33.238705793],[130.586541518,33.238054676],[130.585983178,33.23776800899999],[130.585416511,33.237674946],[130.584997626,33.237512171000006],[130.584609572,33.237488838],[130.583911232,33.237667162],[130.583538742,33.237667162],[130.582972348,33.237551045],[130.579767899,33.236024089999994]]]}},{"type":"Feature","id":"40544:49306488","properties":{"id":"40544:49306488","meshCode":"49306488","cityCode":"40544","city":"広川町","lat":33.2395093,"lon":130.6092037,"areaKm2":0.3152552,"populated2020":true,"population2020":17.6963,"populationNote":"収録500mメッシュ人口の合算（原典収録外は補完しない）"},"geometry":{"type":"Polygon","coordinates":[[[130.612186057,33.236970288],[130.611254942,33.236660288],[130.610587717,33.236962514000005],[130.609858262,33.236892784],[130.608376316,33.237086395999995],[130.60786409900004,33.237342225],[130.607369364,33.238185],[130.606882698,33.238390279],[130.60579214,33.238481666999995],[130.605683528,33.238620829],[130.605683528,33.239000829],[130.605388807,33.240209712],[130.604705759,33.240667207],[130.605217977,33.241263595],[130.60517649813252,33.24166666666667],[130.6125,33.24166666666667],[130.6125,33.23691519532398],[130.612186057,33.236970288]]]}},{"type":"Feature","id":"40544:49306489","properties":{"id":"40544:49306489","meshCode":"49306489","cityCode":"40544","city":"広川町","lat":33.2390995,"lon":130.6188733,"areaKm2":0.6593605,"populated2020":true,"population2020":null,"populationNote":"境界またぎ・収録外等のため人口未集計"},"geometry":{"type":"Polygon","coordinates":[[[130.625,33.236715279],[130.62440441,33.236470604],[130.623945525,33.236445604],[130.623256628,33.23617115300001],[130.622660233,33.23609059499999],[130.621799689,33.23600920700001],[130.62084524,33.236102261],[130.620519403,33.23619531500001],[130.620294397,33.23635809000001],[130.619914125,33.23682309],[130.619494955,33.237164198],[130.619029403,33.237280586],[130.61862607,33.23728836],[130.618222737,33.23718753199999],[130.617819118,33.236885027],[130.617283839,33.236234198],[130.617113281,33.23615669400001],[130.616523567,33.236110027],[130.616189676,33.236257243],[130.61587939,33.236683631],[130.615367445,33.236869748],[130.613668003,33.236660297],[130.613156057,33.236923901],[130.6125,33.23691519532398],[130.6125,33.24166666666667],[130.625,33.24166666666667],[130.625,33.236715279]]]}},{"type":"Feature","id":"40544:49306580","properties":{"id":"40544:49306580","meshCode":"49306580","cityCode":"40544","city":"広川町","lat":33.2394884,"lon":130.6276126,"areaKm2":0.2501875,"populated2020":false,"population2020":null,"populationNote":"境界またぎ・収録外等のため人口未集計"},"geometry":{"type":"Polygon","coordinates":[[[130.629433865,33.237607829],[130.62889192,33.237190613],[130.628538029,33.237403946],[130.627997185,33.237453937000005],[130.627499974,33.237092],[130.626673022,33.237125045],[130.626480804,33.237072829],[130.626013294,33.236653658],[130.62558524,33.23661088299999],[130.625240246,33.236790324],[130.625,33.236715279],[130.625,33.24166666666667],[130.63068715983334,33.24166666666667],[130.630626913,33.241194216],[130.630789131,33.240912829],[130.631063852,33.240701721],[130.631155525,33.240321441],[130.631007471,33.240201721000005],[130.630739689,33.239715883],[130.630223852,33.23952700000001],[130.629822192,33.239018667],[130.630016355,33.238136161999996],[130.629896083,33.237721441],[130.629433865,33.237607829]]]}},{"type":"Feature","id":"40544:49306480","properties":{"id":"40544:49306480","meshCode":"49306480","cityCode":"40544","city":"広川町","lat":33.2396452,"lon":130.5104769,"areaKm2":0.0886815,"populated2020":true,"population2020":null,"populationNote":"境界またぎ・収録外等のため人口未集計"},"geometry":{"type":"Polygon","coordinates":[[[130.5125,33.23934531182477],[130.511929494,33.23961563100001],[130.511718664,33.239610631000005],[130.511638392,33.239515631],[130.511211725,33.238618135],[130.511281997,33.238487577],[130.511507834,33.238412577000005],[130.511553113,33.23832729699999],[130.511066174,33.237620631000006],[130.508586719,33.238703405],[130.509274501,33.24008673899999],[130.509510324,33.24084396399999],[130.50995330666652,33.24166666666667],[130.5111702846193,33.24166666666667],[130.510906161,33.241435072],[130.510875875,33.241274793],[130.51124227,33.240622856],[130.511543658,33.240472856],[130.512195888,33.24039257700001],[130.5125,33.24053825035729],[130.5125,33.23934531182477]]]}},{"type":"Feature","id":"40544:49306487","properties":{"id":"40544:49306487","meshCode":"49306487","cityCode":"40544","city":"広川町","lat":33.2408112,"lon":130.5898755,"areaKm2":0.0918404,"populated2020":false,"population2020":null,"populationNote":"境界またぎ・収録外等のため人口未集計"},"geometry":{"type":"Polygon","coordinates":[[[130.593889598,33.241287189000005],[130.592159598,33.24060468500001],[130.591072918,33.240782739000004],[130.590327912,33.24068968499999],[130.589963191,33.240426351],[130.589691803,33.23997691000001],[130.589381245,33.239651351],[130.588380687,33.239217180000004],[130.587806239,33.239224964],[130.5875,33.23909635942877],[130.5875,33.24166666666667],[130.59426206133165,33.24166666666667],[130.593889598,33.241287189000005]]]}},{"type":"Feature","id":"40544:49306490","properties":{"id":"40544:49306490","meshCode":"49306490","cityCode":"40544","city":"広川町","lat":33.2443911,"lon":130.5115383,"areaKm2":0.0781947,"populated2020":true,"population2020":null,"populationNote":"境界またぎ・収録外等のため人口未集計"},"geometry":{"type":"MultiPolygon","coordinates":[[[[130.50995330666652,33.24166666666667],[130.510880882,33.241921459],[130.511111984,33.241841189],[130.511197263,33.24173591],[130.5111702846193,33.24166666666667],[130.50995330666652,33.24166666666667]]],[[[130.512286161,33.24199701799999],[130.511899767,33.24210729699999],[130.511322542,33.242443126],[130.51102144,33.242453126],[130.510605045,33.242357847],[130.510454488,33.242092297000006],[130.509977549,33.242137297],[130.509676433,33.242292846999995],[130.509851984,33.242443126],[130.51030393,33.242513405],[130.5112831,33.243559514],[130.51116393,33.243870072],[130.510966148,33.244092018],[130.509817263,33.244717847],[130.50999393,33.24507062200001],[130.510410311,33.24536673899999],[130.510643645,33.245354234],[130.51081393,33.24517756800001],[130.510807821,33.245026458999995],[130.510687821,33.24488145899999],[130.510782542,33.24475562200001],[130.511072542,33.24483118],[130.51125559,33.24478063099999],[130.5115331,33.244402847],[130.51205198400004,33.244153964],[130.512156433,33.244169514],[130.512291984,33.244336459],[130.512250324,33.244628405],[130.511957821,33.24481618],[130.511989209,33.24506645900001],[130.511571699,33.24534812600002],[130.511540311,33.246103955],[130.511258366,33.246119514],[130.511165032,33.245733955],[130.511088366,33.24568673900001],[130.510745318,33.245755072],[130.510984475,33.246862847],[130.511865032,33.24664645899999],[130.511971699,33.246729793],[130.51212476,33.24721618],[130.5125,33.24716180875948],[130.5125,33.24171942848552],[130.512286161,33.24199701799999]]],[[[130.512255305,33.249658676],[130.512389987,33.25],[130.5125,33.25],[130.5125,33.24925761698115],[130.512255305,33.249658676]]]]}},{"type":"Feature","id":"40544:49306491","properties":{"id":"40544:49306491","meshCode":"49306491","cityCode":"40544","city":"広川町","lat":33.2457975,"lon":130.5189483,"areaKm2":1.0372497,"populated2020":true,"population2020":null,"populationNote":"境界またぎ・収録外等のため人口未集計"},"geometry":{"type":"Polygon","coordinates":[[[130.513890597,33.241838685],[130.51363329350136,33.24166666666667],[130.512525499161,33.24166666666667],[130.5125,33.24171942848552],[130.5125,33.24716180875948],[130.512848093,33.247105072],[130.51280642,33.246734514],[130.513562257,33.246335901],[130.513270039,33.245961179999995],[130.513089481,33.245493405],[130.513010597,33.244900351],[130.513233372,33.244803126],[130.5133631,33.244886459],[130.51377559,33.245660072],[130.513886978,33.245725072],[130.514079481,33.24569729699999],[130.514268366,33.24593063099999],[130.514486978,33.246377296999995],[130.514313087,33.246620351],[130.514323087,33.246898405],[130.514402529,33.246977847000004],[130.514730597,33.246997576999995],[130.514835032,33.24720118],[130.51472559,33.247434514],[130.51460642,33.24749923400001],[130.513388651,33.247628405],[130.513189754,33.24773256800001],[130.512866693,33.248238955],[130.512866693,33.248432568],[130.512533645,33.24913728800001],[130.5125,33.25],[130.525,33.25],[130.525,33.24166666666667],[130.51421293162457,33.241666666666674],[130.513890597,33.241838685]]]}},{"type":"Feature","id":"40544:49306492","properties":{"id":"40544:49306492","meshCode":"49306492","cityCode":"40544","city":"広川町","lat":33.2458333,"lon":130.53125,"areaKm2":1.0764966,"populated2020":true,"population2020":621.3067,"populationNote":"収録500mメッシュ人口の合算（原典収録外は補完しない）"},"geometry":{"type":"Polygon","coordinates":[[[130.5375,33.24166666666667],[130.525,33.24166666666667],[130.525,33.25],[130.5375,33.25],[130.5375,33.24166666666667]]]}},{"type":"Feature","id":"40544:49306493","properties":{"id":"40544:49306493","meshCode":"49306493","cityCode":"40544","city":"広川町","lat":33.2458333,"lon":130.54375,"areaKm2":1.0764939,"populated2020":true,"population2020":2047.4299,"populationNote":"収録500mメッシュ人口の合算（原典収録外は補完しない）"},"geometry":{"type":"Polygon","coordinates":[[[130.55,33.24166666666667],[130.5375,33.24166666666667],[130.5375,33.25],[130.55,33.25000000000001],[130.55,33.24166666666667]]]}},{"type":"Feature","id":"40544:49306494","properties":{"id":"40544:49306494","meshCode":"49306494","cityCode":"40544","city":"広川町","lat":33.2458333,"lon":130.55625,"areaKm2":1.0764914,"populated2020":true,"population2020":2758.1699,"populationNote":"収録500mメッシュ人口の合算（原典収録外は補完しない）"},"geometry":{"type":"Polygon","coordinates":[[[130.5625,33.24166666666667],[130.55,33.24166666666667],[130.55,33.25000000000001],[130.5625,33.25],[130.5625,33.24166666666667]]]}},{"type":"Feature","id":"40544:49306495","properties":{"id":"40544:49306495","meshCode":"49306495","cityCode":"40544","city":"広川町","lat":33.2458333,"lon":130.56875,"areaKm2":1.0764889,"populated2020":true,"population2020":1149.4706,"populationNote":"収録500mメッシュ人口の合算（原典収録外は補完しない）"},"geometry":{"type":"Polygon","coordinates":[[[130.575,33.241666666666674],[130.5625,33.24166666666667],[130.5625,33.25],[130.575,33.25000000000001],[130.575,33.241666666666674]]]}},{"type":"Feature","id":"40544:49306496","properties":{"id":"40544:49306496","meshCode":"49306496","cityCode":"40544","city":"広川町","lat":33.2458333,"lon":130.58125,"areaKm2":1.0764864,"populated2020":true,"population2020":496.5069,"populationNote":"収録500mメッシュ人口の合算（原典収録外は補完しない）"},"geometry":{"type":"Polygon","coordinates":[[[130.5875,33.24166666666667],[130.575,33.241666666666674],[130.575,33.25000000000001],[130.5875,33.25],[130.5875,33.24166666666667]]]}},{"type":"Feature","id":"40544:49306497","properties":{"id":"40544:49306497","meshCode":"49306497","cityCode":"40544","city":"広川町","lat":33.2462803,"lon":130.5931417,"areaKm2":0.9272753,"populated2020":true,"population2020":390.1843,"populationNote":"収録500mメッシュ人口の合算（原典収録外は補完しない）"},"geometry":{"type":"Polygon","coordinates":[[[130.6,33.244821766],[130.599188807,33.24486773900001],[130.598242127,33.24465079299999],[130.597807964,33.244426071999996],[130.59736546,33.244030793],[130.597047406,33.244030793],[130.59661295700002,33.24435635099999],[130.596333515,33.24441829700001],[130.595875733,33.24423217999999],[130.595317121,33.244123847000004],[130.594998781,33.243929964],[130.59477406,33.24356579300001],[130.594712114,33.242829405],[130.59484406,33.242186072],[130.594797665,33.242015523],[130.594634604,33.241844964],[130.59426206133165,33.24166666666667],[130.5875,33.24166666666667],[130.5875,33.25],[130.6,33.25],[130.6,33.244821766]]]}},{"type":"Feature","id":"40544:49306498","properties":{"id":"40544:49306498","meshCode":"49306498","cityCode":"40544","city":"広川町","lat":33.2462239,"lon":130.6068228,"areaKm2":0.9439576,"populated2020":true,"population2020":80.6499,"populationNote":"収録500mメッシュ人口の合算（原典収録外は補完しない）"},"geometry":{"type":"Polygon","coordinates":[[[130.60517649813252,33.24166666666667],[130.604612698,33.242813864999995],[130.603782425,33.24368191899999],[130.603355759,33.244480252],[130.602998807,33.244766919],[130.602463256,33.244844414],[130.601819079,33.24454218900001],[130.601315201,33.24452663100001],[130.6,33.244821766],[130.6,33.25],[130.6125,33.25000000000001],[130.6125,33.24166666666667],[130.60517649813252,33.24166666666667]]]}},{"type":"Feature","id":"40544:49306499","properties":{"id":"40544:49306499","meshCode":"49306499","cityCode":"40544","city":"広川町","lat":33.2458333,"lon":130.61875,"areaKm2":1.0764794,"populated2020":false,"population2020":null,"populationNote":"境界またぎ・収録外等のため人口未集計"},"geometry":{"type":"Polygon","coordinates":[[[130.625,33.24166666666667],[130.6125,33.24166666666667],[130.6125,33.25000000000001],[130.625,33.25],[130.625,33.24166666666667]]]}},{"type":"Feature","id":"40544:49306590","properties":{"id":"40544:49306590","meshCode":"49306590","cityCode":"40544","city":"広川町","lat":33.245098,"lon":130.6273741,"areaKm2":0.3709275,"populated2020":false,"population2020":null,"populationNote":"境界またぎ・収録外等のため人口未集計"},"geometry":{"type":"Polygon","coordinates":[[[130.630076628,33.245834477],[130.630323852,33.243834766],[130.630943852,33.243320874000005],[130.631127471,33.242335045],[130.63068715983334,33.24166666666667],[130.625,33.24166666666667],[130.625,33.25],[130.627706602,33.25000000000001],[130.627764669,33.249643351],[130.627567458,33.249213630999996],[130.627518016,33.248692523],[130.627355785,33.24822808099999],[130.628053567,33.24725669400001],[130.629061907,33.246270865],[130.629329676,33.246101982000006],[130.630076628,33.245834477]]]}},{"type":"Feature","id":"40544:49307400","properties":{"id":"40544:49307400","meshCode":"49307400","cityCode":"40544","city":"広川町","lat":33.2560369,"lon":130.512142,"areaKm2":0.0343551,"populated2020":true,"population2020":null,"populationNote":"境界またぎ・収録外等のため人口未集計"},"geometry":{"type":"MultiPolygon","coordinates":[[[[130.5125,33.25015326715501],[130.5125,33.25],[130.512389987,33.25],[130.512424189,33.250055901],[130.5125,33.25015326715501]]],[[[130.512096135,33.250820342000004],[130.51188725,33.25090978400001],[130.511882244,33.251425622],[130.512011686,33.251986730000006],[130.511837523,33.252443396],[130.511912244,33.25255756799999],[130.512278353,33.252492838],[130.512319741,33.25296728800001],[130.512429183,33.253098955],[130.512360571,33.253561729999994],[130.512051686,33.253553117],[130.512027795,33.254334225],[130.512353632,33.25423145],[130.512407795,33.254317009],[130.5125,33.254294122023246],[130.5125,33.250825342],[130.512096135,33.250820342000004]]],[[[130.511944462,33.254609225],[130.512102244,33.254873117],[130.511474189,33.255123946000005],[130.511808353,33.25543894599999],[130.511435019,33.255723946],[130.512132789,33.256349784],[130.511771128,33.25661645],[130.5125,33.257220672318546],[130.5125,33.25449235427753],[130.511944462,33.254609225]]],[[[130.512180285,33.25805173],[130.5118947206507,33.25833333333334],[130.5125,33.25833333333334],[130.5125,33.25794024452655],[130.512180285,33.25805173]]]]}},{"type":"Feature","id":"40544:49307401","properties":{"id":"40544:49307401","meshCode":"49307401","cityCode":"40544","city":"広川町","lat":33.2539328,"lon":130.5188714,"areaKm2":0.9969282,"populated2020":true,"population2020":582.544,"populationNote":"収録500mメッシュ人口の合算（原典収録外は補完しない）"},"geometry":{"type":"Polygon","coordinates":[[[130.512783917,33.250727008999995],[130.512722529,33.250815342],[130.5125,33.250825342],[130.5125,33.254294122023246],[130.513304462,33.254052288],[130.513345292,33.254254505],[130.5125,33.25449235427753],[130.5125,33.257220672318546],[130.512550571,33.257259225],[130.512905564,33.256955892],[130.513027795,33.257055613],[130.513268898,33.25685894600001],[130.51296668,33.256590892],[130.513499741,33.25617173],[130.513859741,33.25650811700001],[130.513981958,33.256947288000006],[130.513931128,33.257437278999994],[130.514019455,33.257617009],[130.513968353,33.25769672999999],[130.513739183,33.257649783999994],[130.51364751,33.25715117099999],[130.513346965,33.256947279],[130.513163619,33.25709255900001],[130.513278898,33.25718922499999],[130.51314668,33.25730061299999],[130.513190843,33.257363117],[130.512506407,33.257775063],[130.5125,33.25833333333334],[130.51472845673467,33.25833333333333],[130.514896952,33.25816589200001],[130.515280843,33.25799478399999],[130.51482751,33.257098396],[130.514661128,33.256864504999996],[130.514515292,33.256804784],[130.514418353,33.256572288],[130.515026122,33.256367009],[130.514900856,33.256124784],[130.514837795,33.25546173000001],[130.515138353,33.25520673],[130.515474734,33.255497288],[130.515348625,33.25578811700001],[130.515598353,33.256314233999994],[130.515410013,33.256509505000004],[130.515549183,33.256706171],[130.516486407,33.256292847],[130.517072244,33.256413955000006],[130.51702140100002,33.256568117],[130.516343904,33.25661784700001],[130.516082244,33.257145341999994],[130.516123074,33.25744478399999],[130.516225019,33.257493117],[130.516968625,33.257518954999995],[130.517326965,33.257665622],[130.51736112800003,33.257777008999994],[130.517192789,33.25789228800001],[130.51697767792515,33.25833333333333],[130.5210155763125,33.25833333333334],[130.521301958,33.258248685],[130.521814734,33.25824590100001],[130.52179585000002,33.25804201799999],[130.521969183,33.257765631000005],[130.521656965,33.25773118],[130.521507523,33.257628685],[130.521354747,33.257277847],[130.521140856,33.257075631],[130.521157795,33.256835901],[130.521025292,33.256665072],[130.521407237,33.256429793],[130.521964462,33.256748964],[130.523118911,33.25788673900001],[130.523602802,33.25807924299999],[130.52388079127084,33.25833333333334],[130.525,33.25833333333334],[130.525,33.25],[130.5125,33.25],[130.5125,33.25015326715501],[130.512783917,33.250727008999995]]]}},{"type":"Feature","id":"40544:49307402","properties":{"id":"40544:49307402","meshCode":"49307402","cityCode":"40544","city":"広川町","lat":33.25412,"lon":130.5312416,"areaKm2":1.0635312,"populated2020":true,"population2020":278.2871,"populationNote":"収録500mメッシュ人口の合算（原典収録外は補完しない）"},"geometry":{"type":"Polygon","coordinates":[[[130.5375,33.25],[130.525,33.25],[130.525,33.25833333333334],[130.52836625193999,33.25833333333333],[130.528403632,33.25813063999999],[130.529016135,33.258098414],[130.529100830048,33.25833333333333],[130.531161984012,33.25833333333333],[130.53114853400004,33.258025108000005],[130.53227695200002,33.25798464],[130.532238249,33.257365449999995],[130.532920532,33.257402117],[130.532893917,33.258017225],[130.533002789,33.25810686500001],[130.532874565,33.258115],[130.532881816,33.25818627899999],[130.533186641,33.258184252],[130.533293087,33.258080369],[130.533293087,33.258320703],[130.533460039,33.258273865],[130.534173722,33.258277919],[130.5341706869883,33.25833333333333],[130.5375,33.25833333333333],[130.5375,33.25]]]}},{"type":"Feature","id":"40544:49307403","properties":{"id":"40544:49307403","meshCode":"49307403","cityCode":"40544","city":"広川町","lat":33.2541667,"lon":130.54375,"areaKm2":1.0763932,"populated2020":true,"population2020":1405.8929,"populationNote":"収録500mメッシュ人口の合算（原典収録外は補完しない）"},"geometry":{"type":"Polygon","coordinates":[[[130.55,33.25000000000001],[130.5375,33.25],[130.5375,33.25833333333333],[130.55,33.25833333333334],[130.55,33.25000000000001]]]}},{"type":"Feature","id":"40544:49307404","properties":{"id":"40544:49307404","meshCode":"49307404","cityCode":"40544","city":"広川町","lat":33.2541667,"lon":130.55625,"areaKm2":1.0763906,"populated2020":true,"population2020":903.9402,"populationNote":"収録500mメッシュ人口の合算（原典収録外は補完しない）"},"geometry":{"type":"Polygon","coordinates":[[[130.5625,33.25],[130.55,33.25000000000001],[130.55,33.25833333333334],[130.5625,33.25833333333333],[130.5625,33.25]]]}},{"type":"Feature","id":"40544:49307405","properties":{"id":"40544:49307405","meshCode":"49307405","cityCode":"40544","city":"広川町","lat":33.2541667,"lon":130.56875,"areaKm2":1.0763882,"populated2020":true,"population2020":420.9735,"populationNote":"収録500mメッシュ人口の合算（原典収録外は補完しない）"},"geometry":{"type":"Polygon","coordinates":[[[130.575,33.25000000000001],[130.5625,33.25],[130.5625,33.25833333333333],[130.575,33.25833333333333],[130.575,33.25000000000001]]]}},{"type":"Feature","id":"40544:49307406","properties":{"id":"40544:49307406","meshCode":"49307406","cityCode":"40544","city":"広川町","lat":33.2541667,"lon":130.58125,"areaKm2":1.0763858,"populated2020":false,"population2020":null,"populationNote":"境界またぎ・収録外等のため人口未集計"},"geometry":{"type":"Polygon","coordinates":[[[130.5875,33.25],[130.575,33.25000000000001],[130.575,33.25833333333333],[130.5875,33.25833333333334],[130.5875,33.25]]]}},{"type":"Feature","id":"40544:49307407","properties":{"id":"40544:49307407","meshCode":"49307407","cityCode":"40544","city":"広川町","lat":33.2541667,"lon":130.59375,"areaKm2":1.0763834,"populated2020":true,"population2020":5.9464,"populationNote":"収録500mメッシュ人口の合算（原典収録外は補完しない）"},"geometry":{"type":"Polygon","coordinates":[[[130.6,33.25],[130.5875,33.25],[130.5875,33.25833333333334],[130.6,33.25833333333333],[130.6,33.25]]]}},{"type":"Feature","id":"40544:49307408","properties":{"id":"40544:49307408","meshCode":"49307408","cityCode":"40544","city":"広川町","lat":33.2541667,"lon":130.60625,"areaKm2":1.076381,"populated2020":false,"population2020":null,"populationNote":"境界またぎ・収録外等のため人口未集計"},"geometry":{"type":"Polygon","coordinates":[[[130.6125,33.25000000000001],[130.6,33.25],[130.6,33.25833333333333],[130.6125,33.25833333333333],[130.6125,33.25000000000001]]]}},{"type":"Feature","id":"40544:49307409","properties":{"id":"40544:49307409","meshCode":"49307409","cityCode":"40544","city":"広川町","lat":33.2538001,"lon":130.6179787,"areaKm2":0.9208943,"populated2020":false,"population2020":null,"populationNote":"境界またぎ・収録外等のため人口未集計"},"geometry":{"type":"Polygon","coordinates":[[[130.623355772,33.254148613],[130.624254112,33.253328613],[130.624514942,33.252825559],[130.625,33.252748063],[130.625,33.25],[130.6125,33.25000000000001],[130.6125,33.25833333333333],[130.61971478590388,33.25833333333333],[130.619802438,33.258075261],[130.620141608,33.257769432],[130.62080799,33.257569153],[130.621292438,33.25717748600001],[130.621684656,33.256388044999994],[130.62248716,33.2554],[130.622467717,33.255232495],[130.622659663,33.254913054000006],[130.623355772,33.254148613]]]}},{"type":"Feature","id":"40544:49307500","properties":{"id":"40544:49307500","meshCode":"49307500","cityCode":"40544","city":"広川町","lat":33.2511286,"lon":130.6260687,"areaKm2":0.0551315,"populated2020":false,"population2020":null,"populationNote":"境界またぎ・収録外等のため人口未集計"},"geometry":{"type":"Polygon","coordinates":[[[130.625036615,33.25274806299999],[130.625417173,33.252867784],[130.625692166,33.252832505],[130.62584022,33.252663622],[130.625833281,33.252332514],[130.627102179,33.25152307200001],[130.6274969,33.250678351],[130.627706602,33.25000000000001],[130.625,33.25],[130.625036615,33.25274806299999]]]}},{"type":"Feature","id":"40544:49307410","properties":{"id":"40544:49307410","meshCode":"49307410","cityCode":"40544","city":"広川町","lat":33.2594658,"lon":130.5115124,"areaKm2":0.0308619,"populated2020":true,"population2020":null,"populationNote":"境界またぎ・収録外等のため人口未集計"},"geometry":{"type":"Polygon","coordinates":[[[130.511894371,33.258333667],[130.511580843,33.25853227900001],[130.51143834,33.258951171],[130.510974734,33.259135054000005],[130.51078778200002,33.25932589200001],[130.510288625,33.259351721],[130.510163061,33.259120892],[130.510057795,33.259109505],[130.510130843,33.259675054000006],[130.510643619,33.259814784],[130.510619728,33.260062837999996],[130.510696122,33.260203946],[130.510451673,33.26048645],[130.510509455,33.260634505000006],[130.510696122,33.26055478399999],[130.511625006,33.259737838],[130.511981673,33.25962950499999],[130.511954449,33.25978644999999],[130.511096952,33.260457837999994],[130.51160972800002,33.260728666999995],[130.511582516,33.260378117],[130.5125,33.25980618945387],[130.5125,33.25833333333334],[130.511894371,33.258333667]]]}},{"type":"Feature","id":"40544:49307411","properties":{"id":"40544:49307411","meshCode":"49307411","cityCode":"40544","city":"広川町","lat":33.2592841,"lon":130.5135063,"areaKm2":0.0905418,"populated2020":true,"population2020":null,"populationNote":"境界またぎ・収録外等のため人口未集計"},"geometry":{"type":"MultiPolygon","coordinates":[[[[130.51699585,33.25847645],[130.51726751,33.25862200900001],[130.517461128,33.258456730000006],[130.517627237,33.258852847],[130.517786965,33.25891839599999],[130.518383074,33.258760342],[130.518600298,33.258780342],[130.518793904,33.258925622],[130.518928067,33.259203676000006],[130.518894176,33.25939173],[130.518284462,33.25980673],[130.518457795,33.260123117],[130.519031686,33.259932009],[130.520603904,33.260895901],[130.521143904,33.26075618],[130.521123632,33.260678955],[130.520665019,33.260602009],[130.519835019,33.25995339600001],[130.519678625,33.259645621999994],[130.519743074,33.25945451399999],[130.52016251600003,33.259142288],[130.520048911,33.258918404999996],[130.519896122,33.258858675999996],[130.519573346,33.259035342],[130.519501958,33.25876173],[130.520522516,33.258555342],[130.5210155763125,33.25833333333334],[130.51697767792515,33.25833333333333],[130.51699585,33.25847645]]],[[[130.51265751,33.259769225],[130.512913619,33.260152838],[130.513541958,33.259651171],[130.514423346,33.259390342],[130.514540571,33.259240613],[130.514633904,33.258515063],[130.51472845673467,33.25833333333333],[130.5125,33.25833333333334],[130.5125,33.25980618945387],[130.51265751,33.259769225]]],[[[130.524137795,33.258727856],[130.523874462,33.258823405],[130.523650298,33.259188126],[130.52322585,33.259165351],[130.523127237,33.259285072],[130.523139183,33.259682567999995],[130.522940571,33.260114514],[130.523381958,33.26048507200001],[130.523067795,33.26111396400001],[130.523203632,33.26138756800001],[130.522896407,33.261976459],[130.523025292,33.262053405],[130.523212244,33.261885072],[130.523242802,33.261693955],[130.523690856,33.26157423400001],[130.52372141400002,33.261451738999995],[130.523577237,33.261239234],[130.523779468,33.260422568],[130.52376418900002,33.26019591],[130.523509468,33.260101739],[130.523521128,33.259983405],[130.524371958,33.259098405],[130.525,33.259215351],[130.525,33.25833333333334],[130.52388079127084,33.25833333333334],[130.524137795,33.258727856]]]]}},{"type":"Feature","id":"40544:49307412","properties":{"id":"40544:49307412","meshCode":"49307412","cityCode":"40544","city":"広川町","lat":33.2604571,"lon":130.5280492,"areaKm2":0.2117306,"populated2020":true,"population2020":null,"populationNote":"境界またぎ・収録外等のため人口未集計"},"geometry":{"type":"MultiPolygon","coordinates":[[[[130.529100830048,33.25833333333333],[130.529192412,33.25861394599999],[130.529373865,33.258499883],[130.529995616,33.258876694],[130.530328418,33.258628027],[130.531175136,33.258634144],[130.531161984012,33.25833333333333],[130.529100830048,33.25833333333333]]],[[[130.525421128,33.259423405],[130.52587613500003,33.25978563100001],[130.526251686,33.259969523],[130.526333074,33.260182856],[130.526482516,33.260291468],[130.526886693,33.260305631],[130.527027523,33.260623414],[130.527399468,33.260718964],[130.527650856,33.260952856],[130.527939468,33.260912856],[130.528248353,33.260698964],[130.528691414,33.260965631000005],[130.529228833,33.261129135000004],[130.529540921,33.261128135],[130.529504643,33.261405135],[130.529717471,33.261401216],[130.529751336,33.26151424299999],[130.529965447,33.261525467999995],[130.529910415,33.261829973000005],[130.529963632,33.26197355],[130.529699274,33.262174189],[130.52988677,33.262277054],[130.531369948,33.262240414000004],[130.531585305,33.26247099999999],[130.531882776,33.26257336],[130.532219053,33.262160919],[130.53193369600004,33.261892558999996],[130.53158642,33.26184508099999],[130.531220026,33.261950640000016],[130.531067639,33.261914946],[130.531109831,33.261520305999994],[130.531430584,33.261582865],[130.53151144,33.261389946],[130.530903113,33.261261162000004],[130.531079702,33.260644027],[130.530340506,33.26060785600001],[130.529984643,33.260275973000006],[130.529844553,33.26035530600001],[130.529958275,33.260434748],[130.529476524,33.260793306000004],[130.529106381,33.260406306],[130.529486498,33.26047955000001],[130.529614475,33.26027035999999],[130.529095863,33.260097027],[130.52828725,33.25966896400001],[130.528355577,33.259443135],[130.528308638,33.258919801999994],[130.527926407,33.258807026999996],[130.528209196,33.258610909999994],[130.52836625193999,33.25833333333333],[130.525,33.25833333333334],[130.525,33.259215351],[130.525421128,33.259423405]]],[[[130.535255201,33.261339252],[130.53537856,33.261347396],[130.535383424,33.26153073],[130.535529481,33.26153509000001],[130.535422815,33.262051198],[130.535322529,33.262131477],[130.535156148,33.261909532],[130.53481476000002,33.261898973],[130.534792257,33.262334919000004],[130.534521089,33.262398144],[130.534552257,33.262649252],[130.534885032,33.262656477],[130.535179481,33.262782036],[130.535461141,33.262767586],[130.536238093,33.262491757],[130.536180597,33.26215675700001],[130.535898651,33.262070918999996],[130.53570670600004,33.261730369],[130.535719481,33.261576198],[130.535935032,33.26129870300001],[130.535960597,33.26090426099999],[130.536063087,33.26081481100001],[130.536355032,33.260824261],[130.53623559,33.26150509],[130.536527808,33.261693144],[130.536619754,33.262450928],[130.537059481,33.262375928000004],[130.537272815,33.26196731500001],[130.5375,33.26188957683105],[130.5375,33.26150469911911],[130.537080597,33.261598144],[130.537100869,33.261405649],[130.536889754,33.26101509],[130.536891699,33.26093092800001],[130.537066706,33.260830369000004],[130.5375,33.260775472075224],[130.5375,33.25833333333333],[130.5341706869883,33.25833333333333],[130.534102257,33.259582586],[130.53546201,33.259650783999994],[130.535255201,33.261339252]]]]}},{"type":"Feature","id":"40544:49307413","properties":{"id":"40544:49307413","meshCode":"49307413","cityCode":"40544","city":"広川町","lat":33.2597892,"lon":130.5434336,"areaKm2":0.3559667,"populated2020":true,"population2020":null,"populationNote":"境界またぎ・収録外等のため人口未集計"},"geometry":{"type":"MultiPolygon","coordinates":[[[[130.545236719,33.260391775],[130.545704215,33.260171216],[130.54593061,33.260149829],[130.546999494,33.260714269999994],[130.547665616,33.260850387],[130.548184228,33.261139],[130.548807562,33.261264278999995],[130.549409222,33.261264278999995],[130.55,33.26151150500001],[130.55,33.25833333333334],[130.5375,33.25833333333333],[130.5375,33.260775472075224],[130.538758379,33.26060731500001],[130.538835318,33.26061815300001],[130.538877821,33.26077231499999],[130.538846991,33.26127482],[130.537705032,33.262357036],[130.537807536,33.26249675700001],[130.539303372,33.263136206999995],[130.539371712,33.262910649],[130.538710039,33.26258815300001],[130.538628923,33.262072315000005],[130.538991712,33.26190731500001],[130.539403658,33.261590099],[130.540464488,33.261706766],[130.541060039,33.261432595],[130.545236719,33.260391775]]],[[[130.537678366,33.261786756999996],[130.537608093,33.26150803600001],[130.537575875,33.261465649],[130.5375,33.26150469911911],[130.5375,33.26188957683105],[130.537678366,33.261786756999996]]]]}},{"type":"Feature","id":"40544:49307414","properties":{"id":"40544:49307414","meshCode":"49307414","cityCode":"40544","city":"広川町","lat":33.2611691,"lon":130.5570111,"areaKm2":0.696386,"populated2020":true,"population2020":null,"populationNote":"境界またぎ・収録外等のため人口未集計"},"geometry":{"type":"Polygon","coordinates":[[[130.550583113,33.261647892000006],[130.551554228,33.26213344100001],[130.553577289,33.262738999999996],[130.553654228,33.26263873],[130.553844228,33.262611784],[130.554223956,33.261970396],[130.554424786,33.262145946],[130.554155901,33.262830396],[130.553976459,33.262830396000005],[130.554019235,33.263009559000004],[130.555028677,33.263416225],[130.556518405,33.264193729999995],[130.556817017,33.264476784],[130.557000623,33.26480650500001],[130.559751738,33.265259838],[130.559832853,33.265027063000005],[130.559764527,33.264482342],[130.560496472,33.26445539600001],[130.560765629,33.264548459],[130.560985357,33.26478318],[130.561565914,33.26478318],[130.562101751,33.265050405],[130.5625,33.26515176768883],[130.5625,33.25833333333333],[130.55,33.25833333333334],[130.55,33.26151150500001],[130.550583113,33.261647892000006]]]}},{"type":"Feature","id":"40544:49307415","properties":{"id":"40544:49307415","meshCode":"49307415","cityCode":"40544","city":"広川町","lat":33.2623692,"lon":130.568919,"areaKm2":1.0389134,"populated2020":false,"population2020":null,"populationNote":"境界またぎ・収録外等のため人口未集計"},"geometry":{"type":"Polygon","coordinates":[[[130.575,33.25833333333333],[130.5625,33.25833333333333],[130.5625,33.26515176768883],[130.563332866,33.265510676],[130.5650362,33.265747350999995],[130.5657362,33.266015964000005],[130.565998703,33.266218459],[130.56620989588188,33.266666666666666],[130.575,33.266666666666666],[130.575,33.25833333333333]]]}},{"type":"Feature","id":"40544:49307416","properties":{"id":"40544:49307416","meshCode":"49307416","cityCode":"40544","city":"広川町","lat":33.2625,"lon":130.58125,"areaKm2":1.076285,"populated2020":false,"population2020":null,"populationNote":"境界またぎ・収録外等のため人口未集計"},"geometry":{"type":"Polygon","coordinates":[[[130.5875,33.25833333333334],[130.575,33.25833333333333],[130.575,33.266666666666666],[130.5875,33.266666666666666],[130.5875,33.25833333333334]]]}},{"type":"Feature","id":"40544:49307417","properties":{"id":"40544:49307417","meshCode":"49307417","cityCode":"40544","city":"広川町","lat":33.2625,"lon":130.59375,"areaKm2":1.0762826,"populated2020":true,"population2020":79.2739,"populationNote":"収録500mメッシュ人口の合算（原典収録外は補完しない）"},"geometry":{"type":"Polygon","coordinates":[[[130.6,33.25833333333333],[130.5875,33.25833333333334],[130.5875,33.266666666666666],[130.6,33.26666666666666],[130.6,33.25833333333333]]]}},{"type":"Feature","id":"40544:49307418","properties":{"id":"40544:49307418","meshCode":"49307418","cityCode":"40544","city":"広川町","lat":33.2625,"lon":130.60625,"areaKm2":1.0762802,"populated2020":true,"population2020":50.4788,"populationNote":"収録500mメッシュ人口の合算（原典収録外は補完しない）"},"geometry":{"type":"Polygon","coordinates":[[[130.6125,33.25833333333333],[130.6,33.25833333333333],[130.6,33.26666666666666],[130.6125,33.26666666666667],[130.6125,33.25833333333333]]]}},{"type":"Feature","id":"40544:49307419","properties":{"id":"40544:49307419","meshCode":"49307419","cityCode":"40544","city":"広川町","lat":33.2622684,"lon":130.6159663,"areaKm2":0.5743313,"populated2020":false,"population2020":null,"populationNote":"境界またぎ・収録外等のため人口未集計"},"geometry":{"type":"Polygon","coordinates":[[[130.620569377,33.262419144],[130.620164656,33.262026090000006],[130.620353826,33.26147581099999],[130.620014384,33.26135691900001],[130.619936602,33.261262198],[130.620143541,33.260569144],[130.619542438,33.260367476999996],[130.61960965,33.26002608999999],[130.619247432,33.259662477],[130.61934799,33.25941164900001],[130.619717432,33.259045261],[130.61971478590388,33.25833333333333],[130.6125,33.25833333333333],[130.6125,33.26666666666667],[130.61959882,33.266666666666666],[130.619851595,33.265947468],[130.620383541,33.265607748],[130.620033541,33.265569135],[130.61922799,33.265678856],[130.61901048,33.26562996399999],[130.618745486,33.26576940499999],[130.618201038,33.265834684999994],[130.61811799,33.266103297],[130.617499377,33.266194964],[130.617214656,33.26579024299999],[130.616541595,33.265420514000006],[130.616477977,33.26531384700001],[130.616493813,33.264763297],[130.616612425,33.26458079300001],[130.616813813,33.264494685],[130.617181038,33.264423577],[130.618064929,33.264046631],[130.618669377,33.263972468],[130.619155486,33.263484414000004],[130.619576044,33.263451919],[130.619789935,33.263349414],[130.619956044,33.263224973],[130.619913826,33.263082468],[130.620555214,33.262549694],[130.620569377,33.262419144]]]}},{"type":"Feature","id":"40544:49307425","properties":{"id":"40544:49307425","meshCode":"49307425","cityCode":"40544","city":"広川町","lat":33.2704867,"lon":130.5711063,"areaKm2":0.6538195,"populated2020":false,"population2020":null,"populationNote":"境界またぎ・収録外等のため人口未集計"},"geometry":{"type":"Polygon","coordinates":[[[130.56620989588188,33.266666666666666],[130.566367873,33.267155685],[130.566147873,33.26797790100001],[130.566145927,33.268592351],[130.567262036,33.27066540500001],[130.567251479,33.271104288],[130.568243709,33.273790126],[130.569118716,33.27425234199999],[130.569699274,33.27427734199999],[130.569919274,33.27435095500002],[130.57026511,33.27460540500001],[130.571271466,33.275],[130.575,33.275],[130.575,33.266666666666666],[130.56620989588188,33.266666666666666]]]}},{"type":"Feature","id":"40544:49307426","properties":{"id":"40544:49307426","meshCode":"49307426","cityCode":"40544","city":"広川町","lat":33.2702378,"lon":130.5793008,"areaKm2":0.6589457,"populated2020":false,"population2020":null,"populationNote":"境界またぎ・収録外等のため人口未集計"},"geometry":{"type":"Polygon","coordinates":[[[130.5818093,33.26769904500001],[130.582133748,33.267702378],[130.582703748,33.26800543200001],[130.5834507,33.267930162],[130.583664034,33.268009045],[130.584003204,33.268347658],[130.584852646,33.26844793699999],[130.585655979,33.268641829],[130.586101543,33.268644883],[130.586809313,33.268445162],[130.587021543,33.268501559],[130.587243761,33.268836829],[130.5875,33.26976848220162],[130.5875,33.266666666666666],[130.575,33.266666666666666],[130.575,33.275],[130.57956358,33.275],[130.579918184,33.27477236],[130.579986511,33.274514306],[130.580505123,33.273688198],[130.581713191,33.272828477],[130.581922361,33.272591811],[130.582065409,33.272260423],[130.5826393,33.271735703],[130.582451803,33.270219874000006],[130.581593748,33.27003348600001],[130.58109847000003,33.268327928],[130.58122013,33.268035712],[130.5818093,33.26769904500001]]]}},{"type":"Feature","id":"40544:49307427","properties":{"id":"40544:49307427","meshCode":"49307427","cityCode":"40544","city":"広川町","lat":33.2696572,"lon":130.5947791,"areaKm2":0.7084035,"populated2020":false,"population2020":null,"populationNote":"境界またぎ・収録外等のため人口未集計"},"geometry":{"type":"Polygon","coordinates":[[[130.5875,33.26976848220162],[130.588026822,33.270585991],[130.588260156,33.270648494999996],[130.588829313,33.270592108],[130.589979598,33.270116],[130.590716822,33.270061000000005],[130.591657108,33.27018573000001],[130.592129053,33.270531559000005],[130.592733217,33.271774613],[130.593424332,33.272678225],[130.593869611,33.272776279],[130.595133217,33.27280434199999],[130.595564332,33.27288156800001],[130.595942672,33.273041847],[130.59666572,33.27361600900001],[130.597234617,33.273414351],[130.597766835,33.273498793],[130.597975175,33.273694631],[130.598238508,33.27433101799999],[130.598066835,33.27493490100001],[130.598823502,33.274593514],[130.6,33.274668838000004],[130.6,33.26666666666666],[130.5875,33.266666666666666],[130.5875,33.26976848220162]]]}},{"type":"Feature","id":"40544:49307428","properties":{"id":"40544:49307428","meshCode":"49307428","cityCode":"40544","city":"広川町","lat":33.2707916,"lon":130.606301,"areaKm2":1.0649722,"populated2020":true,"population2020":6.8836,"populationNote":"収録500mメッシュ人口の合算（原典収録外は補完しない）"},"geometry":{"type":"Polygon","coordinates":[[[130.6125,33.26666666666667],[130.6,33.26666666666666],[130.6,33.274668838000004],[130.602114345,33.27448102700001],[130.602336848,33.274561306],[130.602893956,33.275000000000006],[130.6125,33.275],[130.6125,33.26666666666667]]]}},{"type":"Feature","id":"40544:49307429","properties":{"id":"40544:49307429","meshCode":"49307429","cityCode":"40544","city":"広川町","lat":33.2705311,"lon":130.6155198,"areaKm2":0.506612,"populated2020":false,"population2020":null,"populationNote":"境界またぎ・収録外等のため人口未集計"},"geometry":{"type":"Polygon","coordinates":[[[130.619043813,33.26899607200001],[130.619176316,33.268902739000005],[130.61935325600004,33.268321351],[130.619655486,33.26804384700001],[130.620277432,33.267788577],[130.62095799,33.267751351],[130.62092965,33.267537739000005],[130.620742425,33.26741024299999],[130.620415486,33.267310802],[130.619846316,33.26727218900001],[130.619650208,33.267169685000006],[130.61959882,33.266666666666666],[130.6125,33.26666666666667],[130.6125,33.275],[130.61732454,33.27500000000001],[130.617571595,33.274795775],[130.617810195,33.274512441],[130.61789131,33.274239387],[130.61779770400003,33.273941054],[130.618082425,33.273441333],[130.617817147,33.272580784000006],[130.61784048,33.271843279],[130.617386316,33.27141134200001],[130.617539922,33.270502171000004],[130.617789092,33.27015050499999],[130.618420208,33.269608847],[130.618361868,33.268856622],[130.619043813,33.26899607200001]]]}},{"type":"Feature","id":"40544:49307435","properties":{"id":"40544:49307435","meshCode":"49307435","cityCode":"40544","city":"広川町","lat":33.2754568,"lon":130.5736195,"areaKm2":0.0291746,"populated2020":false,"population2020":null,"populationNote":"境界またぎ・収録外等のため人口未集計"},"geometry":{"type":"Polygon","coordinates":[[[130.57127199700003,33.27500040499999],[130.571724553,33.275304018],[130.573163165,33.275845405],[130.575,33.276305225],[130.575,33.275],[130.57127199700003,33.27500040499999]]]}},{"type":"Feature","id":"40544:49307436","properties":{"id":"40544:49307436","meshCode":"49307436","cityCode":"40544","city":"広川町","lat":33.2756451,"lon":130.5763348,"areaKm2":0.0377328,"populated2020":false,"population2020":null,"populationNote":"境界またぎ・収録外等のため人口未集計"},"geometry":{"type":"Polygon","coordinates":[[[130.575,33.276305225],[130.57562179,33.276626523],[130.575824565,33.277133459],[130.575957069,33.277136793],[130.576099844,33.276651523],[130.57631345,33.276418739],[130.576441505,33.276081802],[130.576729572,33.275822072],[130.577484851,33.275675135000014],[130.577796511,33.275345414],[130.577997069,33.275280964],[130.57956358,33.275],[130.575,33.275],[130.575,33.276305225]]]}},{"type":"Feature","id":"40544:49307438","properties":{"id":"40544:49307438","meshCode":"49307438","cityCode":"40544","city":"広川町","lat":33.2777638,"lon":130.6089958,"areaKm2":0.4430815,"populated2020":false,"population2020":null,"populationNote":"境界またぎ・収録外等のため人口未集計"},"geometry":{"type":"Polygon","coordinates":[[[130.602920182,33.275021027],[130.603489351,33.275433523],[130.604144903,33.276067135000005],[130.605650739,33.278437972999996],[130.606267406,33.279050748],[130.607085746,33.27966935999999],[130.607536304,33.28024936],[130.607789079,33.28043185599999],[130.608556304,33.280716856],[130.609816304,33.280931865],[130.610251025,33.281237694],[130.610867964,33.28111158600001],[130.611217977,33.281141027000004],[130.61148297,33.281426026999995],[130.611657977,33.281768811],[130.611744358,33.282470748],[130.611836304,33.282547694],[130.6125,33.282676284916334],[130.6125,33.275],[130.602920182,33.275021027]]]}},{"type":"Feature","id":"40544:49307439","properties":{"id":"40544:49307439","meshCode":"49307439","cityCode":"40544","city":"広川町","lat":33.2795249,"lon":130.6151861,"areaKm2":0.4209421,"populated2020":false,"population2020":null,"populationNote":"境界またぎ・収録外等のため人口未集計"},"geometry":{"type":"Polygon","coordinates":[[[130.616576031,33.27896827000001],[130.616740752,33.278202153],[130.616444086,33.277344658000004],[130.616459922,33.276197712000005],[130.616560752,33.275949937],[130.61732454,33.27500000000001],[130.6125,33.275],[130.6125,33.282676284916334],[130.613488807,33.28248686500001],[130.613803528,33.282549369],[130.613944916,33.282712423],[130.61416745812622,33.28333333333333],[130.6193242930356,33.28333333333333],[130.618949922,33.28159382],[130.618496031,33.280821044999996],[130.617956861,33.280273541],[130.617258534,33.279894928],[130.616903256,33.279599658],[130.61669131,33.279311874],[130.616576031,33.27896827000001]]]}},{"type":"Feature","id":"40544:49307449","properties":{"id":"40544:49307449","meshCode":"49307449","cityCode":"40544","city":"広川町","lat":33.2843838,"lon":130.6168665,"areaKm2":0.1042791,"populated2020":false,"population2020":null,"populationNote":"境界またぎ・収録外等のため人口未集計"},"geometry":{"type":"Polygon","coordinates":[[[130.618947977,33.28488909000001],[130.619237977,33.28452409],[130.619377704,33.28413382],[130.6193242930356,33.28333333333333],[130.61416745812622,33.28333333333333],[130.614266589,33.28366491900001],[130.614296589,33.28428964],[130.615826861,33.285532972999995],[130.616542698,33.285937694],[130.616754916,33.286178252],[130.61694048,33.28593047700001],[130.618285201,33.285365198],[130.618947977,33.28488909000001]]]}}]}