{"type":"FeatureCollection","metadata":{"cityCode":"40605","city":"川崎町","resolution":500,"boundaryDate":"2026-01-01","populationLabel":"2020年基準人口（国交省調整値）","method":"標準地域メッシュを行政界で切抜き。中心が区域外のとき区域内代表点を判定点にする。人口不明をゼロにしない。"},"features":[{"type":"Feature","id":"40605:503026141","properties":{"id":"40605:503026141","meshCode":"503026141","cityCode":"40605","city":"川崎町","lat":33.5119351,"lon":130.8051951,"areaKm2":0.0227658,"populated2020":false,"population2020":null,"populationNote":"境界またぎ・原典収録外のため自治体内人口は未集計"},"geometry":{"type":"Polygon","coordinates":[[[130.80625,33.51170219335174],[130.804068612,33.511200279],[130.80423403280932,33.5125],[130.80625,33.5125],[130.80625,33.51170219335174]]]}},{"type":"Feature","id":"40605:503026142","properties":{"id":"40605:503026142","meshCode":"503026142","cityCode":"40605","city":"川崎町","lat":33.5110847,"lon":130.8100506,"areaKm2":0.070644,"populated2020":false,"population2020":null,"populationNote":"境界またぎ・原典収録外のため自治体内人口は未集計"},"geometry":{"type":"Polygon","coordinates":[[[130.810729442,33.512481387],[130.811089442,33.510611946],[130.81083917,33.510033892],[130.810335279,33.509671387000004],[130.809136667,33.510861387],[130.808921946,33.511321108],[130.808359442,33.511629441000004],[130.806896394,33.511701108],[130.806614449,33.511774441],[130.80625,33.51170219335174],[130.80625,33.5125],[130.810729442,33.512481387]]]}},{"type":"Feature","id":"40605:503026143","properties":{"id":"40605:503026143","meshCode":"503026143","cityCode":"40605","city":"川崎町","lat":33.5145961,"lon":130.8050806,"areaKm2":0.0921595,"populated2020":false,"population2020":null,"populationNote":"境界またぎ・原典収録外のため自治体内人口は未集計"},"geometry":{"type":"Polygon","coordinates":[[[130.80423403280932,33.5125],[130.804285837,33.51407638700001],[130.803596109,33.51503694600001],[130.803646109,33.515302775],[130.804262776,33.516045829],[130.8042410510697,33.516666666666666],[130.80625,33.51666666666667],[130.80625,33.5125],[130.80423403280932,33.5125]]]}},{"type":"Feature","id":"40605:503026144","properties":{"id":"40605:503026144","meshCode":"503026144","cityCode":"40605","city":"川崎町","lat":33.5145833,"lon":130.809375,"areaKm2":0.2241114,"populated2020":false,"population2020":null,"populationNote":"境界またぎ・原典収録外のため自治体内人口は未集計"},"geometry":{"type":"Polygon","coordinates":[[[130.8125,33.51562917734483],[130.812149442,33.515457495],[130.811722218,33.515393054],[130.811287497,33.51488249500001],[130.810976667,33.514012225],[130.810748885,33.513615279],[130.810884449,33.51274],[130.81074225660126,33.512499999999996],[130.80625,33.5125],[130.80625,33.51666666666667],[130.8125,33.51666666666667],[130.8125,33.51562917734483]]]}},{"type":"Feature","id":"40605:503026153","properties":{"id":"40605:503026153","meshCode":"503026153","cityCode":"40605","city":"川崎町","lat":33.5160329,"lon":130.8129462,"areaKm2":0.010243,"populated2020":false,"population2020":null,"populationNote":"境界またぎ・原典収録外のため自治体内人口は未集計"},"geometry":{"type":"Polygon","coordinates":[[[130.81399499374731,33.51666666666667],[130.813727782,33.516303892],[130.813083333,33.515793333],[130.8125,33.51562917734483],[130.8125,33.51666666666667],[130.81399499374731,33.51666666666667]]]}},{"type":"Feature","id":"40605:503026241","properties":{"id":"40605:503026241","meshCode":"503026241","cityCode":"40605","city":"川崎町","lat":33.5187903,"lon":130.8053365,"areaKm2":0.0920739,"populated2020":false,"population2020":null,"populationNote":"境界またぎ・原典収録外のため自治体内人口は未集計"},"geometry":{"type":"Polygon","coordinates":[[[130.804241051,33.516666667],[130.804102218,33.517001667],[130.803652776,33.517388892],[130.803721115,33.517668054],[130.803963606,33.517867775],[130.804373333,33.518502495],[130.804452218,33.51907416200001],[130.804458054,33.51961833300001],[130.803860558,33.520200559],[130.803792503,33.52035444100001],[130.803843333,33.52074833300001],[130.80388851364813,33.520833333333336],[130.80625,33.52083333333334],[130.80625,33.51666666666667],[130.804241051,33.516666667]]]}},{"type":"Feature","id":"40605:503026242","properties":{"id":"40605:503026242","meshCode":"503026242","cityCode":"40605","city":"川崎町","lat":33.51875,"lon":130.809375,"areaKm2":0.268286,"populated2020":false,"population2020":null,"populationNote":"境界またぎ・原典収録外のため自治体内人口は未集計"},"geometry":{"type":"Polygon","coordinates":[[[130.80625,33.51666666666667],[130.80625,33.52083333333334],[130.8125,33.520833333333336],[130.8125,33.51666666666667],[130.80625,33.51666666666667]]]}},{"type":"Feature","id":"40605:503026251","properties":{"id":"40605:503026251","meshCode":"503026251","cityCode":"40605","city":"川崎町","lat":33.51875,"lon":130.815625,"areaKm2":0.2251284,"populated2020":false,"population2020":null,"populationNote":"境界またぎ・原典収録外のため自治体内人口は未集計"},"geometry":{"type":"Polygon","coordinates":[[[130.818608638,33.517640135],[130.817367497,33.51781444099999],[130.816745279,33.51777194600001],[130.814769442,33.517338613],[130.814318327,33.51703027900001],[130.81399499374731,33.51666666666667],[130.8125,33.51666666666667],[130.8125,33.520833333333336],[130.81875,33.520833333333336],[130.81875,33.517691036730746],[130.818608638,33.517640135]]]}},{"type":"Feature","id":"40605:503026252","properties":{"id":"40605:503026252","meshCode":"503026252","cityCode":"40605","city":"川崎町","lat":33.51875,"lon":130.821875,"areaKm2":0.145371,"populated2020":false,"population2020":null,"populationNote":"境界またぎ・原典収録外のため自治体内人口は未集計"},"geometry":{"type":"Polygon","coordinates":[[[130.825,33.519843667],[130.823118054,33.519341108],[130.821408612,33.517894441],[130.821074721,33.517813053999994],[130.819975279,33.51791666700001],[130.819385837,33.517880559],[130.81875,33.517691036730746],[130.81875,33.520833333333336],[130.825,33.520833333333336],[130.825,33.519843667]]]}},{"type":"Feature","id":"40605:503026261","properties":{"id":"40605:503026261","meshCode":"503026261","cityCode":"40605","city":"川崎町","lat":33.5204846,"lon":130.8255896,"areaKm2":0.0098138,"populated2020":false,"population2020":null,"populationNote":"境界またぎ・原典収録外のため自治体内人口は未集計"},"geometry":{"type":"Polygon","coordinates":[[[130.826894449,33.520821387000005],[130.82585166,33.520315829],[130.82534083,33.51995749500001],[130.825,33.519843667],[130.825,33.520833333333336],[130.826894449,33.520821387000005]]]}},{"type":"Feature","id":"40605:503026243","properties":{"id":"40605:503026243","meshCode":"503026243","cityCode":"40605","city":"川崎町","lat":33.5229817,"lon":130.8052347,"areaKm2":0.0872803,"populated2020":false,"population2020":null,"populationNote":"境界またぎ・原典収録外のため自治体内人口は未集計"},"geometry":{"type":"Polygon","coordinates":[[[130.80388851364813,33.520833333333336],[130.804268612,33.521640279],[130.804055837,33.522135279],[130.804211946,33.52278916200001],[130.804306939,33.524331108000005],[130.80457,33.525],[130.80625,33.525],[130.80625,33.52083333333334],[130.80388851364813,33.520833333333336]]]}},{"type":"Feature","id":"40605:503026244","properties":{"id":"40605:503026244","meshCode":"503026244","cityCode":"40605","city":"川崎町","lat":33.5229167,"lon":130.809375,"areaKm2":0.2682733,"populated2020":false,"population2020":null,"populationNote":"境界またぎ・原典収録外のため自治体内人口は未集計"},"geometry":{"type":"Polygon","coordinates":[[[130.80625,33.52083333333334],[130.80625,33.525],[130.8125,33.525],[130.8125,33.520833333333336],[130.80625,33.52083333333334]]]}},{"type":"Feature","id":"40605:503026253","properties":{"id":"40605:503026253","meshCode":"503026253","cityCode":"40605","city":"川崎町","lat":33.5229167,"lon":130.815625,"areaKm2":0.2682732,"populated2020":false,"population2020":null,"populationNote":"境界またぎ・原典収録外のため自治体内人口は未集計"},"geometry":{"type":"Polygon","coordinates":[[[130.8125,33.520833333333336],[130.8125,33.525],[130.81875,33.525],[130.81875,33.520833333333336],[130.8125,33.520833333333336]]]}},{"type":"Feature","id":"40605:503026254","properties":{"id":"40605:503026254","meshCode":"503026254","cityCode":"40605","city":"川崎町","lat":33.5229167,"lon":130.821875,"areaKm2":0.268273,"populated2020":false,"population2020":null,"populationNote":"境界またぎ・原典収録外のため自治体内人口は未集計"},"geometry":{"type":"Polygon","coordinates":[[[130.81875,33.520833333333336],[130.81875,33.525],[130.825,33.525],[130.825,33.520833333333336],[130.81875,33.520833333333336]]]}},{"type":"Feature","id":"40605:503026263","properties":{"id":"40605:503026263","meshCode":"503026263","cityCode":"40605","city":"川崎町","lat":33.522621,"lon":130.8262012,"areaKm2":0.1067413,"populated2020":false,"population2020":null,"populationNote":"境界またぎ・原典収録外のため自治体内人口は未集計"},"geometry":{"type":"Polygon","coordinates":[[[130.828084475,33.525000000000006],[130.827488054,33.523403613000006],[130.827346394,33.521950559],[130.827087782,33.520909162],[130.82692371457404,33.52083333333334],[130.825,33.520833333333336],[130.825,33.525],[130.828084475,33.525000000000006]]]}},{"type":"Feature","id":"40605:503026341","properties":{"id":"40605:503026341","meshCode":"503026341","cityCode":"40605","city":"川崎町","lat":33.5273637,"lon":130.8056068,"areaKm2":0.053813,"populated2020":false,"population2020":null,"populationNote":"境界またぎ・原典収録外のため自治体内人口は未集計"},"geometry":{"type":"Polygon","coordinates":[[[130.80457,33.525],[130.804828327,33.525666108],[130.804691946,33.52644055900001],[130.80517083,33.528197774999995],[130.805544994,33.528705829],[130.80569671919068,33.52916666666667],[130.80625,33.529166666666676],[130.80625,33.525],[130.80457,33.525]]]}},{"type":"Feature","id":"40605:503026342","properties":{"id":"40605:503026342","meshCode":"503026342","cityCode":"40605","city":"川崎町","lat":33.5270833,"lon":130.809375,"areaKm2":0.2682606,"populated2020":true,"population2020":1.0042,"populationNote":"2020年基準の国交省調整値"},"geometry":{"type":"Polygon","coordinates":[[[130.80625,33.525],[130.80625,33.529166666666676],[130.8125,33.52916666666667],[130.8125,33.525],[130.80625,33.525]]]}},{"type":"Feature","id":"40605:503026351","properties":{"id":"40605:503026351","meshCode":"503026351","cityCode":"40605","city":"川崎町","lat":33.5270833,"lon":130.815625,"areaKm2":0.2682605,"populated2020":false,"population2020":null,"populationNote":"境界またぎ・原典収録外のため自治体内人口は未集計"},"geometry":{"type":"Polygon","coordinates":[[[130.8125,33.525],[130.8125,33.52916666666667],[130.81875,33.52916666666667],[130.81875,33.525],[130.8125,33.525]]]}},{"type":"Feature","id":"40605:503026352","properties":{"id":"40605:503026352","meshCode":"503026352","cityCode":"40605","city":"川崎町","lat":33.5270833,"lon":130.821875,"areaKm2":0.2682604,"populated2020":false,"population2020":null,"populationNote":"境界またぎ・原典収録外のため自治体内人口は未集計"},"geometry":{"type":"Polygon","coordinates":[[[130.81875,33.525],[130.81875,33.52916666666667],[130.825,33.52916666666667],[130.825,33.525],[130.81875,33.525]]]}},{"type":"Feature","id":"40605:503026361","properties":{"id":"40605:503026361","meshCode":"503026361","cityCode":"40605","city":"川崎町","lat":33.5270833,"lon":130.828125,"areaKm2":0.1606257,"populated2020":false,"population2020":null,"populationNote":"境界またぎ・原典収録外のため自治体内人口は未集計"},"geometry":{"type":"Polygon","coordinates":[[[130.83004670408667,33.52916666666667],[130.829538054,33.528848892],[130.829074449,33.528270559],[130.828594994,33.526362495],[130.828078327,33.525975559],[130.827881115,33.525662225],[130.828191946,33.52527027900001],[130.828084475,33.525000000000006],[130.825,33.525],[130.825,33.52916666666667],[130.83004670408667,33.52916666666667]]]}},{"type":"Feature","id":"40605:503026343","properties":{"id":"40605:503026343","meshCode":"503026343","cityCode":"40605","city":"川崎町","lat":33.5323036,"lon":130.8057285,"areaKm2":0.0245061,"populated2020":false,"population2020":null,"populationNote":"境界またぎ・原典収録外のため自治体内人口は未集計"},"geometry":{"type":"MultiPolygon","coordinates":[[[[130.805706667,33.52920194600001],[130.805943333,33.529947494999995],[130.806014163,33.530686387],[130.806126939,33.53094000000001],[130.80625,33.53100176405716],[130.80625,33.529166666666676],[130.805706667,33.52920194600001]]],[[[130.806229728,33.531520559],[130.806055551,33.531630829],[130.805444994,33.53174277499999],[130.805314163,33.531847495],[130.805228612,33.531996387],[130.8050866669923,33.53333333333334],[130.80625,33.53333333333334],[130.806229728,33.531520559]]]]}},{"type":"Feature","id":"40605:503026344","properties":{"id":"40605:503026344","meshCode":"503026344","cityCode":"40605","city":"川崎町","lat":33.53125,"lon":130.809375,"areaKm2":0.2675654,"populated2020":false,"population2020":null,"populationNote":"境界またぎ・原典収録外のため自治体内人口は未集計"},"geometry":{"type":"Polygon","coordinates":[[[130.80625,33.53100176405716],[130.806476109,33.531219441],[130.80625,33.531492882313984],[130.80625,33.53333333333334],[130.8125,33.53333333333333],[130.8125,33.52916666666667],[130.80625,33.529166666666676],[130.80625,33.53100176405716]]]}},{"type":"Feature","id":"40605:503026353","properties":{"id":"40605:503026353","meshCode":"503026353","cityCode":"40605","city":"川崎町","lat":33.53125,"lon":130.815625,"areaKm2":0.2682478,"populated2020":false,"population2020":null,"populationNote":"境界またぎ・原典収録外のため自治体内人口は未集計"},"geometry":{"type":"Polygon","coordinates":[[[130.8125,33.52916666666667],[130.8125,33.53333333333333],[130.81875,33.533333333333324],[130.81875,33.52916666666667],[130.8125,33.52916666666667]]]}},{"type":"Feature","id":"40605:503026354","properties":{"id":"40605:503026354","meshCode":"503026354","cityCode":"40605","city":"川崎町","lat":33.53125,"lon":130.821875,"areaKm2":0.2682477,"populated2020":true,"population2020":24.4129,"populationNote":"2020年基準の国交省調整値"},"geometry":{"type":"Polygon","coordinates":[[[130.81875,33.52916666666667],[130.81875,33.533333333333324],[130.825,33.533333333333324],[130.825,33.52916666666667],[130.81875,33.52916666666667]]]}},{"type":"Feature","id":"40605:503026363","properties":{"id":"40605:503026363","meshCode":"503026363","cityCode":"40605","city":"川崎町","lat":33.53125,"lon":130.828125,"areaKm2":0.2581084,"populated2020":false,"population2020":null,"populationNote":"境界またぎ・原典収録外のため自治体内人口は未集計"},"geometry":{"type":"Polygon","coordinates":[[[130.831221388,33.53143166699999],[130.830893333,33.531231108],[130.830854721,33.531103892],[130.83083083,33.530789162],[130.83096917,33.53034638700001],[130.830933606,33.52992361300001],[130.830533606,33.529418054],[130.83004670408667,33.52916666666667],[130.825,33.52916666666667],[130.825,33.533333333333324],[130.83125,33.53333333333334],[130.831221388,33.53143166699999]]]}},{"type":"Feature","id":"40605:503026364","properties":{"id":"40605:503026364","meshCode":"503026364","cityCode":"40605","city":"川崎町","lat":33.5323717,"lon":130.8314019,"areaKm2":0.0044561,"populated2020":false,"population2020":null,"populationNote":"境界またぎ・原典収録外のため自治体内人口は未集計"},"geometry":{"type":"Polygon","coordinates":[[[130.83147786,33.53333333300001],[130.831425279,33.532919721],[130.831599442,33.532099162],[130.831373333,33.531554162000006],[130.83125,33.53145282092479],[130.83125,33.53333333333334],[130.83147786,33.53333333300001]]]}},{"type":"Feature","id":"40605:503026441","properties":{"id":"40605:503026441","meshCode":"503026441","cityCode":"40605","city":"川崎町","lat":33.537321,"lon":130.8057949,"areaKm2":0.0137972,"populated2020":false,"population2020":null,"populationNote":"境界またぎ・原典収録外のため自治体内人口は未集計"},"geometry":{"type":"MultiPolygon","coordinates":[[[[130.8050866669923,33.53333333333334],[130.805229442,33.533892495],[130.80625,33.5347524661077],[130.80625,33.53333333333334],[130.8050866669923,33.53333333333334]]],[[[130.80625,33.537113026348266],[130.80521861200003,33.537341108],[130.80495170876856,33.53750000000001],[130.80625,33.5375],[130.80625,33.537113026348266]]]]}},{"type":"Feature","id":"40605:503026442","properties":{"id":"40605:503026442","meshCode":"503026442","cityCode":"40605","city":"川崎町","lat":33.5354167,"lon":130.809375,"areaKm2":0.2617237,"populated2020":false,"population2020":null,"populationNote":"境界またぎ・原典収録外のため自治体内人口は未集計"},"geometry":{"type":"Polygon","coordinates":[[[130.806339442,33.534895829],[130.806532776,33.536089999999994],[130.806714449,33.536586946],[130.806678885,33.536843892],[130.80625,33.537113026348266],[130.80625,33.5375],[130.8125,33.5375],[130.8125,33.53333333333333],[130.80625,33.53333333333334],[130.80625,33.5347524661077],[130.806339442,33.534895829]]]}},{"type":"Feature","id":"40605:503026451","properties":{"id":"40605:503026451","meshCode":"503026451","cityCode":"40605","city":"川崎町","lat":33.5354167,"lon":130.815625,"areaKm2":0.2682351,"populated2020":false,"population2020":null,"populationNote":"境界またぎ・原典収録外のため自治体内人口は未集計"},"geometry":{"type":"Polygon","coordinates":[[[130.8125,33.53333333333333],[130.8125,33.5375],[130.81875,33.5375],[130.81875,33.533333333333324],[130.8125,33.53333333333333]]]}},{"type":"Feature","id":"40605:503026452","properties":{"id":"40605:503026452","meshCode":"503026452","cityCode":"40605","city":"川崎町","lat":33.5354167,"lon":130.821875,"areaKm2":0.268235,"populated2020":true,"population2020":14.2757,"populationNote":"2020年基準の国交省調整値"},"geometry":{"type":"Polygon","coordinates":[[[130.81875,33.533333333333324],[130.81875,33.5375],[130.825,33.53750000000001],[130.825,33.533333333333324],[130.81875,33.533333333333324]]]}},{"type":"Feature","id":"40605:503026461","properties":{"id":"40605:503026461","meshCode":"503026461","cityCode":"40605","city":"川崎町","lat":33.5354167,"lon":130.828125,"areaKm2":0.2681293,"populated2020":false,"population2020":null,"populationNote":"境界またぎ・原典収録外のため自治体内人口は未集計"},"geometry":{"type":"Polygon","coordinates":[[[130.83125,33.53750000000001],[130.83125,33.53333333333334],[130.825,33.533333333333324],[130.825,33.53750000000001],[130.83125,33.53750000000001]]]}},{"type":"Feature","id":"40605:503026462","properties":{"id":"40605:503026462","meshCode":"503026462","cityCode":"40605","city":"川崎町","lat":33.5346458,"lon":130.8315997,"areaKm2":0.0171417,"populated2020":false,"population2020":null,"populationNote":"境界またぎ・原典収録外のため自治体内人口は未集計"},"geometry":{"type":"MultiPolygon","coordinates":[[[[130.831967782,33.537470279000004],[130.831735837,33.53700582900001],[130.83125,33.5364126027439],[130.83125,33.53750000000001],[130.831967782,33.537470279000004]]],[[[130.83125,33.53607021061336],[130.83187722400004,33.534942224999995],[130.83195917,33.534582225],[130.831934994,33.534198054],[130.831556939,33.53368694600001],[130.83147786005608,33.53333333333333],[130.83125,33.53333333333334],[130.83125,33.53607021061336]]]]}},{"type":"Feature","id":"40605:503026443","properties":{"id":"40605:503026443","meshCode":"503026443","cityCode":"40605","city":"川崎町","lat":33.5395332,"lon":130.804868,"areaKm2":0.1136638,"populated2020":false,"population2020":null,"populationNote":"境界またぎ・原典収録外のため自治体内人口は未集計"},"geometry":{"type":"Polygon","coordinates":[[[130.804933061,33.537515829],[130.803613333,33.538491666999995],[130.803444994,33.539281667],[130.80351527900004,33.539760559],[130.803443061,33.540515000000006],[130.803114994,33.54109082899999],[130.8030937739431,33.54166666666667],[130.80625,33.54166666666667],[130.80625,33.5375],[130.804933061,33.537515829]]]}},{"type":"Feature","id":"40605:503026444","properties":{"id":"40605:503026444","meshCode":"503026444","cityCode":"40605","city":"川崎町","lat":33.5395833,"lon":130.809375,"areaKm2":0.2682226,"populated2020":false,"population2020":null,"populationNote":"境界またぎ・原典収録外のため自治体内人口は未集計"},"geometry":{"type":"Polygon","coordinates":[[[130.80625,33.5375],[130.80625,33.54166666666667],[130.8125,33.541666666666664],[130.8125,33.5375],[130.80625,33.5375]]]}},{"type":"Feature","id":"40605:503026453","properties":{"id":"40605:503026453","meshCode":"503026453","cityCode":"40605","city":"川崎町","lat":33.5395833,"lon":130.815625,"areaKm2":0.2682224,"populated2020":false,"population2020":null,"populationNote":"境界またぎ・原典収録外のため自治体内人口は未集計"},"geometry":{"type":"Polygon","coordinates":[[[130.8125,33.5375],[130.8125,33.541666666666664],[130.81875,33.54166666666667],[130.81875,33.5375],[130.8125,33.5375]]]}},{"type":"Feature","id":"40605:503026454","properties":{"id":"40605:503026454","meshCode":"503026454","cityCode":"40605","city":"川崎町","lat":33.5395833,"lon":130.821875,"areaKm2":0.2682223,"populated2020":true,"population2020":31.4593,"populationNote":"2020年基準の国交省調整値"},"geometry":{"type":"Polygon","coordinates":[[[130.81875,33.5375],[130.81875,33.54166666666667],[130.825,33.541666666666664],[130.825,33.53750000000001],[130.81875,33.5375]]]}},{"type":"Feature","id":"40605:503026463","properties":{"id":"40605:503026463","meshCode":"503026463","cityCode":"40605","city":"川崎町","lat":33.5395833,"lon":130.828125,"areaKm2":0.2682222,"populated2020":false,"population2020":null,"populationNote":"境界またぎ・原典収録外のため自治体内人口は未集計"},"geometry":{"type":"Polygon","coordinates":[[[130.825,33.53750000000001],[130.825,33.541666666666664],[130.83125,33.541666666666664],[130.83125,33.53750000000001],[130.825,33.53750000000001]]]}},{"type":"Feature","id":"40605:503026464","properties":{"id":"40605:503026464","meshCode":"503026464","cityCode":"40605","city":"川崎町","lat":33.5396494,"lon":130.8314926,"areaKm2":0.0258149,"populated2020":true,"population2020":null,"populationNote":"境界またぎ・原典収録外のため自治体内人口は未集計"},"geometry":{"type":"Polygon","coordinates":[[[130.832177224,33.541475279],[130.832104163,33.541019721],[130.831698054,33.540303054000006],[130.83185917,33.53874027900001],[130.831694449,33.53803889200001],[130.8319573720445,33.53750000000001],[130.83125,33.53750000000001],[130.83125,33.541666666666664],[130.83231988275153,33.541666666666664],[130.832177224,33.541475279]]]}},{"type":"Feature","id":"40605:503026541","properties":{"id":"40605:503026541","meshCode":"503026541","cityCode":"40605","city":"川崎町","lat":33.543691,"lon":130.8049376,"areaKm2":0.1269872,"populated2020":false,"population2020":null,"populationNote":"境界またぎ・原典収録外のため自治体内人口は未集計"},"geometry":{"type":"Polygon","coordinates":[[[130.803093774,33.541666667],[130.803293891,33.54258527900001],[130.803721946,33.543425],[130.803475551,33.543917775],[130.80280558967044,33.545833333333334],[130.80625,33.545833333333334],[130.80625,33.54166666666667],[130.803093774,33.541666667]]]}},{"type":"Feature","id":"40605:503026542","properties":{"id":"40605:503026542","meshCode":"503026542","cityCode":"40605","city":"川崎町","lat":33.54375,"lon":130.809375,"areaKm2":0.2682099,"populated2020":false,"population2020":null,"populationNote":"境界またぎ・原典収録外のため自治体内人口は未集計"},"geometry":{"type":"Polygon","coordinates":[[[130.80625,33.54166666666667],[130.80625,33.545833333333334],[130.8125,33.545833333333334],[130.8125,33.541666666666664],[130.80625,33.54166666666667]]]}},{"type":"Feature","id":"40605:503026551","properties":{"id":"40605:503026551","meshCode":"503026551","cityCode":"40605","city":"川崎町","lat":33.54375,"lon":130.815625,"areaKm2":0.2682097,"populated2020":false,"population2020":null,"populationNote":"境界またぎ・原典収録外のため自治体内人口は未集計"},"geometry":{"type":"Polygon","coordinates":[[[130.8125,33.541666666666664],[130.8125,33.545833333333334],[130.81875,33.545833333333334],[130.81875,33.54166666666667],[130.8125,33.541666666666664]]]}},{"type":"Feature","id":"40605:503026552","properties":{"id":"40605:503026552","meshCode":"503026552","cityCode":"40605","city":"川崎町","lat":33.54375,"lon":130.821875,"areaKm2":0.2682096,"populated2020":true,"population2020":55.9809,"populationNote":"2020年基準の国交省調整値"},"geometry":{"type":"Polygon","coordinates":[[[130.81875,33.54166666666667],[130.81875,33.545833333333334],[130.825,33.545833333333334],[130.825,33.541666666666664],[130.81875,33.54166666666667]]]}},{"type":"Feature","id":"40605:503026561","properties":{"id":"40605:503026561","meshCode":"503026561","cityCode":"40605","city":"川崎町","lat":33.54375,"lon":130.828125,"areaKm2":0.2682095,"populated2020":false,"population2020":null,"populationNote":"境界またぎ・原典収録外のため自治体内人口は未集計"},"geometry":{"type":"Polygon","coordinates":[[[130.825,33.541666666666664],[130.825,33.545833333333334],[130.83125,33.545833333333334],[130.83125,33.541666666666664],[130.825,33.541666666666664]]]}},{"type":"Feature","id":"40605:503026562","properties":{"id":"40605:503026562","meshCode":"503026562","cityCode":"40605","city":"川崎町","lat":33.5437386,"lon":130.8314813,"areaKm2":0.0300603,"populated2020":false,"population2020":null,"populationNote":"境界またぎ・原典収録外のため自治体内人口は未集計"},"geometry":{"type":"Polygon","coordinates":[[[130.8315262449242,33.545833333333334],[130.831398054,33.545423613],[130.831573061,33.545021108],[130.831545279,33.544052494999995],[130.831742503,33.54369277499999],[130.832422503,33.542925279],[130.832697497,33.542421108],[130.832668885,33.542171946],[130.83231988275153,33.541666666666664],[130.83125,33.541666666666664],[130.83125,33.545833333333334],[130.8315262449242,33.545833333333334]]]}},{"type":"Feature","id":"40605:503026534","properties":{"id":"40605:503026534","meshCode":"503026534","cityCode":"40605","city":"川崎町","lat":33.5496283,"lon":130.7998953,"areaKm2":0.0016183,"populated2020":false,"population2020":null,"populationNote":"境界またぎ・原典収録外のため自治体内人口は未集計"},"geometry":{"type":"Polygon","coordinates":[[[130.8,33.549220279000004],[130.799691115,33.549834162],[130.79957808,33.55],[130.8,33.54999999999999],[130.8,33.549220279000004]]]}},{"type":"Feature","id":"40605:503026543","properties":{"id":"40605:503026543","meshCode":"503026543","cityCode":"40605","city":"川崎町","lat":33.5479167,"lon":130.803125,"areaKm2":0.2033135,"populated2020":false,"population2020":null,"populationNote":"境界またぎ・原典収録外のため自治体内人口は未集計"},"geometry":{"type":"Polygon","coordinates":[[[130.802792503,33.545870829],[130.802533891,33.54647889200001],[130.802668612,33.547234162],[130.802117224,33.547553892],[130.80137083,33.548123892],[130.800683061,33.548873333],[130.800084721,33.54908916200001],[130.8,33.549220279000004],[130.8,33.54999999999999],[130.80625,33.55],[130.80625,33.545833333333334],[130.802792503,33.545870829]]]}},{"type":"Feature","id":"40605:503026544","properties":{"id":"40605:503026544","meshCode":"503026544","cityCode":"40605","city":"川崎町","lat":33.5479167,"lon":130.809375,"areaKm2":0.2681972,"populated2020":true,"population2020":2.0279,"populationNote":"2020年基準の国交省調整値"},"geometry":{"type":"Polygon","coordinates":[[[130.80625,33.545833333333334],[130.80625,33.55],[130.8125,33.55],[130.8125,33.545833333333334],[130.80625,33.545833333333334]]]}},{"type":"Feature","id":"40605:503026553","properties":{"id":"40605:503026553","meshCode":"503026553","cityCode":"40605","city":"川崎町","lat":33.5479167,"lon":130.815625,"areaKm2":0.268197,"populated2020":false,"population2020":null,"populationNote":"境界またぎ・原典収録外のため自治体内人口は未集計"},"geometry":{"type":"Polygon","coordinates":[[[130.8125,33.545833333333334],[130.8125,33.55],[130.81875,33.55],[130.81875,33.545833333333334],[130.8125,33.545833333333334]]]}},{"type":"Feature","id":"40605:503026554","properties":{"id":"40605:503026554","meshCode":"503026554","cityCode":"40605","city":"川崎町","lat":33.5479167,"lon":130.821875,"areaKm2":0.2681969,"populated2020":true,"population2020":43.6911,"populationNote":"2020年基準の国交省調整値"},"geometry":{"type":"Polygon","coordinates":[[[130.81875,33.545833333333334],[130.81875,33.55],[130.825,33.55],[130.825,33.545833333333334],[130.81875,33.545833333333334]]]}},{"type":"Feature","id":"40605:503026563","properties":{"id":"40605:503026563","meshCode":"503026563","cityCode":"40605","city":"川崎町","lat":33.5479167,"lon":130.828125,"areaKm2":0.2426593,"populated2020":false,"population2020":null,"populationNote":"境界またぎ・原典収録外のため自治体内人口は未集計"},"geometry":{"type":"Polygon","coordinates":[[[130.830877419,33.55],[130.83018,33.54769889200001],[130.830497497,33.547006667000005],[130.83125,33.54637092029036],[130.83125,33.545833333333334],[130.825,33.545833333333334],[130.825,33.55],[130.830877419,33.55]]]}},{"type":"Feature","id":"40605:503026564","properties":{"id":"40605:503026564","meshCode":"503026564","cityCode":"40605","city":"川崎町","lat":33.5460792,"lon":130.8313841,"areaKm2":0.0011319,"populated2020":false,"population2020":null,"populationNote":"境界またぎ・原典収録外のため自治体内人口は未集計"},"geometry":{"type":"Polygon","coordinates":[[[130.831442218,33.546174162],[130.8315262449242,33.545833333333334],[130.83125,33.545833333333334],[130.83125,33.54637092029036],[130.831442218,33.546174162]]]}},{"type":"Feature","id":"40605:503026632","properties":{"id":"40605:503026632","meshCode":"503026632","cityCode":"40605","city":"川崎町","lat":33.552136,"lon":130.7987697,"areaKm2":0.1178092,"populated2020":false,"population2020":null,"populationNote":"境界またぎ・原典収録外のため自治体内人口は未集計"},"geometry":{"type":"Polygon","coordinates":[[[130.8,33.54999999999999],[130.798533891,33.55019889199999],[130.798163606,33.550428054],[130.79780083,33.550781387],[130.797688327,33.551985279],[130.797317224,33.552415278999995],[130.797177497,33.552881667],[130.79598972800002,33.55336194600001],[130.79566083,33.553830559],[130.79556272737307,33.55416666666667],[130.8,33.55416666666667],[130.8,33.54999999999999]]]}},{"type":"Feature","id":"40605:503026641","properties":{"id":"40605:503026641","meshCode":"503026641","cityCode":"40605","city":"川崎町","lat":33.5520833,"lon":130.803125,"areaKm2":0.2681846,"populated2020":false,"population2020":null,"populationNote":"境界またぎ・原典収録外のため自治体内人口は未集計"},"geometry":{"type":"Polygon","coordinates":[[[130.8,33.54999999999999],[130.8,33.55416666666667],[130.80625,33.55416666666667],[130.80625,33.55],[130.8,33.54999999999999]]]}},{"type":"Feature","id":"40605:503026642","properties":{"id":"40605:503026642","meshCode":"503026642","cityCode":"40605","city":"川崎町","lat":33.5520833,"lon":130.809375,"areaKm2":0.2681845,"populated2020":true,"population2020":15.2472,"populationNote":"2020年基準の国交省調整値"},"geometry":{"type":"Polygon","coordinates":[[[130.80625,33.55],[130.80625,33.55416666666667],[130.8125,33.55416666666667],[130.8125,33.55],[130.80625,33.55]]]}},{"type":"Feature","id":"40605:503026651","properties":{"id":"40605:503026651","meshCode":"503026651","cityCode":"40605","city":"川崎町","lat":33.5520833,"lon":130.815625,"areaKm2":0.2681843,"populated2020":false,"population2020":null,"populationNote":"境界またぎ・原典収録外のため自治体内人口は未集計"},"geometry":{"type":"Polygon","coordinates":[[[130.8125,33.55],[130.8125,33.55416666666667],[130.81875,33.55416666666666],[130.81875,33.55],[130.8125,33.55]]]}},{"type":"Feature","id":"40605:503026652","properties":{"id":"40605:503026652","meshCode":"503026652","cityCode":"40605","city":"川崎町","lat":33.5520833,"lon":130.821875,"areaKm2":0.2681842,"populated2020":true,"population2020":59.8549,"populationNote":"2020年基準の国交省調整値"},"geometry":{"type":"Polygon","coordinates":[[[130.81875,33.55],[130.81875,33.55416666666666],[130.825,33.55416666666666],[130.825,33.55],[130.81875,33.55]]]}},{"type":"Feature","id":"40605:503026661","properties":{"id":"40605:503026661","meshCode":"503026661","cityCode":"40605","city":"川崎町","lat":33.5520833,"lon":130.828125,"areaKm2":0.2546231,"populated2020":true,"population2020":30.493,"populationNote":"2020年基準の国交省調整値"},"geometry":{"type":"Polygon","coordinates":[[[130.83125,33.55272757228961],[130.830670558,33.551544441],[130.83052166,33.550823892000004],[130.830877419,33.55],[130.825,33.55],[130.825,33.55416666666666],[130.83125,33.55416666666666],[130.83125,33.55272757228961]]]}},{"type":"Feature","id":"40605:503026662","properties":{"id":"40605:503026662","meshCode":"503026662","cityCode":"40605","city":"川崎町","lat":33.5534144,"lon":130.831503,"areaKm2":0.0083824,"populated2020":false,"population2020":null,"populationNote":"境界またぎ・原典収録外のため自治体内人口は未集計"},"geometry":{"type":"Polygon","coordinates":[[[130.832355837,33.554006667],[130.831468054,33.553161946],[130.83125,33.55272757228961],[130.83125,33.55416666666666],[130.83239785679126,33.55416666666666],[130.832355837,33.554006667]]]}},{"type":"Feature","id":"40605:503026633","properties":{"id":"40605:503026633","meshCode":"503026633","cityCode":"40605","city":"川崎町","lat":33.5565815,"lon":130.792673,"areaKm2":0.054385,"populated2020":false,"population2020":null,"populationNote":"境界またぎ・原典収録外のため自治体内人口は未集計"},"geometry":{"type":"Polygon","coordinates":[[[130.79375,33.5552446318873],[130.792909728,33.555957775],[130.791533891,33.556083333],[130.791624449,33.557236667],[130.79159263306616,33.55833333333334],[130.79375,33.55833333333334],[130.79375,33.5552446318873]]]}},{"type":"Feature","id":"40605:503026634","properties":{"id":"40605:503026634","meshCode":"503026634","cityCode":"40605","city":"川崎町","lat":33.55625,"lon":130.796875,"areaKm2":0.255829,"populated2020":false,"population2020":null,"populationNote":"境界またぎ・原典収録外のため自治体内人口は未集計"},"geometry":{"type":"Polygon","coordinates":[[[130.79556272737307,33.55416666666667],[130.795408612,33.554461946],[130.795179728,33.55461],[130.79375,33.5552446318873],[130.79375,33.55833333333334],[130.8,33.558333333333344],[130.8,33.55416666666667],[130.79556272737307,33.55416666666667]]]}},{"type":"Feature","id":"40605:503026643","properties":{"id":"40605:503026643","meshCode":"503026643","cityCode":"40605","city":"川崎町","lat":33.55625,"lon":130.803125,"areaKm2":0.2681719,"populated2020":true,"population2020":6.0894,"populationNote":"2020年基準の国交省調整値"},"geometry":{"type":"Polygon","coordinates":[[[130.8,33.55416666666667],[130.8,33.558333333333344],[130.80625,33.55833333333334],[130.80625,33.55416666666667],[130.8,33.55416666666667]]]}},{"type":"Feature","id":"40605:503026644","properties":{"id":"40605:503026644","meshCode":"503026644","cityCode":"40605","city":"川崎町","lat":33.55625,"lon":130.809375,"areaKm2":0.2681718,"populated2020":true,"population2020":25.4852,"populationNote":"2020年基準の国交省調整値"},"geometry":{"type":"Polygon","coordinates":[[[130.80625,33.55416666666667],[130.80625,33.55833333333334],[130.8125,33.558333333333344],[130.8125,33.55416666666667],[130.80625,33.55416666666667]]]}},{"type":"Feature","id":"40605:503026653","properties":{"id":"40605:503026653","meshCode":"503026653","cityCode":"40605","city":"川崎町","lat":33.55625,"lon":130.815625,"areaKm2":0.2681717,"populated2020":true,"population2020":15.2543,"populationNote":"2020年基準の国交省調整値"},"geometry":{"type":"Polygon","coordinates":[[[130.8125,33.55416666666667],[130.8125,33.558333333333344],[130.81875,33.55833333333334],[130.81875,33.55416666666666],[130.8125,33.55416666666667]]]}},{"type":"Feature","id":"40605:503026654","properties":{"id":"40605:503026654","meshCode":"503026654","cityCode":"40605","city":"川崎町","lat":33.55625,"lon":130.821875,"areaKm2":0.2681715,"populated2020":true,"population2020":14.2078,"populationNote":"2020年基準の国交省調整値"},"geometry":{"type":"Polygon","coordinates":[[[130.81875,33.55416666666666],[130.81875,33.55833333333334],[130.825,33.558333333333344],[130.825,33.55416666666666],[130.81875,33.55416666666666]]]}},{"type":"Feature","id":"40605:503026663","properties":{"id":"40605:503026663","meshCode":"503026663","cityCode":"40605","city":"川崎町","lat":33.55625,"lon":130.828125,"areaKm2":0.2681714,"populated2020":true,"population2020":25.4012,"populationNote":"2020年基準の国交省調整値"},"geometry":{"type":"Polygon","coordinates":[[[130.825,33.55416666666666],[130.825,33.558333333333344],[130.83125,33.55833333333334],[130.83125,33.55416666666666],[130.825,33.55416666666666]]]}},{"type":"Feature","id":"40605:503026664","properties":{"id":"40605:503026664","meshCode":"503026664","cityCode":"40605","city":"川崎町","lat":33.5562461,"lon":130.831641,"areaKm2":0.0310154,"populated2020":false,"population2020":null,"populationNote":"境界またぎ・原典収録外のため自治体内人口は未集計"},"geometry":{"type":"Polygon","coordinates":[[[130.832080558,33.55833333299999],[130.832155551,33.557927775],[130.831927497,33.556686946],[130.832061388,33.55581],[130.831549728,33.55525166700001],[130.831518054,33.554941387],[130.831788327,33.554658892],[130.832213333,33.55457194600001],[130.83239917,33.55417166699999],[130.83125,33.55416666666666],[130.83125,33.55833333333334],[130.832080558,33.55833333299999]]]}},{"type":"Feature","id":"40605:503026731","properties":{"id":"40605:503026731","meshCode":"503026731","cityCode":"40605","city":"川崎町","lat":33.5603682,"lon":130.7930163,"areaKm2":0.0994962,"populated2020":true,"population2020":null,"populationNote":"境界またぎ・原典収録外のため自治体内人口は未集計"},"geometry":{"type":"Polygon","coordinates":[[[130.79159263306616,33.55833333333334],[130.792313891,33.560306667],[130.791925279,33.56076861299999],[130.791843333,33.56121222499999],[130.791703061,33.561312225],[130.791001946,33.561398333],[130.790727951,33.561864332999995],[130.78949166,33.56192],[130.7893495703261,33.562500000000014],[130.79375,33.562500000000014],[130.79375,33.55833333333334],[130.79159263306616,33.55833333333334]]]}},{"type":"Feature","id":"40605:503026732","properties":{"id":"40605:503026732","meshCode":"503026732","cityCode":"40605","city":"川崎町","lat":33.5604167,"lon":130.796875,"areaKm2":0.2681594,"populated2020":true,"population2020":5.0734,"populationNote":"2020年基準の国交省調整値"},"geometry":{"type":"Polygon","coordinates":[[[130.79375,33.55833333333334],[130.79375,33.562500000000014],[130.8,33.56250000000001],[130.8,33.558333333333344],[130.79375,33.55833333333334]]]}},{"type":"Feature","id":"40605:503026741","properties":{"id":"40605:503026741","meshCode":"503026741","cityCode":"40605","city":"川崎町","lat":33.5604167,"lon":130.803125,"areaKm2":0.2681592,"populated2020":false,"population2020":null,"populationNote":"境界またぎ・原典収録外のため自治体内人口は未集計"},"geometry":{"type":"Polygon","coordinates":[[[130.8,33.558333333333344],[130.8,33.56250000000001],[130.80625,33.56250000000002],[130.80625,33.55833333333334],[130.8,33.558333333333344]]]}},{"type":"Feature","id":"40605:503026742","properties":{"id":"40605:503026742","meshCode":"503026742","cityCode":"40605","city":"川崎町","lat":33.5604167,"lon":130.809375,"areaKm2":0.2681591,"populated2020":true,"population2020":2.0419,"populationNote":"2020年基準の国交省調整値"},"geometry":{"type":"Polygon","coordinates":[[[130.80625,33.55833333333334],[130.80625,33.56250000000002],[130.8125,33.56250000000001],[130.8125,33.558333333333344],[130.80625,33.55833333333334]]]}},{"type":"Feature","id":"40605:503026751","properties":{"id":"40605:503026751","meshCode":"503026751","cityCode":"40605","city":"川崎町","lat":33.5604167,"lon":130.815625,"areaKm2":0.268159,"populated2020":true,"population2020":3.0431,"populationNote":"2020年基準の国交省調整値"},"geometry":{"type":"Polygon","coordinates":[[[130.8125,33.558333333333344],[130.8125,33.56250000000001],[130.81875,33.56250000000001],[130.81875,33.55833333333334],[130.8125,33.558333333333344]]]}},{"type":"Feature","id":"40605:503026752","properties":{"id":"40605:503026752","meshCode":"503026752","cityCode":"40605","city":"川崎町","lat":33.5604167,"lon":130.821875,"areaKm2":0.2681588,"populated2020":true,"population2020":27.5255,"populationNote":"2020年基準の国交省調整値"},"geometry":{"type":"Polygon","coordinates":[[[130.81875,33.55833333333334],[130.81875,33.56250000000001],[130.825,33.56250000000001],[130.825,33.558333333333344],[130.81875,33.55833333333334]]]}},{"type":"Feature","id":"40605:503026761","properties":{"id":"40605:503026761","meshCode":"503026761","cityCode":"40605","city":"川崎町","lat":33.5604167,"lon":130.828125,"areaKm2":0.2681587,"populated2020":true,"population2020":50.5836,"populationNote":"2020年基準の国交省調整値"},"geometry":{"type":"Polygon","coordinates":[[[130.825,33.558333333333344],[130.825,33.56250000000001],[130.83125,33.562500000000014],[130.83125,33.55833333333334],[130.825,33.558333333333344]]]}},{"type":"Feature","id":"40605:503026762","properties":{"id":"40605:503026762","meshCode":"503026762","cityCode":"40605","city":"川崎町","lat":33.5604818,"lon":130.8318668,"areaKm2":0.0450131,"populated2020":true,"population2020":null,"populationNote":"境界またぎ・原典収録外のため自治体内人口は未集計"},"geometry":{"type":"Polygon","coordinates":[[[130.83199316223866,33.562500000000014],[130.832133333,33.561706387],[130.832016939,33.561040279000004],[130.832393061,33.56065805400001],[130.832737497,33.55980777500001],[130.832507497,33.559236946],[130.832074721,33.558603892],[130.83208055792622,33.55833333333334],[130.83125,33.55833333333334],[130.83125,33.562500000000014],[130.83199316223866,33.562500000000014]]]}},{"type":"Feature","id":"40605:503026724","properties":{"id":"40605:503026724","meshCode":"503026724","cityCode":"40605","city":"川崎町","lat":33.56649,"lon":130.7873295,"areaKm2":0.0012093,"populated2020":true,"population2020":null,"populationNote":"境界またぎ・原典収録外のため自治体内人口は未集計"},"geometry":{"type":"Polygon","coordinates":[[[130.78749166,33.566263613000004],[130.787370558,33.566398891999995],[130.7869142542636,33.56666666666668],[130.7875,33.56666666666668],[130.78749166,33.566263613000004]]]}},{"type":"Feature","id":"40605:503026733","properties":{"id":"40605:503026733","meshCode":"503026733","cityCode":"40605","city":"川崎町","lat":33.5645833,"lon":130.790625,"areaKm2":0.219923,"populated2020":true,"population2020":2.0257,"populationNote":"2020年基準の国交省調整値"},"geometry":{"type":"Polygon","coordinates":[[[130.789349442,33.56250138699999],[130.789278054,33.562628333],[130.788965551,33.562712775],[130.788792503,33.562975559],[130.789039728,33.563978054],[130.789045279,33.564495],[130.788888612,33.564998054],[130.788697224,33.565262775],[130.788021946,33.565833054],[130.787866939,33.56615416199999],[130.787728327,33.566250829000005],[130.7875,33.566262478145205],[130.7875,33.56666666666668],[130.79375,33.56666666666668],[130.79375,33.562500000000014],[130.789349442,33.56250138699999]]]}},{"type":"Feature","id":"40605:503026734","properties":{"id":"40605:503026734","meshCode":"503026734","cityCode":"40605","city":"川崎町","lat":33.5645833,"lon":130.796875,"areaKm2":0.2681467,"populated2020":true,"population2020":13.1618,"populationNote":"2020年基準の国交省調整値"},"geometry":{"type":"Polygon","coordinates":[[[130.79375,33.562500000000014],[130.79375,33.56666666666668],[130.8,33.56666666666668],[130.8,33.56250000000001],[130.79375,33.562500000000014]]]}},{"type":"Feature","id":"40605:503026743","properties":{"id":"40605:503026743","meshCode":"503026743","cityCode":"40605","city":"川崎町","lat":33.5645833,"lon":130.803125,"areaKm2":0.2681465,"populated2020":false,"population2020":null,"populationNote":"境界またぎ・原典収録外のため自治体内人口は未集計"},"geometry":{"type":"Polygon","coordinates":[[[130.8,33.56250000000001],[130.8,33.56666666666668],[130.80625,33.56666666666668],[130.80625,33.56250000000002],[130.8,33.56250000000001]]]}},{"type":"Feature","id":"40605:503026744","properties":{"id":"40605:503026744","meshCode":"503026744","cityCode":"40605","city":"川崎町","lat":33.5645833,"lon":130.809375,"areaKm2":0.2681464,"populated2020":false,"population2020":null,"populationNote":"境界またぎ・原典収録外のため自治体内人口は未集計"},"geometry":{"type":"Polygon","coordinates":[[[130.80625,33.56250000000002],[130.80625,33.56666666666668],[130.8125,33.56666666666668],[130.8125,33.56250000000001],[130.80625,33.56250000000002]]]}},{"type":"Feature","id":"40605:503026753","properties":{"id":"40605:503026753","meshCode":"503026753","cityCode":"40605","city":"川崎町","lat":33.5645833,"lon":130.815625,"areaKm2":0.2681463,"populated2020":false,"population2020":null,"populationNote":"境界またぎ・原典収録外のため自治体内人口は未集計"},"geometry":{"type":"Polygon","coordinates":[[[130.8125,33.56250000000001],[130.8125,33.56666666666668],[130.81875,33.56666666666668],[130.81875,33.56250000000001],[130.8125,33.56250000000001]]]}},{"type":"Feature","id":"40605:503026754","properties":{"id":"40605:503026754","meshCode":"503026754","cityCode":"40605","city":"川崎町","lat":33.5645833,"lon":130.821875,"areaKm2":0.2681461,"populated2020":true,"population2020":2.0279,"populationNote":"2020年基準の国交省調整値"},"geometry":{"type":"Polygon","coordinates":[[[130.81875,33.56250000000001],[130.81875,33.56666666666668],[130.825,33.56666666666668],[130.825,33.56250000000001],[130.81875,33.56250000000001]]]}},{"type":"Feature","id":"40605:503026763","properties":{"id":"40605:503026763","meshCode":"503026763","cityCode":"40605","city":"川崎町","lat":33.5645833,"lon":130.828125,"areaKm2":0.258758,"populated2020":true,"population2020":140.5573,"populationNote":"2020年基準の国交省調整値"},"geometry":{"type":"Polygon","coordinates":[[[130.830992218,33.564348892],[130.830640272,33.563535559],[130.830564449,33.563151387],[130.830615279,33.56297527899999],[130.830822218,33.562787775000004],[130.83125,33.56267850614763],[130.83125,33.562500000000014],[130.825,33.56250000000001],[130.825,33.56666666666668],[130.83125,33.56666666666668],[130.83125,33.564630068698236],[130.830992218,33.564348892]]]}},{"type":"Feature","id":"40605:503026764","properties":{"id":"40605:503026764","meshCode":"503026764","cityCode":"40605","city":"川崎町","lat":33.5626001,"lon":130.8315901,"areaKm2":0.0085988,"populated2020":true,"population2020":null,"populationNote":"境界またぎ・原典収録外のため自治体内人口は未集計"},"geometry":{"type":"MultiPolygon","coordinates":[[[[130.83214824893457,33.56666666666668],[130.831454994,33.56560222499999],[130.83125,33.564630068698236],[130.83125,33.56666666666668],[130.83214824893457,33.56666666666668]]],[[[130.83125,33.56267850614763],[130.831903333,33.562620279],[130.83199316223866,33.562500000000014],[130.83125,33.562500000000014],[130.83125,33.56267850614763]]]]}},{"type":"Feature","id":"40605:503026822","properties":{"id":"40605:503026822","meshCode":"503026822","cityCode":"40605","city":"川崎町","lat":33.5684413,"lon":130.7864047,"areaKm2":0.0523744,"populated2020":false,"population2020":null,"populationNote":"境界またぎ・原典収録外のため自治体内人口は未集計"},"geometry":{"type":"Polygon","coordinates":[[[130.78514444900003,33.568310279],[130.785678327,33.568876387],[130.78635083,33.569141387],[130.78648832700003,33.569523892],[130.78681083,33.56993666700001],[130.787040558,33.570095279],[130.7875,33.57023459916486],[130.7875,33.56666666666668],[130.7869142542636,33.56666666666668],[130.786778054,33.566838613],[130.786005551,33.567248333],[130.78529861200002,33.568207225],[130.78514444900003,33.568310279]]]}},{"type":"Feature","id":"40605:503026831","properties":{"id":"40605:503026831","meshCode":"503026831","cityCode":"40605","city":"川崎町","lat":33.56875,"lon":130.790625,"areaKm2":0.2612255,"populated2020":false,"population2020":null,"populationNote":"境界またぎ・原典収録外のため自治体内人口は未集計"},"geometry":{"type":"Polygon","coordinates":[[[130.7875,33.57023459916486],[130.788658327,33.570420559000006],[130.78899441054202,33.57083333333333],[130.79375,33.57083333333333],[130.79375,33.56666666666668],[130.7875,33.56666666666668],[130.7875,33.57023459916486]]]}},{"type":"Feature","id":"40605:503026832","properties":{"id":"40605:503026832","meshCode":"503026832","cityCode":"40605","city":"川崎町","lat":33.56875,"lon":130.796875,"areaKm2":0.268134,"populated2020":false,"population2020":null,"populationNote":"境界またぎ・原典収録外のため自治体内人口は未集計"},"geometry":{"type":"Polygon","coordinates":[[[130.79375,33.56666666666668],[130.79375,33.57083333333333],[130.8,33.57083333333333],[130.8,33.56666666666668],[130.79375,33.56666666666668]]]}},{"type":"Feature","id":"40605:503026841","properties":{"id":"40605:503026841","meshCode":"503026841","cityCode":"40605","city":"川崎町","lat":33.56875,"lon":130.803125,"areaKm2":0.2681338,"populated2020":false,"population2020":null,"populationNote":"境界またぎ・原典収録外のため自治体内人口は未集計"},"geometry":{"type":"Polygon","coordinates":[[[130.8,33.56666666666668],[130.8,33.57083333333333],[130.80625,33.57083333333333],[130.80625,33.56666666666668],[130.8,33.56666666666668]]]}},{"type":"Feature","id":"40605:503026842","properties":{"id":"40605:503026842","meshCode":"503026842","cityCode":"40605","city":"川崎町","lat":33.56875,"lon":130.809375,"areaKm2":0.2681337,"populated2020":true,"population2020":32.5442,"populationNote":"2020年基準の国交省調整値"},"geometry":{"type":"Polygon","coordinates":[[[130.80625,33.56666666666668],[130.80625,33.57083333333333],[130.8125,33.57083333333333],[130.8125,33.56666666666668],[130.80625,33.56666666666668]]]}},{"type":"Feature","id":"40605:503026851","properties":{"id":"40605:503026851","meshCode":"503026851","cityCode":"40605","city":"川崎町","lat":33.56875,"lon":130.815625,"areaKm2":0.2681336,"populated2020":true,"population2020":131.1655,"populationNote":"2020年基準の国交省調整値"},"geometry":{"type":"Polygon","coordinates":[[[130.8125,33.56666666666668],[130.8125,33.57083333333333],[130.81875,33.57083333333333],[130.81875,33.56666666666668],[130.8125,33.56666666666668]]]}},{"type":"Feature","id":"40605:503026852","properties":{"id":"40605:503026852","meshCode":"503026852","cityCode":"40605","city":"川崎町","lat":33.56875,"lon":130.821875,"areaKm2":0.2681334,"populated2020":true,"population2020":40.784,"populationNote":"2020年基準の国交省調整値"},"geometry":{"type":"Polygon","coordinates":[[[130.81875,33.56666666666668],[130.81875,33.57083333333333],[130.825,33.57083333333333],[130.825,33.56666666666668],[130.81875,33.56666666666668]]]}},{"type":"Feature","id":"40605:503026861","properties":{"id":"40605:503026861","meshCode":"503026861","cityCode":"40605","city":"川崎町","lat":33.56875,"lon":130.828125,"areaKm2":0.2681333,"populated2020":true,"population2020":91.4477,"populationNote":"2020年基準の国交省調整値"},"geometry":{"type":"Polygon","coordinates":[[[130.825,33.56666666666668],[130.825,33.57083333333333],[130.83125,33.57083333333333],[130.83125,33.56666666666668],[130.825,33.56666666666668]]]}},{"type":"Feature","id":"40605:503026862","properties":{"id":"40605:503026862","meshCode":"503026862","cityCode":"40605","city":"川崎町","lat":33.56875,"lon":130.834375,"areaKm2":0.1653481,"populated2020":true,"population2020":11.2651,"populationNote":"2020年基準の国交省調整値"},"geometry":{"type":"Polygon","coordinates":[[[130.8375,33.569337199149686],[130.837088612,33.569323054],[130.836677782,33.569829441],[130.836490272,33.569810829],[130.835840272,33.569276386999995],[130.83535166,33.56863194600001],[130.834485837,33.56817833299999],[130.832206109,33.567376108],[130.832134994,33.567252225],[130.83214824893457,33.56666666666668],[130.83125,33.56666666666668],[130.83125,33.57083333333333],[130.8375,33.57083333333333],[130.8375,33.569337199149686]]]}},{"type":"Feature","id":"40605:503026871","properties":{"id":"40605:503026871","meshCode":"503026871","cityCode":"40605","city":"川崎町","lat":33.5700504,"lon":130.8380881,"areaKm2":0.0157108,"populated2020":true,"population2020":null,"populationNote":"境界またぎ・原典収録外のため自治体内人口は未集計"},"geometry":{"type":"Polygon","coordinates":[[[130.83868393898206,33.57083333333333],[130.838698885,33.570137775000006],[130.838528612,33.569790829],[130.838212218,33.56956138700001],[130.8375,33.569337199149686],[130.8375,33.57083333333333],[130.83868393898206,33.57083333333333]]]}},{"type":"Feature","id":"40605:503026833","properties":{"id":"40605:503026833","meshCode":"503026833","cityCode":"40605","city":"川崎町","lat":33.5729167,"lon":130.790625,"areaKm2":0.1170298,"populated2020":false,"population2020":null,"populationNote":"境界またぎ・原典収録外のため自治体内人口は未集計"},"geometry":{"type":"Polygon","coordinates":[[[130.78899441054202,33.57083333333333],[130.789397224,33.571597774999994],[130.789639728,33.572636667],[130.789437497,33.573032495],[130.790775279,33.572977225],[130.791605551,33.573325829],[130.792341388,33.57339110800001],[130.792736667,33.573707495],[130.793285837,33.574453613],[130.79375,33.57467944601604],[130.79375,33.57083333333333],[130.78899441054202,33.57083333333333]]]}},{"type":"Feature","id":"40605:503026834","properties":{"id":"40605:503026834","meshCode":"503026834","cityCode":"40605","city":"川崎町","lat":33.5729167,"lon":130.796875,"areaKm2":0.2659896,"populated2020":true,"population2020":35.5596,"populationNote":"2020年基準の国交省調整値"},"geometry":{"type":"Polygon","coordinates":[[[130.79375,33.57467944601604],[130.794613333,33.574870829000005],[130.794873696,33.575],[130.8,33.574999999999996],[130.8,33.57083333333333],[130.79375,33.57083333333333],[130.79375,33.57467944601604]]]}},{"type":"Feature","id":"40605:503026843","properties":{"id":"40605:503026843","meshCode":"503026843","cityCode":"40605","city":"川崎町","lat":33.5729167,"lon":130.803125,"areaKm2":0.2681211,"populated2020":true,"population2020":16.287,"populationNote":"2020年基準の国交省調整値"},"geometry":{"type":"Polygon","coordinates":[[[130.8,33.57083333333333],[130.8,33.574999999999996],[130.80625,33.575],[130.80625,33.57083333333333],[130.8,33.57083333333333]]]}},{"type":"Feature","id":"40605:503026844","properties":{"id":"40605:503026844","meshCode":"503026844","cityCode":"40605","city":"川崎町","lat":33.5729167,"lon":130.809375,"areaKm2":0.268121,"populated2020":true,"population2020":61.2122,"populationNote":"2020年基準の国交省調整値"},"geometry":{"type":"Polygon","coordinates":[[[130.80625,33.57083333333333],[130.80625,33.575],[130.8125,33.575],[130.8125,33.57083333333333],[130.80625,33.57083333333333]]]}},{"type":"Feature","id":"40605:503026853","properties":{"id":"40605:503026853","meshCode":"503026853","cityCode":"40605","city":"川崎町","lat":33.5729167,"lon":130.815625,"areaKm2":0.2681209,"populated2020":true,"population2020":142.7346,"populationNote":"2020年基準の国交省調整値"},"geometry":{"type":"Polygon","coordinates":[[[130.8125,33.57083333333333],[130.8125,33.575],[130.81875,33.574999999999996],[130.81875,33.57083333333333],[130.8125,33.57083333333333]]]}},{"type":"Feature","id":"40605:503026854","properties":{"id":"40605:503026854","meshCode":"503026854","cityCode":"40605","city":"川崎町","lat":33.5729167,"lon":130.821875,"areaKm2":0.2681207,"populated2020":true,"population2020":158.2517,"populationNote":"2020年基準の国交省調整値"},"geometry":{"type":"Polygon","coordinates":[[[130.81875,33.57083333333333],[130.81875,33.574999999999996],[130.825,33.575],[130.825,33.57083333333333],[130.81875,33.57083333333333]]]}},{"type":"Feature","id":"40605:503026863","properties":{"id":"40605:503026863","meshCode":"503026863","cityCode":"40605","city":"川崎町","lat":33.5729167,"lon":130.828125,"areaKm2":0.2681206,"populated2020":true,"population2020":108.1537,"populationNote":"2020年基準の国交省調整値"},"geometry":{"type":"Polygon","coordinates":[[[130.825,33.57083333333333],[130.825,33.575],[130.83125,33.575],[130.83125,33.57083333333333],[130.825,33.57083333333333]]]}},{"type":"Feature","id":"40605:503026864","properties":{"id":"40605:503026864","meshCode":"503026864","cityCode":"40605","city":"川崎町","lat":33.5729167,"lon":130.834375,"areaKm2":0.2468503,"populated2020":true,"population2020":6.1189,"populationNote":"2020年基準の国交省調整値"},"geometry":{"type":"Polygon","coordinates":[[[130.836652866,33.57500000000001],[130.836625551,33.574359162],[130.836447782,33.573946108],[130.836648885,33.573113054],[130.836810558,33.572816667],[130.8375,33.572538487562376],[130.8375,33.57083333333333],[130.83125,33.57083333333333],[130.83125,33.575],[130.836652866,33.57500000000001]]]}},{"type":"Feature","id":"40605:503026873","properties":{"id":"40605:503026873","meshCode":"503026873","cityCode":"40605","city":"川崎町","lat":33.5716518,"lon":130.8379221,"areaKm2":0.0134345,"populated2020":true,"population2020":null,"populationNote":"境界またぎ・原典収録外のため自治体内人口は未集計"},"geometry":{"type":"Polygon","coordinates":[[[130.837515837,33.572530829],[130.83789166,33.572277225],[130.838458054,33.571487225],[130.83868393898206,33.57083333333333],[130.8375,33.57083333333333],[130.837515837,33.572530829]]]}},{"type":"Feature","id":"40605:503026931","properties":{"id":"40605:503026931","meshCode":"503026931","cityCode":"40605","city":"川崎町","lat":33.5777521,"lon":130.7933787,"areaKm2":0.0153017,"populated2020":false,"population2020":null,"populationNote":"境界またぎ・原典収録外のため自治体内人口は未集計"},"geometry":{"type":"Polygon","coordinates":[[[130.793734163,33.57650944099999],[130.79305583700003,33.57727916200001],[130.793004994,33.57787416199999],[130.79287138800004,33.578195279],[130.793032776,33.57873166700001],[130.79375,33.57893859065328],[130.793734163,33.57650944099999]]]}},{"type":"Feature","id":"40605:503026932","properties":{"id":"40605:503026932","meshCode":"503026932","cityCode":"40605","city":"川崎町","lat":33.5770833,"lon":130.796875,"areaKm2":0.2546583,"populated2020":false,"population2020":null,"populationNote":"境界またぎ・原典収録外のため自治体内人口は未集計"},"geometry":{"type":"Polygon","coordinates":[[[130.7949,33.575014162],[130.795224994,33.575185],[130.795223891,33.575480559],[130.794841388,33.575588333],[130.794306394,33.57602],[130.793929442,33.57615833300001],[130.79375,33.57648929253514],[130.79375,33.57893859065328],[130.79410761662004,33.57916666666666],[130.8,33.57916666666666],[130.8,33.574999999999996],[130.7949,33.575014162]]]}},{"type":"Feature","id":"40605:503026941","properties":{"id":"40605:503026941","meshCode":"503026941","cityCode":"40605","city":"川崎町","lat":33.5770833,"lon":130.803125,"areaKm2":0.2681084,"populated2020":false,"population2020":null,"populationNote":"境界またぎ・原典収録外のため自治体内人口は未集計"},"geometry":{"type":"Polygon","coordinates":[[[130.8,33.574999999999996],[130.8,33.57916666666666],[130.80625,33.57916666666666],[130.80625,33.575],[130.8,33.574999999999996]]]}},{"type":"Feature","id":"40605:503026942","properties":{"id":"40605:503026942","meshCode":"503026942","cityCode":"40605","city":"川崎町","lat":33.5770833,"lon":130.809375,"areaKm2":0.2681083,"populated2020":true,"population2020":5.0607,"populationNote":"2020年基準の国交省調整値"},"geometry":{"type":"Polygon","coordinates":[[[130.80625,33.575],[130.80625,33.57916666666666],[130.8125,33.579166666666666],[130.8125,33.575],[130.80625,33.575]]]}},{"type":"Feature","id":"40605:503026951","properties":{"id":"40605:503026951","meshCode":"503026951","cityCode":"40605","city":"川崎町","lat":33.5770833,"lon":130.815625,"areaKm2":0.2681082,"populated2020":true,"population2020":108.8625,"populationNote":"2020年基準の国交省調整値"},"geometry":{"type":"Polygon","coordinates":[[[130.8125,33.575],[130.8125,33.579166666666666],[130.81875,33.57916666666666],[130.81875,33.574999999999996],[130.8125,33.575]]]}},{"type":"Feature","id":"40605:503026952","properties":{"id":"40605:503026952","meshCode":"503026952","cityCode":"40605","city":"川崎町","lat":33.5770833,"lon":130.821875,"areaKm2":0.268108,"populated2020":false,"population2020":null,"populationNote":"境界またぎ・原典収録外のため自治体内人口は未集計"},"geometry":{"type":"Polygon","coordinates":[[[130.81875,33.574999999999996],[130.81875,33.57916666666666],[130.825,33.579166666666666],[130.825,33.575],[130.81875,33.574999999999996]]]}},{"type":"Feature","id":"40605:503026961","properties":{"id":"40605:503026961","meshCode":"503026961","cityCode":"40605","city":"川崎町","lat":33.5770833,"lon":130.828125,"areaKm2":0.2681079,"populated2020":true,"population2020":3.0385,"populationNote":"2020年基準の国交省調整値"},"geometry":{"type":"Polygon","coordinates":[[[130.825,33.575],[130.825,33.579166666666666],[130.83125,33.57916666666666],[130.83125,33.575],[130.825,33.575]]]}},{"type":"Feature","id":"40605:503026962","properties":{"id":"40605:503026962","meshCode":"503026962","cityCode":"40605","city":"川崎町","lat":33.5770833,"lon":130.834375,"areaKm2":0.2462827,"populated2020":true,"population2020":1.0162,"populationNote":"2020年基準の国交省調整値"},"geometry":{"type":"Polygon","coordinates":[[[130.8372431596754,33.579166666666666],[130.8375,33.57861822096098],[130.8375,33.57831564482323],[130.83713166,33.577958333000005],[130.837090272,33.577574162],[130.836759442,33.57708777500001],[130.836884449,33.576477495],[130.836680558,33.575862495],[130.836652866,33.57500000000001],[130.83125,33.575],[130.83125,33.57916666666666],[130.8372431596754,33.579166666666666]]]}},{"type":"Feature","id":"40605:503026971","properties":{"id":"40605:503026971","meshCode":"503026971","cityCode":"40605","city":"川崎町","lat":33.5785022,"lon":130.837518,"areaKm2":7.87e-05,"populated2020":true,"population2020":null,"populationNote":"境界またぎ・原典収録外のため自治体内人口は未集計"},"geometry":{"type":"Polygon","coordinates":[[[130.8375,33.57861822096098],[130.837542218,33.57845833299999],[130.8375,33.57831564482323],[130.8375,33.57861822096098]]]}},{"type":"Feature","id":"40605:503026934","properties":{"id":"40605:503026934","meshCode":"503026934","cityCode":"40605","city":"川崎町","lat":33.5812872,"lon":130.7985858,"areaKm2":0.1386139,"populated2020":false,"population2020":null,"populationNote":"境界またぎ・原典収録外のため自治体内人口は未集計"},"geometry":{"type":"Polygon","coordinates":[[[130.794144721,33.57919833300001],[130.794231115,33.579348333000006],[130.79480166,33.579655],[130.79513166,33.579923054],[130.796071388,33.580065559],[130.797052503,33.581020559],[130.797443061,33.581930279000005],[130.797898054,33.582240279],[130.797955551,33.582361108],[130.79795214000393,33.58333333333334],[130.8,33.583333333333336],[130.8,33.57916666666666],[130.794144721,33.57919833300001]]]}},{"type":"Feature","id":"40605:503026943","properties":{"id":"40605:503026943","meshCode":"503026943","cityCode":"40605","city":"川崎町","lat":33.58125,"lon":130.803125,"areaKm2":0.2680957,"populated2020":true,"population2020":1.0095,"populationNote":"2020年基準の国交省調整値"},"geometry":{"type":"Polygon","coordinates":[[[130.8,33.57916666666666],[130.8,33.583333333333336],[130.80625,33.583333333333336],[130.80625,33.57916666666666],[130.8,33.57916666666666]]]}},{"type":"Feature","id":"40605:503026944","properties":{"id":"40605:503026944","meshCode":"503026944","cityCode":"40605","city":"川崎町","lat":33.58125,"lon":130.809375,"areaKm2":0.2680956,"populated2020":true,"population2020":167.3546,"populationNote":"2020年基準の国交省調整値"},"geometry":{"type":"Polygon","coordinates":[[[130.80625,33.57916666666666],[130.80625,33.583333333333336],[130.8125,33.583333333333336],[130.8125,33.579166666666666],[130.80625,33.57916666666666]]]}},{"type":"Feature","id":"40605:503026953","properties":{"id":"40605:503026953","meshCode":"503026953","cityCode":"40605","city":"川崎町","lat":33.58125,"lon":130.815625,"areaKm2":0.2680955,"populated2020":true,"population2020":363.2501,"populationNote":"2020年基準の国交省調整値"},"geometry":{"type":"Polygon","coordinates":[[[130.8125,33.579166666666666],[130.8125,33.583333333333336],[130.81875,33.58333333333334],[130.81875,33.57916666666666],[130.8125,33.579166666666666]]]}},{"type":"Feature","id":"40605:503026954","properties":{"id":"40605:503026954","meshCode":"503026954","cityCode":"40605","city":"川崎町","lat":33.58125,"lon":130.821875,"areaKm2":0.2680953,"populated2020":true,"population2020":17.3704,"populationNote":"2020年基準の国交省調整値"},"geometry":{"type":"Polygon","coordinates":[[[130.81875,33.57916666666666],[130.81875,33.58333333333334],[130.825,33.583333333333336],[130.825,33.579166666666666],[130.81875,33.57916666666666]]]}},{"type":"Feature","id":"40605:503026963","properties":{"id":"40605:503026963","meshCode":"503026963","cityCode":"40605","city":"川崎町","lat":33.58125,"lon":130.828125,"areaKm2":0.2680952,"populated2020":true,"population2020":45.9179,"populationNote":"2020年基準の国交省調整値"},"geometry":{"type":"Polygon","coordinates":[[[130.825,33.579166666666666],[130.825,33.583333333333336],[130.83125,33.58333333333334],[130.83125,33.57916666666666],[130.825,33.579166666666666]]]}},{"type":"Feature","id":"40605:503026964","properties":{"id":"40605:503026964","meshCode":"503026964","cityCode":"40605","city":"川崎町","lat":33.5811944,"lon":130.8326623,"areaKm2":0.1310474,"populated2020":true,"population2020":null,"populationNote":"境界またぎ・原典収録外のため自治体内人口は未集計"},"geometry":{"type":"Polygon","coordinates":[[[130.832408586,33.583333332999985],[130.832497782,33.58231000000001],[130.833009442,33.581767225],[130.833393333,33.581497494999994],[130.834910272,33.580818892],[130.835981115,33.58024],[130.8372431596754,33.579166666666666],[130.83125,33.57916666666666],[130.83125,33.58333333333334],[130.832408586,33.583333332999985]]]}},{"type":"Feature","id":"40605:503036032","properties":{"id":"40605:503036032","meshCode":"503036032","cityCode":"40605","city":"川崎町","lat":33.5853938,"lon":130.7987366,"areaKm2":0.0977108,"populated2020":false,"population2020":null,"populationNote":"境界またぎ・原典収録外のため自治体内人口は未集計"},"geometry":{"type":"Polygon","coordinates":[[[130.79795214000393,33.58333333333334],[130.797928612,33.584493054000006],[130.797547782,33.585103613],[130.797382218,33.585989162],[130.797611115,33.586557495],[130.797938054,33.586980829],[130.79787906965885,33.5875],[130.8,33.5875],[130.8,33.583333333333336],[130.79795214000393,33.58333333333334]]]}},{"type":"Feature","id":"40605:503036041","properties":{"id":"40605:503036041","meshCode":"503036041","cityCode":"40605","city":"川崎町","lat":33.5854167,"lon":130.803125,"areaKm2":0.268083,"populated2020":true,"population2020":69.1714,"populationNote":"2020年基準の国交省調整値"},"geometry":{"type":"Polygon","coordinates":[[[130.8,33.583333333333336],[130.8,33.5875],[130.80625,33.5875],[130.80625,33.583333333333336],[130.8,33.583333333333336]]]}},{"type":"Feature","id":"40605:503036042","properties":{"id":"40605:503036042","meshCode":"503036042","cityCode":"40605","city":"川崎町","lat":33.5854167,"lon":130.809375,"areaKm2":0.2680829,"populated2020":true,"population2020":98.619,"populationNote":"2020年基準の国交省調整値"},"geometry":{"type":"Polygon","coordinates":[[[130.80625,33.583333333333336],[130.80625,33.5875],[130.8125,33.5875],[130.8125,33.583333333333336],[130.80625,33.583333333333336]]]}},{"type":"Feature","id":"40605:503036051","properties":{"id":"40605:503036051","meshCode":"503036051","cityCode":"40605","city":"川崎町","lat":33.5854167,"lon":130.815625,"areaKm2":0.2680828,"populated2020":true,"population2020":405.6073,"populationNote":"2020年基準の国交省調整値"},"geometry":{"type":"Polygon","coordinates":[[[130.8125,33.583333333333336],[130.8125,33.5875],[130.81875,33.58749999999999],[130.81875,33.58333333333334],[130.8125,33.583333333333336]]]}},{"type":"Feature","id":"40605:503036052","properties":{"id":"40605:503036052","meshCode":"503036052","cityCode":"40605","city":"川崎町","lat":33.5854167,"lon":130.821875,"areaKm2":0.2680826,"populated2020":true,"population2020":34.7392,"populationNote":"2020年基準の国交省調整値"},"geometry":{"type":"Polygon","coordinates":[[[130.81875,33.58333333333334],[130.81875,33.58749999999999],[130.825,33.5875],[130.825,33.583333333333336],[130.81875,33.58333333333334]]]}},{"type":"Feature","id":"40605:503036061","properties":{"id":"40605:503036061","meshCode":"503036061","cityCode":"40605","city":"川崎町","lat":33.5854167,"lon":130.828125,"areaKm2":0.2680825,"populated2020":true,"population2020":6.0925,"populationNote":"2020年基準の国交省調整値"},"geometry":{"type":"Polygon","coordinates":[[[130.825,33.583333333333336],[130.825,33.5875],[130.83125,33.587500000000006],[130.83125,33.58333333333334],[130.825,33.583333333333336]]]}},{"type":"Feature","id":"40605:503036062","properties":{"id":"40605:503036062","meshCode":"503036062","cityCode":"40605","city":"川崎町","lat":33.5854228,"lon":130.8327799,"areaKm2":0.0814913,"populated2020":true,"population2020":null,"populationNote":"境界またぎ・原典収録外のため自治体内人口は未集計"},"geometry":{"type":"Polygon","coordinates":[[[130.833903333,33.587456387],[130.833773606,33.586990279],[130.833798054,33.586632495],[130.834323333,33.585432495],[130.833702776,33.585212495],[130.833237224,33.585317225],[130.832799442,33.58531805399999],[130.832285279,33.584938892000004],[130.831821388,33.584391387],[130.831846394,33.584281667000006],[130.832274721,33.58398305400001],[130.83240858595676,33.58333333333334],[130.83125,33.58333333333334],[130.83125,33.587500000000006],[130.833903333,33.587456387]]]}},{"type":"Feature","id":"40605:503036034","properties":{"id":"40605:503036034","meshCode":"503036034","cityCode":"40605","city":"川崎町","lat":33.5897047,"lon":130.798909,"areaKm2":0.0880474,"populated2020":true,"population2020":null,"populationNote":"境界またぎ・原典収録外のため自治体内人口は未集計"},"geometry":{"type":"Polygon","coordinates":[[[130.79787906965885,33.5875],[130.797355837,33.587848613000006],[130.797347497,33.588710279],[130.797368885,33.588872775],[130.797778054,33.589545558999994],[130.797858054,33.589863892000004],[130.79854416300003,33.590584162],[130.7988808949544,33.591666666666676],[130.8,33.59166666666667],[130.8,33.5875],[130.79787906965885,33.5875]]]}},{"type":"Feature","id":"40605:503036043","properties":{"id":"40605:503036043","meshCode":"503036043","cityCode":"40605","city":"川崎町","lat":33.5895833,"lon":130.803125,"areaKm2":0.2680703,"populated2020":true,"population2020":5.0861,"populationNote":"2020年基準の国交省調整値"},"geometry":{"type":"Polygon","coordinates":[[[130.8,33.5875],[130.8,33.59166666666667],[130.80625,33.59166666666667],[130.80625,33.5875],[130.8,33.5875]]]}},{"type":"Feature","id":"40605:503036044","properties":{"id":"40605:503036044","meshCode":"503036044","cityCode":"40605","city":"川崎町","lat":33.5895833,"lon":130.809375,"areaKm2":0.2680702,"populated2020":true,"population2020":34.5416,"populationNote":"2020年基準の国交省調整値"},"geometry":{"type":"Polygon","coordinates":[[[130.80625,33.5875],[130.80625,33.59166666666667],[130.8125,33.591666666666676],[130.8125,33.5875],[130.80625,33.5875]]]}},{"type":"Feature","id":"40605:503036053","properties":{"id":"40605:503036053","meshCode":"503036053","cityCode":"40605","city":"川崎町","lat":33.5895833,"lon":130.815625,"areaKm2":0.2680701,"populated2020":true,"population2020":201.2168,"populationNote":"2020年基準の国交省調整値"},"geometry":{"type":"Polygon","coordinates":[[[130.8125,33.5875],[130.8125,33.591666666666676],[130.81875,33.59166666666667],[130.81875,33.58749999999999],[130.8125,33.5875]]]}},{"type":"Feature","id":"40605:503036054","properties":{"id":"40605:503036054","meshCode":"503036054","cityCode":"40605","city":"川崎町","lat":33.5895833,"lon":130.821875,"areaKm2":0.2680699,"populated2020":true,"population2020":164.8804,"populationNote":"2020年基準の国交省調整値"},"geometry":{"type":"Polygon","coordinates":[[[130.81875,33.58749999999999],[130.81875,33.59166666666667],[130.825,33.591666666666676],[130.825,33.5875],[130.81875,33.58749999999999]]]}},{"type":"Feature","id":"40605:503036063","properties":{"id":"40605:503036063","meshCode":"503036063","cityCode":"40605","city":"川崎町","lat":33.5895833,"lon":130.828125,"areaKm2":0.2680698,"populated2020":true,"population2020":253.5471,"populationNote":"2020年基準の国交省調整値"},"geometry":{"type":"Polygon","coordinates":[[[130.825,33.5875],[130.825,33.591666666666676],[130.83125,33.59166666666667],[130.83125,33.587500000000006],[130.825,33.5875]]]}},{"type":"Feature","id":"40605:503036064","properties":{"id":"40605:503036064","meshCode":"503036064","cityCode":"40605","city":"川崎町","lat":33.5897032,"lon":130.8319001,"areaKm2":0.1116793,"populated2020":true,"population2020":null,"populationNote":"境界またぎ・原典収録外のため自治体内人口は未集計"},"geometry":{"type":"Polygon","coordinates":[[[130.8373141627477,33.591666666666676],[130.83676306100003,33.591015],[130.836493606,33.59090749500001],[130.836343891,33.590869440999995],[130.835974994,33.591068054],[130.833804994,33.590541108],[130.833376109,33.59026500000001],[130.83288917,33.590570829],[130.832408327,33.590277225],[130.832278054,33.590162495],[130.8328,33.58929972100002],[130.832896394,33.58884249500001],[130.833210558,33.588627495],[130.83387118312814,33.5875],[130.83125,33.587500000000006],[130.83125,33.59166666666667],[130.8373141627477,33.591666666666676]]]}},{"type":"Feature","id":"40605:503036132","properties":{"id":"40605:503036132","meshCode":"503036132","cityCode":"40605","city":"川崎町","lat":33.5937982,"lon":130.7998214,"areaKm2":0.0267953,"populated2020":true,"population2020":null,"populationNote":"境界またぎ・原典収録外のため自治体内人口は未集計"},"geometry":{"type":"Polygon","coordinates":[[[130.798880895,33.59166666699999],[130.798918612,33.59202444099999],[130.79883,33.592488054],[130.798898327,33.592797775],[130.799053333,33.593043613000006],[130.799493333,33.593376946],[130.799742218,33.594148613],[130.799647782,33.594876387],[130.799717224,33.595260559],[130.799556939,33.595762775],[130.79958602162804,33.59583333333333],[130.8,33.59583333333333],[130.8,33.59166666666667],[130.798880895,33.59166666699999]]]}},{"type":"Feature","id":"40605:503036141","properties":{"id":"40605:503036141","meshCode":"503036141","cityCode":"40605","city":"川崎町","lat":33.59375,"lon":130.803125,"areaKm2":0.2680576,"populated2020":true,"population2020":11.25,"populationNote":"2020年基準の国交省調整値"},"geometry":{"type":"Polygon","coordinates":[[[130.8,33.59166666666667],[130.8,33.59583333333333],[130.80625,33.59583333333333],[130.80625,33.59166666666667],[130.8,33.59166666666667]]]}},{"type":"Feature","id":"40605:503036142","properties":{"id":"40605:503036142","meshCode":"503036142","cityCode":"40605","city":"川崎町","lat":33.59375,"lon":130.809375,"areaKm2":0.2680575,"populated2020":true,"population2020":183.1628,"populationNote":"2020年基準の国交省調整値"},"geometry":{"type":"Polygon","coordinates":[[[130.80625,33.59166666666667],[130.80625,33.59583333333333],[130.8125,33.59583333333333],[130.8125,33.591666666666676],[130.80625,33.59166666666667]]]}},{"type":"Feature","id":"40605:503036151","properties":{"id":"40605:503036151","meshCode":"503036151","cityCode":"40605","city":"川崎町","lat":33.59375,"lon":130.815625,"areaKm2":0.2680573,"populated2020":true,"population2020":306.1085,"populationNote":"2020年基準の国交省調整値"},"geometry":{"type":"Polygon","coordinates":[[[130.8125,33.591666666666676],[130.8125,33.59583333333333],[130.81875,33.59583333333333],[130.81875,33.59166666666667],[130.8125,33.591666666666676]]]}},{"type":"Feature","id":"40605:503036152","properties":{"id":"40605:503036152","meshCode":"503036152","cityCode":"40605","city":"川崎町","lat":33.59375,"lon":130.821875,"areaKm2":0.2680572,"populated2020":true,"population2020":656.4146,"populationNote":"2020年基準の国交省調整値"},"geometry":{"type":"Polygon","coordinates":[[[130.81875,33.59166666666667],[130.81875,33.59583333333333],[130.825,33.59583333333334],[130.825,33.591666666666676],[130.81875,33.59166666666667]]]}},{"type":"Feature","id":"40605:503036161","properties":{"id":"40605:503036161","meshCode":"503036161","cityCode":"40605","city":"川崎町","lat":33.59375,"lon":130.828125,"areaKm2":0.2680571,"populated2020":true,"population2020":625.9685,"populationNote":"2020年基準の国交省調整値"},"geometry":{"type":"Polygon","coordinates":[[[130.825,33.591666666666676],[130.825,33.59583333333334],[130.83125,33.59583333333333],[130.83125,33.59166666666667],[130.825,33.591666666666676]]]}},{"type":"Feature","id":"40605:503036162","properties":{"id":"40605:503036162","meshCode":"503036162","cityCode":"40605","city":"川崎町","lat":33.59375,"lon":130.834375,"areaKm2":0.2633281,"populated2020":true,"population2020":451.2274,"populationNote":"2020年基準の国交省調整値"},"geometry":{"type":"Polygon","coordinates":[[[130.8375,33.593620588567056],[130.837285279,33.593477494999995],[130.837069442,33.592864441],[130.837444994,33.592027775],[130.837468054,33.59187],[130.8373141627477,33.591666666666676],[130.83125,33.59166666666667],[130.83125,33.59583333333333],[130.8375,33.59583333333333],[130.8375,33.593620588567056]]]}},{"type":"Feature","id":"40605:503036171","properties":{"id":"40605:503036171","meshCode":"503036171","cityCode":"40605","city":"川崎町","lat":33.5946625,"lon":130.8386858,"areaKm2":0.0465312,"populated2020":false,"population2020":null,"populationNote":"境界またぎ・原典収録外のため自治体内人口は未集計"},"geometry":{"type":"Polygon","coordinates":[[[130.84000077483813,33.59583333333333],[130.840102218,33.59520889200001],[130.839967497,33.594768892000005],[130.839775837,33.594556108],[130.83936917,33.594349721],[130.838918054,33.59398],[130.8375,33.593620588567056],[130.8375,33.59583333333333],[130.84000077483813,33.59583333333333]]]}},{"type":"Feature","id":"40605:503036134","properties":{"id":"40605:503036134","meshCode":"503036134","cityCode":"40605","city":"川崎町","lat":33.5979167,"lon":130.796875,"areaKm2":0.0904037,"populated2020":true,"population2020":null,"populationNote":"境界またぎ・原典収録外のため自治体内人口は未集計"},"geometry":{"type":"Polygon","coordinates":[[[130.799586939,33.595835559],[130.799438327,33.596210279],[130.79939917,33.596752224999996],[130.799208054,33.59696694600001],[130.799194163,33.597117775],[130.799364163,33.597302495],[130.799385279,33.597509721],[130.799248612,33.597951946],[130.799153333,33.598028613],[130.798718054,33.597891946000004],[130.797914163,33.59803055900001],[130.796725551,33.597842495],[130.796429442,33.59908610800001],[130.796179442,33.599187225],[130.795985551,33.599415],[130.796114163,33.599761107999996],[130.796312866,33.6],[130.8,33.6],[130.8,33.59583333333333],[130.799586939,33.595835559]]]}},{"type":"Feature","id":"40605:503036143","properties":{"id":"40605:503036143","meshCode":"503036143","cityCode":"40605","city":"川崎町","lat":33.5979167,"lon":130.803125,"areaKm2":0.2680449,"populated2020":true,"population2020":88.4602,"populationNote":"2020年基準の国交省調整値"},"geometry":{"type":"Polygon","coordinates":[[[130.8,33.59583333333333],[130.8,33.6],[130.80625,33.6],[130.80625,33.59583333333333],[130.8,33.59583333333333]]]}},{"type":"Feature","id":"40605:503036144","properties":{"id":"40605:503036144","meshCode":"503036144","cityCode":"40605","city":"川崎町","lat":33.5979167,"lon":130.809375,"areaKm2":0.2680448,"populated2020":true,"population2020":236.9195,"populationNote":"2020年基準の国交省調整値"},"geometry":{"type":"Polygon","coordinates":[[[130.80625,33.59583333333333],[130.80625,33.6],[130.8125,33.6],[130.8125,33.59583333333333],[130.80625,33.59583333333333]]]}},{"type":"Feature","id":"40605:503036153","properties":{"id":"40605:503036153","meshCode":"503036153","cityCode":"40605","city":"川崎町","lat":33.5979167,"lon":130.815625,"areaKm2":0.2680446,"populated2020":true,"population2020":434.0377,"populationNote":"2020年基準の国交省調整値"},"geometry":{"type":"Polygon","coordinates":[[[130.8125,33.59583333333333],[130.8125,33.6],[130.81875,33.6],[130.81875,33.59583333333333],[130.8125,33.59583333333333]]]}},{"type":"Feature","id":"40605:503036154","properties":{"id":"40605:503036154","meshCode":"503036154","cityCode":"40605","city":"川崎町","lat":33.5979167,"lon":130.821875,"areaKm2":0.2680445,"populated2020":true,"population2020":601.3767,"populationNote":"2020年基準の国交省調整値"},"geometry":{"type":"Polygon","coordinates":[[[130.81875,33.59583333333333],[130.81875,33.6],[130.825,33.6],[130.825,33.59583333333334],[130.81875,33.59583333333333]]]}},{"type":"Feature","id":"40605:503036163","properties":{"id":"40605:503036163","meshCode":"503036163","cityCode":"40605","city":"川崎町","lat":33.5979167,"lon":130.828125,"areaKm2":0.2680444,"populated2020":true,"population2020":593.9656,"populationNote":"2020年基準の国交省調整値"},"geometry":{"type":"Polygon","coordinates":[[[130.825,33.59583333333334],[130.825,33.6],[130.83125,33.6],[130.83125,33.59583333333333],[130.825,33.59583333333334]]]}},{"type":"Feature","id":"40605:503036164","properties":{"id":"40605:503036164","meshCode":"503036164","cityCode":"40605","city":"川崎町","lat":33.5979167,"lon":130.834375,"areaKm2":0.2680443,"populated2020":true,"population2020":269.7661,"populationNote":"2020年基準の国交省調整値"},"geometry":{"type":"Polygon","coordinates":[[[130.83125,33.59583333333333],[130.83125,33.6],[130.8375,33.60000000000001],[130.8375,33.59583333333333],[130.83125,33.59583333333333]]]}},{"type":"Feature","id":"40605:503036173","properties":{"id":"40605:503036173","meshCode":"503036173","cityCode":"40605","city":"川崎町","lat":33.5979167,"lon":130.840625,"areaKm2":0.1426571,"populated2020":true,"population2020":null,"populationNote":"境界またぎ・原典収録外のため自治体内人口は未集計"},"geometry":{"type":"Polygon","coordinates":[[[130.841321946,33.599858892],[130.841057782,33.599131667],[130.841216939,33.59884082899999],[130.841545279,33.598545829],[130.84149917,33.59837527900001],[130.840963333,33.597908613],[130.840261946,33.597065279],[130.84036917,33.596546946],[130.840330272,33.59632777499999],[130.84000077483813,33.59583333333333],[130.8375,33.59583333333333],[130.8375,33.60000000000001],[130.841242192,33.6],[130.841321946,33.599858892]]]}},{"type":"Feature","id":"40605:503036232","properties":{"id":"40605:503036232","meshCode":"503036232","cityCode":"40605","city":"川崎町","lat":33.6021682,"lon":130.7987507,"areaKm2":0.1164283,"populated2020":true,"population2020":null,"populationNote":"境界またぎ・原典収録外のため自治体内人口は未集計"},"geometry":{"type":"Polygon","coordinates":[[[130.796312866,33.6],[130.79681,33.600603891999995],[130.797345837,33.601460279],[130.797455837,33.601797775],[130.797513061,33.602295279],[130.797358327,33.60299555899999],[130.797422776,33.60367416199999],[130.79837156909747,33.604166666666664],[130.8,33.60416666666667],[130.8,33.6],[130.796312866,33.6]]]}},{"type":"Feature","id":"40605:503036241","properties":{"id":"40605:503036241","meshCode":"503036241","cityCode":"40605","city":"川崎町","lat":33.6020833,"lon":130.803125,"areaKm2":0.2680322,"populated2020":true,"population2020":34.6989,"populationNote":"2020年基準の国交省調整値"},"geometry":{"type":"Polygon","coordinates":[[[130.8,33.6],[130.8,33.60416666666667],[130.80625,33.604166666666664],[130.80625,33.6],[130.8,33.6]]]}},{"type":"Feature","id":"40605:503036242","properties":{"id":"40605:503036242","meshCode":"503036242","cityCode":"40605","city":"川崎町","lat":33.6020833,"lon":130.809375,"areaKm2":0.2680321,"populated2020":true,"population2020":520.0737,"populationNote":"2020年基準の国交省調整値"},"geometry":{"type":"Polygon","coordinates":[[[130.80625,33.6],[130.80625,33.604166666666664],[130.8125,33.60416666666666],[130.8125,33.6],[130.80625,33.6]]]}},{"type":"Feature","id":"40605:503036251","properties":{"id":"40605:503036251","meshCode":"503036251","cityCode":"40605","city":"川崎町","lat":33.6020833,"lon":130.815625,"areaKm2":0.2680319,"populated2020":true,"population2020":265.6602,"populationNote":"2020年基準の国交省調整値"},"geometry":{"type":"Polygon","coordinates":[[[130.8125,33.6],[130.8125,33.60416666666666],[130.81875,33.604166666666664],[130.81875,33.6],[130.8125,33.6]]]}},{"type":"Feature","id":"40605:503036252","properties":{"id":"40605:503036252","meshCode":"503036252","cityCode":"40605","city":"川崎町","lat":33.6020833,"lon":130.821875,"areaKm2":0.2680318,"populated2020":true,"population2020":482.5894,"populationNote":"2020年基準の国交省調整値"},"geometry":{"type":"Polygon","coordinates":[[[130.81875,33.6],[130.81875,33.604166666666664],[130.825,33.604166666666664],[130.825,33.6],[130.81875,33.6]]]}},{"type":"Feature","id":"40605:503036261","properties":{"id":"40605:503036261","meshCode":"503036261","cityCode":"40605","city":"川崎町","lat":33.6020833,"lon":130.828125,"areaKm2":0.2680317,"populated2020":true,"population2020":578.3659,"populationNote":"2020年基準の国交省調整値"},"geometry":{"type":"Polygon","coordinates":[[[130.825,33.6],[130.825,33.604166666666664],[130.83125,33.60416666666666],[130.83125,33.6],[130.825,33.6]]]}},{"type":"Feature","id":"40605:503036262","properties":{"id":"40605:503036262","meshCode":"503036262","cityCode":"40605","city":"川崎町","lat":33.6020833,"lon":130.834375,"areaKm2":0.2020336,"populated2020":true,"population2020":119.1508,"populationNote":"2020年基準の国交省調整値"},"geometry":{"type":"Polygon","coordinates":[[[130.834764721,33.604026387000005],[130.835223891,33.60384110799999],[130.835628327,33.603419721],[130.835405279,33.601938613],[130.83608027200003,33.601291667],[130.836291115,33.600929162],[130.83661917,33.60071],[130.8375,33.60095085234468],[130.8375,33.60000000000001],[130.83125,33.6],[130.83125,33.60416666666666],[130.8347083011493,33.604166666666664],[130.834764721,33.604026387000005]]]}},{"type":"Feature","id":"40605:503036271","properties":{"id":"40605:503036271","meshCode":"503036271","cityCode":"40605","city":"川崎町","lat":33.6005297,"lon":130.838979,"areaKm2":0.0289572,"populated2020":true,"population2020":null,"populationNote":"境界またぎ・原典収録外のため自治体内人口は未集計"},"geometry":{"type":"Polygon","coordinates":[[[130.83772389100002,33.60099027900001],[130.838285279,33.600871946],[130.839840272,33.600922495],[130.841242192,33.6],[130.8375,33.60000000000001],[130.8375,33.60095085234468],[130.83772389100002,33.60099027900001]]]}},{"type":"Feature","id":"40605:503036234","properties":{"id":"40605:503036234","meshCode":"503036234","cityCode":"40605","city":"川崎町","lat":33.6062799,"lon":130.7997366,"areaKm2":0.0434983,"populated2020":true,"population2020":null,"populationNote":"境界またぎ・原典収録外のため自治体内人口は未集計"},"geometry":{"type":"Polygon","coordinates":[[[130.79837156909747,33.604166666666664],[130.798068054,33.604652225],[130.798587782,33.60501389200001],[130.798761115,33.605579162],[130.799358612,33.606100829],[130.799522503,33.606356946],[130.799304163,33.60714861299999],[130.79913516196754,33.608333333333334],[130.8,33.60833333333333],[130.8,33.60416666666667],[130.79837156909747,33.604166666666664]]]}},{"type":"Feature","id":"40605:503036243","properties":{"id":"40605:503036243","meshCode":"503036243","cityCode":"40605","city":"川崎町","lat":33.60625,"lon":130.803125,"areaKm2":0.2680195,"populated2020":true,"population2020":221.518,"populationNote":"2020年基準の国交省調整値"},"geometry":{"type":"Polygon","coordinates":[[[130.8,33.60416666666667],[130.8,33.60833333333333],[130.80625,33.608333333333334],[130.80625,33.604166666666664],[130.8,33.60416666666667]]]}},{"type":"Feature","id":"40605:503036244","properties":{"id":"40605:503036244","meshCode":"503036244","cityCode":"40605","city":"川崎町","lat":33.60625,"lon":130.809375,"areaKm2":0.2680193,"populated2020":true,"population2020":115.8948,"populationNote":"2020年基準の国交省調整値"},"geometry":{"type":"Polygon","coordinates":[[[130.80625,33.604166666666664],[130.80625,33.608333333333334],[130.8125,33.60833333333333],[130.8125,33.60416666666666],[130.80625,33.604166666666664]]]}},{"type":"Feature","id":"40605:503036253","properties":{"id":"40605:503036253","meshCode":"503036253","cityCode":"40605","city":"川崎町","lat":33.60625,"lon":130.815625,"areaKm2":0.2680192,"populated2020":true,"population2020":386.0464,"populationNote":"2020年基準の国交省調整値"},"geometry":{"type":"Polygon","coordinates":[[[130.8125,33.60416666666666],[130.8125,33.60833333333333],[130.81875,33.608333333333334],[130.81875,33.604166666666664],[130.8125,33.60416666666666]]]}},{"type":"Feature","id":"40605:503036254","properties":{"id":"40605:503036254","meshCode":"503036254","cityCode":"40605","city":"川崎町","lat":33.60625,"lon":130.821875,"areaKm2":0.2680191,"populated2020":true,"population2020":539.1803,"populationNote":"2020年基準の国交省調整値"},"geometry":{"type":"Polygon","coordinates":[[[130.81875,33.604166666666664],[130.81875,33.608333333333334],[130.825,33.60833333333334],[130.825,33.604166666666664],[130.81875,33.604166666666664]]]}},{"type":"Feature","id":"40605:503036263","properties":{"id":"40605:503036263","meshCode":"503036263","cityCode":"40605","city":"川崎町","lat":33.60625,"lon":130.828125,"areaKm2":0.268019,"populated2020":true,"population2020":364.533,"populationNote":"2020年基準の国交省調整値"},"geometry":{"type":"Polygon","coordinates":[[[130.825,33.604166666666664],[130.825,33.60833333333334],[130.83125,33.608333333333334],[130.83125,33.60416666666666],[130.825,33.604166666666664]]]}},{"type":"Feature","id":"40605:503036264","properties":{"id":"40605:503036264","meshCode":"503036264","cityCode":"40605","city":"川崎町","lat":33.6062811,"lon":130.831694,"areaKm2":0.0490054,"populated2020":true,"population2020":null,"populationNote":"境界またぎ・原典収録外のため自治体内人口は未集計"},"geometry":{"type":"Polygon","coordinates":[[[130.831609105,33.608333333000004],[130.831648612,33.607992495],[130.831986394,33.607348613],[130.832155837,33.605582225],[130.832305279,33.605448333000005],[130.832841115,33.605288054],[130.833082218,33.604496108],[130.83444166,33.604433054],[130.834574449,33.60438444100001],[130.8347083011493,33.604166666666664],[130.83125,33.60416666666666],[130.83125,33.608333333333334],[130.831609105,33.608333333000004]]]}},{"type":"Feature","id":"40605:503036332","properties":{"id":"40605:503036332","meshCode":"503036332","cityCode":"40605","city":"川崎町","lat":33.6091058,"lon":130.7996748,"areaKm2":0.0090015,"populated2020":true,"population2020":null,"populationNote":"境界またぎ・原典収録外のため自治体内人口は未集計"},"geometry":{"type":"Polygon","coordinates":[[[130.79913516196754,33.608333333333334],[130.79915917,33.608765279],[130.799435551,33.609247775],[130.8,33.60981402699999],[130.8,33.60833333333333],[130.79913516196754,33.608333333333334]]]}},{"type":"Feature","id":"40605:503036341","properties":{"id":"40605:503036341","meshCode":"503036341","cityCode":"40605","city":"川崎町","lat":33.6104167,"lon":130.803125,"areaKm2":0.2393834,"populated2020":true,"population2020":650.983,"populationNote":"2020年基準の国交省調整値"},"geometry":{"type":"Polygon","coordinates":[[[130.8,33.60981402699999],[130.801458327,33.611532495],[130.801640272,33.612213054],[130.80131499315678,33.6125],[130.80625,33.6125],[130.80625,33.608333333333334],[130.8,33.60833333333333],[130.8,33.60981402699999]]]}},{"type":"Feature","id":"40605:503036342","properties":{"id":"40605:503036342","meshCode":"503036342","cityCode":"40605","city":"川崎町","lat":33.6104167,"lon":130.809375,"areaKm2":0.2680066,"populated2020":true,"population2020":170.8832,"populationNote":"2020年基準の国交省調整値"},"geometry":{"type":"Polygon","coordinates":[[[130.80625,33.608333333333334],[130.80625,33.6125],[130.8125,33.6125],[130.8125,33.60833333333333],[130.80625,33.608333333333334]]]}},{"type":"Feature","id":"40605:503036351","properties":{"id":"40605:503036351","meshCode":"503036351","cityCode":"40605","city":"川崎町","lat":33.6104167,"lon":130.815625,"areaKm2":0.2680065,"populated2020":true,"population2020":238.8638,"populationNote":"2020年基準の国交省調整値"},"geometry":{"type":"Polygon","coordinates":[[[130.8125,33.60833333333333],[130.8125,33.6125],[130.81875,33.6125],[130.81875,33.608333333333334],[130.8125,33.60833333333333]]]}},{"type":"Feature","id":"40605:503036352","properties":{"id":"40605:503036352","meshCode":"503036352","cityCode":"40605","city":"川崎町","lat":33.6104167,"lon":130.821875,"areaKm2":0.2160259,"populated2020":true,"population2020":null,"populationNote":"境界またぎ・原典収録外のため自治体内人口は未集計"},"geometry":{"type":"Polygon","coordinates":[[[130.822572218,33.612476666999996],[130.822697224,33.611835],[130.822973333,33.61160833300001],[130.823359728,33.610915559000006],[130.823262503,33.610504441],[130.823955837,33.609742225],[130.825,33.609833613],[130.825,33.60833333333334],[130.81875,33.608333333333334],[130.81875,33.6125],[130.822572218,33.612476666999996]]]}},{"type":"Feature","id":"40605:503036361","properties":{"id":"40605:503036361","meshCode":"503036361","cityCode":"40605","city":"川崎町","lat":33.6093781,"lon":130.8277429,"areaKm2":0.1057798,"populated2020":true,"population2020":15.2525,"populationNote":"2020年基準の国交省調整値"},"geometry":{"type":"Polygon","coordinates":[[[130.825,33.609833613],[130.825444163,33.60982722499999],[130.826058054,33.61034833299999],[130.826254994,33.610433054],[130.82929722400002,33.61004527899999],[130.829845551,33.609869441],[130.830756939,33.609225828999996],[130.83125,33.60877417593562],[130.83125,33.608333333333334],[130.825,33.60833333333334],[130.825,33.609833613]]]}},{"type":"Feature","id":"40605:503036362","properties":{"id":"40605:503036362","meshCode":"503036362","cityCode":"40605","city":"川崎町","lat":33.6085454,"lon":130.8313917,"areaKm2":0.0010712,"populated2020":false,"population2020":null,"populationNote":"境界またぎ・原典収録外のため自治体内人口は未集計"},"geometry":{"type":"Polygon","coordinates":[[[130.83125,33.60877417593562],[130.831494163,33.60860055900001],[130.83160910497537,33.608333333333334],[130.83125,33.608333333333334],[130.83125,33.60877417593562]]]}},{"type":"Feature","id":"40605:503036334","properties":{"id":"40605:503036334","meshCode":"503036334","cityCode":"40605","city":"川崎町","lat":33.6150197,"lon":130.7985471,"areaKm2":0.1052812,"populated2020":true,"population2020":null,"populationNote":"境界またぎ・原典収録外のため自治体内人口は未集計"},"geometry":{"type":"Polygon","coordinates":[[[130.799971115,33.613322495],[130.798618054,33.614111666999996],[130.797687497,33.614749721],[130.795794994,33.615588054],[130.794651946,33.616008333],[130.794396939,33.616225828999994],[130.79409158223052,33.61666666666667],[130.8,33.616666666666674],[130.799971115,33.613322495]]]}},{"type":"Feature","id":"40605:503036343","properties":{"id":"40605:503036343","meshCode":"503036343","cityCode":"40605","city":"川崎町","lat":33.6145833,"lon":130.803125,"areaKm2":0.2621171,"populated2020":true,"population2020":626.6587,"populationNote":"2020年基準の国交省調整値"},"geometry":{"type":"Polygon","coordinates":[[[130.80131499315678,33.6125],[130.8,33.61331036],[130.8,33.616666666666674],[130.80625,33.61666666666667],[130.80625,33.6125],[130.80131499315678,33.6125]]]}},{"type":"Feature","id":"40605:503036344","properties":{"id":"40605:503036344","meshCode":"503036344","cityCode":"40605","city":"川崎町","lat":33.6145833,"lon":130.809375,"areaKm2":0.2679939,"populated2020":true,"population2020":303.6039,"populationNote":"2020年基準の国交省調整値"},"geometry":{"type":"Polygon","coordinates":[[[130.80625,33.6125],[130.80625,33.61666666666667],[130.8125,33.61666666666667],[130.8125,33.6125],[130.80625,33.6125]]]}},{"type":"Feature","id":"40605:503036353","properties":{"id":"40605:503036353","meshCode":"503036353","cityCode":"40605","city":"川崎町","lat":33.6145833,"lon":130.815625,"areaKm2":0.2638946,"populated2020":false,"population2020":null,"populationNote":"境界またぎ・原典収録外のため自治体内人口は未集計"},"geometry":{"type":"Polygon","coordinates":[[[130.815494721,33.61662582900001],[130.815803061,33.61653499999999],[130.81614416251392,33.61666666666667],[130.81795228341494,33.61666666666667],[130.818147497,33.616455829],[130.818238612,33.616205],[130.81875,33.61605452099445],[130.81875,33.6125],[130.8125,33.6125],[130.8125,33.61666666666667],[130.815494721,33.61662582900001]]]}},{"type":"Feature","id":"40605:503036354","properties":{"id":"40605:503036354","meshCode":"503036354","cityCode":"40605","city":"川崎町","lat":33.6143164,"lon":130.8197258,"areaKm2":0.0856924,"populated2020":true,"population2020":null,"populationNote":"境界またぎ・原典収録外のため自治体内人口は未集計"},"geometry":{"type":"Polygon","coordinates":[[[130.81875,33.61605452099445],[130.819184163,33.615833333000005],[130.819386667,33.615274162],[130.820604994,33.615511667],[130.821225279,33.61520027900001],[130.820822776,33.614660279],[130.820708054,33.614389441],[130.820724994,33.614067495],[130.821295551,33.613997495],[130.82186499400004,33.613762225],[130.82200805400004,33.613175559000005],[130.822661946,33.61286833300001],[130.8225775634306,33.6125],[130.81875,33.6125],[130.81875,33.61605452099445]]]}},{"type":"Feature","id":"40605:503036431","properties":{"id":"40605:503036431","meshCode":"503036431","cityCode":"40605","city":"川崎町","lat":33.6178215,"lon":130.7936613,"areaKm2":0.0019468,"populated2020":true,"population2020":null,"populationNote":"境界またぎ・原典収録外のため自治体内人口は未集計"},"geometry":{"type":"Polygon","coordinates":[[[130.79375,33.61711444831065],[130.793552218,33.618098892],[130.79375,33.61851263388963],[130.79375,33.61711444831065]]]}},{"type":"Feature","id":"40605:503036432","properties":{"id":"40605:503036432","meshCode":"503036432","cityCode":"40605","city":"川崎町","lat":33.61875,"lon":130.796875,"areaKm2":0.2619136,"populated2020":true,"population2020":404.5341,"populationNote":"2020年基準の国交省調整値"},"geometry":{"type":"Polygon","coordinates":[[[130.794091582,33.616666667],[130.79375,33.61711444831065],[130.79375,33.61851263388963],[130.793887497,33.618765558999996],[130.793882218,33.619239162],[130.794044449,33.619913054],[130.794023891,33.620376108],[130.79416636768815,33.62083333333332],[130.8,33.62083333333333],[130.8,33.616666666666674],[130.794091582,33.616666667]]]}},{"type":"Feature","id":"40605:503036441","properties":{"id":"40605:503036441","meshCode":"503036441","cityCode":"40605","city":"川崎町","lat":33.61875,"lon":130.803125,"areaKm2":0.2679813,"populated2020":true,"population2020":374.2593,"populationNote":"2020年基準の国交省調整値"},"geometry":{"type":"Polygon","coordinates":[[[130.8,33.616666666666674],[130.8,33.62083333333333],[130.80625,33.62083333333332],[130.80625,33.61666666666667],[130.8,33.616666666666674]]]}},{"type":"Feature","id":"40605:503036442","properties":{"id":"40605:503036442","meshCode":"503036442","cityCode":"40605","city":"川崎町","lat":33.61875,"lon":130.809375,"areaKm2":0.2048932,"populated2020":true,"population2020":null,"populationNote":"境界またぎ・原典収録外のため自治体内人口は未集計"},"geometry":{"type":"Polygon","coordinates":[[[130.80625,33.62083333333332],[130.808534163,33.620806946],[130.808075279,33.620294441],[130.80903083,33.61976166699999],[130.809356394,33.619503054],[130.810570272,33.619503054],[130.8125,33.61858581999989],[130.8125,33.61666666666667],[130.80625,33.61666666666667],[130.80625,33.62083333333332]]]}},{"type":"Feature","id":"40605:503036451","properties":{"id":"40605:503036451","meshCode":"503036451","cityCode":"40605","city":"川崎町","lat":33.6168961,"lon":130.8170302,"areaKm2":0.0199603,"populated2020":true,"population2020":null,"populationNote":"境界またぎ・原典収録外のため自治体内人口は未集計"},"geometry":{"type":"MultiPolygon","coordinates":[[[[130.8125,33.61858581999989],[130.812924721,33.61831944099999],[130.812824163,33.617865829],[130.813036109,33.617437225],[130.813075551,33.61700861300002],[130.81327166,33.616971667],[130.813853061,33.617060829],[130.814104449,33.616894441],[130.814536939,33.616928333],[130.8153830619114,33.61666666666667],[130.8125,33.61666666666667],[130.8125,33.61858581999989]]],[[[130.816144163,33.616666667000004],[130.81681277600003,33.617129162],[130.816974449,33.617170279],[130.81749749700003,33.616969162],[130.81795228341494,33.61666666666667],[130.816144163,33.616666667000004]]]]}},{"type":"Feature","id":"40605:503036434","properties":{"id":"40605:503036434","meshCode":"503036434","cityCode":"40605","city":"川崎町","lat":33.6229167,"lon":130.796875,"areaKm2":0.1593525,"populated2020":true,"population2020":null,"populationNote":"境界またぎ・原典収録外のため自治体内人口は未集計"},"geometry":{"type":"Polygon","coordinates":[[[130.79416636768815,33.62083333333332],[130.794483606,33.62159194600001],[130.794803606,33.623066946],[130.794886939,33.623150278999994],[130.795742218,33.623393054],[130.79647,33.623941946],[130.797250272,33.624211946],[130.79722166,33.62382694600001],[130.797668054,33.623422775],[130.798483333,33.623737775],[130.799067497,33.62409389199999],[130.799398885,33.62409389199999],[130.799687782,33.623828054],[130.8,33.623250829],[130.8,33.62083333333333],[130.79416636768815,33.62083333333332]]]}},{"type":"Feature","id":"40605:503036443","properties":{"id":"40605:503036443","meshCode":"503036443","cityCode":"40605","city":"川崎町","lat":33.6220351,"lon":130.8007697,"areaKm2":0.0795431,"populated2020":true,"population2020":null,"populationNote":"境界またぎ・原典収録外のため自治体内人口は未集計"},"geometry":{"type":"Polygon","coordinates":[[[130.80000166,33.62324722499999],[130.800379728,33.622991108],[130.800972218,33.622961387000004],[130.80170083,33.621771667],[130.801958054,33.621713332999995],[130.80276805400004,33.621802495],[130.80342166,33.621973613],[130.803510272,33.622063054],[130.80364,33.622065],[130.804133891,33.62179166699999],[130.804434449,33.62176916200001],[130.80515499400002,33.622007225],[130.805297224,33.621992495],[130.805855279,33.621581946],[130.80625,33.62152957634811],[130.80625,33.62083333333332],[130.8,33.62083333333333],[130.80000166,33.62324722499999]]]}},{"type":"Feature","id":"40605:503036444","properties":{"id":"40605:503036444","meshCode":"503036444","cityCode":"40605","city":"川崎町","lat":33.6212611,"lon":130.8067465,"areaKm2":0.009812,"populated2020":true,"population2020":null,"populationNote":"境界またぎ・原典収録外のため自治体内人口は未集計"},"geometry":{"type":"Polygon","coordinates":[[[130.80625,33.62152957634811],[130.807429442,33.621556667],[130.807206394,33.621127775],[130.807978612,33.621180829000004],[130.80793853723844,33.62083333333333],[130.80625,33.62083333333332],[130.80625,33.62152957634811]]]}}]}