{"type":"FeatureCollection","metadata":{"cityCode":"40608","city":"大任町","resolution":500,"boundaryDate":"2026-01-01","populationLabel":"2020年基準人口（国交省調整値）","method":"標準地域メッシュを行政界で切抜き。中心が区域外のとき区域内代表点を判定点にする。人口不明をゼロにしない。"},"features":[{"type":"Feature","id":"40608:503026984","properties":{"id":"40608:503026984","meshCode":"503026984","cityCode":"40608","city":"大任町","lat":33.5823469,"lon":130.8608969,"areaKm2":0.054934,"populated2020":true,"population2020":null,"populationNote":"境界またぎ・原典収録外のため自治体内人口は未集計"},"geometry":{"type":"Polygon","coordinates":[[[130.859251115,33.582385279],[130.858940558,33.583094720999995],[130.85870571959052,33.58333333333333],[130.8625,33.583333333333336],[130.8625,33.581347739464725],[130.861686939,33.581401108],[130.860131388,33.581991386999995],[130.859836109,33.582193613],[130.859412776,33.58227082900001],[130.859251115,33.582385279]]]}},{"type":"Feature","id":"40608:503026993","properties":{"id":"40608:503026993","meshCode":"503026993","cityCode":"40608","city":"大任町","lat":33.58238,"lon":130.8640531,"areaKm2":0.0541306,"populated2020":false,"population2020":null,"populationNote":"境界またぎ・原典収録外のため自治体内人口は未集計"},"geometry":{"type":"Polygon","coordinates":[[[130.866532387,33.58333333299999],[130.866024994,33.583079162000004],[130.865684449,33.582470559],[130.865237224,33.582086387],[130.864600272,33.581822225],[130.8625,33.581347739464725],[130.8625,33.583333333333336],[130.866532387,33.58333333299999]]]}},{"type":"Feature","id":"40608:503036071","properties":{"id":"40608:503036071","meshCode":"503036071","cityCode":"40608","city":"大任町","lat":33.5874837,"lon":130.8403676,"areaKm2":0.0010436,"populated2020":true,"population2020":null,"populationNote":"境界またぎ・原典収録外のため自治体内人口は未集計"},"geometry":{"type":"MultiPolygon","coordinates":[[[[130.84375,33.58718571565296],[130.843345837,33.587433892],[130.84321576215154,33.5875],[130.84375,33.5875],[130.84375,33.58718571565296]]],[[[130.84021083,33.587467495000006],[130.84010669283427,33.5875],[130.84094200898005,33.5875],[130.84021083,33.587467495000006]]],[[[130.83972606816045,33.5875],[130.83955917,33.587454721],[130.83949641304852,33.58749999999999],[130.83972606816045,33.5875]]]]}},{"type":"Feature","id":"40608:503036072","properties":{"id":"40608:503036072","meshCode":"503036072","cityCode":"40608","city":"大任町","lat":33.5867769,"lon":130.8453541,"areaKm2":0.0286387,"populated2020":true,"population2020":null,"populationNote":"境界またぎ・原典収録外のため自治体内人口は未集計"},"geometry":{"type":"Polygon","coordinates":[[[130.84724310163452,33.58749999999999],[130.846821946,33.587117225],[130.845307224,33.586043613],[130.844427224,33.586761667000005],[130.84375,33.58718571565296],[130.84375,33.5875],[130.84724310163452,33.58749999999999]]]}},{"type":"Feature","id":"40608:503036082","properties":{"id":"40608:503036082","meshCode":"503036082","cityCode":"40608","city":"大任町","lat":33.5854167,"lon":130.859375,"areaKm2":0.2158941,"populated2020":true,"population2020":122.7227,"populationNote":"2020年基準の国交省調整値"},"geometry":{"type":"Polygon","coordinates":[[[130.858691388,33.583345],[130.857888327,33.58362582899999],[130.856979442,33.583637495],[130.857244721,33.584737775],[130.857811946,33.585533332999994],[130.85784083,33.58621110800001],[130.857671115,33.586632775000005],[130.857371115,33.586898613],[130.857012503,33.587046387],[130.8568396289383,33.5875],[130.8625,33.5875],[130.8625,33.583333333333336],[130.858691388,33.583345]]]}},{"type":"Feature","id":"40608:503036091","properties":{"id":"40608:503036091","meshCode":"503036091","cityCode":"40608","city":"大任町","lat":33.5854167,"lon":130.865625,"areaKm2":0.244334,"populated2020":false,"population2020":null,"populationNote":"境界またぎ・原典収録外のため自治体内人口は未集計"},"geometry":{"type":"Polygon","coordinates":[[[130.86875,33.58656496792949],[130.868284449,33.585234721],[130.868233606,33.584700829],[130.867733333,33.584222495],[130.86653238764805,33.583333333333336],[130.8625,33.583333333333336],[130.8625,33.5875],[130.86875,33.5875],[130.86875,33.58656496792949]]]}},{"type":"Feature","id":"40608:503036092","properties":{"id":"40608:503036092","meshCode":"503036092","cityCode":"40608","city":"大任町","lat":33.5868597,"lon":130.8687547,"areaKm2":0.0002868,"populated2020":false,"population2020":null,"populationNote":"境界またぎ・原典収録外のため自治体内人口は未集計"},"geometry":{"type":"Polygon","coordinates":[[[130.86884649240196,33.5875],[130.868752776,33.58708638700001],[130.86875,33.58656496792949],[130.86875,33.5875],[130.86884649240196,33.5875]]]}},{"type":"Feature","id":"40608:503036064","properties":{"id":"40608:503036064","meshCode":"503036064","cityCode":"40608","city":"大任町","lat":33.5905849,"lon":130.836918,"areaKm2":0.0185728,"populated2020":true,"population2020":null,"populationNote":"境界またぎ・原典収録外のため自治体内人口は未集計"},"geometry":{"type":"Polygon","coordinates":[[[130.8375,33.589103333760804],[130.836328054,33.590300279],[130.836343891,33.590869440999995],[130.83676306100003,33.591015],[130.8373141627477,33.591666666666676],[130.8375,33.591666666666676],[130.8375,33.589103333760804]]]}},{"type":"Feature","id":"40608:503036073","properties":{"id":"40608:503036073","meshCode":"503036073","cityCode":"40608","city":"大任町","lat":33.5895833,"lon":130.840625,"areaKm2":0.2492479,"populated2020":true,"population2020":49.0084,"populationNote":"2020年基準の国交省調整値"},"geometry":{"type":"Polygon","coordinates":[[[130.84321576215154,33.5875],[130.842550558,33.587979441],[130.842289728,33.58807222500001],[130.842045551,33.587850829],[130.841441946,33.587522225],[130.83949641304852,33.58749999999999],[130.838986109,33.58793305399999],[130.83826917,33.588101667],[130.838125837,33.588206946],[130.8375,33.589103333760804],[130.8375,33.591666666666676],[130.84375,33.591666666666676],[130.84375,33.5875],[130.84321576215154,33.5875]]]}},{"type":"Feature","id":"40608:503036074","properties":{"id":"40608:503036074","meshCode":"503036074","cityCode":"40608","city":"大任町","lat":33.5895833,"lon":130.846875,"areaKm2":0.2590845,"populated2020":true,"population2020":68.8642,"populationNote":"2020年基準の国交省調整値"},"geometry":{"type":"Polygon","coordinates":[[[130.849959728,33.587924441],[130.849336939,33.587702775],[130.849136667,33.587723892],[130.848813606,33.588021387],[130.847776667,33.587763892000005],[130.84724310163452,33.58749999999999],[130.84375,33.5875],[130.84375,33.591666666666676],[130.85,33.591666666666676],[130.849959728,33.587924441]]]}},{"type":"Feature","id":"40608:503036083","properties":{"id":"40608:503036083","meshCode":"503036083","cityCode":"40608","city":"大任町","lat":33.5898386,"lon":130.8511321,"areaKm2":0.0899425,"populated2020":true,"population2020":20.6191,"populationNote":"2020年基準の国交省調整値"},"geometry":{"type":"MultiPolygon","coordinates":[[[[130.85625,33.5893376483649],[130.85612083,33.589640829000004],[130.85625,33.59017399172365],[130.85625,33.5893376483649]]],[[[130.85624416300004,33.59113805399999],[130.85581277600002,33.59143527900001],[130.85548839247954,33.591666666666676],[130.85625,33.591666666666676],[130.85624416300004,33.59113805399999]]],[[[130.853547224,33.591378333000016],[130.853513606,33.591131387],[130.852653891,33.590426387],[130.851363606,33.588426667],[130.85,33.587938667],[130.85,33.591666666666676],[130.85413499332049,33.591666666666676],[130.853547224,33.591378333000016]]]]}},{"type":"Feature","id":"40608:503036084","properties":{"id":"40608:503036084","meshCode":"503036084","cityCode":"40608","city":"大任町","lat":33.5895833,"lon":130.859375,"areaKm2":0.2609324,"populated2020":true,"population2020":151.4962,"populationNote":"2020年基準の国交省調整値"},"geometry":{"type":"Polygon","coordinates":[[[130.856830558,33.587526387],[130.85654,33.588488333],[130.856474449,33.589005279],[130.85625,33.5893376483649],[130.85625,33.59017399172365],[130.856389728,33.590717775],[130.85625,33.59112904860019],[130.85625,33.591666666666676],[130.8625,33.591666666666676],[130.8625,33.5875],[130.856830558,33.587526387]]]}},{"type":"Feature","id":"40608:503036093","properties":{"id":"40608:503036093","meshCode":"503036093","cityCode":"40608","city":"大任町","lat":33.5895833,"lon":130.865625,"areaKm2":0.2680691,"populated2020":false,"population2020":null,"populationNote":"境界またぎ・原典収録外のため自治体内人口は未集計"},"geometry":{"type":"Polygon","coordinates":[[[130.8625,33.5875],[130.8625,33.591666666666676],[130.86875,33.591666666666676],[130.86875,33.5875],[130.8625,33.5875]]]}},{"type":"Feature","id":"40608:503036094","properties":{"id":"40608:503036094","meshCode":"503036094","cityCode":"40608","city":"大任町","lat":33.5895221,"lon":130.8694731,"areaKm2":0.0515458,"populated2020":false,"population2020":null,"populationNote":"境界またぎ・原典収録外のため自治体内人口は未集計"},"geometry":{"type":"Polygon","coordinates":[[[130.87085808013174,33.591666666666676],[130.87095666700003,33.591276108],[130.870828054,33.590919721],[130.870514721,33.590751108],[130.870463606,33.590629441],[130.870523891,33.589863333],[130.870081388,33.589404721],[130.869516394,33.58905277499999],[130.869428885,33.588818053999994],[130.86895166000002,33.588411387],[130.86881,33.588114721],[130.86884649240196,33.5875],[130.86875,33.5875],[130.86875,33.591666666666676],[130.87085808013174,33.591666666666676]]]}},{"type":"Feature","id":"40608:503036162","properties":{"id":"40608:503036162","meshCode":"503036162","cityCode":"40608","city":"大任町","lat":33.5926696,"lon":130.8373254,"areaKm2":0.004729,"populated2020":true,"population2020":null,"populationNote":"境界またぎ・原典収録外のため自治体内人口は未集計"},"geometry":{"type":"Polygon","coordinates":[[[130.837314163,33.591666667],[130.837468054,33.59187],[130.837444994,33.592027775],[130.837069442,33.592864441],[130.837285279,33.593477494999995],[130.8375,33.593620588567056],[130.8375,33.591666666666676],[130.837314163,33.591666667]]]}},{"type":"Feature","id":"40608:503036171","properties":{"id":"40608:503036171","meshCode":"503036171","cityCode":"40608","city":"大任町","lat":33.59375,"lon":130.840625,"areaKm2":0.2215244,"populated2020":false,"population2020":null,"populationNote":"境界またぎ・原典収録外のため自治体内人口は未集計"},"geometry":{"type":"Polygon","coordinates":[[[130.837505551,33.593621666999994],[130.838918054,33.59398],[130.83936917,33.594349721],[130.839775837,33.594556108],[130.839967497,33.594768892000005],[130.840102218,33.59520889200001],[130.84000077483813,33.59583333333333],[130.84375,33.59583333333334],[130.84375,33.591666666666676],[130.8375,33.591666666666676],[130.837505551,33.593621666999994]]]}},{"type":"Feature","id":"40608:503036172","properties":{"id":"40608:503036172","meshCode":"503036172","cityCode":"40608","city":"大任町","lat":33.59375,"lon":130.846875,"areaKm2":0.2680567,"populated2020":true,"population2020":54.1878,"populationNote":"2020年基準の国交省調整値"},"geometry":{"type":"Polygon","coordinates":[[[130.84375,33.591666666666676],[130.84375,33.59583333333334],[130.85,33.59583333333333],[130.85,33.591666666666676],[130.84375,33.591666666666676]]]}},{"type":"Feature","id":"40608:503036181","properties":{"id":"40608:503036181","meshCode":"503036181","cityCode":"40608","city":"大任町","lat":33.59375,"lon":130.853125,"areaKm2":0.2655354,"populated2020":true,"population2020":37.2472,"populationNote":"2020年基準の国交省調整値"},"geometry":{"type":"Polygon","coordinates":[[[130.855488392,33.59166666699999],[130.854886109,33.592007495],[130.85413499332049,33.591666666666676],[130.85,33.591666666666676],[130.85,33.59583333333333],[130.85625,33.59583333333333],[130.85625,33.591666666666676],[130.855488392,33.59166666699999]]]}},{"type":"Feature","id":"40608:503036182","properties":{"id":"40608:503036182","meshCode":"503036182","cityCode":"40608","city":"大任町","lat":33.59375,"lon":130.859375,"areaKm2":0.2680565,"populated2020":true,"population2020":81.969,"populationNote":"2020年基準の国交省調整値"},"geometry":{"type":"Polygon","coordinates":[[[130.85625,33.591666666666676],[130.85625,33.59583333333333],[130.8625,33.59583333333333],[130.8625,33.591666666666676],[130.85625,33.591666666666676]]]}},{"type":"Feature","id":"40608:503036191","properties":{"id":"40608:503036191","meshCode":"503036191","cityCode":"40608","city":"大任町","lat":33.59375,"lon":130.865625,"areaKm2":0.2675383,"populated2020":true,"population2020":2.9398,"populationNote":"2020年基準の国交省調整値"},"geometry":{"type":"Polygon","coordinates":[[[130.86875,33.595492733604274],[130.868606939,33.595278891999996],[130.86875,33.5948208171744],[130.86875,33.591666666666676],[130.8625,33.591666666666676],[130.8625,33.59583333333333],[130.86875,33.59583333333333],[130.86875,33.595492733604274]]]}},{"type":"Feature","id":"40608:503036192","properties":{"id":"40608:503036192","meshCode":"503036192","cityCode":"40608","city":"大任町","lat":33.5933274,"lon":130.8694848,"areaKm2":0.0431101,"populated2020":false,"population2020":null,"populationNote":"境界またぎ・原典収録外のため自治体内人口は未集計"},"geometry":{"type":"MultiPolygon","coordinates":[[[[130.86875,33.59583333333333],[130.868797782,33.595545559],[130.86875,33.595492733604274],[130.86875,33.59583333333333]]],[[[130.868918327,33.59463027900001],[130.869599728,33.594487225],[130.869732503,33.594353054],[130.870174449,33.593610559],[130.870262776,33.59298638700001],[130.870176667,33.59247889200001],[130.87085808013174,33.591666666666676],[130.86875,33.591666666666676],[130.86875,33.5948208171744],[130.868918327,33.59463027900001]]]]}},{"type":"Feature","id":"40608:503036173","properties":{"id":"40608:503036173","meshCode":"503036173","cityCode":"40608","city":"大任町","lat":33.5979779,"lon":130.8423928,"areaKm2":0.125387,"populated2020":true,"population2020":null,"populationNote":"境界またぎ・原典収録外のため自治体内人口は未集計"},"geometry":{"type":"Polygon","coordinates":[[[130.84000077483813,33.59583333333333],[130.840330272,33.59632777499999],[130.84036917,33.596546946],[130.840261946,33.597065279],[130.840963333,33.597908613],[130.84149917,33.59837527900001],[130.841545279,33.598545829],[130.841216939,33.59884082899999],[130.841057782,33.599131667],[130.841317782,33.599732225],[130.841242192,33.6],[130.84375,33.6],[130.84375,33.59583333333334],[130.84000077483813,33.59583333333333]]]}},{"type":"Feature","id":"40608:503036174","properties":{"id":"40608:503036174","meshCode":"503036174","cityCode":"40608","city":"大任町","lat":33.5979167,"lon":130.846875,"areaKm2":0.268044,"populated2020":true,"population2020":61.178,"populationNote":"2020年基準の国交省調整値"},"geometry":{"type":"Polygon","coordinates":[[[130.84375,33.59583333333334],[130.84375,33.6],[130.85,33.6],[130.85,33.59583333333333],[130.84375,33.59583333333334]]]}},{"type":"Feature","id":"40608:503036183","properties":{"id":"40608:503036183","meshCode":"503036183","cityCode":"40608","city":"大任町","lat":33.5979167,"lon":130.853125,"areaKm2":0.2680439,"populated2020":true,"population2020":194.6454,"populationNote":"2020年基準の国交省調整値"},"geometry":{"type":"Polygon","coordinates":[[[130.85,33.59583333333333],[130.85,33.6],[130.85625,33.6],[130.85625,33.59583333333333],[130.85,33.59583333333333]]]}},{"type":"Feature","id":"40608:503036184","properties":{"id":"40608:503036184","meshCode":"503036184","cityCode":"40608","city":"大任町","lat":33.5979167,"lon":130.859375,"areaKm2":0.2680438,"populated2020":true,"population2020":235.462,"populationNote":"2020年基準の国交省調整値"},"geometry":{"type":"Polygon","coordinates":[[[130.85625,33.59583333333333],[130.85625,33.6],[130.8625,33.6],[130.8625,33.59583333333333],[130.85625,33.59583333333333]]]}},{"type":"Feature","id":"40608:503036193","properties":{"id":"40608:503036193","meshCode":"503036193","cityCode":"40608","city":"大任町","lat":33.5979167,"lon":130.865625,"areaKm2":0.2134912,"populated2020":false,"population2020":null,"populationNote":"境界またぎ・原典収録外のため自治体内人口は未集計"},"geometry":{"type":"Polygon","coordinates":[[[130.866011946,33.59996777500001],[130.866293333,33.59978000000001],[130.866428885,33.599203892],[130.866936394,33.59897999999999],[130.867335551,33.598581387],[130.867581946,33.597745],[130.868014163,33.59726499999999],[130.868218885,33.596631108],[130.868208054,33.59627916200001],[130.86875,33.59583333333333],[130.8625,33.59583333333333],[130.8625,33.6],[130.866011946,33.59996777500001]]]}},{"type":"Feature","id":"40608:503036194","properties":{"id":"40608:503036194","meshCode":"503036194","cityCode":"40608","city":"大任町","lat":33.5958598,"lon":130.8687598,"areaKm2":1.07e-05,"populated2020":false,"population2020":null,"populationNote":"境界またぎ・原典収録外のため自治体内人口は未集計"},"geometry":{"type":"Polygon","coordinates":[[[130.8687891825529,33.59583333333333],[130.86875,33.59583333333333],[130.86875,33.59588632163637],[130.8687891825529,33.59583333333333]]]}},{"type":"Feature","id":"40608:503036262","properties":{"id":"40608:503036262","meshCode":"503036262","cityCode":"40608","city":"大任町","lat":33.6022589,"lon":130.8364597,"areaKm2":0.0659967,"populated2020":true,"population2020":null,"populationNote":"境界またぎ・原典収録外のため自治体内人口は未集計"},"geometry":{"type":"Polygon","coordinates":[[[130.8375,33.60095085234468],[130.83661917,33.60071],[130.836291115,33.600929162],[130.83608027200003,33.601291667],[130.835405279,33.601938613],[130.835628327,33.603419721],[130.835354449,33.60374],[130.834764721,33.604026387000005],[130.8347083011493,33.604166666666664],[130.8375,33.604166666666664],[130.8375,33.60095085234468]]]}},{"type":"Feature","id":"40608:503036271","properties":{"id":"40608:503036271","meshCode":"503036271","cityCode":"40608","city":"大任町","lat":33.6020833,"lon":130.840625,"areaKm2":0.2390755,"populated2020":true,"population2020":36.0236,"populationNote":"2020年基準の国交省調整値"},"geometry":{"type":"Polygon","coordinates":[[[130.84122917,33.600023054],[130.839840272,33.600922495],[130.838285279,33.600871946],[130.83772389100002,33.60099027900001],[130.8375,33.60095085234468],[130.8375,33.604166666666664],[130.84375,33.604166666666664],[130.84375,33.6],[130.84122917,33.600023054]]]}},{"type":"Feature","id":"40608:503036272","properties":{"id":"40608:503036272","meshCode":"503036272","cityCode":"40608","city":"大任町","lat":33.6020833,"lon":130.846875,"areaKm2":0.2680313,"populated2020":true,"population2020":26.4403,"populationNote":"2020年基準の国交省調整値"},"geometry":{"type":"Polygon","coordinates":[[[130.84375,33.6],[130.84375,33.604166666666664],[130.85,33.604166666666664],[130.85,33.6],[130.84375,33.6]]]}},{"type":"Feature","id":"40608:503036281","properties":{"id":"40608:503036281","meshCode":"503036281","cityCode":"40608","city":"大任町","lat":33.6020833,"lon":130.853125,"areaKm2":0.2680312,"populated2020":true,"population2020":97.4918,"populationNote":"2020年基準の国交省調整値"},"geometry":{"type":"Polygon","coordinates":[[[130.85,33.6],[130.85,33.604166666666664],[130.85625,33.60416666666666],[130.85625,33.6],[130.85,33.6]]]}},{"type":"Feature","id":"40608:503036282","properties":{"id":"40608:503036282","meshCode":"503036282","cityCode":"40608","city":"大任町","lat":33.6020833,"lon":130.859375,"areaKm2":0.2680311,"populated2020":true,"population2020":118.2645,"populationNote":"2020年基準の国交省調整値"},"geometry":{"type":"Polygon","coordinates":[[[130.85625,33.6],[130.85625,33.60416666666666],[130.8625,33.60416666666666],[130.8625,33.6],[130.85625,33.6]]]}},{"type":"Feature","id":"40608:503036291","properties":{"id":"40608:503036291","meshCode":"503036291","cityCode":"40608","city":"大任町","lat":33.602096,"lon":130.8636051,"areaKm2":0.0955107,"populated2020":false,"population2020":null,"populationNote":"境界またぎ・原典収録外のため自治体内人口は未集計"},"geometry":{"type":"Polygon","coordinates":[[[130.86422916872195,33.60416666666666],[130.863956939,33.603849999999994],[130.86369083,33.603678892],[130.863633333,33.603527495],[130.86421166,33.603231946],[130.86464,33.602515279],[130.864616394,33.602318892],[130.865016109,33.60122055899999],[130.865526939,33.600471667],[130.865979663,33.6],[130.8625,33.6],[130.8625,33.60416666666666],[130.86422916872195,33.60416666666666]]]}},{"type":"Feature","id":"40608:503036264","properties":{"id":"40608:503036264","meshCode":"503036264","cityCode":"40608","city":"大任町","lat":33.60625,"lon":130.834375,"areaKm2":0.1554569,"populated2020":true,"population2020":5.7979,"populationNote":"2020年基準の国交省調整値"},"geometry":{"type":"Polygon","coordinates":[[[130.834694449,33.604201108],[130.834574449,33.60438444100001],[130.83444166,33.604433054],[130.833082218,33.604496108],[130.832841115,33.605288054],[130.832217224,33.60549972100001],[130.833211388,33.606294999999996],[130.833734449,33.606456108],[130.833876667,33.606974721],[130.834107497,33.607245829],[130.834514994,33.607287225],[130.834933891,33.607488333],[130.835198054,33.60751694599999],[130.835600272,33.60791944100001],[130.8367958376371,33.608333333333334],[130.8375,33.60833333333333],[130.8375,33.604166666666664],[130.834694449,33.604201108]]]}},{"type":"Feature","id":"40608:503036273","properties":{"id":"40608:503036273","meshCode":"503036273","cityCode":"40608","city":"大任町","lat":33.60625,"lon":130.840625,"areaKm2":0.2680187,"populated2020":true,"population2020":29.6974,"populationNote":"2020年基準の国交省調整値"},"geometry":{"type":"Polygon","coordinates":[[[130.8375,33.604166666666664],[130.8375,33.60833333333333],[130.84375,33.60833333333333],[130.84375,33.604166666666664],[130.8375,33.604166666666664]]]}},{"type":"Feature","id":"40608:503036274","properties":{"id":"40608:503036274","meshCode":"503036274","cityCode":"40608","city":"大任町","lat":33.60625,"lon":130.846875,"areaKm2":0.2680186,"populated2020":true,"population2020":346.1525,"populationNote":"2020年基準の国交省調整値"},"geometry":{"type":"Polygon","coordinates":[[[130.84375,33.604166666666664],[130.84375,33.60833333333333],[130.85,33.60833333333333],[130.85,33.604166666666664],[130.84375,33.604166666666664]]]}},{"type":"Feature","id":"40608:503036283","properties":{"id":"40608:503036283","meshCode":"503036283","cityCode":"40608","city":"大任町","lat":33.60625,"lon":130.853125,"areaKm2":0.2680185,"populated2020":true,"population2020":106.4004,"populationNote":"2020年基準の国交省調整値"},"geometry":{"type":"Polygon","coordinates":[[[130.85,33.604166666666664],[130.85,33.60833333333333],[130.85625,33.608333333333334],[130.85625,33.60416666666666],[130.85,33.604166666666664]]]}},{"type":"Feature","id":"40608:503036284","properties":{"id":"40608:503036284","meshCode":"503036284","cityCode":"40608","city":"大任町","lat":33.60625,"lon":130.859375,"areaKm2":0.2680184,"populated2020":true,"population2020":55.1216,"populationNote":"2020年基準の国交省調整値"},"geometry":{"type":"Polygon","coordinates":[[[130.85625,33.60416666666666],[130.85625,33.608333333333334],[130.8625,33.608333333333334],[130.8625,33.60416666666666],[130.85625,33.60416666666666]]]}},{"type":"Feature","id":"40608:503036293","properties":{"id":"40608:503036293","meshCode":"503036293","cityCode":"40608","city":"大任町","lat":33.6061822,"lon":130.8629999,"areaKm2":0.076193,"populated2020":true,"population2020":null,"populationNote":"境界またぎ・原典収録外のため自治体内人口は未集計"},"geometry":{"type":"Polygon","coordinates":[[[130.864734384,33.608333333000004],[130.86511083,33.60785333300001],[130.865116394,33.60768305399999],[130.864338054,33.606790000000004],[130.863592218,33.60638055900001],[130.863493333,33.606109721],[130.863620558,33.60549916200001],[130.864153333,33.605062225],[130.86451917,33.604618892000005],[130.864529728,33.604437774999994],[130.86422916872195,33.60416666666666],[130.8625,33.60416666666666],[130.8625,33.608333333333334],[130.864734384,33.608333333000004]]]}},{"type":"Feature","id":"40608:503036362","properties":{"id":"40608:503036362","meshCode":"503036362","cityCode":"40608","city":"大任町","lat":33.6086413,"lon":130.8371433,"areaKm2":0.0051278,"populated2020":false,"population2020":null,"populationNote":"境界またぎ・原典収録外のため自治体内人口は未集計"},"geometry":{"type":"Polygon","coordinates":[[[130.83683778200003,33.60835527900001],[130.836743333,33.608840559],[130.8375,33.60919869716151],[130.8375,33.60833333333333],[130.83683778200003,33.60835527900001]]]}},{"type":"Feature","id":"40608:503036371","properties":{"id":"40608:503036371","meshCode":"503036371","cityCode":"40608","city":"大任町","lat":33.6104167,"lon":130.840625,"areaKm2":0.2093613,"populated2020":true,"population2020":35.4494,"populationNote":"2020年基準の国交省調整値"},"geometry":{"type":"Polygon","coordinates":[[[130.8375,33.60919869716151],[130.837948885,33.609446108],[130.838257782,33.609973892],[130.838745279,33.610139162],[130.838933606,33.610050279],[130.839187782,33.610081946],[130.839645551,33.610612495],[130.839751388,33.611178054],[130.839638054,33.611692774999995],[130.83985111500002,33.61220972099999],[130.8398285805484,33.61249999999999],[130.84375,33.6125],[130.84375,33.60833333333333],[130.8375,33.60833333333333],[130.8375,33.60919869716151]]]}},{"type":"Feature","id":"40608:503036372","properties":{"id":"40608:503036372","meshCode":"503036372","cityCode":"40608","city":"大任町","lat":33.6104167,"lon":130.846875,"areaKm2":0.2680059,"populated2020":true,"population2020":286.3569,"populationNote":"2020年基準の国交省調整値"},"geometry":{"type":"Polygon","coordinates":[[[130.84375,33.60833333333333],[130.84375,33.6125],[130.85,33.6125],[130.85,33.60833333333333],[130.84375,33.60833333333333]]]}},{"type":"Feature","id":"40608:503036381","properties":{"id":"40608:503036381","meshCode":"503036381","cityCode":"40608","city":"大任町","lat":33.6104167,"lon":130.853125,"areaKm2":0.2680058,"populated2020":true,"population2020":96.9793,"populationNote":"2020年基準の国交省調整値"},"geometry":{"type":"Polygon","coordinates":[[[130.85,33.60833333333333],[130.85,33.6125],[130.85625,33.6125],[130.85625,33.608333333333334],[130.85,33.60833333333333]]]}},{"type":"Feature","id":"40608:503036382","properties":{"id":"40608:503036382","meshCode":"503036382","cityCode":"40608","city":"大任町","lat":33.6104167,"lon":130.859375,"areaKm2":0.2680057,"populated2020":true,"population2020":69.7644,"populationNote":"2020年基準の国交省調整値"},"geometry":{"type":"Polygon","coordinates":[[[130.85625,33.608333333333334],[130.85625,33.6125],[130.8625,33.61249999999999],[130.8625,33.608333333333334],[130.85625,33.608333333333334]]]}},{"type":"Feature","id":"40608:503036391","properties":{"id":"40608:503036391","meshCode":"503036391","cityCode":"40608","city":"大任町","lat":33.6103817,"lon":130.863322,"areaKm2":0.0649137,"populated2020":true,"population2020":null,"populationNote":"境界またぎ・原典収録外のため自治体内人口は未集計"},"geometry":{"type":"Polygon","coordinates":[[[130.863069728,33.612375],[130.863440558,33.611820828999996],[130.863785837,33.611492495],[130.864176109,33.610716387],[130.86409917,33.610477495],[130.864360272,33.610006387],[130.864407224,33.609740279],[130.864093333,33.609537495],[130.864067782,33.609437495],[130.864148612,33.609264721],[130.864289442,33.609181667],[130.864493061,33.608623054],[130.86473438374358,33.60833333333333],[130.8625,33.608333333333334],[130.8625,33.61249999999999],[130.8630616448878,33.6125],[130.863069728,33.612375]]]}},{"type":"Feature","id":"40608:503036373","properties":{"id":"40608:503036373","meshCode":"503036373","cityCode":"40608","city":"大任町","lat":33.6146017,"lon":130.8424662,"areaKm2":0.0894498,"populated2020":true,"population2020":null,"populationNote":"境界またぎ・原典収録外のため自治体内人口は未集計"},"geometry":{"type":"Polygon","coordinates":[[[130.839823606,33.612521108],[130.839846939,33.61261],[130.840733606,33.613210279],[130.84094444900003,33.613837225000005],[130.841289728,33.613982495],[130.841174994,33.614551946],[130.841232218,33.614702225],[130.841634449,33.614831386999995],[130.842249442,33.615358892],[130.842792503,33.615395],[130.843076109,33.615526387],[130.842810558,33.615871667],[130.842727782,33.61615110799999],[130.84375,33.61660412870187],[130.84375,33.6125],[130.839823606,33.612521108]]]}},{"type":"Feature","id":"40608:503036374","properties":{"id":"40608:503036374","meshCode":"503036374","cityCode":"40608","city":"大任町","lat":33.6145833,"lon":130.846875,"areaKm2":0.2679597,"populated2020":true,"population2020":137.831,"populationNote":"2020年基準の国交省調整値"},"geometry":{"type":"Polygon","coordinates":[[[130.843796109,33.61663638700001],[130.85,33.61666666666667],[130.85,33.6125],[130.84375,33.6125],[130.843796109,33.61663638700001]]]}},{"type":"Feature","id":"40608:503036383","properties":{"id":"40608:503036383","meshCode":"503036383","cityCode":"40608","city":"大任町","lat":33.6145833,"lon":130.853125,"areaKm2":0.2679931,"populated2020":true,"population2020":34.5538,"populationNote":"2020年基準の国交省調整値"},"geometry":{"type":"Polygon","coordinates":[[[130.85,33.6125],[130.85,33.61666666666667],[130.85625,33.61666666666667],[130.85625,33.6125],[130.85,33.6125]]]}},{"type":"Feature","id":"40608:503036384","properties":{"id":"40608:503036384","meshCode":"503036384","cityCode":"40608","city":"大任町","lat":33.6145833,"lon":130.859375,"areaKm2":0.2608556,"populated2020":true,"population2020":96.4271,"populationNote":"2020年基準の国交省調整値"},"geometry":{"type":"Polygon","coordinates":[[[130.86183846984346,33.61666666666667],[130.86170333300004,33.616196387],[130.861788612,33.616060000000004],[130.862153606,33.61577416200001],[130.8625,33.61529840238555],[130.8625,33.61249999999999],[130.85625,33.6125],[130.85625,33.61666666666667],[130.86183846984346,33.61666666666667]]]}},{"type":"Feature","id":"40608:503036393","properties":{"id":"40608:503036393","meshCode":"503036393","cityCode":"40608","city":"大任町","lat":33.6138367,"lon":130.8629598,"areaKm2":0.0175833,"populated2020":true,"population2020":null,"populationNote":"境界またぎ・原典収録外のため自治体内人口は未集計"},"geometry":{"type":"Polygon","coordinates":[[[130.86250083,33.615297225],[130.863467497,33.614014440999995],[130.863212218,33.613471108000006],[130.863044994,33.612757495],[130.8630616448878,33.6125],[130.8625,33.61249999999999],[130.86250083,33.615297225]]]}},{"type":"Feature","id":"40608:503036472","properties":{"id":"40608:503036472","meshCode":"503036472","cityCode":"40608","city":"大任町","lat":33.61875,"lon":130.846875,"areaKm2":0.2106159,"populated2020":true,"population2020":null,"populationNote":"境界またぎ・原典収録外のため自治体内人口は未集計"},"geometry":{"type":"Polygon","coordinates":[[[130.843869416,33.616666667000004],[130.845949728,33.61744444100001],[130.844847224,33.61987555900001],[130.84427333578597,33.62083333333333],[130.85,33.62083333333332],[130.85,33.61666666666667],[130.843869416,33.616666667000004]]]}},{"type":"Feature","id":"40608:503036481","properties":{"id":"40608:503036481","meshCode":"503036481","cityCode":"40608","city":"大任町","lat":33.61875,"lon":130.853125,"areaKm2":0.2679804,"populated2020":true,"population2020":169.089,"populationNote":"2020年基準の国交省調整値"},"geometry":{"type":"Polygon","coordinates":[[[130.85,33.61666666666667],[130.85,33.62083333333332],[130.85625,33.62083333333332],[130.85625,33.61666666666667],[130.85,33.61666666666667]]]}},{"type":"Feature","id":"40608:503036482","properties":{"id":"40608:503036482","meshCode":"503036482","cityCode":"40608","city":"大任町","lat":33.61875,"lon":130.859375,"areaKm2":0.2099224,"populated2020":true,"population2020":17.5727,"populationNote":"2020年基準の国交省調整値"},"geometry":{"type":"Polygon","coordinates":[[[130.85989,33.620676386999996],[130.86018166,33.620250279],[130.860234163,33.619892225],[130.861165837,33.61890582899999],[130.861312776,33.618526667],[130.861743606,33.617958054],[130.861848054,33.617836667],[130.862311946,33.617632225],[130.862291946,33.617434162],[130.86183846984346,33.61666666666667],[130.85625,33.61666666666667],[130.85625,33.62083333333332],[130.85994022703233,33.62083333333332],[130.85989,33.620676386999996]]]}},{"type":"Feature","id":"40608:503036473","properties":{"id":"40608:503036473","meshCode":"503036473","cityCode":"40608","city":"大任町","lat":33.6239286,"lon":130.8432867,"areaKm2":0.0214924,"populated2020":true,"population2020":null,"populationNote":"境界またぎ・原典収録外のため自治体内人口は未集計"},"geometry":{"type":"Polygon","coordinates":[[[130.84375,33.622114182025015],[130.843063333,33.62341194599999],[130.842320363,33.62500000000001],[130.84375,33.625000000000014],[130.84375,33.622114182025015]]]}},{"type":"Feature","id":"40608:503036474","properties":{"id":"40608:503036474","meshCode":"503036474","cityCode":"40608","city":"大任町","lat":33.6229167,"lon":130.846875,"areaKm2":0.2637878,"populated2020":true,"population2020":100.307,"populationNote":"2020年基準の国交省調整値"},"geometry":{"type":"Polygon","coordinates":[[[130.84427333578597,33.62083333333333],[130.844184994,33.62137722500001],[130.84375,33.622114182025015],[130.84375,33.625000000000014],[130.85,33.62500000000001],[130.85,33.62083333333332],[130.84427333578597,33.62083333333333]]]}},{"type":"Feature","id":"40608:503036483","properties":{"id":"40608:503036483","meshCode":"503036483","cityCode":"40608","city":"大任町","lat":33.6229167,"lon":130.853125,"areaKm2":0.2679676,"populated2020":true,"population2020":117.6995,"populationNote":"2020年基準の国交省調整値"},"geometry":{"type":"Polygon","coordinates":[[[130.85,33.62083333333332],[130.85,33.62500000000001],[130.85625,33.62500000000001],[130.85625,33.62083333333332],[130.85,33.62083333333332]]]}},{"type":"Feature","id":"40608:503036484","properties":{"id":"40608:503036484","meshCode":"503036484","cityCode":"40608","city":"大任町","lat":33.6229167,"lon":130.859375,"areaKm2":0.1742254,"populated2020":true,"population2020":44.0704,"populationNote":"2020年基準の国交省調整値"},"geometry":{"type":"Polygon","coordinates":[[[130.86138452700004,33.62500000000001],[130.860833061,33.624529720999995],[130.860495279,33.624127495],[130.860465551,33.623820829],[130.860583891,33.623443613],[130.86040917,33.623202775],[130.86012832700004,33.623051667],[130.860063333,33.62284305399999],[130.860047497,33.622158892],[130.859869728,33.621611666999996],[130.859997497,33.62117055900001],[130.85994022703233,33.62083333333332],[130.85625,33.62083333333332],[130.85625,33.62500000000001],[130.86138452700004,33.62500000000001]]]}},{"type":"Feature","id":"40608:503036571","properties":{"id":"40608:503036571","meshCode":"503036571","cityCode":"40608","city":"大任町","lat":33.6269097,"lon":130.8425577,"areaKm2":0.1210361,"populated2020":true,"population2020":null,"populationNote":"境界またぎ・原典収録外のため自治体内人口は未集計"},"geometry":{"type":"Polygon","coordinates":[[[130.842320363,33.62500000000001],[130.841203606,33.627242225],[130.840098054,33.62785582899999],[130.839501115,33.628296387],[130.83955917,33.62879805400001],[130.83939347413119,33.62916666666666],[130.84375,33.62916666666667],[130.84375,33.625000000000014],[130.842320363,33.62500000000001]]]}},{"type":"Feature","id":"40608:503036572","properties":{"id":"40608:503036572","meshCode":"503036572","cityCode":"40608","city":"大任町","lat":33.6270833,"lon":130.846875,"areaKm2":0.267955,"populated2020":true,"population2020":160.3426,"populationNote":"2020年基準の国交省調整値"},"geometry":{"type":"Polygon","coordinates":[[[130.84375,33.625000000000014],[130.84375,33.62916666666667],[130.85,33.62916666666666],[130.85,33.62500000000001],[130.84375,33.625000000000014]]]}},{"type":"Feature","id":"40608:503036581","properties":{"id":"40608:503036581","meshCode":"503036581","cityCode":"40608","city":"大任町","lat":33.6270833,"lon":130.853125,"areaKm2":0.2679549,"populated2020":true,"population2020":108.1903,"populationNote":"2020年基準の国交省調整値"},"geometry":{"type":"Polygon","coordinates":[[[130.85,33.62500000000001],[130.85,33.62916666666666],[130.85625,33.62916666666666],[130.85625,33.62500000000001],[130.85,33.62500000000001]]]}},{"type":"Feature","id":"40608:503036582","properties":{"id":"40608:503036582","meshCode":"503036582","cityCode":"40608","city":"大任町","lat":33.6271358,"lon":130.8576864,"areaKm2":0.1494047,"populated2020":false,"population2020":null,"populationNote":"境界またぎ・原典収録外のため自治体内人口は未集計"},"geometry":{"type":"Polygon","coordinates":[[[130.859394721,33.629024162],[130.859415279,33.628193333],[130.858988054,33.627582225],[130.859204163,33.626919721],[130.860167497,33.626029441],[130.860474163,33.62583361299999],[130.860643606,33.625400829],[130.861254721,33.62529638699999],[130.861422776,33.62511749499999],[130.86138452700004,33.62500000000001],[130.85625,33.62500000000001],[130.85625,33.62916666666666],[130.85931223118217,33.62916666666666],[130.859394721,33.629024162]]]}},{"type":"Feature","id":"40608:503036564","properties":{"id":"40608:503036564","meshCode":"503036564","cityCode":"40608","city":"大任町","lat":33.6320419,"lon":130.8368596,"areaKm2":0.0288972,"populated2020":true,"population2020":null,"populationNote":"境界またぎ・原典収録外のため自治体内人口は未集計"},"geometry":{"type":"Polygon","coordinates":[[[130.8375,33.630649431610586],[130.836083061,33.632241108],[130.835974994,33.632772495],[130.83610885907308,33.63333333333334],[130.8375,33.63333333333333],[130.8375,33.630649431610586]]]}},{"type":"Feature","id":"40608:503036573","properties":{"id":"40608:503036573","meshCode":"503036573","cityCode":"40608","city":"大任町","lat":33.63125,"lon":130.840625,"areaKm2":0.2534323,"populated2020":true,"population2020":87.1728,"populationNote":"2020年基準の国交省調整値"},"geometry":{"type":"Polygon","coordinates":[[[130.83939347413119,33.62916666666666],[130.83875083,33.62974472100001],[130.838183606,33.630026107999996],[130.8375,33.630649431610586],[130.8375,33.63333333333333],[130.84375,33.63333333333334],[130.84375,33.62916666666667],[130.83939347413119,33.62916666666666]]]}},{"type":"Feature","id":"40608:503036574","properties":{"id":"40608:503036574","meshCode":"503036574","cityCode":"40608","city":"大任町","lat":33.63125,"lon":130.846875,"areaKm2":0.2679423,"populated2020":true,"population2020":170.3845,"populationNote":"2020年基準の国交省調整値"},"geometry":{"type":"Polygon","coordinates":[[[130.84375,33.62916666666667],[130.84375,33.63333333333334],[130.85,33.63333333333333],[130.85,33.62916666666666],[130.84375,33.62916666666667]]]}},{"type":"Feature","id":"40608:503036583","properties":{"id":"40608:503036583","meshCode":"503036583","cityCode":"40608","city":"大任町","lat":33.63125,"lon":130.853125,"areaKm2":0.2679422,"populated2020":false,"population2020":null,"populationNote":"境界またぎ・原典収録外のため自治体内人口は未集計"},"geometry":{"type":"Polygon","coordinates":[[[130.85,33.62916666666666],[130.85,33.63333333333333],[130.85625,33.63333333333334],[130.85625,33.62916666666666],[130.85,33.62916666666666]]]}},{"type":"Feature","id":"40608:503036584","properties":{"id":"40608:503036584","meshCode":"503036584","cityCode":"40608","city":"大任町","lat":33.6311903,"lon":130.8578059,"areaKm2":0.1277599,"populated2020":true,"population2020":null,"populationNote":"境界またぎ・原典収録外のため自治体内人口は未集計"},"geometry":{"type":"Polygon","coordinates":[[[130.859292944,33.633333333],[130.859033606,33.632538613],[130.859307224,33.631277495],[130.859513606,33.63076],[130.859127497,33.62977389200001],[130.859164994,33.62943333300001],[130.85931223118217,33.62916666666666],[130.85625,33.62916666666666],[130.85625,33.63333333333334],[130.859292944,33.633333333]]]}},{"type":"Feature","id":"40608:503036662","properties":{"id":"40608:503036662","meshCode":"503036662","cityCode":"40608","city":"大任町","lat":33.6346886,"lon":130.836581,"areaKm2":0.0384747,"populated2020":true,"population2020":null,"populationNote":"境界またぎ・原典収録外のため自治体内人口は未集計"},"geometry":{"type":"Polygon","coordinates":[[[130.83610885907308,33.63333333333334],[130.835943333,33.634219162],[130.835650272,33.634722495],[130.83604917,33.635211387],[130.83624166,33.635755279],[130.83733083,33.635793333],[130.8375,33.63606736593577],[130.8375,33.63333333333333],[130.83610885907308,33.63333333333334]]]}},{"type":"Feature","id":"40608:503036671","properties":{"id":"40608:503036671","meshCode":"503036671","cityCode":"40608","city":"大任町","lat":33.6354167,"lon":130.840625,"areaKm2":0.2667941,"populated2020":true,"population2020":91.4737,"populationNote":"2020年基準の国交省調整値"},"geometry":{"type":"Polygon","coordinates":[[[130.83754,33.636164162],[130.837613333,33.636341387],[130.83760341331092,33.6375],[130.84375,33.637499999999996],[130.84375,33.63333333333334],[130.8375,33.63333333333333],[130.83754,33.636164162]]]}},{"type":"Feature","id":"40608:503036672","properties":{"id":"40608:503036672","meshCode":"503036672","cityCode":"40608","city":"大任町","lat":33.6354167,"lon":130.846875,"areaKm2":0.2679296,"populated2020":true,"population2020":188.3251,"populationNote":"2020年基準の国交省調整値"},"geometry":{"type":"Polygon","coordinates":[[[130.84375,33.63333333333334],[130.84375,33.637499999999996],[130.85,33.637499999999996],[130.85,33.63333333333333],[130.84375,33.63333333333334]]]}},{"type":"Feature","id":"40608:503036681","properties":{"id":"40608:503036681","meshCode":"503036681","cityCode":"40608","city":"大任町","lat":33.6354167,"lon":130.853125,"areaKm2":0.2679295,"populated2020":true,"population2020":9.8572,"populationNote":"2020年基準の国交省調整値"},"geometry":{"type":"Polygon","coordinates":[[[130.85,33.63333333333333],[130.85,33.637499999999996],[130.85625,33.6375],[130.85625,33.63333333333334],[130.85,33.63333333333333]]]}},{"type":"Feature","id":"40608:503036682","properties":{"id":"40608:503036682","meshCode":"503036682","cityCode":"40608","city":"大任町","lat":33.6354408,"lon":130.8575682,"areaKm2":0.1251964,"populated2020":true,"population2020":null,"populationNote":"境界またぎ・原典収録外のため自治体内人口は未集計"},"geometry":{"type":"Polygon","coordinates":[[[130.859633061,33.63747805399999],[130.859590558,33.637258892000006],[130.859464994,33.637128892],[130.859044449,33.637011946],[130.858893333,33.636575279000006],[130.858503891,33.636065829],[130.858870272,33.635698613],[130.858907497,33.635246108],[130.859407224,33.635028612999996],[130.859525551,33.633997494999996],[130.85929294410178,33.63333333333333],[130.85625,33.63333333333334],[130.85625,33.6375],[130.859633061,33.63747805399999]]]}},{"type":"Feature","id":"40608:503036673","properties":{"id":"40608:503036673","meshCode":"503036673","cityCode":"40608","city":"大任町","lat":33.6395242,"lon":130.8433834,"areaKm2":0.0867029,"populated2020":true,"population2020":null,"populationNote":"境界またぎ・原典収録外のため自治体内人口は未集計"},"geometry":{"type":"Polygon","coordinates":[[[130.837608054,33.637526387],[130.840093333,33.638289721],[130.840243333,33.638469441],[130.840863333,33.638678892],[130.841370272,33.638714721],[130.84215,33.63855194599999],[130.842742503,33.638937775],[130.843,33.639121387],[130.843021115,33.639612775],[130.843249728,33.639999162],[130.842701388,33.640366387],[130.842458612,33.640748333],[130.842191115,33.640982495],[130.842087782,33.641161946],[130.842208054,33.64136222500001],[130.84213708216666,33.641666666666666],[130.84375,33.64166666666668],[130.84375,33.637499999999996],[130.837608054,33.637526387]]]}},{"type":"Feature","id":"40608:503036674","properties":{"id":"40608:503036674","meshCode":"503036674","cityCode":"40608","city":"大任町","lat":33.6395833,"lon":130.846875,"areaKm2":0.2679169,"populated2020":true,"population2020":120.4839,"populationNote":"2020年基準の国交省調整値"},"geometry":{"type":"Polygon","coordinates":[[[130.84375,33.637499999999996],[130.84375,33.64166666666668],[130.85,33.641666666666666],[130.85,33.637499999999996],[130.84375,33.637499999999996]]]}},{"type":"Feature","id":"40608:503036683","properties":{"id":"40608:503036683","meshCode":"503036683","cityCode":"40608","city":"大任町","lat":33.6395833,"lon":130.853125,"areaKm2":0.2679168,"populated2020":true,"population2020":145.9445,"populationNote":"2020年基準の国交省調整値"},"geometry":{"type":"Polygon","coordinates":[[[130.85,33.637499999999996],[130.85,33.641666666666666],[130.85625,33.64166666666667],[130.85625,33.6375],[130.85,33.637499999999996]]]}},{"type":"Feature","id":"40608:503036684","properties":{"id":"40608:503036684","meshCode":"503036684","cityCode":"40608","city":"大任町","lat":33.6395833,"lon":130.859375,"areaKm2":0.1414265,"populated2020":true,"population2020":null,"populationNote":"境界またぎ・原典収録外のため自治体内人口は未集計"},"geometry":{"type":"Polygon","coordinates":[[[130.858017497,33.64162138700001],[130.85876944200004,33.641119162],[130.859143061,33.640748613],[130.859141115,33.64025027899999],[130.859951946,33.639298613],[130.860034994,33.638836667],[130.860533061,33.638574721000005],[130.860468054,33.638180829],[130.860287224,33.63800416200001],[130.859923333,33.637842225],[130.85964226975943,33.6375],[130.85625,33.6375],[130.85625,33.64166666666667],[130.858017497,33.64162138700001]]]}},{"type":"Feature","id":"40608:503036771","properties":{"id":"40608:503036771","meshCode":"503036771","cityCode":"40608","city":"大任町","lat":33.6433408,"lon":130.8430308,"areaKm2":0.040271,"populated2020":true,"population2020":null,"populationNote":"境界またぎ・原典収録外のため自治体内人口は未集計"},"geometry":{"type":"Polygon","coordinates":[[[130.842137082,33.64166666700001],[130.84205083,33.641973613],[130.842337224,33.642453612999994],[130.842206109,33.643151108],[130.842553061,33.643787775],[130.843187497,33.644330000000004],[130.843258054,33.644808333],[130.84375,33.64474646641547],[130.84375,33.64166666666668],[130.842137082,33.64166666700001]]]}},{"type":"Feature","id":"40608:503036772","properties":{"id":"40608:503036772","meshCode":"503036772","cityCode":"40608","city":"大任町","lat":33.64375,"lon":130.846875,"areaKm2":0.2414805,"populated2020":true,"population2020":467.3241,"populationNote":"2020年基準の国交省調整値"},"geometry":{"type":"Polygon","coordinates":[[[130.843759442,33.644745279],[130.844358612,33.64474610800001],[130.844843891,33.64488249499999],[130.84512917,33.645001667],[130.845397497,33.645307225],[130.846088885,33.645522495],[130.84670834956685,33.645833333333336],[130.8479349640692,33.645833333333336],[130.848105279,33.645551946],[130.848638612,33.645403054],[130.84932389100004,33.645618054],[130.85,33.645674135],[130.85,33.641666666666666],[130.84375,33.64166666666668],[130.843759442,33.644745279]]]}},{"type":"Feature","id":"40608:503036781","properties":{"id":"40608:503036781","meshCode":"503036781","cityCode":"40608","city":"大任町","lat":33.64375,"lon":130.853125,"areaKm2":0.2632321,"populated2020":true,"population2020":94.6852,"populationNote":"2020年基準の国交省調整値"},"geometry":{"type":"Polygon","coordinates":[[[130.85,33.645674135],[130.85162,33.645784162],[130.852936394,33.645775559],[130.8531111354403,33.645833333333336],[130.8546762974429,33.645833333333336],[130.855463606,33.64570944100001],[130.855847782,33.645828892000004],[130.856205551,33.645550279],[130.85624166,33.645437495],[130.856083061,33.64505194600001],[130.8561,33.644919720999994],[130.85625,33.64478962200857],[130.85625,33.64166666666667],[130.85,33.641666666666666],[130.85,33.645674135]]]}},{"type":"Feature","id":"40608:503036782","properties":{"id":"40608:503036782","meshCode":"503036782","cityCode":"40608","city":"大任町","lat":33.6431985,"lon":130.8568609,"areaKm2":0.0302112,"populated2020":true,"population2020":null,"populationNote":"境界またぎ・原典収録外のため自治体内人口は未集計"},"geometry":{"type":"Polygon","coordinates":[[[130.85625,33.64478962200857],[130.856686667,33.64404472100001],[130.857374163,33.643989441],[130.857582776,33.643885000000004],[130.857423891,33.64351889200001],[130.857477224,33.64309944099999],[130.857173891,33.642494721000006],[130.85721,33.642081667],[130.857444994,33.641906946],[130.85783027200003,33.641828054],[130.857976472302,33.641666666666666],[130.85625,33.64166666666667],[130.85625,33.64478962200857]]]}},{"type":"Feature","id":"40608:503036774","properties":{"id":"40608:503036774","meshCode":"503036774","cityCode":"40608","city":"大任町","lat":33.6459885,"lon":130.8474102,"areaKm2":0.0032439,"populated2020":true,"population2020":null,"populationNote":"境界またぎ・原典収録外のため自治体内人口は未集計"},"geometry":{"type":"Polygon","coordinates":[[[130.84670834956685,33.645833333333336],[130.84765749700003,33.646335559],[130.8479349640692,33.645833333333336],[130.84670834956685,33.645833333333336]]]}},{"type":"Feature","id":"40608:503036783","properties":{"id":"40608:503036783","meshCode":"503036783","cityCode":"40608","city":"大任町","lat":33.6459468,"lon":130.853554,"areaKm2":0.0016782,"populated2020":true,"population2020":null,"populationNote":"境界またぎ・原典収録外のため自治体内人口は未集計"},"geometry":{"type":"Polygon","coordinates":[[[130.8531111354403,33.645833333333336],[130.853438885,33.646095],[130.853906667,33.645924441],[130.8546762974429,33.645833333333336],[130.8531111354403,33.645833333333336]]]}}]}