{"type":"FeatureCollection","metadata":{"cityCode":"40604","city":"糸田町","resolution":1000,"boundaryDate":"2026-01-01","populationLabel":"2020年基準人口（国交省調整値）","method":"標準地域メッシュを行政界で切抜き。中心が区域外のとき区域内代表点を判定点にする。人口不明をゼロにしない。"},"features":[{"type":"Feature","id":"40604:50303660","properties":{"id":"40604:50303660","meshCode":"50303660","cityCode":"40604","city":"糸田町","lat":33.6407934,"lon":130.7585106,"areaKm2":0.1211529,"populated2020":false,"population2020":null,"populationNote":"境界またぎ・収録外等のため人口未集計"},"geometry":{"type":"Polygon","coordinates":[[[130.7625,33.641170455689924],[130.761772776,33.640704162],[130.76091166,33.640558054],[130.760008327,33.640196667000005],[130.759843333,33.640076108],[130.759616109,33.63954972100001],[130.759361388,33.639312775],[130.758246939,33.639249162],[130.757832776,33.639369721],[130.757563061,33.63971666700001],[130.756751388,33.639978892],[130.756183891,33.640475559],[130.755248885,33.64067638699999],[130.755020558,33.640796946],[130.754811388,33.641078333],[130.75457719846298,33.64166666666667],[130.7625,33.641666666666666],[130.7625,33.641170455689924]]]}},{"type":"Feature","id":"40604:50303661","properties":{"id":"40604:50303661","meshCode":"50303661","cityCode":"40604","city":"糸田町","lat":33.6414343,"lon":130.7636743,"areaKm2":0.0118832,"populated2020":true,"population2020":null,"populationNote":"境界またぎ・収録外等のため人口未集計"},"geometry":{"type":"Polygon","coordinates":[[[130.765005279,33.641630279000005],[130.765082776,33.641308892],[130.763638327,33.641226387],[130.762917497,33.641105829000004],[130.7625,33.641170455689924],[130.7625,33.641666666666666],[130.765005279,33.641630279000005]]]}},{"type":"Feature","id":"40604:50303670","properties":{"id":"40604:50303670","meshCode":"50303670","cityCode":"40604","city":"糸田町","lat":33.645831,"lon":130.7574456,"areaKm2":0.8606309,"populated2020":true,"population2020":157.6866,"populationNote":"収録500mメッシュ人口の合算（原典収録外は補完しない）"},"geometry":{"type":"Polygon","coordinates":[[[130.751740558,33.644053054000004],[130.751626667,33.644875829],[130.751607782,33.64608194600001],[130.752057782,33.647164441],[130.752425551,33.64769416200001],[130.752623333,33.64836999999999],[130.75243917,33.648673054],[130.752676394,33.649048333],[130.753394994,33.64903138700001],[130.75348166,33.649103333],[130.753695837,33.64944416200001],[130.753832802,33.65],[130.7625,33.64999999999999],[130.7625,33.641666666666666],[130.75457719846298,33.64166666666667],[130.751618885,33.643795829000005],[130.751740558,33.644053054000004]]]}},{"type":"Feature","id":"40604:50303671","properties":{"id":"40604:50303671","meshCode":"50303671","cityCode":"40604","city":"糸田町","lat":33.6464774,"lon":130.7682248,"areaKm2":0.8864051,"populated2020":true,"population2020":null,"populationNote":"境界またぎ・収録外等のため人口未集計"},"geometry":{"type":"Polygon","coordinates":[[[130.769024994,33.642877775],[130.767732776,33.642685279],[130.765228327,33.64263249500001],[130.76501557690568,33.64166666666667],[130.7625,33.641666666666666],[130.7625,33.64999999999999],[130.775,33.65],[130.775,33.64503216200001],[130.771642218,33.643971107999995],[130.771114163,33.643575559],[130.76962166,33.643161108],[130.769024994,33.642877775]]]}},{"type":"Feature","id":"40604:50303672","properties":{"id":"40604:50303672","meshCode":"50303672","cityCode":"40604","city":"糸田町","lat":33.6482872,"lon":130.7796829,"areaKm2":0.3699592,"populated2020":true,"population2020":null,"populationNote":"境界またぎ・収録外等のため人口未集計"},"geometry":{"type":"Polygon","coordinates":[[[130.77917917,33.646303892000006],[130.775,33.64503216200001],[130.775,33.65],[130.7875,33.65],[130.7875,33.649236695358184],[130.787316667,33.649242775],[130.786878885,33.649044162],[130.785823333,33.649016387],[130.785156939,33.648690829],[130.784880272,33.64834],[130.784019728,33.64783916199999],[130.782119728,33.64731944099999],[130.781480558,33.647497775],[130.781345279,33.647453613],[130.78124166,33.647267495],[130.780954449,33.647035],[130.780647224,33.64687666700001],[130.780131946,33.646758892],[130.77917917,33.646303892000006]]]}},{"type":"Feature","id":"40604:50303673","properties":{"id":"40604:50303673","meshCode":"50303673","cityCode":"40604","city":"糸田町","lat":33.64964,"lon":130.7880119,"areaKm2":0.0078486,"populated2020":true,"population2020":null,"populationNote":"境界またぎ・収録外等のため人口未集計"},"geometry":{"type":"Polygon","coordinates":[[[130.788526394,33.64998],[130.788607782,33.64944972100001],[130.788018612,33.649238613],[130.7875,33.649236695358184],[130.7875,33.65],[130.788526394,33.64998]]]}},{"type":"Feature","id":"40604:50303680","properties":{"id":"40604:50303680","meshCode":"50303680","cityCode":"40604","city":"糸田町","lat":33.6541736,"lon":130.7616718,"areaKm2":0.2865809,"populated2020":false,"population2020":null,"populationNote":"境界またぎ・収録外等のため人口未集計"},"geometry":{"type":"Polygon","coordinates":[[[130.753832802,33.65],[130.755009442,33.65040861300001],[130.755344994,33.65005138699999],[130.755461388,33.65002582900001],[130.75621972800002,33.650292775],[130.756841388,33.650225279],[130.75728166,33.650367225],[130.757569728,33.65075305399999],[130.757791388,33.651266108],[130.759038054,33.651668892],[130.759336667,33.651880559],[130.760602776,33.65354249500001],[130.761148612,33.654057495],[130.761171946,33.654131667],[130.760807224,33.654180559],[130.760493606,33.654324441],[130.760132503,33.654697775],[130.759899442,33.655051666999995],[130.759696939,33.65573444100001],[130.759576109,33.655901667],[130.759238885,33.65620805399998],[130.758924994,33.656657775000006],[130.758267497,33.657043892],[130.758377782,33.65730055900001],[130.758814449,33.657597495000005],[130.75884917,33.65814],[130.7587378597401,33.65833333333333],[130.7625,33.658333333333324],[130.7625,33.64999999999999],[130.753832802,33.65]]]}},{"type":"Feature","id":"40604:50303681","properties":{"id":"40604:50303681","meshCode":"50303681","cityCode":"40604","city":"糸田町","lat":33.6541667,"lon":130.76875,"areaKm2":1.0714962,"populated2020":true,"population2020":899.3936,"populationNote":"収録500mメッシュ人口の合算（原典収録外は補完しない）"},"geometry":{"type":"Polygon","coordinates":[[[130.775,33.65],[130.7625,33.64999999999999],[130.7625,33.658333333333324],[130.775,33.65833333333333],[130.775,33.65]]]}},{"type":"Feature","id":"40604:50303682","properties":{"id":"40604:50303682","meshCode":"50303682","cityCode":"40604","city":"糸田町","lat":33.6541667,"lon":130.78125,"areaKm2":1.0714949,"populated2020":true,"population2020":1985.9766,"populationNote":"収録500mメッシュ人口の合算（原典収録外は補完しない）"},"geometry":{"type":"Polygon","coordinates":[[[130.7875,33.65],[130.775,33.65],[130.775,33.65833333333333],[130.7875,33.65833333333333],[130.7875,33.65]]]}},{"type":"Feature","id":"40604:50303683","properties":{"id":"40604:50303683","meshCode":"50303683","cityCode":"40604","city":"糸田町","lat":33.6545246,"lon":130.7898183,"areaKm2":0.3533625,"populated2020":true,"population2020":null,"populationNote":"境界またぎ・収録外等のため人口未集計"},"geometry":{"type":"Polygon","coordinates":[[[130.79161166,33.654194441],[130.792248885,33.65288277500001],[130.792662776,33.652251387],[130.792631388,33.651288613],[130.792441388,33.650984441],[130.79211083,33.650922225],[130.791476667,33.651405829],[130.790803061,33.651296108],[130.789995551,33.65130861299999],[130.788679442,33.651456387],[130.788584163,33.65138249500001],[130.788514721,33.65077861300001],[130.788524137,33.65],[130.7875,33.65],[130.7875,33.65833333333333],[130.79168430656617,33.658333333333324],[130.791056667,33.657974721],[130.79273250300002,33.65612944099999],[130.791731115,33.65558249499999],[130.791895837,33.655358613000004],[130.792063333,33.655282495],[130.792496109,33.655352225],[130.792882503,33.655274161999984],[130.793048054,33.65512389199999],[130.793058612,33.654999440999994],[130.79302917,33.654558054],[130.79161166,33.654194441]]]}},{"type":"Feature","id":"40604:50303690","properties":{"id":"40604:50303690","meshCode":"50303690","cityCode":"40604","city":"糸田町","lat":33.6616405,"lon":130.7601222,"areaKm2":0.3005916,"populated2020":true,"population2020":3.9874,"populationNote":"収録500mメッシュ人口の合算（原典収録外は補完しない）"},"geometry":{"type":"Polygon","coordinates":[[[130.7587378597401,33.65833333333333],[130.758288885,33.658937494999996],[130.758404163,33.659552495],[130.757991946,33.659915278999996],[130.758278885,33.660741387],[130.758183606,33.661167775],[130.757644449,33.66230500000001],[130.757005279,33.662909721],[130.757195279,33.663499441000006],[130.75715917,33.663611946],[130.75706166,33.663766667],[130.756768885,33.663843054],[130.756513061,33.66404694599999],[130.75926,33.66481000000001],[130.759657497,33.664776387],[130.760734721,33.664380559],[130.761589442,33.664338892],[130.761753061,33.66439138700001],[130.7625,33.665073230155535],[130.7625,33.658333333333324],[130.7587378597401,33.65833333333333]]]}},{"type":"Feature","id":"40604:50303691","properties":{"id":"40604:50303691","meshCode":"50303691","cityCode":"40604","city":"糸田町","lat":33.6621986,"lon":130.7690163,"areaKm2":0.9866572,"populated2020":true,"population2020":null,"populationNote":"境界またぎ・収録外等のため人口未集計"},"geometry":{"type":"Polygon","coordinates":[[[130.775,33.65833333333333],[130.7625,33.658333333333324],[130.7625,33.665073230155535],[130.762626939,33.665201667000005],[130.763647497,33.66555110800001],[130.765530272,33.665219162],[130.76616166,33.664933054],[130.767199442,33.665370559],[130.768081115,33.665557775],[130.768417782,33.665883892],[130.768685837,33.666376387],[130.76964999872055,33.666666666666664],[130.77475238715942,33.66666666666666],[130.775,33.666137946],[130.775,33.65833333333333]]]}},{"type":"Feature","id":"40604:50303692","properties":{"id":"40604:50303692","meshCode":"50303692","cityCode":"40604","city":"糸田町","lat":33.6624333,"lon":130.7811337,"areaKm2":1.0417312,"populated2020":true,"population2020":1814.0499,"populationNote":"収録500mメッシュ人口の合算（原典収録外は補完しない）"},"geometry":{"type":"Polygon","coordinates":[[[130.78725639400002,33.662497775000006],[130.78734917,33.66243861299999],[130.7875,33.66250047310974],[130.7875,33.65833333333333],[130.775,33.65833333333333],[130.775,33.666137946],[130.776045837,33.666395279],[130.77609810593555,33.666666666666664],[130.7875,33.666666666666664],[130.7875,33.66620288026199],[130.787038885,33.66606777500001],[130.78687,33.665898892],[130.786596939,33.665136387],[130.786341115,33.664755559],[130.786454994,33.664377495000004],[130.786672503,33.664288892],[130.786992218,33.663946945999996],[130.787084449,33.66292666700001],[130.78725639400002,33.662497775000006]]]}},{"type":"Feature","id":"40604:50303693","properties":{"id":"40604:50303693","meshCode":"50303693","cityCode":"40604","city":"糸田町","lat":33.6601588,"lon":130.7892046,"areaKm2":0.1371507,"populated2020":true,"population2020":null,"populationNote":"境界またぎ・収録外等のため人口未集計"},"geometry":{"type":"MultiPolygon","coordinates":[[[[130.787781946,33.662616108],[130.788316939,33.662246387],[130.788618885,33.66222944100001],[130.788999728,33.66248722499999],[130.789263891,33.662039441],[130.79018083,33.661515829],[130.79037917,33.661078613],[130.79083416300003,33.660540559000005],[130.790343333,33.660242495],[130.790330558,33.660118054],[130.791141115,33.65998277500002],[130.791383891,33.659856108],[130.791906394,33.659046946],[130.791843061,33.658947775],[130.791468327,33.658772494999994],[130.791566667,33.658457775],[130.791716394,33.658352225],[130.7875,33.65833333333333],[130.7875,33.66250047310974],[130.787781946,33.662616108]]],[[[130.787985551,33.666308892],[130.7875,33.66620288026199],[130.7875,33.666666666666664],[130.7877419202714,33.666666666666664],[130.787985551,33.666308892]]]]}},{"type":"Feature","id":"40604:50304601","properties":{"id":"40604:50304601","meshCode":"50304601","cityCode":"40604","city":"糸田町","lat":33.6669049,"lon":130.7720556,"areaKm2":0.016011,"populated2020":true,"population2020":null,"populationNote":"境界またぎ・収録外等のため人口未集計"},"geometry":{"type":"MultiPolygon","coordinates":[[[[130.77383158135777,33.666666666666664],[130.774600272,33.666984721],[130.77475238715942,33.66666666666666],[130.77383158135777,33.666666666666664]]],[[[130.76964999872055,33.666666666666664],[130.77227,33.66741999999999],[130.772815551,33.66709638700001],[130.772980558,33.666713333000004],[130.773474449,33.66682694600001],[130.77361221828573,33.666666666666664],[130.76964999872055,33.666666666666664]]]]}},{"type":"Feature","id":"40604:50304602","properties":{"id":"40604:50304602","meshCode":"50304602","cityCode":"40604","city":"糸田町","lat":33.6695972,"lon":130.7809362,"areaKm2":0.5566396,"populated2020":true,"population2020":null,"populationNote":"境界またぎ・収録外等のため人口未集計"},"geometry":{"type":"Polygon","coordinates":[[[130.77609810593555,33.666666666666664],[130.775176109,33.669304720999996],[130.778725279,33.670540278999994],[130.77802917,33.672395829],[130.778925279,33.67274444099999],[130.779244449,33.673054162000014],[130.779781946,33.674996108],[130.780261414,33.675],[130.78162083,33.67407027899999],[130.782967224,33.67262749499999],[130.783068885,33.67230861299999],[130.783922776,33.671461667],[130.784465837,33.670570279],[130.784474994,33.66944249499999],[130.784934721,33.669203892],[130.78529861200002,33.668728054],[130.785653333,33.668471387],[130.78627166,33.668164162],[130.786735837,33.667589441],[130.78708722400003,33.667385278999994],[130.7875,33.66695657664862],[130.7875,33.666666666666664],[130.77609810593555,33.666666666666664]]]}},{"type":"Feature","id":"40604:50304603","properties":{"id":"40604:50304603","meshCode":"50304603","cityCode":"40604","city":"糸田町","lat":33.6667647,"lon":130.787581,"areaKm2":0.0003674,"populated2020":true,"population2020":null,"populationNote":"境界またぎ・収録外等のため人口未集計"},"geometry":{"type":"Polygon","coordinates":[[[130.7875,33.66695657664862],[130.78774192,33.666666667],[130.7877419202714,33.666666666666664],[130.7875,33.666666666666664],[130.7875,33.66695657664862]]]}},{"type":"Feature","id":"40604:50304612","properties":{"id":"40604:50304612","meshCode":"50304612","cityCode":"40604","city":"糸田町","lat":33.67504,"lon":130.7800167,"areaKm2":0.0003262,"populated2020":true,"population2020":null,"populationNote":"境界またぎ・収録外等のため人口未集計"},"geometry":{"type":"Polygon","coordinates":[[[130.779786472,33.675],[130.780082218,33.675095000000006],[130.780261414,33.675],[130.779786472,33.675]]]}}]}