{"type":"FeatureCollection","metadata":{"cityCode":"40604","city":"糸田町","resolution":500,"boundaryDate":"2026-01-01","populationLabel":"2020年基準人口（国交省調整値）","method":"標準地域メッシュを行政界で切抜き。中心が区域外のとき区域内代表点を判定点にする。人口不明をゼロにしない。"},"features":[{"type":"Feature","id":"40604:503036603","properties":{"id":"40604:503036603","meshCode":"503036603","cityCode":"40604","city":"糸田町","lat":33.6410096,"lon":130.7555487,"areaKm2":0.0155346,"populated2020":false,"population2020":null,"populationNote":"境界またぎ・原典収録外のため自治体内人口は未集計"},"geometry":{"type":"Polygon","coordinates":[[[130.756008612,33.640543054],[130.755248885,33.64067638699999],[130.755020558,33.640796946],[130.754811388,33.641078333],[130.75457719846298,33.64166666666667],[130.75625,33.641666666666666],[130.75625,33.64042189053779],[130.756008612,33.640543054]]]}},{"type":"Feature","id":"40604:503036604","properties":{"id":"40604:503036604","meshCode":"503036604","cityCode":"40604","city":"糸田町","lat":33.6395833,"lon":130.759375,"areaKm2":0.1056183,"populated2020":false,"population2020":null,"populationNote":"境界またぎ・原典収録外のため自治体内人口は未集計"},"geometry":{"type":"Polygon","coordinates":[[[130.762491388,33.641173333],[130.761772776,33.640704162],[130.76091166,33.640558054],[130.760008327,33.640196667000005],[130.759843333,33.640076108],[130.759495551,33.639391108],[130.759131115,33.639272495],[130.75798917,33.639278613],[130.757563061,33.63971666700001],[130.756751388,33.639978892],[130.75625,33.64042189053779],[130.75625,33.641666666666666],[130.7625,33.641666666666666],[130.762491388,33.641173333]]]}},{"type":"Feature","id":"40604:503036613","properties":{"id":"40604:503036613","meshCode":"503036613","cityCode":"40604","city":"糸田町","lat":33.64146,"lon":130.7637732,"areaKm2":0.0118832,"populated2020":true,"population2020":null,"populationNote":"境界またぎ・原典収録外のため自治体内人口は未集計"},"geometry":{"type":"Polygon","coordinates":[[[130.765005279,33.641630279000005],[130.765082776,33.641308892],[130.763638327,33.641226387],[130.762917497,33.641105829000004],[130.7625,33.641170455689924],[130.7625,33.641666666666666],[130.765005279,33.641630279000005]]]}},{"type":"Feature","id":"40604:503036701","properties":{"id":"40604:503036701","meshCode":"503036701","cityCode":"40604","city":"糸田町","lat":33.64375,"lon":130.753125,"areaKm2":0.165135,"populated2020":false,"population2020":null,"populationNote":"境界またぎ・原典収録外のため自治体内人口は未集計"},"geometry":{"type":"Polygon","coordinates":[[[130.754577198,33.641666667],[130.751618885,33.643795829000005],[130.75177083,33.64421500000001],[130.751626667,33.644875829],[130.7515921022938,33.645833333333336],[130.75625,33.645833333333336],[130.75625,33.641666666666666],[130.754577198,33.641666667]]]}},{"type":"Feature","id":"40604:503036702","properties":{"id":"40604:503036702","meshCode":"503036702","cityCode":"40604","city":"糸田町","lat":33.64375,"lon":130.759375,"areaKm2":0.2679061,"populated2020":false,"population2020":null,"populationNote":"境界またぎ・原典収録外のため自治体内人口は未集計"},"geometry":{"type":"Polygon","coordinates":[[[130.75625,33.641666666666666],[130.75625,33.645833333333336],[130.7625,33.64583333333333],[130.7625,33.641666666666666],[130.75625,33.641666666666666]]]}},{"type":"Feature","id":"40604:503036711","properties":{"id":"40604:503036711","meshCode":"503036711","cityCode":"40604","city":"糸田町","lat":33.64375,"lon":130.765625,"areaKm2":0.2291692,"populated2020":true,"population2020":36.4646,"populationNote":"2020年基準の国交省調整値"},"geometry":{"type":"Polygon","coordinates":[[[130.768714449,33.642831387],[130.767732776,33.642685279],[130.765228327,33.64263249500001],[130.76501557690568,33.64166666666667],[130.7625,33.641666666666666],[130.7625,33.64583333333333],[130.76875,33.64583333333333],[130.768714449,33.642831387]]]}},{"type":"Feature","id":"40604:503036712","properties":{"id":"40604:503036712","meshCode":"503036712","cityCode":"40604","city":"糸田町","lat":33.6443825,"lon":130.770879,"areaKm2":0.1214497,"populated2020":true,"population2020":null,"populationNote":"境界またぎ・原典収録外のため自治体内人口は未集計"},"geometry":{"type":"Polygon","coordinates":[[[130.775,33.64503216200001],[130.771642218,33.643971107999995],[130.771114163,33.643575559],[130.76962166,33.643161108],[130.769024994,33.642877775],[130.76875,33.64283439551502],[130.76875,33.64583333333333],[130.775,33.645833333333336],[130.775,33.64503216200001]]]}},{"type":"Feature","id":"40604:503036721","properties":{"id":"40604:503036721","meshCode":"503036721","cityCode":"40604","city":"糸田町","lat":33.6454606,"lon":130.7756553,"areaKm2":0.0099582,"populated2020":true,"population2020":null,"populationNote":"境界またぎ・原典収録外のため自治体内人口は未集計"},"geometry":{"type":"Polygon","coordinates":[[[130.7774691638239,33.645833333333336],[130.776228612,33.645428613],[130.775,33.64503216200001],[130.775,33.645833333333336],[130.7774691638239,33.645833333333336]]]}},{"type":"Feature","id":"40604:503036703","properties":{"id":"40604:503036703","meshCode":"503036703","cityCode":"40604","city":"糸田町","lat":33.6479167,"lon":130.753125,"areaKm2":0.1596964,"populated2020":false,"population2020":null,"populationNote":"境界またぎ・原典収録外のため自治体内人口は未集計"},"geometry":{"type":"Polygon","coordinates":[[[130.751607782,33.64608194600001],[130.752057782,33.647164441],[130.752425551,33.64769416200001],[130.752623333,33.64836999999999],[130.752426394,33.648628613],[130.752676394,33.649048333],[130.753394994,33.64903138700001],[130.753617224,33.649264162],[130.753832802,33.65],[130.75625,33.64999999999999],[130.75625,33.645833333333336],[130.7515921022938,33.645833333333336],[130.751607782,33.64608194600001]]]}},{"type":"Feature","id":"40604:503036704","properties":{"id":"40604:503036704","meshCode":"503036704","cityCode":"40604","city":"糸田町","lat":33.6479167,"lon":130.759375,"areaKm2":0.2678934,"populated2020":true,"population2020":157.6866,"populationNote":"2020年基準の国交省調整値"},"geometry":{"type":"Polygon","coordinates":[[[130.75625,33.645833333333336],[130.75625,33.64999999999999],[130.7625,33.64999999999999],[130.7625,33.64583333333333],[130.75625,33.645833333333336]]]}},{"type":"Feature","id":"40604:503036713","properties":{"id":"40604:503036713","meshCode":"503036713","cityCode":"40604","city":"糸田町","lat":33.6479167,"lon":130.765625,"areaKm2":0.2678932,"populated2020":true,"population2020":171.2834,"populationNote":"2020年基準の国交省調整値"},"geometry":{"type":"Polygon","coordinates":[[[130.7625,33.64583333333333],[130.7625,33.64999999999999],[130.76875,33.65],[130.76875,33.64583333333333],[130.7625,33.64583333333333]]]}},{"type":"Feature","id":"40604:503036714","properties":{"id":"40604:503036714","meshCode":"503036714","cityCode":"40604","city":"糸田町","lat":33.6479167,"lon":130.771875,"areaKm2":0.267893,"populated2020":true,"population2020":24.2685,"populationNote":"2020年基準の国交省調整値"},"geometry":{"type":"Polygon","coordinates":[[[130.76875,33.64583333333333],[130.76875,33.65],[130.775,33.65],[130.775,33.645833333333336],[130.76875,33.64583333333333]]]}},{"type":"Feature","id":"40604:503036723","properties":{"id":"40604:503036723","meshCode":"503036723","cityCode":"40604","city":"糸田町","lat":33.6479167,"lon":130.778125,"areaKm2":0.2442932,"populated2020":true,"population2020":77.6655,"populationNote":"2020年基準の国交省調整値"},"geometry":{"type":"Polygon","coordinates":[[[130.78124166,33.647267495],[130.780647224,33.64687666700001],[130.780131946,33.646758892],[130.77917917,33.646303892000006],[130.7774691638239,33.645833333333336],[130.775,33.645833333333336],[130.775,33.65],[130.78125,33.65],[130.78124166,33.647267495]]]}},{"type":"Feature","id":"40604:503036724","properties":{"id":"40604:503036724","meshCode":"503036724","cityCode":"40604","city":"糸田町","lat":33.6485704,"lon":130.7831665,"areaKm2":0.1157078,"populated2020":true,"population2020":null,"populationNote":"境界またぎ・原典収録外のため自治体内人口は未集計"},"geometry":{"type":"Polygon","coordinates":[[[130.787316667,33.649242775],[130.786878885,33.649044162],[130.785823333,33.649016387],[130.785156939,33.648690829],[130.784880272,33.64834],[130.783880558,33.647792775000006],[130.782119728,33.64731944099999],[130.781480558,33.647497775],[130.781345279,33.647453613],[130.78125,33.64728599666386],[130.78125,33.65],[130.7875,33.65],[130.7875,33.649236695358184],[130.787316667,33.649242775]]]}},{"type":"Feature","id":"40604:503036733","properties":{"id":"40604:503036733","meshCode":"503036733","cityCode":"40604","city":"糸田町","lat":33.6495956,"lon":130.7880554,"areaKm2":0.0078486,"populated2020":true,"population2020":null,"populationNote":"境界またぎ・原典収録外のため自治体内人口は未集計"},"geometry":{"type":"Polygon","coordinates":[[[130.788526394,33.64998],[130.788607782,33.64944972100001],[130.788018612,33.649238613],[130.7875,33.649236695358184],[130.7875,33.65],[130.788526394,33.64998]]]}},{"type":"Feature","id":"40604:503036801","properties":{"id":"40604:503036801","meshCode":"503036801","cityCode":"40604","city":"糸田町","lat":33.6501875,"lon":130.7548042,"areaKm2":0.0046613,"populated2020":false,"population2020":null,"populationNote":"境界またぎ・原典収録外のため自治体内人口は未集計"},"geometry":{"type":"Polygon","coordinates":[[[130.753855837,33.650056667],[130.754209442,33.650113892],[130.755009442,33.65040861300001],[130.755344994,33.65005138699999],[130.755461388,33.65002582900001],[130.75625,33.65028894861919],[130.75625,33.64999999999999],[130.753832802,33.65],[130.753855837,33.650056667]]]}},{"type":"Feature","id":"40604:503036802","properties":{"id":"40604:503036802","meshCode":"503036802","cityCode":"40604","city":"糸田町","lat":33.6520639,"lon":130.7609804,"areaKm2":0.1459615,"populated2020":false,"population2020":null,"populationNote":"境界またぎ・原典収録外のため自治体内人口は未集計"},"geometry":{"type":"Polygon","coordinates":[[[130.75625,33.65028894861919],[130.756841388,33.650225279],[130.75728166,33.650367225],[130.757569728,33.65075305399999],[130.757791388,33.651266108],[130.759038054,33.651668892],[130.759336667,33.651880559],[130.760602776,33.65354249500001],[130.761148612,33.654057495],[130.761171946,33.654131667],[130.7608799472028,33.65416666666667],[130.7625,33.65416666666667],[130.7625,33.64999999999999],[130.75625,33.64999999999999],[130.75625,33.65028894861919]]]}},{"type":"Feature","id":"40604:503036811","properties":{"id":"40604:503036811","meshCode":"503036811","cityCode":"40604","city":"糸田町","lat":33.6520833,"lon":130.765625,"areaKm2":0.2678805,"populated2020":false,"population2020":null,"populationNote":"境界またぎ・原典収録外のため自治体内人口は未集計"},"geometry":{"type":"Polygon","coordinates":[[[130.7625,33.64999999999999],[130.7625,33.65416666666667],[130.76875,33.65416666666667],[130.76875,33.65],[130.7625,33.64999999999999]]]}},{"type":"Feature","id":"40604:503036812","properties":{"id":"40604:503036812","meshCode":"503036812","cityCode":"40604","city":"糸田町","lat":33.6520833,"lon":130.771875,"areaKm2":0.2678803,"populated2020":true,"population2020":199.4365,"populationNote":"2020年基準の国交省調整値"},"geometry":{"type":"Polygon","coordinates":[[[130.76875,33.65],[130.76875,33.65416666666667],[130.775,33.65416666666667],[130.775,33.65],[130.76875,33.65]]]}},{"type":"Feature","id":"40604:503036821","properties":{"id":"40604:503036821","meshCode":"503036821","cityCode":"40604","city":"糸田町","lat":33.6520833,"lon":130.778125,"areaKm2":0.2678802,"populated2020":true,"population2020":287.7119,"populationNote":"2020年基準の国交省調整値"},"geometry":{"type":"Polygon","coordinates":[[[130.775,33.65],[130.775,33.65416666666667],[130.78125,33.65416666666667],[130.78125,33.65],[130.775,33.65]]]}},{"type":"Feature","id":"40604:503036822","properties":{"id":"40604:503036822","meshCode":"503036822","cityCode":"40604","city":"糸田町","lat":33.6520833,"lon":130.784375,"areaKm2":0.26788,"populated2020":true,"population2020":368.2921,"populationNote":"2020年基準の国交省調整値"},"geometry":{"type":"Polygon","coordinates":[[[130.78125,33.65],[130.78125,33.65416666666667],[130.7875,33.65416666666667],[130.7875,33.65],[130.78125,33.65]]]}},{"type":"Feature","id":"40604:503036831","properties":{"id":"40604:503036831","meshCode":"503036831","cityCode":"40604","city":"糸田町","lat":33.6520833,"lon":130.790625,"areaKm2":0.1558053,"populated2020":true,"population2020":null,"populationNote":"境界またぎ・原典収録外のため自治体内人口は未集計"},"geometry":{"type":"Polygon","coordinates":[[[130.7916218136225,33.65416666666667],[130.792248885,33.65288277500001],[130.792662776,33.652251387],[130.792631388,33.651288613],[130.792441388,33.650984441],[130.79211083,33.650922225],[130.791476667,33.651405829],[130.790803061,33.651296108],[130.789995551,33.65130861299999],[130.788679442,33.651456387],[130.788584163,33.65138249500001],[130.788514721,33.65077861300001],[130.788524137,33.65],[130.7875,33.65],[130.7875,33.65416666666667],[130.7916218136225,33.65416666666667]]]}},{"type":"Feature","id":"40604:503036804","properties":{"id":"40604:503036804","meshCode":"503036804","cityCode":"40604","city":"糸田町","lat":33.65625,"lon":130.759375,"areaKm2":0.1359581,"populated2020":false,"population2020":null,"populationNote":"境界またぎ・原典収録外のため自治体内人口は未集計"},"geometry":{"type":"Polygon","coordinates":[[[130.760807224,33.654180559],[130.760493606,33.654324441],[130.760132503,33.654697775],[130.759899442,33.655051666999995],[130.759696939,33.65573444100001],[130.759238885,33.65620805399998],[130.759071388,33.656509441000004],[130.758789728,33.656768054],[130.758267497,33.657043892],[130.758377782,33.65730055900001],[130.758814449,33.657597495000005],[130.75884917,33.65814],[130.7587378597401,33.65833333333333],[130.7625,33.658333333333324],[130.7625,33.65416666666667],[130.760807224,33.654180559]]]}},{"type":"Feature","id":"40604:503036813","properties":{"id":"40604:503036813","meshCode":"503036813","cityCode":"40604","city":"糸田町","lat":33.65625,"lon":130.765625,"areaKm2":0.2678678,"populated2020":true,"population2020":44.7141,"populationNote":"2020年基準の国交省調整値"},"geometry":{"type":"Polygon","coordinates":[[[130.7625,33.65416666666667],[130.7625,33.658333333333324],[130.76875,33.65833333333332],[130.76875,33.65416666666667],[130.7625,33.65416666666667]]]}},{"type":"Feature","id":"40604:503036814","properties":{"id":"40604:503036814","meshCode":"503036814","cityCode":"40604","city":"糸田町","lat":33.65625,"lon":130.771875,"areaKm2":0.2678676,"populated2020":true,"population2020":655.243,"populationNote":"2020年基準の国交省調整値"},"geometry":{"type":"Polygon","coordinates":[[[130.76875,33.65416666666667],[130.76875,33.65833333333332],[130.775,33.65833333333333],[130.775,33.65416666666667],[130.76875,33.65416666666667]]]}},{"type":"Feature","id":"40604:503036823","properties":{"id":"40604:503036823","meshCode":"503036823","cityCode":"40604","city":"糸田町","lat":33.65625,"lon":130.778125,"areaKm2":0.2678674,"populated2020":true,"population2020":583.2366,"populationNote":"2020年基準の国交省調整値"},"geometry":{"type":"Polygon","coordinates":[[[130.775,33.65416666666667],[130.775,33.65833333333333],[130.78125,33.658333333333324],[130.78125,33.65416666666667],[130.775,33.65416666666667]]]}},{"type":"Feature","id":"40604:503036824","properties":{"id":"40604:503036824","meshCode":"503036824","cityCode":"40604","city":"糸田町","lat":33.65625,"lon":130.784375,"areaKm2":0.2678673,"populated2020":true,"population2020":746.736,"populationNote":"2020年基準の国交省調整値"},"geometry":{"type":"Polygon","coordinates":[[[130.78125,33.65416666666667],[130.78125,33.658333333333324],[130.7875,33.65833333333333],[130.7875,33.65416666666667],[130.78125,33.65416666666667]]]}},{"type":"Feature","id":"40604:503036833","properties":{"id":"40604:503036833","meshCode":"503036833","cityCode":"40604","city":"糸田町","lat":33.65625,"lon":130.790625,"areaKm2":0.1975572,"populated2020":true,"population2020":null,"populationNote":"境界またぎ・原典収録外のため自治体内人口は未集計"},"geometry":{"type":"Polygon","coordinates":[[[130.791684306,33.658333332999995],[130.791056667,33.657974721],[130.79273250300002,33.65612944099999],[130.791731115,33.65558249499999],[130.791895837,33.655358613000004],[130.792063333,33.655282495],[130.792496109,33.655352225],[130.792882503,33.655274161999984],[130.793048054,33.65512389199999],[130.79302917,33.654558054],[130.7916218136225,33.65416666666667],[130.7875,33.65416666666667],[130.7875,33.65833333333333],[130.791684306,33.658333332999995]]]}},{"type":"Feature","id":"40604:503036902","properties":{"id":"40604:503036902","meshCode":"503036902","cityCode":"40604","city":"糸田町","lat":33.6604167,"lon":130.759375,"areaKm2":0.1864271,"populated2020":true,"population2020":1.9742,"populationNote":"2020年基準の国交省調整値"},"geometry":{"type":"Polygon","coordinates":[[[130.7587378597401,33.65833333333333],[130.758288885,33.658937494999996],[130.758404163,33.659552495],[130.757991946,33.659915278999996],[130.757988612,33.660056387],[130.75825083,33.660572775000006],[130.758234449,33.660998054],[130.757761115,33.662116108],[130.75744649590627,33.6625],[130.7625,33.662499999999994],[130.7625,33.658333333333324],[130.7587378597401,33.65833333333333]]]}},{"type":"Feature","id":"40604:503036911","properties":{"id":"40604:503036911","meshCode":"503036911","cityCode":"40604","city":"糸田町","lat":33.6604167,"lon":130.765625,"areaKm2":0.267855,"populated2020":true,"population2020":237.991,"populationNote":"2020年基準の国交省調整値"},"geometry":{"type":"Polygon","coordinates":[[[130.7625,33.658333333333324],[130.7625,33.662499999999994],[130.76875,33.6625],[130.76875,33.65833333333332],[130.7625,33.658333333333324]]]}},{"type":"Feature","id":"40604:503036912","properties":{"id":"40604:503036912","meshCode":"503036912","cityCode":"40604","city":"糸田町","lat":33.6604167,"lon":130.771875,"areaKm2":0.2678549,"populated2020":true,"population2020":365.7675,"populationNote":"2020年基準の国交省調整値"},"geometry":{"type":"Polygon","coordinates":[[[130.76875,33.65833333333332],[130.76875,33.6625],[130.775,33.6625],[130.775,33.65833333333333],[130.76875,33.65833333333332]]]}},{"type":"Feature","id":"40604:503036921","properties":{"id":"40604:503036921","meshCode":"503036921","cityCode":"40604","city":"糸田町","lat":33.6604167,"lon":130.778125,"areaKm2":0.2678547,"populated2020":true,"population2020":529.9111,"populationNote":"2020年基準の国交省調整値"},"geometry":{"type":"Polygon","coordinates":[[[130.775,33.65833333333333],[130.775,33.6625],[130.78125,33.6625],[130.78125,33.658333333333324],[130.775,33.65833333333333]]]}},{"type":"Feature","id":"40604:503036922","properties":{"id":"40604:503036922","meshCode":"503036922","cityCode":"40604","city":"糸田町","lat":33.6604167,"lon":130.784375,"areaKm2":0.2677767,"populated2020":true,"population2020":787.2781,"populationNote":"2020年基準の国交省調整値"},"geometry":{"type":"Polygon","coordinates":[[[130.78725639400002,33.662497775000006],[130.78734917,33.66243861299999],[130.7875,33.6625],[130.7875,33.65833333333333],[130.78125,33.658333333333324],[130.78125,33.6625],[130.78725639400002,33.662497775000006]]]}},{"type":"Feature","id":"40604:503036931","properties":{"id":"40604:503036931","meshCode":"503036931","cityCode":"40604","city":"糸田町","lat":33.6604167,"lon":130.790625,"areaKm2":0.1352023,"populated2020":true,"population2020":null,"populationNote":"境界またぎ・原典収録外のため自治体内人口は未集計"},"geometry":{"type":"Polygon","coordinates":[[[130.78795609281,33.6625],[130.788316939,33.662246387],[130.788618885,33.66222944100001],[130.788999728,33.66248722499999],[130.789263891,33.662039441],[130.79018083,33.661515829],[130.79037917,33.661078613],[130.79083416300003,33.660540559000005],[130.790343333,33.660242495],[130.790330558,33.660118054],[130.791141115,33.65998277500002],[130.791383891,33.659856108],[130.791906394,33.659046946],[130.791843061,33.658947775],[130.791468327,33.658772494999994],[130.791566667,33.658457775],[130.791716394,33.658352225],[130.7875,33.65833333333333],[130.7875,33.6625],[130.78795609281,33.6625]]]}},{"type":"Feature","id":"40604:503036904","properties":{"id":"40604:503036904","meshCode":"503036904","cityCode":"40604","city":"糸田町","lat":33.6645833,"lon":130.759375,"areaKm2":0.1141645,"populated2020":true,"population2020":2.0132,"populationNote":"2020年基準の国交省調整値"},"geometry":{"type":"Polygon","coordinates":[[[130.75744649590627,33.6625],[130.757005279,33.662909721],[130.757195279,33.663499441000006],[130.75715917,33.663611946],[130.75706166,33.663766667],[130.756768885,33.663843054],[130.756513061,33.66404694599999],[130.75926,33.66481000000001],[130.759657497,33.664776387],[130.760734721,33.664380559],[130.761589442,33.664338892],[130.761753061,33.66439138700001],[130.7625,33.665073230155535],[130.7625,33.662499999999994],[130.75744649590627,33.6625]]]}},{"type":"Feature","id":"40604:503036913","properties":{"id":"40604:503036913","meshCode":"503036913","cityCode":"40604","city":"糸田町","lat":33.6645833,"lon":130.765625,"areaKm2":0.1851192,"populated2020":true,"population2020":null,"populationNote":"境界またぎ・原典収録外のため自治体内人口は未集計"},"geometry":{"type":"Polygon","coordinates":[[[130.762626939,33.665201667000005],[130.763647497,33.66555110800001],[130.765530272,33.665219162],[130.76616166,33.664933054],[130.767199442,33.665370559],[130.768081115,33.665557775],[130.768417782,33.665883892],[130.76875,33.66639422787615],[130.76875,33.6625],[130.7625,33.662499999999994],[130.7625,33.665073230155535],[130.762626939,33.665201667000005]]]}},{"type":"Feature","id":"40604:503036914","properties":{"id":"40604:503036914","meshCode":"503036914","cityCode":"40604","city":"糸田町","lat":33.6645833,"lon":130.771875,"areaKm2":0.2658281,"populated2020":true,"population2020":186.7663,"populationNote":"2020年基準の国交省調整値"},"geometry":{"type":"Polygon","coordinates":[[[130.76875,33.66639422787615],[130.76964999872055,33.666666666666664],[130.77475238715942,33.66666666666666],[130.775,33.666137946],[130.775,33.6625],[130.76875,33.6625],[130.76875,33.66639422787615]]]}},{"type":"Feature","id":"40604:503036923","properties":{"id":"40604:503036923","meshCode":"503036923","cityCode":"40604","city":"糸田町","lat":33.6645833,"lon":130.778125,"areaKm2":0.2632966,"populated2020":true,"population2020":141.9066,"populationNote":"2020年基準の国交省調整値"},"geometry":{"type":"Polygon","coordinates":[[[130.775,33.666137946],[130.776045837,33.666395279],[130.77609810593555,33.666666666666664],[130.78125,33.666666666666664],[130.78125,33.6625],[130.775,33.6625],[130.775,33.666137946]]]}},{"type":"Feature","id":"40604:503036924","properties":{"id":"40604:503036924","meshCode":"503036924","cityCode":"40604","city":"糸田町","lat":33.6645833,"lon":130.784375,"areaKm2":0.2428032,"populated2020":true,"population2020":354.9541,"populationNote":"2020年基準の国交省調整値"},"geometry":{"type":"MultiPolygon","coordinates":[[[[130.7875,33.66620288026199],[130.787038885,33.66606777500001],[130.78687,33.665898892],[130.786596939,33.665136387],[130.786341115,33.664755559],[130.786454994,33.664377495000004],[130.786672503,33.664288892],[130.786992218,33.663946945999996],[130.787084449,33.66292666700001],[130.78725476816837,33.662499999999994],[130.78125,33.6625],[130.78125,33.666666666666664],[130.7875,33.666666666666664],[130.7875,33.66620288026199]]],[[[130.7875,33.66250047310974],[130.7875,33.6625],[130.78749884644338,33.6625],[130.7875,33.66250047310974]]]]}},{"type":"Feature","id":"40604:503036933","properties":{"id":"40604:503036933","meshCode":"503036933","cityCode":"40604","city":"糸田町","lat":33.6664751,"lon":130.787687,"areaKm2":0.0019484,"populated2020":true,"population2020":null,"populationNote":"境界またぎ・原典収録外のため自治体内人口は未集計"},"geometry":{"type":"MultiPolygon","coordinates":[[[[130.787762503,33.666641387],[130.787985551,33.666308892],[130.7875,33.66620288026199],[130.7875,33.666666666666664],[130.787762503,33.666641387]]],[[[130.787781946,33.662616108],[130.78795609281,33.6625],[130.7875,33.6625],[130.7875,33.66250047310974],[130.787781946,33.662616108]]]]}},{"type":"Feature","id":"40604:503046012","properties":{"id":"40604:503046012","meshCode":"503046012","cityCode":"40604","city":"糸田町","lat":33.6670594,"lon":130.7719498,"areaKm2":0.016011,"populated2020":true,"population2020":null,"populationNote":"境界またぎ・原典収録外のため自治体内人口は未集計"},"geometry":{"type":"MultiPolygon","coordinates":[[[[130.76965,33.66666666700001],[130.77227,33.66741999999999],[130.772815551,33.66709638700001],[130.772980558,33.666713333000004],[130.773474449,33.66682694600001],[130.77361221828573,33.666666666666664],[130.76965,33.66666666700001]]],[[[130.77383158135777,33.666666666666664],[130.774600272,33.666984721],[130.77475238715942,33.66666666666666],[130.77383158135777,33.666666666666664]]]]}},{"type":"Feature","id":"40604:503046021","properties":{"id":"40604:503046021","meshCode":"503046021","cityCode":"40604","city":"糸田町","lat":33.66875,"lon":130.778125,"areaKm2":0.2134082,"populated2020":true,"population2020":227.3872,"populationNote":"2020年基準の国交省調整値"},"geometry":{"type":"Polygon","coordinates":[[[130.776098106,33.66666666700001],[130.775945837,33.667297774999994],[130.775176109,33.669304720999996],[130.778725279,33.670540278999994],[130.77864659555874,33.670833333333334],[130.78125,33.670833333333334],[130.78125,33.666666666666664],[130.776098106,33.66666666700001]]]}},{"type":"Feature","id":"40604:503046022","properties":{"id":"40604:503046022","meshCode":"503046022","cityCode":"40604","city":"糸田町","lat":33.66875,"lon":130.784375,"areaKm2":0.1876956,"populated2020":true,"population2020":null,"populationNote":"境界またぎ・原典収録外のため自治体内人口は未集計"},"geometry":{"type":"Polygon","coordinates":[[[130.78430721153413,33.670833333333334],[130.784483061,33.670496946],[130.784474994,33.66944249499999],[130.784934721,33.669203892],[130.78529861200002,33.668728054],[130.785653333,33.668471387],[130.78627166,33.668164162],[130.786735837,33.667589441],[130.78708722400003,33.667385278999994],[130.7875,33.66695657664862],[130.7875,33.666666666666664],[130.78125,33.666666666666664],[130.78125,33.670833333333334],[130.78430721153413,33.670833333333334]]]}},{"type":"Feature","id":"40604:503046031","properties":{"id":"40604:503046031","meshCode":"503046031","cityCode":"40604","city":"糸田町","lat":33.6667824,"lon":130.7875738,"areaKm2":0.0003674,"populated2020":true,"population2020":null,"populationNote":"境界またぎ・原典収録外のため自治体内人口は未集計"},"geometry":{"type":"Polygon","coordinates":[[[130.7875,33.66695657664862],[130.78774192,33.666666667],[130.7877419202714,33.666666666666664],[130.7875,33.666666666666664],[130.7875,33.66695657664862]]]}},{"type":"Feature","id":"40604:503046023","properties":{"id":"40604:503046023","meshCode":"503046023","cityCode":"40604","city":"糸田町","lat":33.6729501,"lon":130.7801936,"areaKm2":0.0956092,"populated2020":true,"population2020":null,"populationNote":"境界またぎ・原典収録外のため自治体内人口は未集計"},"geometry":{"type":"Polygon","coordinates":[[[130.77864659555874,33.670833333333334],[130.778093333,33.672078613],[130.77802917,33.672395829],[130.778925279,33.67274444099999],[130.779244449,33.673054162000014],[130.779781946,33.674996108],[130.780261414,33.675],[130.78125,33.674332037396134],[130.78125,33.670833333333334],[130.77864659555874,33.670833333333334]]]}},{"type":"Feature","id":"40604:503046024","properties":{"id":"40604:503046024","meshCode":"503046024","cityCode":"40604","city":"糸田町","lat":33.672591,"lon":130.7821219,"areaKm2":0.0599266,"populated2020":true,"population2020":null,"populationNote":"境界またぎ・原典収録外のため自治体内人口は未集計"},"geometry":{"type":"Polygon","coordinates":[[[130.78125,33.674332037396134],[130.782967224,33.67262749499999],[130.783068885,33.67230861299999],[130.783922776,33.671461667],[130.78430721153413,33.670833333333334],[130.78125,33.670833333333334],[130.78125,33.674332037396134]]]}},{"type":"Feature","id":"40604:503046121","properties":{"id":"40604:503046121","meshCode":"503046121","cityCode":"40604","city":"糸田町","lat":33.6750468,"lon":130.7800151,"areaKm2":0.0003262,"populated2020":true,"population2020":null,"populationNote":"境界またぎ・原典収録外のため自治体内人口は未集計"},"geometry":{"type":"Polygon","coordinates":[[[130.779786472,33.675],[130.780082218,33.675095000000006],[130.780261414,33.675],[130.779786472,33.675]]]}}]}