{"type":"FeatureCollection","metadata":{"cityCode":"40608","city":"大任町","resolution":1000,"boundaryDate":"2026-01-01","populationLabel":"2020年基準人口（国交省調整値）","method":"標準地域メッシュを行政界で切抜き。中心が区域外のとき区域内代表点を判定点にする。人口不明をゼロにしない。"},"features":[{"type":"Feature","id":"40608:50302698","properties":{"id":"40608:50302698","meshCode":"50302698","cityCode":"40608","city":"大任町","lat":33.582527,"lon":130.8609983,"areaKm2":0.054934,"populated2020":true,"population2020":null,"populationNote":"境界またぎ・収録外等のため人口未集計"},"geometry":{"type":"Polygon","coordinates":[[[130.859251115,33.582385279],[130.858940558,33.583094720999995],[130.85870571959052,33.58333333333333],[130.8625,33.583333333333336],[130.8625,33.581347739464725],[130.861686939,33.581401108],[130.860131388,33.581991386999995],[130.859836109,33.582193613],[130.859412776,33.58227082900001],[130.859251115,33.582385279]]]}},{"type":"Feature","id":"40608:50302699","properties":{"id":"40608:50302699","meshCode":"50302699","cityCode":"40608","city":"大任町","lat":33.5825496,"lon":130.8640314,"areaKm2":0.0541306,"populated2020":false,"population2020":null,"populationNote":"境界またぎ・収録外等のため人口未集計"},"geometry":{"type":"Polygon","coordinates":[[[130.866532387,33.58333333299999],[130.866024994,33.583079162000004],[130.865684449,33.582470559],[130.865237224,33.582086387],[130.864600272,33.581822225],[130.8625,33.581347739464725],[130.8625,33.583333333333336],[130.866532387,33.58333333299999]]]}},{"type":"Feature","id":"40608:50303607","properties":{"id":"40608:50303607","meshCode":"50303607","cityCode":"40608","city":"大任町","lat":33.589534,"lon":130.843904,"areaKm2":0.5380147,"populated2020":true,"population2020":null,"populationNote":"境界またぎ・収録外等のため人口未集計"},"geometry":{"type":"Polygon","coordinates":[[[130.847478612,33.58765416200001],[130.845307224,33.586043613],[130.844427224,33.586761667000005],[130.842354994,33.58807222500001],[130.841441946,33.587522225],[130.84021083,33.587467495000006],[130.83981083,33.587541108],[130.83955917,33.587454721],[130.838986109,33.58793305399999],[130.83826917,33.588101667],[130.838125837,33.588206946],[130.8375,33.589103333760804],[130.8375,33.591666666666676],[130.85,33.591666666666676],[130.85,33.587938667],[130.849336939,33.587702775],[130.849136667,33.587723892],[130.848813606,33.588021387],[130.848557497,33.587966387],[130.847478612,33.58765416200001]]]}},{"type":"Feature","id":"40608:50303608","properties":{"id":"40608:50303608","meshCode":"50303608","cityCode":"40608","city":"大任町","lat":33.5881235,"lon":130.8583837,"areaKm2":0.566769,"populated2020":true,"population2020":294.838,"populationNote":"収録500mメッシュ人口の合算（原典収録外は補完しない）"},"geometry":{"type":"MultiPolygon","coordinates":[[[[130.85870571959052,33.58333333333333],[130.857888327,33.58362582899999],[130.856979442,33.583637495],[130.857244721,33.584737775],[130.857811946,33.585533332999994],[130.857822503,33.586366387000005],[130.857671115,33.586632775000005],[130.857371115,33.586898613],[130.857012503,33.587046387],[130.85654,33.588488333],[130.856474449,33.589005279],[130.856137782,33.589503613000005],[130.856389728,33.590717775],[130.856341388,33.59098805400001],[130.85624416300004,33.59113805399999],[130.85548839247954,33.591666666666676],[130.8625,33.591666666666676],[130.8625,33.583333333333336],[130.85870571959052,33.58333333333333]]],[[[130.853513606,33.591131387],[130.852653891,33.590426387],[130.851363606,33.588426667],[130.85,33.587938667],[130.85,33.591666666666676],[130.85413499332049,33.591666666666676],[130.853547224,33.591378333000016],[130.853513606,33.591131387]]]]}},{"type":"Feature","id":"40608:50303609","properties":{"id":"40608:50303609","meshCode":"50303609","cityCode":"40608","city":"大任町","lat":33.587898,"lon":130.8658844,"areaKm2":0.5642357,"populated2020":false,"population2020":null,"populationNote":"境界またぎ・収録外等のため人口未集計"},"geometry":{"type":"Polygon","coordinates":[[[130.868341115,33.585362775],[130.868266109,33.584752224999995],[130.868061388,33.58450666700001],[130.866812776,33.583485829],[130.86653238764805,33.583333333333336],[130.8625,33.583333333333336],[130.8625,33.591666666666676],[130.87085808013174,33.591666666666676],[130.87095666700003,33.591276108],[130.870892776,33.591071108],[130.870828054,33.590919721],[130.870514721,33.590751108],[130.870463606,33.590629441],[130.870523891,33.589863333],[130.870081388,33.589404721],[130.869516394,33.58905277499999],[130.869428885,33.588818053999994],[130.86895166000002,33.588411387],[130.86881,33.588114721],[130.868849442,33.587598613000004],[130.868766109,33.586633054],[130.868341115,33.585362775]]]}},{"type":"Feature","id":"40608:50303606","properties":{"id":"40608:50303606","meshCode":"50303606","cityCode":"40608","city":"大任町","lat":33.5904617,"lon":130.8370503,"areaKm2":0.0185728,"populated2020":true,"population2020":null,"populationNote":"境界またぎ・収録外等のため人口未集計"},"geometry":{"type":"Polygon","coordinates":[[[130.8375,33.589103333760804],[130.836328054,33.590300279],[130.836343891,33.590869440999995],[130.83676306100003,33.591015],[130.8373141627477,33.591666666666676],[130.8375,33.591666666666676],[130.8375,33.589103333760804]]]}},{"type":"Feature","id":"40608:50303616","properties":{"id":"40608:50303616","meshCode":"50303616","cityCode":"40608","city":"大任町","lat":33.5927941,"lon":130.8373532,"areaKm2":0.004729,"populated2020":true,"population2020":null,"populationNote":"境界またぎ・収録外等のため人口未集計"},"geometry":{"type":"Polygon","coordinates":[[[130.837314163,33.591666667],[130.837468054,33.59187],[130.837444994,33.592027775],[130.837069442,33.592864441],[130.837285279,33.593477494999995],[130.8375,33.593620588567056],[130.8375,33.591666666666676],[130.837314163,33.591666667]]]}},{"type":"Feature","id":"40608:50303617","properties":{"id":"40608:50303617","meshCode":"50303617","cityCode":"40608","city":"大任町","lat":33.5955205,"lon":130.8447551,"areaKm2":0.8830121,"populated2020":true,"population2020":null,"populationNote":"境界またぎ・収録外等のため人口未集計"},"geometry":{"type":"Polygon","coordinates":[[[130.8375,33.593620588567056],[130.838918054,33.59398],[130.83936917,33.594349721],[130.839775837,33.594556108],[130.839967497,33.594768892000005],[130.840102218,33.59520889200001],[130.840008054,33.595895829],[130.840330272,33.59632777499999],[130.84036917,33.596546946],[130.840261946,33.597065279],[130.840963333,33.597908613],[130.841445551,33.598275279],[130.841545279,33.598545829],[130.841216939,33.59884082899999],[130.841057782,33.599131667],[130.841317782,33.599732225],[130.841242192,33.6],[130.85,33.6],[130.85,33.591666666666676],[130.8375,33.591666666666676],[130.8375,33.593620588567056]]]}},{"type":"Feature","id":"40608:50303618","properties":{"id":"40608:50303618","meshCode":"50303618","cityCode":"40608","city":"大任町","lat":33.5958429,"lon":130.8562533,"areaKm2":1.0696796,"populated2020":true,"population2020":549.3236,"populationNote":"収録500mメッシュ人口の合算（原典収録外は補完しない）"},"geometry":{"type":"Polygon","coordinates":[[[130.855436109,33.591702775],[130.854886109,33.592007495],[130.85413499332049,33.591666666666676],[130.85,33.591666666666676],[130.85,33.6],[130.8625,33.6],[130.8625,33.591666666666676],[130.855436109,33.591702775]]]}},{"type":"Feature","id":"40608:50303619","properties":{"id":"40608:50303619","meshCode":"50303619","cityCode":"40608","city":"大任町","lat":33.59531,"lon":130.8657037,"areaKm2":0.5241503,"populated2020":true,"population2020":2.9398,"populationNote":"収録500mメッシュ人口の合算（原典収録外は補完しない）"},"geometry":{"type":"Polygon","coordinates":[[[130.868918327,33.59463027900001],[130.869599728,33.594487225],[130.869732503,33.594353054],[130.870174449,33.593610559],[130.870262776,33.59298638700001],[130.870176667,33.59247889200001],[130.87085808013174,33.591666666666676],[130.8625,33.591666666666676],[130.8625,33.6],[130.865979663,33.6],[130.866293333,33.59978000000001],[130.866428885,33.599203892],[130.866936394,33.59897999999999],[130.867335551,33.598581387],[130.867581946,33.597745],[130.868014163,33.59726499999999],[130.868218885,33.596631108],[130.868208054,33.59627916200001],[130.868795551,33.59582472099999],[130.868797782,33.595545559],[130.868606939,33.595278891999996],[130.868737224,33.594835279],[130.868918327,33.59463027900001]]]}},{"type":"Feature","id":"40608:50303626","properties":{"id":"40608:50303626","meshCode":"50303626","cityCode":"40608","city":"大任町","lat":33.604979,"lon":130.8357936,"areaKm2":0.2214536,"populated2020":true,"population2020":null,"populationNote":"境界またぎ・収録外等のため人口未集計"},"geometry":{"type":"Polygon","coordinates":[[[130.8375,33.60095085234468],[130.83661917,33.60071],[130.836291115,33.600929162],[130.83608027200003,33.601291667],[130.835405279,33.601938613],[130.835653606,33.603308053999996],[130.835354449,33.60374],[130.834764721,33.604026387000005],[130.834574449,33.60438444100001],[130.83444166,33.604433054],[130.833082218,33.604496108],[130.832841115,33.605288054],[130.832217224,33.60549972100001],[130.833211388,33.606294999999996],[130.833734449,33.606456108],[130.833876667,33.606974721],[130.834107497,33.607245829],[130.834514994,33.607287225],[130.834933891,33.607488333],[130.835198054,33.60751694599999],[130.835600272,33.60791944100001],[130.8367958376371,33.608333333333334],[130.8375,33.60833333333333],[130.8375,33.60095085234468]]]}},{"type":"Feature","id":"40608:50303627","properties":{"id":"40608:50303627","meshCode":"50303627","cityCode":"40608","city":"大任町","lat":33.6042705,"lon":130.8438803,"areaKm2":1.0431441,"populated2020":true,"population2020":438.3138,"populationNote":"収録500mメッシュ人口の合算（原典収録外は補完しない）"},"geometry":{"type":"Polygon","coordinates":[[[130.841242192,33.6],[130.839840272,33.600922495],[130.838285279,33.600871946],[130.83772389100002,33.60099027900001],[130.8375,33.60095085234468],[130.8375,33.60833333333333],[130.85,33.60833333333333],[130.85,33.6],[130.841242192,33.6]]]}},{"type":"Feature","id":"40608:50303628","properties":{"id":"40608:50303628","meshCode":"50303628","cityCode":"40608","city":"大任町","lat":33.6041667,"lon":130.85625,"areaKm2":1.0720992,"populated2020":true,"population2020":377.2783,"populationNote":"収録500mメッシュ人口の合算（原典収録外は補完しない）"},"geometry":{"type":"Polygon","coordinates":[[[130.8625,33.6],[130.85,33.6],[130.85,33.60833333333333],[130.8625,33.608333333333334],[130.8625,33.6]]]}},{"type":"Feature","id":"40608:50303629","properties":{"id":"40608:50303629","meshCode":"50303629","cityCode":"40608","city":"大任町","lat":33.6038384,"lon":130.8635946,"areaKm2":0.1717037,"populated2020":true,"population2020":null,"populationNote":"境界またぎ・収録外等のため人口未集計"},"geometry":{"type":"Polygon","coordinates":[[[130.864028327,33.60392027900001],[130.86369083,33.603678892],[130.863633333,33.603527495],[130.86421166,33.603231946],[130.86464,33.602515279],[130.864616394,33.602318892],[130.865016109,33.60122055899999],[130.865526939,33.600471667],[130.865979663,33.6],[130.8625,33.6],[130.8625,33.608333333333334],[130.86473438374358,33.60833333333333],[130.86511083,33.60785333300001],[130.865116394,33.60768305399999],[130.864950272,33.607567775],[130.864604449,33.607043613],[130.864338054,33.606790000000004],[130.863724163,33.606504441000006],[130.863506109,33.606254721],[130.863620558,33.60549916200001],[130.864153333,33.605062225],[130.864548885,33.60452082899999],[130.864028327,33.60392027900001]]]}},{"type":"Feature","id":"40608:50303636","properties":{"id":"40608:50303636","meshCode":"50303636","cityCode":"40608","city":"大任町","lat":33.608697,"lon":130.83717,"areaKm2":0.0051278,"populated2020":false,"population2020":null,"populationNote":"境界またぎ・収録外等のため人口未集計"},"geometry":{"type":"Polygon","coordinates":[[[130.83683778200003,33.60835527900001],[130.836743333,33.608840559],[130.8375,33.60919869716151],[130.8375,33.60833333333333],[130.83683778200003,33.60835527900001]]]}},{"type":"Feature","id":"40608:50303637","properties":{"id":"40608:50303637","meshCode":"50303637","cityCode":"40608","city":"大任町","lat":33.6120807,"lon":130.8449787,"areaKm2":0.8347767,"populated2020":true,"population2020":null,"populationNote":"境界またぎ・収録外等のため人口未集計"},"geometry":{"type":"Polygon","coordinates":[[[130.837948885,33.609446108],[130.838257782,33.609973892],[130.838745279,33.610139162],[130.838933606,33.610050279],[130.839187782,33.610081946],[130.839645551,33.610612495],[130.839751388,33.611178054],[130.839638054,33.611692774999995],[130.83985111500002,33.61220972099999],[130.839846939,33.61261],[130.840733606,33.613210279],[130.84094444900003,33.613837225000005],[130.841289728,33.613982495],[130.841174994,33.614551946],[130.841232218,33.614702225],[130.841634449,33.614831386999995],[130.842249442,33.615358892],[130.842792503,33.615395],[130.843076109,33.615526387],[130.842810558,33.615871667],[130.842727782,33.61615110799999],[130.843869415193,33.61666666666667],[130.85,33.61666666666667],[130.85,33.60833333333333],[130.8375,33.60833333333333],[130.8375,33.60919869716151],[130.837948885,33.609446108]]]}},{"type":"Feature","id":"40608:50303638","properties":{"id":"40608:50303638","meshCode":"50303638","cityCode":"40608","city":"大任町","lat":33.6124753,"lon":130.8562103,"areaKm2":1.0648602,"populated2020":true,"population2020":297.7246,"populationNote":"収録500mメッシュ人口の合算（原典収録外は補完しない）"},"geometry":{"type":"Polygon","coordinates":[[[130.8625,33.608333333333334],[130.85,33.60833333333333],[130.85,33.61666666666667],[130.86183846984346,33.61666666666667],[130.86170333300004,33.616196387],[130.86227083,33.615648613],[130.8625,33.61529840238555],[130.8625,33.608333333333334]]]}},{"type":"Feature","id":"40608:50303639","properties":{"id":"40608:50303639","meshCode":"50303639","cityCode":"40608","city":"大任町","lat":33.6108804,"lon":130.8632195,"areaKm2":0.082497,"populated2020":true,"population2020":null,"populationNote":"境界またぎ・収録外等のため人口未集計"},"geometry":{"type":"Polygon","coordinates":[[[130.863214721,33.612115],[130.863785837,33.611492495],[130.864176109,33.610716387],[130.86409917,33.610477495],[130.864360272,33.610006387],[130.864407224,33.609740279],[130.864093333,33.609537495],[130.864067782,33.609437495],[130.864148612,33.609264721],[130.864289442,33.609181667],[130.864493061,33.608623054],[130.86473438374358,33.60833333333333],[130.8625,33.608333333333334],[130.8625,33.61529840238555],[130.863467497,33.614014440999995],[130.863212218,33.613471108000006],[130.863044994,33.612757495],[130.863069728,33.612375],[130.863214721,33.612115]]]}},{"type":"Feature","id":"40608:50303647","properties":{"id":"40608:50303647","meshCode":"50303647","cityCode":"40608","city":"大任町","lat":33.6212335,"lon":130.8470156,"areaKm2":0.4958961,"populated2020":true,"population2020":null,"populationNote":"境界またぎ・収録外等のため人口未集計"},"geometry":{"type":"Polygon","coordinates":[[[130.843869415193,33.61666666666667],[130.845949728,33.61744444100001],[130.844847224,33.61987555900001],[130.84440083,33.620534721],[130.844233606,33.620926387],[130.844184994,33.62137722500001],[130.843063333,33.62341194599999],[130.842320363,33.62500000000001],[130.85,33.62500000000001],[130.85,33.61666666666667],[130.843869415193,33.61666666666667]]]}},{"type":"Feature","id":"40608:50303648","properties":{"id":"40608:50303648","meshCode":"50303648","cityCode":"40608","city":"大任町","lat":33.6207297,"lon":130.8553913,"areaKm2":0.9200958,"populated2020":true,"population2020":348.4316,"populationNote":"収録500mメッシュ人口の合算（原典収録外は補完しない）"},"geometry":{"type":"Polygon","coordinates":[[[130.85989,33.620676386999996],[130.86018166,33.620250279],[130.860234163,33.619892225],[130.861165837,33.61890582899999],[130.861312776,33.618526667],[130.861743606,33.617958054],[130.861848054,33.617836667],[130.862311946,33.617632225],[130.862291946,33.617434162],[130.86183846984346,33.61666666666667],[130.85,33.61666666666667],[130.85,33.62500000000001],[130.86138452700004,33.62500000000001],[130.86057194600002,33.624274162],[130.860495279,33.624127495],[130.860465551,33.623820829],[130.860583891,33.623443613],[130.86040917,33.623202775],[130.86012832700004,33.623051667],[130.860063333,33.62284305399999],[130.860047497,33.622158892],[130.859869728,33.621611666999996],[130.859997497,33.62117055900001],[130.85989,33.620676386999996]]]}},{"type":"Feature","id":"40608:50303657","properties":{"id":"40608:50303657","meshCode":"50303657","cityCode":"40608","city":"大任町","lat":33.6295513,"lon":130.844547,"areaKm2":0.9103657,"populated2020":true,"population2020":null,"populationNote":"境界またぎ・収録外等のため人口未集計"},"geometry":{"type":"Polygon","coordinates":[[[130.842320363,33.62500000000001],[130.841203606,33.627242225],[130.840098054,33.62785582899999],[130.839501115,33.628296387],[130.83955917,33.62879805400001],[130.839298054,33.62931277500001],[130.83875083,33.62974472100001],[130.838289442,33.629945559],[130.8375,33.630649431610586],[130.8375,33.63333333333333],[130.85,33.63333333333333],[130.85,33.62500000000001],[130.842320363,33.62500000000001]]]}},{"type":"Feature","id":"40608:50303658","properties":{"id":"40608:50303658","meshCode":"50303658","cityCode":"40608","city":"大任町","lat":33.6290741,"lon":130.8547575,"areaKm2":0.8130617,"populated2020":true,"population2020":null,"populationNote":"境界またぎ・収録外等のため人口未集計"},"geometry":{"type":"Polygon","coordinates":[[[130.859394721,33.629024162],[130.859415279,33.628193333],[130.858988054,33.627582225],[130.859204163,33.626919721],[130.860167497,33.626029441],[130.860474163,33.62583361299999],[130.860643606,33.625400829],[130.861254721,33.62529638699999],[130.861422776,33.62511749499999],[130.86138452700004,33.62500000000001],[130.85,33.62500000000001],[130.85,33.63333333333333],[130.85929294410178,33.63333333333333],[130.859033606,33.632538613],[130.859307224,33.631277495],[130.859513606,33.63076],[130.859127497,33.62977389200001],[130.859164994,33.62943333300001],[130.859394721,33.629024162]]]}},{"type":"Feature","id":"40608:50303656","properties":{"id":"40608:50303656","meshCode":"50303656","cityCode":"40608","city":"大任町","lat":33.6323189,"lon":130.8368688,"areaKm2":0.0288972,"populated2020":true,"population2020":null,"populationNote":"境界またぎ・収録外等のため人口未集計"},"geometry":{"type":"Polygon","coordinates":[[[130.8375,33.630649431610586],[130.836083061,33.632241108],[130.835974994,33.632772495],[130.83610885907308,33.63333333333334],[130.8375,33.63333333333333],[130.8375,33.630649431610586]]]}},{"type":"Feature","id":"40608:50303666","properties":{"id":"40608:50303666","meshCode":"50303666","cityCode":"40608","city":"大任町","lat":33.6345538,"lon":130.8367335,"areaKm2":0.0384747,"populated2020":true,"population2020":null,"populationNote":"境界またぎ・収録外等のため人口未集計"},"geometry":{"type":"Polygon","coordinates":[[[130.83610885907308,33.63333333333334],[130.835943333,33.634219162],[130.835650272,33.634722495],[130.83604917,33.635211387],[130.83624166,33.635755279],[130.83733083,33.635793333],[130.8375,33.63606736593577],[130.8375,33.63333333333333],[130.83610885907308,33.63333333333334]]]}},{"type":"Feature","id":"40608:50303667","properties":{"id":"40608:50303667","meshCode":"50303667","cityCode":"40608","city":"大任町","lat":33.6370115,"lon":130.8445363,"areaKm2":0.8893435,"populated2020":true,"population2020":null,"populationNote":"境界またぎ・収録外等のため人口未集計"},"geometry":{"type":"Polygon","coordinates":[[[130.837613333,33.636341387],[130.837556109,33.637230559],[130.837615279,33.637566667],[130.838449728,33.63781194600001],[130.838733061,33.63782666699999],[130.839568327,33.638165],[130.840093333,33.638289721],[130.840243333,33.638469441],[130.840863333,33.638678892],[130.841370272,33.638714721],[130.84215,33.63855194599999],[130.843,33.639121387],[130.843021115,33.639612775],[130.843249728,33.639999162],[130.842701388,33.640366387],[130.842458612,33.640748333],[130.842191115,33.640982495],[130.842087782,33.641161946],[130.842208054,33.64136222500001],[130.84213708216666,33.641666666666666],[130.85,33.641666666666666],[130.85,33.63333333333333],[130.8375,33.63333333333333],[130.8375,33.63606736593577],[130.837613333,33.636341387]]]}},{"type":"Feature","id":"40608:50303668","properties":{"id":"40608:50303668","meshCode":"50303668","cityCode":"40608","city":"大任町","lat":33.6374949,"lon":130.8546971,"areaKm2":0.8024692,"populated2020":true,"population2020":null,"populationNote":"境界またぎ・収録外等のため人口未集計"},"geometry":{"type":"Polygon","coordinates":[[[130.859633061,33.63747805399999],[130.859590558,33.637258892000006],[130.859464994,33.637128892],[130.859044449,33.637011946],[130.858893333,33.636575279000006],[130.858503891,33.636065829],[130.858870272,33.635698613],[130.858907497,33.635246108],[130.859407224,33.635028612999996],[130.859525551,33.633997494999996],[130.85929294410178,33.63333333333333],[130.85,33.63333333333333],[130.85,33.641666666666666],[130.857976472302,33.641666666666666],[130.858352503,33.641340559],[130.85876944200004,33.641119162],[130.859143061,33.640748613],[130.859141115,33.64025027899999],[130.859951946,33.639298613],[130.860034994,33.638836667],[130.860533061,33.638574721000005],[130.860427782,33.638093613],[130.859923333,33.637842225],[130.859633061,33.63747805399999]]]}},{"type":"Feature","id":"40608:50303677","properties":{"id":"40608:50303677","meshCode":"50303677","cityCode":"40608","city":"大任町","lat":33.6435063,"lon":130.846453,"areaKm2":0.2849954,"populated2020":true,"population2020":null,"populationNote":"境界またぎ・収録外等のため人口未集計"},"geometry":{"type":"Polygon","coordinates":[[[130.84213708216666,33.641666666666666],[130.84205083,33.641973613],[130.842337224,33.642453612999994],[130.842206109,33.643151108],[130.842553061,33.643787775],[130.843187497,33.644330000000004],[130.843258054,33.644808333],[130.843990558,33.644705558999995],[130.844843891,33.64488249499999],[130.84512917,33.645001667],[130.845397497,33.645307225],[130.846482503,33.645696946],[130.84765749700003,33.646335559],[130.848105279,33.645551946],[130.848344721,33.64543916200001],[130.848638612,33.645403054],[130.84932389100004,33.645618054],[130.85,33.645674135],[130.85,33.641666666666666],[130.84213708216666,33.641666666666666]]]}},{"type":"Feature","id":"40608:50303678","properties":{"id":"40608:50303678","meshCode":"50303678","cityCode":"40608","city":"大任町","lat":33.64365,"lon":130.8535052,"areaKm2":0.2951215,"populated2020":true,"population2020":null,"populationNote":"境界またぎ・収録外等のため人口未集計"},"geometry":{"type":"Polygon","coordinates":[[[130.856513061,33.644457775],[130.856686667,33.64404472100001],[130.857374163,33.643989441],[130.857582776,33.643885000000004],[130.857423891,33.64351889200001],[130.857477224,33.64309944099999],[130.857173891,33.642494721000006],[130.85721,33.642081667],[130.857444994,33.641906946],[130.85783027200003,33.641828054],[130.857976472302,33.641666666666666],[130.85,33.641666666666666],[130.85,33.645674135],[130.85162,33.645784162],[130.852936394,33.645775559],[130.853198327,33.645875559],[130.853438885,33.646095],[130.853906667,33.645924441],[130.85510166,33.645805279],[130.855463606,33.64570944100001],[130.855847782,33.645828892000004],[130.856205551,33.645550279],[130.856235279,33.645288333],[130.856083061,33.64505194600001],[130.8561,33.644919720999994],[130.856513061,33.644457775]]]}}]}