{"type":"FeatureCollection","metadata":{"cityCode":"40609","city":"赤村","resolution":500,"boundaryDate":"2026-01-01","populationLabel":"2020年基準人口（国交省調整値）","method":"標準地域メッシュを行政界で切抜き。中心が区域外のとき区域内代表点を判定点にする。人口不明をゼロにしない。"},"features":[{"type":"Feature","id":"40609:503027634","properties":{"id":"40609:503027634","meshCode":"503027634","cityCode":"40609","city":"赤村","lat":33.5579906,"lon":130.921328,"areaKm2":0.014213,"populated2020":false,"population2020":null,"populationNote":"境界またぎ・原典収録外のため自治体内人口は未集計"},"geometry":{"type":"Polygon","coordinates":[[[130.922484086,33.558333333],[130.92217250300004,33.557886667],[130.922026667,33.557451387],[130.92086917,33.557656666999996],[130.920573333,33.557808613],[130.92017557680978,33.558333333333344],[130.922484086,33.558333333]]]}},{"type":"Feature","id":"40609:503027731","properties":{"id":"40609:503027731","meshCode":"503027731","cityCode":"40609","city":"赤村","lat":33.5612163,"lon":130.917618,"areaKm2":0.0613008,"populated2020":false,"population2020":null,"populationNote":"境界またぎ・原典収録外のため自治体内人口は未集計"},"geometry":{"type":"Polygon","coordinates":[[[130.918481388,33.559845279],[130.917958327,33.560166667000004],[130.91764,33.560148892],[130.917401388,33.559988054],[130.91723083,33.56013110799999],[130.91665083,33.561068891999994],[130.915365837,33.56223],[130.91520409643422,33.56250000000001],[130.91875,33.562500000000014],[130.91875,33.55990343521242],[130.918481388,33.559845279]]]}},{"type":"Feature","id":"40609:503027732","properties":{"id":"40609:503027732","meshCode":"503027732","cityCode":"40609","city":"赤村","lat":33.5604167,"lon":130.921875,"areaKm2":0.1628192,"populated2020":false,"population2020":null,"populationNote":"境界またぎ・原典収録外のため自治体内人口は未集計"},"geometry":{"type":"Polygon","coordinates":[[[130.922184449,33.56246694600001],[130.92251166,33.561804441],[130.922926939,33.561438613],[130.923644163,33.560454162],[130.923342218,33.560028892],[130.922951946,33.559129162],[130.92248408616237,33.558333333333344],[130.92017557680978,33.558333333333344],[130.91986861200002,33.55915722500001],[130.919493333,33.55973805400001],[130.919186109,33.559889721],[130.91875,33.55990343521242],[130.91875,33.562500000000014],[130.922184449,33.56246694600001]]]}},{"type":"Feature","id":"40609:503027724","properties":{"id":"40609:503027724","meshCode":"503027724","cityCode":"40609","city":"赤村","lat":33.5656487,"lon":130.9115846,"areaKm2":0.0395762,"populated2020":false,"population2020":null,"populationNote":"境界またぎ・原典収録外のため自治体内人口は未集計"},"geometry":{"type":"Polygon","coordinates":[[[130.9125,33.56479299125625],[130.911924163,33.564859721000005],[130.911344449,33.56515444099999],[130.910537224,33.565744162],[130.909741115,33.56610138700001],[130.90890891143584,33.56666666666668],[130.9125,33.56666666666668],[130.9125,33.56479299125625]]]}},{"type":"Feature","id":"40609:503027733","properties":{"id":"40609:503027733","meshCode":"503027733","cityCode":"40609","city":"赤村","lat":33.5645833,"lon":130.915625,"areaKm2":0.2168281,"populated2020":false,"population2020":null,"populationNote":"境界またぎ・原典収録外のため自治体内人口は未集計"},"geometry":{"type":"Polygon","coordinates":[[[130.91520409643422,33.56250000000001],[130.91510472100003,33.563194721],[130.914922776,33.563668054000004],[130.914425837,33.564315],[130.914403061,33.56472582899999],[130.914073333,33.56470805399999],[130.913424994,33.564484721],[130.913163606,33.564493613],[130.9125,33.56479299125625],[130.9125,33.56666666666668],[130.91875,33.56666666666667],[130.91875,33.562500000000014],[130.91520409643422,33.56250000000001]]]}},{"type":"Feature","id":"40609:503027734","properties":{"id":"40609:503027734","meshCode":"503027734","cityCode":"40609","city":"赤村","lat":33.5644858,"lon":130.9200707,"areaKm2":0.1093606,"populated2020":true,"population2020":1.8855,"populationNote":"2020年基準の国交省調整値"},"geometry":{"type":"Polygon","coordinates":[[[130.92100457781177,33.56666666666667],[130.920862776,33.565963613],[130.92095083,33.565192495000005],[130.92144166,33.564362225],[130.921391388,33.563791667000004],[130.92216400797952,33.56250000000001],[130.91875,33.562500000000014],[130.91875,33.56666666666667],[130.92100457781177,33.56666666666667]]]}},{"type":"Feature","id":"40609:503027821","properties":{"id":"40609:503027821","meshCode":"503027821","cityCode":"40609","city":"赤村","lat":33.5693311,"lon":130.9059692,"areaKm2":0.0347967,"populated2020":false,"population2020":null,"populationNote":"境界またぎ・原典収録外のため自治体内人口は未集計"},"geometry":{"type":"Polygon","coordinates":[[[130.90625,33.56774612844418],[130.905756667,33.567893054],[130.90563166,33.56808055900001],[130.905768054,33.569233054],[130.905608885,33.56942916199999],[130.905040272,33.569572225],[130.904505837,33.569929441000006],[130.90393785427867,33.57083333333333],[130.90625,33.57083333333333],[130.90625,33.56774612844418]]]}},{"type":"Feature","id":"40609:503027822","properties":{"id":"40609:503027822","meshCode":"503027822","cityCode":"40609","city":"赤村","lat":33.56875,"lon":130.909375,"areaKm2":0.250058,"populated2020":false,"population2020":null,"populationNote":"境界またぎ・原典収録外のため自治体内人口は未集計"},"geometry":{"type":"Polygon","coordinates":[[[130.908908911,33.566666667],[130.908655837,33.566919441],[130.908292218,33.567133613],[130.90625,33.56774612844418],[130.90625,33.57083333333333],[130.9125,33.57083333333333],[130.9125,33.56666666666668],[130.908908911,33.566666667]]]}},{"type":"Feature","id":"40609:503027831","properties":{"id":"40609:503027831","meshCode":"503027831","cityCode":"40609","city":"赤村","lat":33.56875,"lon":130.915625,"areaKm2":0.268132,"populated2020":false,"population2020":null,"populationNote":"境界またぎ・原典収録外のため自治体内人口は未集計"},"geometry":{"type":"Polygon","coordinates":[[[130.9125,33.56666666666668],[130.9125,33.57083333333333],[130.91875,33.57083333333333],[130.91875,33.56666666666667],[130.9125,33.56666666666668]]]}},{"type":"Feature","id":"40609:503027832","properties":{"id":"40609:503027832","meshCode":"503027832","cityCode":"40609","city":"赤村","lat":33.5686236,"lon":130.9198285,"areaKm2":0.0881632,"populated2020":false,"population2020":null,"populationNote":"境界またぎ・原典収録外のため自治体内人口は未集計"},"geometry":{"type":"Polygon","coordinates":[[[130.920271388,33.570744162],[130.920221115,33.570328892000006],[130.920825279,33.569784999999996],[130.920951115,33.569478892],[130.92090083,33.568351667],[130.921026394,33.566705279],[130.91875,33.56666666666667],[130.91875,33.57083333333333],[130.92040898653445,33.57083333333333],[130.920271388,33.570744162]]]}},{"type":"Feature","id":"40609:503026894","properties":{"id":"40609:503026894","meshCode":"503026894","cityCode":"40609","city":"赤村","lat":33.5731629,"lon":130.8742049,"areaKm2":0.0582514,"populated2020":false,"population2020":null,"populationNote":"境界またぎ・原典収録外のため自治体内人口は未集計"},"geometry":{"type":"Polygon","coordinates":[[[130.872633333,33.57421249499999],[130.871864306,33.57500000000001],[130.875,33.57500000000001],[130.875,33.57246038699999],[130.874523606,33.572196946],[130.874303061,33.571558333],[130.874231388,33.57154138700001],[130.873068885,33.573771667],[130.872633333,33.57412110800001],[130.872633333,33.57421249499999]]]}},{"type":"Feature","id":"40609:503027803","properties":{"id":"40609:503027803","meshCode":"503027803","cityCode":"40609","city":"赤村","lat":33.5736264,"lon":130.875553,"areaKm2":0.0403862,"populated2020":false,"population2020":null,"populationNote":"境界またぎ・原典収録外のため自治体内人口は未集計"},"geometry":{"type":"Polygon","coordinates":[[[130.878349222,33.575],[130.878022218,33.574693613],[130.87702083,33.574057775],[130.87682,33.574035279],[130.87656166,33.574176108],[130.876403606,33.574170559],[130.87580083,33.572986387],[130.875628612,33.572794721],[130.875,33.57246038699999],[130.875,33.57500000000001],[130.878349222,33.575]]]}},{"type":"Feature","id":"40609:503027814","properties":{"id":"40609:503027814","meshCode":"503027814","cityCode":"40609","city":"赤村","lat":33.5747154,"lon":130.899361,"areaKm2":0.0080299,"populated2020":false,"population2020":null,"populationNote":"境界またぎ・原典収録外のため自治体内人口は未集計"},"geometry":{"type":"Polygon","coordinates":[[[130.899998885,33.574236387],[130.899142503,33.574523333],[130.898114643,33.575],[130.9,33.575],[130.899998885,33.574236387]]]}},{"type":"Feature","id":"40609:503027823","properties":{"id":"40609:503027823","meshCode":"503027823","cityCode":"40609","city":"赤村","lat":33.5729167,"lon":130.903125,"areaKm2":0.1770451,"populated2020":false,"population2020":null,"populationNote":"境界またぎ・原典収録外のため自治体内人口は未集計"},"geometry":{"type":"Polygon","coordinates":[[[130.90393785427867,33.57083333333333],[130.903675837,33.571117495],[130.903584994,33.57182],[130.903312218,33.572105559],[130.902664163,33.57247194600001],[130.902357224,33.57286499999999],[130.901891115,33.573159721],[130.901686394,33.573829721],[130.9,33.574236027],[130.9,33.575],[130.90625,33.574999999999996],[130.90625,33.57083333333333],[130.90393785427867,33.57083333333333]]]}},{"type":"Feature","id":"40609:503027824","properties":{"id":"40609:503027824","meshCode":"503027824","cityCode":"40609","city":"赤村","lat":33.5729167,"lon":130.909375,"areaKm2":0.2681194,"populated2020":false,"population2020":null,"populationNote":"境界またぎ・原典収録外のため自治体内人口は未集計"},"geometry":{"type":"Polygon","coordinates":[[[130.90625,33.57083333333333],[130.90625,33.574999999999996],[130.9125,33.575],[130.9125,33.57083333333333],[130.90625,33.57083333333333]]]}},{"type":"Feature","id":"40609:503027833","properties":{"id":"40609:503027833","meshCode":"503027833","cityCode":"40609","city":"赤村","lat":33.5729167,"lon":130.915625,"areaKm2":0.2681193,"populated2020":false,"population2020":null,"populationNote":"境界またぎ・原典収録外のため自治体内人口は未集計"},"geometry":{"type":"Polygon","coordinates":[[[130.9125,33.57083333333333],[130.9125,33.575],[130.91875,33.574999999999996],[130.91875,33.57083333333333],[130.9125,33.57083333333333]]]}},{"type":"Feature","id":"40609:503027834","properties":{"id":"40609:503027834","meshCode":"503027834","cityCode":"40609","city":"赤村","lat":33.5729167,"lon":130.921875,"areaKm2":0.1291089,"populated2020":false,"population2020":null,"populationNote":"境界またぎ・原典収録外のため自治体内人口は未集計"},"geometry":{"type":"Polygon","coordinates":[[[130.922184721,33.574949721],[130.92215917,33.574362775000004],[130.921731115,33.573838892],[130.92181917,33.573453332999996],[130.922259728,33.57261277500001],[130.922259728,33.572454441],[130.921731388,33.572],[130.921643333,33.571831946],[130.921139728,33.571515559],[130.92040898653445,33.57083333333333],[130.91875,33.57083333333333],[130.91875,33.574999999999996],[130.92211166,33.57500000000001],[130.922184721,33.574949721]]]}},{"type":"Feature","id":"40609:503026992","properties":{"id":"40609:503026992","meshCode":"503026992","cityCode":"40609","city":"赤村","lat":33.5770833,"lon":130.871875,"areaKm2":0.1650265,"populated2020":false,"population2020":null,"populationNote":"境界またぎ・原典収録外のため自治体内人口は未集計"},"geometry":{"type":"Polygon","coordinates":[[[130.871864306,33.57500000000001],[130.87134166,33.575835278999996],[130.87142917,33.576528333000006],[130.871630272,33.57722499999999],[130.871600272,33.577522225],[130.871475279,33.577610829],[130.871037497,33.577663054],[130.87072778200002,33.57805277500001],[130.8701244070752,33.579166666666666],[130.875,33.579166666666666],[130.875,33.57500000000001],[130.871864306,33.57500000000001]]]}},{"type":"Feature","id":"40609:503027901","properties":{"id":"40609:503027901","meshCode":"503027901","cityCode":"40609","city":"赤村","lat":33.5770833,"lon":130.878125,"areaKm2":0.2555054,"populated2020":false,"population2020":null,"populationNote":"境界またぎ・原典収録外のため自治体内人口は未集計"},"geometry":{"type":"Polygon","coordinates":[[[130.88125,33.57556507018885],[130.880569728,33.575618333],[130.879794449,33.575415279],[130.879191946,33.575347495],[130.878546109,33.575150279],[130.878349222,33.575],[130.875,33.57500000000001],[130.875,33.579166666666666],[130.88125,33.579166666666666],[130.88125,33.57556507018885]]]}},{"type":"Feature","id":"40609:503027902","properties":{"id":"40609:503027902","meshCode":"503027902","cityCode":"40609","city":"赤村","lat":33.5775039,"lon":130.8824259,"areaKm2":0.0964876,"populated2020":true,"population2020":null,"populationNote":"境界またぎ・原典収録外のため自治体内人口は未集計"},"geometry":{"type":"Polygon","coordinates":[[[130.8873961218665,33.57916666666666],[130.885374449,33.578573891999994],[130.884248885,33.578823891999996],[130.883464163,33.578886387],[130.882736667,33.57847527899999],[130.882622776,33.578350279000006],[130.883458327,33.57769555899999],[130.883745279,33.577312225],[130.884096939,33.576562495],[130.884183061,33.576190279],[130.88414,33.576009721],[130.883982218,33.575891387000006],[130.882970272,33.575835],[130.881628612,33.57554749500001],[130.88125,33.57556507018885],[130.88125,33.579166666666666],[130.8873961218665,33.57916666666666]]]}},{"type":"Feature","id":"40609:503027911","properties":{"id":"40609:503027911","meshCode":"503027911","cityCode":"40609","city":"赤村","lat":33.5788751,"lon":130.8926033,"areaKm2":0.01504,"populated2020":false,"population2020":null,"populationNote":"境界またぎ・原典収録外のため自治体内人口は未集計"},"geometry":{"type":"Polygon","coordinates":[[[130.89375,33.57850556560387],[130.892292503,33.57852666699999],[130.891826394,33.578642775000006],[130.89103370760208,33.57916666666666],[130.89375,33.57916666666666],[130.89375,33.57850556560387]]]}},{"type":"Feature","id":"40609:503027912","properties":{"id":"40609:503027912","meshCode":"503027912","cityCode":"40609","city":"赤村","lat":33.5770833,"lon":130.896875,"areaKm2":0.1643968,"populated2020":false,"population2020":null,"populationNote":"境界またぎ・原典収録外のため自治体内人口は未集計"},"geometry":{"type":"Polygon","coordinates":[[[130.89756221800002,33.57527361299999],[130.897346394,33.575461108],[130.896533606,33.577213613],[130.895089442,33.57840166700001],[130.894350558,33.578598054],[130.894100558,33.57860694600001],[130.89375,33.57850556560387],[130.89375,33.57916666666666],[130.9,33.579166666666666],[130.9,33.575],[130.898114643,33.575],[130.89756221800002,33.57527361299999]]]}},{"type":"Feature","id":"40609:503027921","properties":{"id":"40609:503027921","meshCode":"503027921","cityCode":"40609","city":"赤村","lat":33.5770833,"lon":130.903125,"areaKm2":0.2681068,"populated2020":false,"population2020":null,"populationNote":"境界またぎ・原典収録外のため自治体内人口は未集計"},"geometry":{"type":"Polygon","coordinates":[[[130.9,33.575],[130.9,33.579166666666666],[130.90625,33.579166666666666],[130.90625,33.574999999999996],[130.9,33.575]]]}},{"type":"Feature","id":"40609:503027922","properties":{"id":"40609:503027922","meshCode":"503027922","cityCode":"40609","city":"赤村","lat":33.5770833,"lon":130.909375,"areaKm2":0.2681067,"populated2020":false,"population2020":null,"populationNote":"境界またぎ・原典収録外のため自治体内人口は未集計"},"geometry":{"type":"Polygon","coordinates":[[[130.90625,33.574999999999996],[130.90625,33.579166666666666],[130.9125,33.579166666666666],[130.9125,33.575],[130.90625,33.574999999999996]]]}},{"type":"Feature","id":"40609:503027931","properties":{"id":"40609:503027931","meshCode":"503027931","cityCode":"40609","city":"赤村","lat":33.5770833,"lon":130.915625,"areaKm2":0.2681066,"populated2020":false,"population2020":null,"populationNote":"境界またぎ・原典収録外のため自治体内人口は未集計"},"geometry":{"type":"Polygon","coordinates":[[[130.9125,33.575],[130.9125,33.579166666666666],[130.91875,33.57916666666666],[130.91875,33.574999999999996],[130.9125,33.575]]]}},{"type":"Feature","id":"40609:503027932","properties":{"id":"40609:503027932","meshCode":"503027932","cityCode":"40609","city":"赤村","lat":33.576965,"lon":130.9192278,"areaKm2":0.0614197,"populated2020":false,"population2020":null,"populationNote":"境界またぎ・原典収録外のため自治体内人口は未集計"},"geometry":{"type":"Polygon","coordinates":[[[130.92009742953653,33.579166666666666],[130.920171388,33.57829],[130.920095837,33.578013054],[130.919844163,33.577795559],[130.91973083,33.577538333],[130.919705551,33.576352224999994],[130.919944721,33.576086946000004],[130.920422776,33.575770559],[130.921303891,33.575444162000004],[130.921706394,33.575167225],[130.92211166,33.57500000000001],[130.91875,33.574999999999996],[130.91875,33.57916666666666],[130.92009742953653,33.579166666666666]]]}},{"type":"Feature","id":"40609:503026994","properties":{"id":"40609:503026994","meshCode":"503026994","cityCode":"40609","city":"赤村","lat":33.58125,"lon":130.871875,"areaKm2":0.2340062,"populated2020":false,"population2020":null,"populationNote":"境界またぎ・原典収録外のため自治体内人口は未集計"},"geometry":{"type":"Polygon","coordinates":[[[130.870114994,33.5792],[130.870218885,33.580560829],[130.870172776,33.580678333],[130.869551388,33.58115472099999],[130.86921083000001,33.581625],[130.868853061,33.58243499999999],[130.868879780017,33.583333333333336],[130.875,33.583333333333336],[130.875,33.579166666666666],[130.870114994,33.5792]]]}},{"type":"Feature","id":"40609:503027903","properties":{"id":"40609:503027903","meshCode":"503027903","cityCode":"40609","city":"赤村","lat":33.58125,"lon":130.878125,"areaKm2":0.2680944,"populated2020":false,"population2020":null,"populationNote":"境界またぎ・原典収録外のため自治体内人口は未集計"},"geometry":{"type":"Polygon","coordinates":[[[130.875,33.579166666666666],[130.875,33.583333333333336],[130.88125,33.583333333333336],[130.88125,33.579166666666666],[130.875,33.579166666666666]]]}},{"type":"Feature","id":"40609:503027904","properties":{"id":"40609:503027904","meshCode":"503027904","cityCode":"40609","city":"赤村","lat":33.58125,"lon":130.884375,"areaKm2":0.2680782,"populated2020":true,"population2020":9.4236,"populationNote":"2020年基準の国交省調整値"},"geometry":{"type":"Polygon","coordinates":[[[130.8875,33.57919695732161],[130.88125,33.579166666666666],[130.88125,33.583333333333336],[130.8875,33.58333333333334],[130.8875,33.57919695732161]]]}},{"type":"Feature","id":"40609:503027913","properties":{"id":"40609:503027913","meshCode":"503027913","cityCode":"40609","city":"赤村","lat":33.58125,"lon":130.890625,"areaKm2":0.2381019,"populated2020":false,"population2020":null,"populationNote":"境界またぎ・原典収録外のため自治体内人口は未集計"},"geometry":{"type":"Polygon","coordinates":[[[130.890905551,33.57925889199999],[130.89054166,33.579866387],[130.889756939,33.580429162],[130.889336394,33.580563054],[130.888836109,33.58041138699999],[130.888517497,33.580179162],[130.888012218,33.579502775],[130.8875,33.57919695732161],[130.8875,33.58333333333334],[130.89375,33.583333333333336],[130.89375,33.57916666666666],[130.89103370760208,33.57916666666666],[130.890905551,33.57925889199999]]]}},{"type":"Feature","id":"40609:503027914","properties":{"id":"40609:503027914","meshCode":"503027914","cityCode":"40609","city":"赤村","lat":33.58125,"lon":130.896875,"areaKm2":0.2680941,"populated2020":false,"population2020":null,"populationNote":"境界またぎ・原典収録外のため自治体内人口は未集計"},"geometry":{"type":"Polygon","coordinates":[[[130.89375,33.57916666666666],[130.89375,33.583333333333336],[130.9,33.583333333333336],[130.9,33.579166666666666],[130.89375,33.57916666666666]]]}},{"type":"Feature","id":"40609:503027923","properties":{"id":"40609:503027923","meshCode":"503027923","cityCode":"40609","city":"赤村","lat":33.58125,"lon":130.903125,"areaKm2":0.2680941,"populated2020":false,"population2020":null,"populationNote":"境界またぎ・原典収録外のため自治体内人口は未集計"},"geometry":{"type":"Polygon","coordinates":[[[130.9,33.579166666666666],[130.9,33.583333333333336],[130.90625,33.583333333333336],[130.90625,33.579166666666666],[130.9,33.579166666666666]]]}},{"type":"Feature","id":"40609:503027924","properties":{"id":"40609:503027924","meshCode":"503027924","cityCode":"40609","city":"赤村","lat":33.58125,"lon":130.909375,"areaKm2":0.268094,"populated2020":false,"population2020":null,"populationNote":"境界またぎ・原典収録外のため自治体内人口は未集計"},"geometry":{"type":"Polygon","coordinates":[[[130.90625,33.579166666666666],[130.90625,33.583333333333336],[130.9125,33.583333333333336],[130.9125,33.579166666666666],[130.90625,33.579166666666666]]]}},{"type":"Feature","id":"40609:503027933","properties":{"id":"40609:503027933","meshCode":"503027933","cityCode":"40609","city":"赤村","lat":33.58125,"lon":130.915625,"areaKm2":0.2678574,"populated2020":false,"population2020":null,"populationNote":"境界またぎ・原典収録外のため自治体内人口は未集計"},"geometry":{"type":"Polygon","coordinates":[[[130.91875,33.583333333333336],[130.91875,33.57916666666666],[130.9125,33.579166666666666],[130.9125,33.583333333333336],[130.91875,33.583333333333336]]]}},{"type":"Feature","id":"40609:503027934","properties":{"id":"40609:503027934","meshCode":"503027934","cityCode":"40609","city":"赤村","lat":33.5803465,"lon":130.9192782,"areaKm2":0.0240135,"populated2020":false,"population2020":null,"populationNote":"境界またぎ・原典収録外のため自治体内人口は未集計"},"geometry":{"type":"MultiPolygon","coordinates":[[[[130.91889939,33.58333333299999],[130.918839728,33.583236108],[130.91875,33.58297213988538],[130.91875,33.583333333333336],[130.91889939,33.58333333299999]]],[[[130.91875166,33.582445279000005],[130.91875,33.58243251673624],[130.91875,33.58250949104895],[130.91875166,33.582445279000005]]],[[[130.91875,33.58176781734138],[130.918965551,33.581238892],[130.919267497,33.580863054],[130.920435279,33.579852225],[130.920422776,33.579723613],[130.920121115,33.579338054000004],[130.92009742953653,33.579166666666666],[130.91875,33.57916666666666],[130.91875,33.58176781734138]]]]}},{"type":"Feature","id":"40609:503036091","properties":{"id":"40609:503036091","meshCode":"503036091","cityCode":"40609","city":"赤村","lat":33.5855708,"lon":130.8685906,"areaKm2":0.0076448,"populated2020":false,"population2020":null,"populationNote":"境界またぎ・原典収録外のため自治体内人口は未集計"},"geometry":{"type":"Polygon","coordinates":[[[130.86875,33.584173545150264],[130.868061388,33.58450666700001],[130.868266109,33.584752224999995],[130.868284449,33.585234721],[130.86875,33.58656496792949],[130.86875,33.584173545150264]]]}},{"type":"Feature","id":"40609:503036092","properties":{"id":"40609:503036092","meshCode":"503036092","cityCode":"40609","city":"赤村","lat":33.5854167,"lon":130.871875,"areaKm2":0.2666955,"populated2020":false,"population2020":null,"populationNote":"境界またぎ・原典収録外のため自治体内人口は未集計"},"geometry":{"type":"Polygon","coordinates":[[[130.868881855,33.583373973],[130.868901946,33.583838613],[130.86875,33.584173545150264],[130.868752776,33.58708638700001],[130.86884649240196,33.5875],[130.875,33.5875],[130.875,33.583333333333336],[130.868881855,33.583373973]]]}},{"type":"Feature","id":"40609:503037001","properties":{"id":"40609:503037001","meshCode":"503037001","cityCode":"40609","city":"赤村","lat":33.5854167,"lon":130.878125,"areaKm2":0.2680817,"populated2020":true,"population2020":26.8666,"populationNote":"2020年基準の国交省調整値"},"geometry":{"type":"Polygon","coordinates":[[[130.875,33.583333333333336],[130.875,33.5875],[130.88125,33.587500000000006],[130.88125,33.583333333333336],[130.875,33.583333333333336]]]}},{"type":"Feature","id":"40609:503037002","properties":{"id":"40609:503037002","meshCode":"503037002","cityCode":"40609","city":"赤村","lat":33.5854167,"lon":130.884375,"areaKm2":0.2680816,"populated2020":true,"population2020":29.426,"populationNote":"2020年基準の国交省調整値"},"geometry":{"type":"Polygon","coordinates":[[[130.88125,33.583333333333336],[130.88125,33.587500000000006],[130.8875,33.5875],[130.8875,33.58333333333334],[130.88125,33.583333333333336]]]}},{"type":"Feature","id":"40609:503037011","properties":{"id":"40609:503037011","meshCode":"503037011","cityCode":"40609","city":"赤村","lat":33.5854167,"lon":130.890625,"areaKm2":0.2680815,"populated2020":false,"population2020":null,"populationNote":"境界またぎ・原典収録外のため自治体内人口は未集計"},"geometry":{"type":"Polygon","coordinates":[[[130.8875,33.58333333333334],[130.8875,33.5875],[130.89375,33.5875],[130.89375,33.583333333333336],[130.8875,33.58333333333334]]]}},{"type":"Feature","id":"40609:503037012","properties":{"id":"40609:503037012","meshCode":"503037012","cityCode":"40609","city":"赤村","lat":33.5854167,"lon":130.896875,"areaKm2":0.2680814,"populated2020":true,"population2020":2.8456,"populationNote":"2020年基準の国交省調整値"},"geometry":{"type":"Polygon","coordinates":[[[130.89375,33.583333333333336],[130.89375,33.5875],[130.9,33.5875],[130.9,33.583333333333336],[130.89375,33.583333333333336]]]}},{"type":"Feature","id":"40609:503037021","properties":{"id":"40609:503037021","meshCode":"503037021","cityCode":"40609","city":"赤村","lat":33.5854167,"lon":130.903125,"areaKm2":0.2680814,"populated2020":false,"population2020":null,"populationNote":"境界またぎ・原典収録外のため自治体内人口は未集計"},"geometry":{"type":"Polygon","coordinates":[[[130.9,33.583333333333336],[130.9,33.5875],[130.90625,33.5875],[130.90625,33.583333333333336],[130.9,33.583333333333336]]]}},{"type":"Feature","id":"40609:503037022","properties":{"id":"40609:503037022","meshCode":"503037022","cityCode":"40609","city":"赤村","lat":33.5854167,"lon":130.909375,"areaKm2":0.2680813,"populated2020":false,"population2020":null,"populationNote":"境界またぎ・原典収録外のため自治体内人口は未集計"},"geometry":{"type":"Polygon","coordinates":[[[130.90625,33.583333333333336],[130.90625,33.5875],[130.9125,33.587500000000006],[130.9125,33.583333333333336],[130.90625,33.583333333333336]]]}},{"type":"Feature","id":"40609:503037031","properties":{"id":"40609:503037031","meshCode":"503037031","cityCode":"40609","city":"赤村","lat":33.5854167,"lon":130.915625,"areaKm2":0.2194334,"populated2020":false,"population2020":null,"populationNote":"境界またぎ・原典収録外のため自治体内人口は未集計"},"geometry":{"type":"Polygon","coordinates":[[[130.91405363076717,33.5875],[130.914264721,33.586896387],[130.91447917,33.586633613],[130.914409728,33.586633613],[130.91460166,33.586536946],[130.916718612,33.586559162],[130.918247782,33.586439721],[130.918475279,33.586033333],[130.91875,33.58472501228176],[130.91875,33.583333333333336],[130.9125,33.583333333333336],[130.9125,33.587500000000006],[130.91405363076717,33.5875]]]}},{"type":"Feature","id":"40609:503037032","properties":{"id":"40609:503037032","meshCode":"503037032","cityCode":"40609","city":"赤村","lat":33.5839225,"lon":130.918852,"areaKm2":0.0021867,"populated2020":false,"population2020":null,"populationNote":"境界またぎ・原典収録外のため自治体内人口は未集計"},"geometry":{"type":"Polygon","coordinates":[[[130.91875,33.58472501228176],[130.919015551,33.58369110799999],[130.91889939020461,33.58333333333334],[130.91875,33.583333333333336],[130.91875,33.58472501228176]]]}},{"type":"Feature","id":"40609:503036094","properties":{"id":"40609:503036094","meshCode":"503036094","cityCode":"40609","city":"赤村","lat":33.5895833,"lon":130.871875,"areaKm2":0.2165222,"populated2020":false,"population2020":null,"populationNote":"境界またぎ・原典収録外のため自治体内人口は未集計"},"geometry":{"type":"Polygon","coordinates":[[[130.86884649240196,33.5875],[130.86881,33.588114721],[130.86895166000002,33.588411387],[130.869428885,33.588818053999994],[130.869516394,33.58905277499999],[130.870081388,33.589404721],[130.870523891,33.589863333],[130.870463606,33.590629441],[130.870514721,33.590751108],[130.870828054,33.590919721],[130.870892776,33.591071108],[130.87095666700003,33.591276108],[130.87085808013174,33.591666666666676],[130.875,33.591666666666676],[130.875,33.5875],[130.86884649240196,33.5875]]]}},{"type":"Feature","id":"40609:503037003","properties":{"id":"40609:503037003","meshCode":"503037003","cityCode":"40609","city":"赤村","lat":33.5895833,"lon":130.878125,"areaKm2":0.268069,"populated2020":true,"population2020":23.1666,"populationNote":"2020年基準の国交省調整値"},"geometry":{"type":"Polygon","coordinates":[[[130.875,33.5875],[130.875,33.591666666666676],[130.88125,33.591666666666676],[130.88125,33.587500000000006],[130.875,33.5875]]]}},{"type":"Feature","id":"40609:503037004","properties":{"id":"40609:503037004","meshCode":"503037004","cityCode":"40609","city":"赤村","lat":33.5895833,"lon":130.884375,"areaKm2":0.2680689,"populated2020":true,"population2020":43.9189,"populationNote":"2020年基準の国交省調整値"},"geometry":{"type":"Polygon","coordinates":[[[130.88125,33.587500000000006],[130.88125,33.591666666666676],[130.8875,33.591666666666676],[130.8875,33.5875],[130.88125,33.587500000000006]]]}},{"type":"Feature","id":"40609:503037013","properties":{"id":"40609:503037013","meshCode":"503037013","cityCode":"40609","city":"赤村","lat":33.5895833,"lon":130.890625,"areaKm2":0.2680688,"populated2020":true,"population2020":46.1489,"populationNote":"2020年基準の国交省調整値"},"geometry":{"type":"Polygon","coordinates":[[[130.8875,33.5875],[130.8875,33.591666666666676],[130.89375,33.591666666666676],[130.89375,33.5875],[130.8875,33.5875]]]}},{"type":"Feature","id":"40609:503037014","properties":{"id":"40609:503037014","meshCode":"503037014","cityCode":"40609","city":"赤村","lat":33.5895833,"lon":130.896875,"areaKm2":0.2680687,"populated2020":true,"population2020":11.7917,"populationNote":"2020年基準の国交省調整値"},"geometry":{"type":"Polygon","coordinates":[[[130.89375,33.5875],[130.89375,33.591666666666676],[130.9,33.591666666666676],[130.9,33.5875],[130.89375,33.5875]]]}},{"type":"Feature","id":"40609:503037023","properties":{"id":"40609:503037023","meshCode":"503037023","cityCode":"40609","city":"赤村","lat":33.5895833,"lon":130.903125,"areaKm2":0.2680686,"populated2020":false,"population2020":null,"populationNote":"境界またぎ・原典収録外のため自治体内人口は未集計"},"geometry":{"type":"Polygon","coordinates":[[[130.9,33.5875],[130.9,33.591666666666676],[130.90625,33.591666666666676],[130.90625,33.5875],[130.9,33.5875]]]}},{"type":"Feature","id":"40609:503037024","properties":{"id":"40609:503037024","meshCode":"503037024","cityCode":"40609","city":"赤村","lat":33.5895833,"lon":130.909375,"areaKm2":0.2370111,"populated2020":false,"population2020":null,"populationNote":"境界またぎ・原典収録外のため自治体内人口は未集計"},"geometry":{"type":"Polygon","coordinates":[[[130.91147,33.591640559000005],[130.911411115,33.590668892],[130.911701115,33.590133613000006],[130.91166083,33.58987499999999],[130.911403333,33.589671667],[130.911351946,33.589488892],[130.911943891,33.58851333300001],[130.9125,33.58856907937482],[130.9125,33.587500000000006],[130.90625,33.5875],[130.90625,33.591666666666676],[130.91147,33.591640559000005]]]}},{"type":"Feature","id":"40609:503037033","properties":{"id":"40609:503037033","meshCode":"503037033","cityCode":"40609","city":"赤村","lat":33.5880266,"lon":130.9131123,"areaKm2":0.0112839,"populated2020":false,"population2020":null,"populationNote":"境界またぎ・原典収録外のため自治体内人口は未集計"},"geometry":{"type":"Polygon","coordinates":[[[130.912502503,33.58856861299999],[130.913772387,33.587995414],[130.913959442,33.587823333],[130.91405363076717,33.5875],[130.9125,33.587500000000006],[130.912502503,33.58856861299999]]]}},{"type":"Feature","id":"40609:503036191","properties":{"id":"40609:503036191","meshCode":"503036191","cityCode":"40609","city":"赤村","lat":33.5950785,"lon":130.8687105,"areaKm2":0.0005181,"populated2020":true,"population2020":null,"populationNote":"境界またぎ・原典収録外のため自治体内人口は未集計"},"geometry":{"type":"Polygon","coordinates":[[[130.86875,33.5948208171744],[130.868606939,33.595278891999996],[130.86875,33.595492733604274],[130.86875,33.5948208171744]]]}},{"type":"Feature","id":"40609:503036192","properties":{"id":"40609:503036192","meshCode":"503036192","cityCode":"40609","city":"赤村","lat":33.59375,"lon":130.871875,"areaKm2":0.2249473,"populated2020":false,"population2020":null,"populationNote":"境界またぎ・原典収録外のため自治体内人口は未集計"},"geometry":{"type":"Polygon","coordinates":[[[130.87085808,33.591666667],[130.870176667,33.59247889200001],[130.870262776,33.59298638700001],[130.870174449,33.593610559],[130.869732503,33.594353054],[130.869599728,33.594487225],[130.868918327,33.59463027900001],[130.86875,33.5948208171744],[130.8687891825529,33.59583333333333],[130.875,33.59583333333333],[130.875,33.591666666666676],[130.87085808,33.591666667]]]}},{"type":"Feature","id":"40609:503037101","properties":{"id":"40609:503037101","meshCode":"503037101","cityCode":"40609","city":"赤村","lat":33.59375,"lon":130.878125,"areaKm2":0.2680563,"populated2020":true,"population2020":48.1042,"populationNote":"2020年基準の国交省調整値"},"geometry":{"type":"Polygon","coordinates":[[[130.875,33.591666666666676],[130.875,33.59583333333333],[130.88125,33.59583333333334],[130.88125,33.591666666666676],[130.875,33.591666666666676]]]}},{"type":"Feature","id":"40609:503037102","properties":{"id":"40609:503037102","meshCode":"503037102","cityCode":"40609","city":"赤村","lat":33.59375,"lon":130.884375,"areaKm2":0.2680562,"populated2020":true,"population2020":40.0328,"populationNote":"2020年基準の国交省調整値"},"geometry":{"type":"Polygon","coordinates":[[[130.88125,33.591666666666676],[130.88125,33.59583333333334],[130.8875,33.59583333333333],[130.8875,33.591666666666676],[130.88125,33.591666666666676]]]}},{"type":"Feature","id":"40609:503037111","properties":{"id":"40609:503037111","meshCode":"503037111","cityCode":"40609","city":"赤村","lat":33.59375,"lon":130.890625,"areaKm2":0.2680561,"populated2020":true,"population2020":49.0171,"populationNote":"2020年基準の国交省調整値"},"geometry":{"type":"Polygon","coordinates":[[[130.8875,33.591666666666676],[130.8875,33.59583333333333],[130.89375,33.59583333333333],[130.89375,33.591666666666676],[130.8875,33.591666666666676]]]}},{"type":"Feature","id":"40609:503037112","properties":{"id":"40609:503037112","meshCode":"503037112","cityCode":"40609","city":"赤村","lat":33.59375,"lon":130.896875,"areaKm2":0.268056,"populated2020":true,"population2020":26.1272,"populationNote":"2020年基準の国交省調整値"},"geometry":{"type":"Polygon","coordinates":[[[130.89375,33.591666666666676],[130.89375,33.59583333333333],[130.9,33.59583333333333],[130.9,33.591666666666676],[130.89375,33.591666666666676]]]}},{"type":"Feature","id":"40609:503037121","properties":{"id":"40609:503037121","meshCode":"503037121","cityCode":"40609","city":"赤村","lat":33.59375,"lon":130.903125,"areaKm2":0.2680559,"populated2020":true,"population2020":20.0123,"populationNote":"2020年基準の国交省調整値"},"geometry":{"type":"Polygon","coordinates":[[[130.9,33.591666666666676],[130.9,33.59583333333333],[130.90625,33.59583333333334],[130.90625,33.591666666666676],[130.9,33.591666666666676]]]}},{"type":"Feature","id":"40609:503037122","properties":{"id":"40609:503037122","meshCode":"503037122","cityCode":"40609","city":"赤村","lat":33.59375,"lon":130.909375,"areaKm2":0.218028,"populated2020":false,"population2020":null,"populationNote":"境界またぎ・原典収録外のため自治体内人口は未集計"},"geometry":{"type":"Polygon","coordinates":[[[130.911344721,33.59583],[130.911274994,33.595133613],[130.911429442,33.59349666699999],[130.911231115,33.592503891999996],[130.911249442,33.592217775],[130.91146736703362,33.591666666666676],[130.90625,33.591666666666676],[130.90625,33.59583333333334],[130.911344721,33.59583]]]}},{"type":"Feature","id":"40609:503036193","properties":{"id":"40609:503036193","meshCode":"503036193","cityCode":"40609","city":"赤村","lat":33.5980746,"lon":130.8681208,"areaKm2":0.0545513,"populated2020":false,"population2020":null,"populationNote":"境界またぎ・原典収録外のため自治体内人口は未集計"},"geometry":{"type":"Polygon","coordinates":[[[130.868746667,33.595890829],[130.868208054,33.59627916200001],[130.868218885,33.596631108],[130.868014163,33.59726499999999],[130.867581946,33.597745],[130.867335551,33.598581387],[130.866936394,33.59897999999999],[130.866428885,33.599203892],[130.866293333,33.59978000000001],[130.865979663,33.6],[130.86875,33.60000000000001],[130.868746667,33.595890829]]]}},{"type":"Feature","id":"40609:503036194","properties":{"id":"40609:503036194","meshCode":"503036194","cityCode":"40609","city":"赤村","lat":33.5979167,"lon":130.871875,"areaKm2":0.268033,"populated2020":false,"population2020":null,"populationNote":"境界またぎ・原典収録外のため自治体内人口は未集計"},"geometry":{"type":"Polygon","coordinates":[[[130.8687891825529,33.59583333333333],[130.86875,33.60000000000001],[130.875,33.60000000000001],[130.875,33.59583333333333],[130.8687891825529,33.59583333333333]]]}},{"type":"Feature","id":"40609:503037103","properties":{"id":"40609:503037103","meshCode":"503037103","cityCode":"40609","city":"赤村","lat":33.5979167,"lon":130.878125,"areaKm2":0.2680435,"populated2020":true,"population2020":29.9054,"populationNote":"2020年基準の国交省調整値"},"geometry":{"type":"Polygon","coordinates":[[[130.875,33.59583333333333],[130.875,33.60000000000001],[130.88125,33.600000000000016],[130.88125,33.59583333333334],[130.875,33.59583333333333]]]}},{"type":"Feature","id":"40609:503037104","properties":{"id":"40609:503037104","meshCode":"503037104","cityCode":"40609","city":"赤村","lat":33.5979167,"lon":130.884375,"areaKm2":0.2680435,"populated2020":true,"population2020":86.0103,"populationNote":"2020年基準の国交省調整値"},"geometry":{"type":"Polygon","coordinates":[[[130.88125,33.59583333333334],[130.88125,33.600000000000016],[130.8875,33.6],[130.8875,33.59583333333333],[130.88125,33.59583333333334]]]}},{"type":"Feature","id":"40609:503037113","properties":{"id":"40609:503037113","meshCode":"503037113","cityCode":"40609","city":"赤村","lat":33.5979167,"lon":130.890625,"areaKm2":0.2680434,"populated2020":true,"population2020":53.6739,"populationNote":"2020年基準の国交省調整値"},"geometry":{"type":"Polygon","coordinates":[[[130.8875,33.59583333333333],[130.8875,33.6],[130.89375,33.60000000000001],[130.89375,33.59583333333333],[130.8875,33.59583333333333]]]}},{"type":"Feature","id":"40609:503037114","properties":{"id":"40609:503037114","meshCode":"503037114","cityCode":"40609","city":"赤村","lat":33.5979167,"lon":130.896875,"areaKm2":0.2680433,"populated2020":false,"population2020":null,"populationNote":"境界またぎ・原典収録外のため自治体内人口は未集計"},"geometry":{"type":"Polygon","coordinates":[[[130.89375,33.59583333333333],[130.89375,33.60000000000001],[130.9,33.6],[130.9,33.59583333333333],[130.89375,33.59583333333333]]]}},{"type":"Feature","id":"40609:503037123","properties":{"id":"40609:503037123","meshCode":"503037123","cityCode":"40609","city":"赤村","lat":33.5979167,"lon":130.903125,"areaKm2":0.2680432,"populated2020":false,"population2020":null,"populationNote":"境界またぎ・原典収録外のため自治体内人口は未集計"},"geometry":{"type":"Polygon","coordinates":[[[130.9,33.59583333333333],[130.9,33.6],[130.90625,33.6],[130.90625,33.59583333333334],[130.9,33.59583333333333]]]}},{"type":"Feature","id":"40609:503037124","properties":{"id":"40609:503037124","meshCode":"503037124","cityCode":"40609","city":"赤村","lat":33.5979167,"lon":130.909375,"areaKm2":0.1624676,"populated2020":false,"population2020":null,"populationNote":"境界またぎ・原典収録外のため自治体内人口は未集計"},"geometry":{"type":"Polygon","coordinates":[[[130.907617224,33.59995805400001],[130.90874917,33.599303333],[130.909155837,33.598702225],[130.909949728,33.598271667],[130.910236394,33.59794082900001],[130.910523061,33.59737889200001],[130.910861115,33.597044441],[130.911778327,33.596653892],[130.911774721,33.596464162],[130.91134612360963,33.59583333333333],[130.90625,33.59583333333334],[130.90625,33.6],[130.907617224,33.59995805400001]]]}},{"type":"Feature","id":"40609:503036291","properties":{"id":"40609:503036291","meshCode":"503036291","cityCode":"40609","city":"赤村","lat":33.6020833,"lon":130.865625,"areaKm2":0.1725205,"populated2020":false,"population2020":null,"populationNote":"境界またぎ・原典収録外のため自治体内人口は未集計"},"geometry":{"type":"Polygon","coordinates":[[[130.865979663,33.6],[130.864913891,33.601408054000004],[130.864556667,33.602683613],[130.86421166,33.603231946],[130.863633333,33.603527495],[130.86369083,33.603678892],[130.863956939,33.603849999999994],[130.86422916872195,33.60416666666666],[130.86875,33.60416666666666],[130.86875,33.60000000000001],[130.865979663,33.6]]]}},{"type":"Feature","id":"40609:503036292","properties":{"id":"40609:503036292","meshCode":"503036292","cityCode":"40609","city":"赤村","lat":33.6020833,"lon":130.871875,"areaKm2":0.2680309,"populated2020":true,"population2020":10.7188,"populationNote":"2020年基準の国交省調整値"},"geometry":{"type":"Polygon","coordinates":[[[130.86875,33.60000000000001],[130.86875,33.60416666666666],[130.875,33.60416666666666],[130.875,33.60000000000001],[130.86875,33.60000000000001]]]}},{"type":"Feature","id":"40609:503037201","properties":{"id":"40609:503037201","meshCode":"503037201","cityCode":"40609","city":"赤村","lat":33.6020833,"lon":130.878125,"areaKm2":0.2680308,"populated2020":true,"population2020":118.7489,"populationNote":"2020年基準の国交省調整値"},"geometry":{"type":"Polygon","coordinates":[[[130.875,33.60000000000001],[130.875,33.60416666666666],[130.88125,33.60416666666666],[130.88125,33.600000000000016],[130.875,33.60000000000001]]]}},{"type":"Feature","id":"40609:503037202","properties":{"id":"40609:503037202","meshCode":"503037202","cityCode":"40609","city":"赤村","lat":33.6020833,"lon":130.884375,"areaKm2":0.2680308,"populated2020":true,"population2020":26.6532,"populationNote":"2020年基準の国交省調整値"},"geometry":{"type":"Polygon","coordinates":[[[130.88125,33.600000000000016],[130.88125,33.60416666666666],[130.8875,33.604166666666664],[130.8875,33.6],[130.88125,33.600000000000016]]]}},{"type":"Feature","id":"40609:503037211","properties":{"id":"40609:503037211","meshCode":"503037211","cityCode":"40609","city":"赤村","lat":33.6020833,"lon":130.890625,"areaKm2":0.2680307,"populated2020":false,"population2020":null,"populationNote":"境界またぎ・原典収録外のため自治体内人口は未集計"},"geometry":{"type":"Polygon","coordinates":[[[130.8875,33.6],[130.8875,33.604166666666664],[130.89375,33.60416666666666],[130.89375,33.60000000000001],[130.8875,33.6]]]}},{"type":"Feature","id":"40609:503037212","properties":{"id":"40609:503037212","meshCode":"503037212","cityCode":"40609","city":"赤村","lat":33.6020833,"lon":130.896875,"areaKm2":0.2680306,"populated2020":false,"population2020":null,"populationNote":"境界またぎ・原典収録外のため自治体内人口は未集計"},"geometry":{"type":"Polygon","coordinates":[[[130.89375,33.60000000000001],[130.89375,33.60416666666666],[130.9,33.604166666666664],[130.9,33.6],[130.89375,33.60000000000001]]]}},{"type":"Feature","id":"40609:503037221","properties":{"id":"40609:503037221","meshCode":"503037221","cityCode":"40609","city":"赤村","lat":33.6020833,"lon":130.903125,"areaKm2":0.20871,"populated2020":false,"population2020":null,"populationNote":"境界またぎ・原典収録外のため自治体内人口は未集計"},"geometry":{"type":"Polygon","coordinates":[[[130.90301162954043,33.604166666666664],[130.90328805400003,33.603633892],[130.903218327,33.602930279],[130.903343333,33.602630279],[130.903538054,33.60254777499999],[130.904890272,33.60237527900001],[130.90521,33.60226166700001],[130.905887497,33.601786946],[130.906232776,33.60139082900001],[130.90625,33.6],[130.9,33.6],[130.9,33.604166666666664],[130.90301162954043,33.604166666666664]]]}},{"type":"Feature","id":"40609:503037222","properties":{"id":"40609:503037222","meshCode":"503037222","cityCode":"40609","city":"赤村","lat":33.6006496,"lon":130.9064252,"areaKm2":0.0054521,"populated2020":false,"population2020":null,"populationNote":"境界またぎ・原典収録外のため自治体内人口は未集計"},"geometry":{"type":"Polygon","coordinates":[[[130.906269442,33.601313613],[130.906468054,33.600739161999996],[130.906876109,33.60030138700001],[130.907509585,33.6],[130.90625,33.6],[130.906269442,33.601313613]]]}},{"type":"Feature","id":"40609:503036293","properties":{"id":"40609:503036293","meshCode":"503036293","cityCode":"40609","city":"赤村","lat":33.60625,"lon":130.865625,"areaKm2":0.1918252,"populated2020":true,"population2020":9.6624,"populationNote":"2020年基準の国交省調整値"},"geometry":{"type":"Polygon","coordinates":[[[130.86422916872195,33.60416666666666],[130.864529728,33.604437774999994],[130.86451917,33.604618892000005],[130.864153333,33.605062225],[130.863620558,33.60549916200001],[130.863506109,33.606254721],[130.863724163,33.606504441000006],[130.864338054,33.606790000000004],[130.865116394,33.60768305399999],[130.86511083,33.60785333300001],[130.86473438374358,33.60833333333333],[130.86875,33.608333333333334],[130.86875,33.60416666666666],[130.86422916872195,33.60416666666666]]]}},{"type":"Feature","id":"40609:503036294","properties":{"id":"40609:503036294","meshCode":"503036294","cityCode":"40609","city":"赤村","lat":33.60625,"lon":130.871875,"areaKm2":0.2680182,"populated2020":true,"population2020":15.4963,"populationNote":"2020年基準の国交省調整値"},"geometry":{"type":"Polygon","coordinates":[[[130.86875,33.60416666666666],[130.86875,33.608333333333334],[130.875,33.60833333333333],[130.875,33.60416666666666],[130.86875,33.60416666666666]]]}},{"type":"Feature","id":"40609:503037203","properties":{"id":"40609:503037203","meshCode":"503037203","cityCode":"40609","city":"赤村","lat":33.60625,"lon":130.878125,"areaKm2":0.2680181,"populated2020":true,"population2020":22.6875,"populationNote":"2020年基準の国交省調整値"},"geometry":{"type":"Polygon","coordinates":[[[130.875,33.60416666666666],[130.875,33.60833333333333],[130.88125,33.60833333333333],[130.88125,33.60416666666666],[130.875,33.60416666666666]]]}},{"type":"Feature","id":"40609:503037204","properties":{"id":"40609:503037204","meshCode":"503037204","cityCode":"40609","city":"赤村","lat":33.60625,"lon":130.884375,"areaKm2":0.268018,"populated2020":true,"population2020":13.2424,"populationNote":"2020年基準の国交省調整値"},"geometry":{"type":"Polygon","coordinates":[[[130.88125,33.60416666666666],[130.88125,33.60833333333333],[130.8875,33.608333333333334],[130.8875,33.604166666666664],[130.88125,33.60416666666666]]]}},{"type":"Feature","id":"40609:503037213","properties":{"id":"40609:503037213","meshCode":"503037213","cityCode":"40609","city":"赤村","lat":33.60625,"lon":130.890625,"areaKm2":0.268018,"populated2020":true,"population2020":11.5883,"populationNote":"2020年基準の国交省調整値"},"geometry":{"type":"Polygon","coordinates":[[[130.8875,33.604166666666664],[130.8875,33.608333333333334],[130.89375,33.60833333333333],[130.89375,33.60416666666666],[130.8875,33.604166666666664]]]}},{"type":"Feature","id":"40609:503037214","properties":{"id":"40609:503037214","meshCode":"503037214","cityCode":"40609","city":"赤村","lat":33.60625,"lon":130.896875,"areaKm2":0.2680179,"populated2020":true,"population2020":7.4605,"populationNote":"2020年基準の国交省調整値"},"geometry":{"type":"Polygon","coordinates":[[[130.89375,33.60416666666666],[130.89375,33.60833333333333],[130.9,33.60833333333333],[130.9,33.604166666666664],[130.89375,33.60416666666666]]]}},{"type":"Feature","id":"40609:503037223","properties":{"id":"40609:503037223","meshCode":"503037223","cityCode":"40609","city":"赤村","lat":33.60625,"lon":130.903125,"areaKm2":0.1516374,"populated2020":false,"population2020":null,"populationNote":"境界またぎ・原典収録外のため自治体内人口は未集計"},"geometry":{"type":"Polygon","coordinates":[[[130.903833502,33.608333333],[130.904121115,33.607770279],[130.904172503,33.607498054],[130.903485279,33.606705279],[130.903411946,33.606439720999994],[130.903430272,33.60583999999999],[130.90301162954043,33.604166666666664],[130.9,33.604166666666664],[130.9,33.60833333333333],[130.903833502,33.608333333]]]}},{"type":"Feature","id":"40609:503036391","properties":{"id":"40609:503036391","meshCode":"503036391","cityCode":"40609","city":"赤村","lat":33.6104167,"lon":130.865625,"areaKm2":0.2030927,"populated2020":true,"population2020":44.828,"populationNote":"2020年基準の国交省調整値"},"geometry":{"type":"Polygon","coordinates":[[[130.86473438374358,33.60833333333333],[130.864493061,33.608623054],[130.864289442,33.609181667],[130.864148612,33.609264721],[130.864067782,33.609437495],[130.864093333,33.609537495],[130.864407224,33.609740279],[130.864360272,33.610006387],[130.86409917,33.610477495],[130.864176109,33.610716387],[130.863785837,33.611492495],[130.863214721,33.612115],[130.8630616448878,33.6125],[130.86875,33.6125],[130.86875,33.608333333333334],[130.86473438374358,33.60833333333333]]]}},{"type":"Feature","id":"40609:503036392","properties":{"id":"40609:503036392","meshCode":"503036392","cityCode":"40609","city":"赤村","lat":33.6104167,"lon":130.871875,"areaKm2":0.2680055,"populated2020":true,"population2020":261.8708,"populationNote":"2020年基準の国交省調整値"},"geometry":{"type":"Polygon","coordinates":[[[130.86875,33.608333333333334],[130.86875,33.6125],[130.875,33.6125],[130.875,33.60833333333333],[130.86875,33.608333333333334]]]}},{"type":"Feature","id":"40609:503037301","properties":{"id":"40609:503037301","meshCode":"503037301","cityCode":"40609","city":"赤村","lat":33.6104167,"lon":130.878125,"areaKm2":0.2680054,"populated2020":true,"population2020":69.7343,"populationNote":"2020年基準の国交省調整値"},"geometry":{"type":"Polygon","coordinates":[[[130.875,33.60833333333333],[130.875,33.6125],[130.88125,33.6125],[130.88125,33.60833333333333],[130.875,33.60833333333333]]]}},{"type":"Feature","id":"40609:503037302","properties":{"id":"40609:503037302","meshCode":"503037302","cityCode":"40609","city":"赤村","lat":33.6104167,"lon":130.884375,"areaKm2":0.2680053,"populated2020":true,"population2020":90.2127,"populationNote":"2020年基準の国交省調整値"},"geometry":{"type":"Polygon","coordinates":[[[130.88125,33.60833333333333],[130.88125,33.6125],[130.8875,33.6125],[130.8875,33.608333333333334],[130.88125,33.60833333333333]]]}},{"type":"Feature","id":"40609:503037311","properties":{"id":"40609:503037311","meshCode":"503037311","cityCode":"40609","city":"赤村","lat":33.6104167,"lon":130.890625,"areaKm2":0.2680052,"populated2020":true,"population2020":4.8331,"populationNote":"2020年基準の国交省調整値"},"geometry":{"type":"Polygon","coordinates":[[[130.8875,33.608333333333334],[130.8875,33.6125],[130.89375,33.61249999999999],[130.89375,33.60833333333333],[130.8875,33.608333333333334]]]}},{"type":"Feature","id":"40609:503037312","properties":{"id":"40609:503037312","meshCode":"503037312","cityCode":"40609","city":"赤村","lat":33.6104167,"lon":130.896875,"areaKm2":0.2680052,"populated2020":false,"population2020":null,"populationNote":"境界またぎ・原典収録外のため自治体内人口は未集計"},"geometry":{"type":"Polygon","coordinates":[[[130.89375,33.60833333333333],[130.89375,33.61249999999999],[130.9,33.6125],[130.9,33.60833333333333],[130.89375,33.60833333333333]]]}},{"type":"Feature","id":"40609:503037321","properties":{"id":"40609:503037321","meshCode":"503037321","cityCode":"40609","city":"赤村","lat":33.6104007,"lon":130.9014346,"areaKm2":0.102462,"populated2020":true,"population2020":null,"populationNote":"境界またぎ・原典収録外のため自治体内人口は未集計"},"geometry":{"type":"Polygon","coordinates":[[[130.9003168986235,33.6125],[130.901095279,33.611927495],[130.901584163,33.611324162],[130.90207917,33.610919162],[130.902971946,33.61032305399999],[130.903060272,33.61012666700001],[130.902931946,33.609695829],[130.903596667,33.608798054],[130.90383350188574,33.60833333333333],[130.9,33.60833333333333],[130.9,33.6125],[130.9003168986235,33.6125]]]}},{"type":"Feature","id":"40609:503036384","properties":{"id":"40609:503036384","meshCode":"503036384","cityCode":"40609","city":"赤村","lat":33.615996,"lon":130.8621738,"areaKm2":0.0071369,"populated2020":true,"population2020":null,"populationNote":"境界またぎ・原典収録外のため自治体内人口は未集計"},"geometry":{"type":"Polygon","coordinates":[[[130.8625,33.61529840238555],[130.86170333300004,33.616196387],[130.86183846984346,33.61666666666667],[130.8625,33.61666666666667],[130.8625,33.61529840238555]]]}},{"type":"Feature","id":"40609:503036393","properties":{"id":"40609:503036393","meshCode":"503036393","cityCode":"40609","city":"赤村","lat":33.6145833,"lon":130.865625,"areaKm2":0.25041,"populated2020":true,"population2020":24.7012,"populationNote":"2020年基準の国交省調整値"},"geometry":{"type":"Polygon","coordinates":[[[130.863044994,33.612757495],[130.863212218,33.613471108000006],[130.863467497,33.614014440999995],[130.8625,33.61529840238555],[130.8625,33.61666666666667],[130.86875,33.61666666666667],[130.86875,33.6125],[130.8630616448878,33.6125],[130.863044994,33.612757495]]]}},{"type":"Feature","id":"40609:503036394","properties":{"id":"40609:503036394","meshCode":"503036394","cityCode":"40609","city":"赤村","lat":33.6145833,"lon":130.871875,"areaKm2":0.2679928,"populated2020":true,"population2020":114.4503,"populationNote":"2020年基準の国交省調整値"},"geometry":{"type":"Polygon","coordinates":[[[130.86875,33.6125],[130.86875,33.61666666666667],[130.875,33.61666666666667],[130.875,33.6125],[130.86875,33.6125]]]}},{"type":"Feature","id":"40609:503037303","properties":{"id":"40609:503037303","meshCode":"503037303","cityCode":"40609","city":"赤村","lat":33.6145833,"lon":130.878125,"areaKm2":0.2679927,"populated2020":true,"population2020":152.0681,"populationNote":"2020年基準の国交省調整値"},"geometry":{"type":"Polygon","coordinates":[[[130.875,33.6125],[130.875,33.61666666666667],[130.88125,33.61666666666667],[130.88125,33.6125],[130.875,33.6125]]]}},{"type":"Feature","id":"40609:503037304","properties":{"id":"40609:503037304","meshCode":"503037304","cityCode":"40609","city":"赤村","lat":33.6145833,"lon":130.884375,"areaKm2":0.2679926,"populated2020":true,"population2020":100.8408,"populationNote":"2020年基準の国交省調整値"},"geometry":{"type":"Polygon","coordinates":[[[130.88125,33.6125],[130.88125,33.61666666666667],[130.8875,33.61666666666667],[130.8875,33.6125],[130.88125,33.6125]]]}},{"type":"Feature","id":"40609:503037313","properties":{"id":"40609:503037313","meshCode":"503037313","cityCode":"40609","city":"赤村","lat":33.6145833,"lon":130.890625,"areaKm2":0.2679925,"populated2020":true,"population2020":26.3847,"populationNote":"2020年基準の国交省調整値"},"geometry":{"type":"Polygon","coordinates":[[[130.8875,33.6125],[130.8875,33.61666666666667],[130.89375,33.61666666666667],[130.89375,33.61249999999999],[130.8875,33.6125]]]}},{"type":"Feature","id":"40609:503037314","properties":{"id":"40609:503037314","meshCode":"503037314","cityCode":"40609","city":"赤村","lat":33.6145833,"lon":130.896875,"areaKm2":0.2059428,"populated2020":true,"population2020":28.0522,"populationNote":"2020年基準の国交省調整値"},"geometry":{"type":"Polygon","coordinates":[[[130.89884980493193,33.61666666666667],[130.89878166,33.616333892],[130.898146939,33.615318892],[130.89801083,33.61485],[130.898062218,33.614298613],[130.898187224,33.613987225],[130.898885279,33.613129162],[130.899252776,33.612898054],[130.89948805400002,33.61291194599999],[130.9,33.61272216199999],[130.9,33.6125],[130.89375,33.61249999999999],[130.89375,33.61666666666667],[130.89884980493193,33.61666666666667]]]}},{"type":"Feature","id":"40609:503037323","properties":{"id":"40609:503037323","meshCode":"503037323","cityCode":"40609","city":"赤村","lat":33.6125757,"lon":130.9001215,"areaKm2":0.0004402,"populated2020":true,"population2020":null,"populationNote":"境界またぎ・原典収録外のため自治体内人口は未集計"},"geometry":{"type":"Polygon","coordinates":[[[130.9,33.61272216199999],[130.9003168986235,33.6125],[130.9,33.6125],[130.9,33.61272216199999]]]}},{"type":"Feature","id":"40609:503036482","properties":{"id":"40609:503036482","meshCode":"503036482","cityCode":"40609","city":"赤村","lat":33.6187993,"lon":130.8618579,"areaKm2":0.0580571,"populated2020":true,"population2020":null,"populationNote":"境界またぎ・原典収録外のため自治体内人口は未集計"},"geometry":{"type":"Polygon","coordinates":[[[130.86183847000004,33.616666667000004],[130.862291946,33.617434162],[130.862311946,33.617632225],[130.861848054,33.617836667],[130.861312776,33.618526667],[130.861165837,33.61890582899999],[130.860234163,33.619892225],[130.86018166,33.620250279],[130.85989,33.620676386999996],[130.85994022703233,33.62083333333332],[130.8625,33.62083333333333],[130.8625,33.61666666666667],[130.86183847000004,33.616666667000004]]]}},{"type":"Feature","id":"40609:503036491","properties":{"id":"40609:503036491","meshCode":"503036491","cityCode":"40609","city":"赤村","lat":33.61875,"lon":130.865625,"areaKm2":0.2679802,"populated2020":true,"population2020":81.8705,"populationNote":"2020年基準の国交省調整値"},"geometry":{"type":"Polygon","coordinates":[[[130.8625,33.61666666666667],[130.8625,33.62083333333333],[130.86875,33.62083333333332],[130.86875,33.61666666666667],[130.8625,33.61666666666667]]]}},{"type":"Feature","id":"40609:503036492","properties":{"id":"40609:503036492","meshCode":"503036492","cityCode":"40609","city":"赤村","lat":33.61875,"lon":130.871875,"areaKm2":0.2679801,"populated2020":true,"population2020":59.8476,"populationNote":"2020年基準の国交省調整値"},"geometry":{"type":"Polygon","coordinates":[[[130.86875,33.61666666666667],[130.86875,33.62083333333332],[130.875,33.62083333333333],[130.875,33.61666666666667],[130.86875,33.61666666666667]]]}},{"type":"Feature","id":"40609:503037401","properties":{"id":"40609:503037401","meshCode":"503037401","cityCode":"40609","city":"赤村","lat":33.61875,"lon":130.878125,"areaKm2":0.26798,"populated2020":true,"population2020":10.8573,"populationNote":"2020年基準の国交省調整値"},"geometry":{"type":"Polygon","coordinates":[[[130.875,33.61666666666667],[130.875,33.62083333333333],[130.88125,33.62083333333333],[130.88125,33.61666666666667],[130.875,33.61666666666667]]]}},{"type":"Feature","id":"40609:503037402","properties":{"id":"40609:503037402","meshCode":"503037402","cityCode":"40609","city":"赤村","lat":33.61875,"lon":130.884375,"areaKm2":0.2679799,"populated2020":false,"population2020":null,"populationNote":"境界またぎ・原典収録外のため自治体内人口は未集計"},"geometry":{"type":"Polygon","coordinates":[[[130.88125,33.61666666666667],[130.88125,33.62083333333333],[130.8875,33.62083333333333],[130.8875,33.61666666666667],[130.88125,33.61666666666667]]]}},{"type":"Feature","id":"40609:503037411","properties":{"id":"40609:503037411","meshCode":"503037411","cityCode":"40609","city":"赤村","lat":33.61875,"lon":130.890625,"areaKm2":0.2679798,"populated2020":true,"population2020":41.466,"populationNote":"2020年基準の国交省調整値"},"geometry":{"type":"Polygon","coordinates":[[[130.8875,33.61666666666667],[130.8875,33.62083333333333],[130.89375,33.62083333333333],[130.89375,33.61666666666667],[130.8875,33.61666666666667]]]}},{"type":"Feature","id":"40609:503037412","properties":{"id":"40609:503037412","meshCode":"503037412","cityCode":"40609","city":"赤村","lat":33.61875,"lon":130.896875,"areaKm2":0.255028,"populated2020":true,"population2020":14.6104,"populationNote":"2020年基準の国交省調整値"},"geometry":{"type":"Polygon","coordinates":[[[130.89998639400002,33.618338054],[130.899692218,33.618114162],[130.89905,33.61739527899999],[130.898914163,33.61712972100001],[130.89884980493193,33.61666666666667],[130.89375,33.61666666666667],[130.89375,33.62083333333333],[130.9,33.62083333333333],[130.89998639400002,33.618338054]]]}},{"type":"Feature","id":"40609:503037421","properties":{"id":"40609:503037421","meshCode":"503037421","cityCode":"40609","city":"赤村","lat":33.6196351,"lon":130.9008116,"areaKm2":0.0368406,"populated2020":false,"population2020":null,"populationNote":"境界またぎ・原典収録外のため自治体内人口は未集計"},"geometry":{"type":"Polygon","coordinates":[[[130.90249946020833,33.62083333333332],[130.902222218,33.620276387],[130.90171138800002,33.619697225],[130.9,33.61835082900001],[130.9,33.62083333333333],[130.90249946020833,33.62083333333332]]]}},{"type":"Feature","id":"40609:503036484","properties":{"id":"40609:503036484","meshCode":"503036484","cityCode":"40609","city":"赤村","lat":33.6229474,"lon":130.8612979,"areaKm2":0.0937427,"populated2020":true,"population2020":null,"populationNote":"境界またぎ・原典収録外のため自治体内人口は未集計"},"geometry":{"type":"Polygon","coordinates":[[[130.859941115,33.620836108000006],[130.859997497,33.62117055900001],[130.859869728,33.621611666999996],[130.860047497,33.622158892],[130.860063333,33.62284305399999],[130.86012832700004,33.623051667],[130.86040917,33.623202775],[130.860583891,33.623443613],[130.860454721,33.623974162],[130.86057194600002,33.624274162],[130.86138452700004,33.62500000000001],[130.8625,33.62500000000001],[130.8625,33.62083333333333],[130.859941115,33.620836108000006]]]}},{"type":"Feature","id":"40609:503036493","properties":{"id":"40609:503036493","meshCode":"503036493","cityCode":"40609","city":"赤村","lat":33.6229167,"lon":130.865625,"areaKm2":0.2679674,"populated2020":false,"population2020":null,"populationNote":"境界またぎ・原典収録外のため自治体内人口は未集計"},"geometry":{"type":"Polygon","coordinates":[[[130.8625,33.62083333333333],[130.8625,33.62500000000001],[130.86875,33.62500000000001],[130.86875,33.62083333333332],[130.8625,33.62083333333333]]]}},{"type":"Feature","id":"40609:503036494","properties":{"id":"40609:503036494","meshCode":"503036494","cityCode":"40609","city":"赤村","lat":33.6229167,"lon":130.871875,"areaKm2":0.2679674,"populated2020":true,"population2020":62.3905,"populationNote":"2020年基準の国交省調整値"},"geometry":{"type":"Polygon","coordinates":[[[130.86875,33.62083333333332],[130.86875,33.62500000000001],[130.875,33.625],[130.875,33.62083333333333],[130.86875,33.62083333333332]]]}},{"type":"Feature","id":"40609:503037403","properties":{"id":"40609:503037403","meshCode":"503037403","cityCode":"40609","city":"赤村","lat":33.6229167,"lon":130.878125,"areaKm2":0.2679673,"populated2020":true,"population2020":1.843,"populationNote":"2020年基準の国交省調整値"},"geometry":{"type":"Polygon","coordinates":[[[130.875,33.62083333333333],[130.875,33.625],[130.88125,33.62500000000001],[130.88125,33.62083333333333],[130.875,33.62083333333333]]]}},{"type":"Feature","id":"40609:503037404","properties":{"id":"40609:503037404","meshCode":"503037404","cityCode":"40609","city":"赤村","lat":33.6229167,"lon":130.884375,"areaKm2":0.2679672,"populated2020":false,"population2020":null,"populationNote":"境界またぎ・原典収録外のため自治体内人口は未集計"},"geometry":{"type":"Polygon","coordinates":[[[130.88125,33.62083333333333],[130.88125,33.62500000000001],[130.8875,33.62500000000001],[130.8875,33.62083333333333],[130.88125,33.62083333333333]]]}},{"type":"Feature","id":"40609:503037413","properties":{"id":"40609:503037413","meshCode":"503037413","cityCode":"40609","city":"赤村","lat":33.6229167,"lon":130.890625,"areaKm2":0.2679671,"populated2020":false,"population2020":null,"populationNote":"境界またぎ・原典収録外のため自治体内人口は未集計"},"geometry":{"type":"Polygon","coordinates":[[[130.8875,33.62083333333333],[130.8875,33.62500000000001],[130.89375,33.62500000000001],[130.89375,33.62083333333333],[130.8875,33.62083333333333]]]}},{"type":"Feature","id":"40609:503037414","properties":{"id":"40609:503037414","meshCode":"503037414","cityCode":"40609","city":"赤村","lat":33.6229167,"lon":130.896875,"areaKm2":0.267967,"populated2020":true,"population2020":4.6588,"populationNote":"2020年基準の国交省調整値"},"geometry":{"type":"Polygon","coordinates":[[[130.89375,33.62083333333333],[130.89375,33.62500000000001],[130.9,33.62500000000001],[130.9,33.62083333333333],[130.89375,33.62083333333333]]]}},{"type":"Feature","id":"40609:503037423","properties":{"id":"40609:503037423","meshCode":"503037423","cityCode":"40609","city":"赤村","lat":33.6229167,"lon":130.903125,"areaKm2":0.1381647,"populated2020":true,"population2020":7.6466,"populationNote":"2020年基準の国交省調整値"},"geometry":{"type":"Polygon","coordinates":[[[130.903915772,33.625],[130.903636109,33.624596387],[130.903614163,33.624406946],[130.903823606,33.623945000000006],[130.903772218,33.623683054000004],[130.903361388,33.62307194600001],[130.902927497,33.62262389199999],[130.902736939,33.621386108],[130.90249946020833,33.62083333333332],[130.9,33.62083333333333],[130.9,33.62500000000001],[130.903915772,33.625]]]}},{"type":"Feature","id":"40609:503036582","properties":{"id":"40609:503036582","meshCode":"503036582","cityCode":"40609","city":"赤村","lat":33.6270833,"lon":130.859375,"areaKm2":0.1185496,"populated2020":false,"population2020":null,"populationNote":"境界またぎ・原典収録外のため自治体内人口は未集計"},"geometry":{"type":"Polygon","coordinates":[[[130.861422776,33.62511749499999],[130.861254721,33.62529638699999],[130.860643606,33.625400829],[130.860474163,33.62583361299999],[130.860167497,33.626029441],[130.859204163,33.626919721],[130.858988054,33.627582225],[130.859415279,33.628193333],[130.859437497,33.628909162],[130.85931223118217,33.62916666666666],[130.8625,33.62916666666667],[130.8625,33.62500000000001],[130.86138452700004,33.62500000000001],[130.861422776,33.62511749499999]]]}},{"type":"Feature","id":"40609:503036591","properties":{"id":"40609:503036591","meshCode":"503036591","cityCode":"40609","city":"赤村","lat":33.6270833,"lon":130.865625,"areaKm2":0.2679547,"populated2020":true,"population2020":5.7567,"populationNote":"2020年基準の国交省調整値"},"geometry":{"type":"Polygon","coordinates":[[[130.8625,33.62500000000001],[130.8625,33.62916666666667],[130.86875,33.62916666666666],[130.86875,33.62500000000001],[130.8625,33.62500000000001]]]}},{"type":"Feature","id":"40609:503036592","properties":{"id":"40609:503036592","meshCode":"503036592","cityCode":"40609","city":"赤村","lat":33.6270833,"lon":130.871875,"areaKm2":0.2679546,"populated2020":true,"population2020":56.7013,"populationNote":"2020年基準の国交省調整値"},"geometry":{"type":"Polygon","coordinates":[[[130.86875,33.62500000000001],[130.86875,33.62916666666666],[130.875,33.62916666666666],[130.875,33.625],[130.86875,33.62500000000001]]]}},{"type":"Feature","id":"40609:503037501","properties":{"id":"40609:503037501","meshCode":"503037501","cityCode":"40609","city":"赤村","lat":33.6270833,"lon":130.878125,"areaKm2":0.2679545,"populated2020":false,"population2020":null,"populationNote":"境界またぎ・原典収録外のため自治体内人口は未集計"},"geometry":{"type":"Polygon","coordinates":[[[130.875,33.625],[130.875,33.62916666666666],[130.88125,33.62916666666666],[130.88125,33.62500000000001],[130.875,33.625]]]}},{"type":"Feature","id":"40609:503037502","properties":{"id":"40609:503037502","meshCode":"503037502","cityCode":"40609","city":"赤村","lat":33.6270833,"lon":130.884375,"areaKm2":0.2679545,"populated2020":false,"population2020":null,"populationNote":"境界またぎ・原典収録外のため自治体内人口は未集計"},"geometry":{"type":"Polygon","coordinates":[[[130.88125,33.62500000000001],[130.88125,33.62916666666666],[130.8875,33.62916666666667],[130.8875,33.62500000000001],[130.88125,33.62500000000001]]]}},{"type":"Feature","id":"40609:503037511","properties":{"id":"40609:503037511","meshCode":"503037511","cityCode":"40609","city":"赤村","lat":33.6270833,"lon":130.890625,"areaKm2":0.2679544,"populated2020":false,"population2020":null,"populationNote":"境界またぎ・原典収録外のため自治体内人口は未集計"},"geometry":{"type":"Polygon","coordinates":[[[130.8875,33.62500000000001],[130.8875,33.62916666666667],[130.89375,33.62916666666666],[130.89375,33.62500000000001],[130.8875,33.62500000000001]]]}},{"type":"Feature","id":"40609:503037512","properties":{"id":"40609:503037512","meshCode":"503037512","cityCode":"40609","city":"赤村","lat":33.6270833,"lon":130.896875,"areaKm2":0.2679543,"populated2020":true,"population2020":18.697,"populationNote":"2020年基準の国交省調整値"},"geometry":{"type":"Polygon","coordinates":[[[130.89375,33.62500000000001],[130.89375,33.62916666666666],[130.9,33.62916666666666],[130.9,33.62500000000001],[130.89375,33.62500000000001]]]}},{"type":"Feature","id":"40609:503037521","properties":{"id":"40609:503037521","meshCode":"503037521","cityCode":"40609","city":"赤村","lat":33.6270833,"lon":130.903125,"areaKm2":0.2251793,"populated2020":false,"population2020":null,"populationNote":"境界またぎ・原典収録外のため自治体内人口は未集計"},"geometry":{"type":"Polygon","coordinates":[[[130.9057613342947,33.62916666666666],[130.905769728,33.628646945999996],[130.905633891,33.627960558999995],[130.90579917,33.62706777500001],[130.905747782,33.626774721],[130.905240558,33.626361387],[130.904282776,33.625816667],[130.903915772,33.625],[130.9,33.62500000000001],[130.9,33.62916666666666],[130.9057613342947,33.62916666666666]]]}},{"type":"Feature","id":"40609:503036584","properties":{"id":"40609:503036584","meshCode":"503036584","cityCode":"40609","city":"赤村","lat":33.63125,"lon":130.859375,"areaKm2":0.1401822,"populated2020":true,"population2020":12.3619,"populationNote":"2020年基準の国交省調整値"},"geometry":{"type":"Polygon","coordinates":[[[130.85931223118217,33.62916666666666],[130.859127497,33.62977389200001],[130.859513606,33.63076],[130.859307224,33.631277495],[130.859033606,33.632538613],[130.85929294410178,33.63333333333333],[130.8625,33.63333333333333],[130.8625,33.62916666666667],[130.85931223118217,33.62916666666666]]]}},{"type":"Feature","id":"40609:503036593","properties":{"id":"40609:503036593","meshCode":"503036593","cityCode":"40609","city":"赤村","lat":33.63125,"lon":130.865625,"areaKm2":0.267942,"populated2020":true,"population2020":69.8081,"populationNote":"2020年基準の国交省調整値"},"geometry":{"type":"Polygon","coordinates":[[[130.8625,33.62916666666667],[130.8625,33.63333333333333],[130.86875,33.633333333333326],[130.86875,33.62916666666666],[130.8625,33.62916666666667]]]}},{"type":"Feature","id":"40609:503036594","properties":{"id":"40609:503036594","meshCode":"503036594","cityCode":"40609","city":"赤村","lat":33.63125,"lon":130.871875,"areaKm2":0.2679419,"populated2020":false,"population2020":null,"populationNote":"境界またぎ・原典収録外のため自治体内人口は未集計"},"geometry":{"type":"Polygon","coordinates":[[[130.86875,33.62916666666666],[130.86875,33.633333333333326],[130.875,33.63333333333333],[130.875,33.62916666666666],[130.86875,33.62916666666666]]]}},{"type":"Feature","id":"40609:503037503","properties":{"id":"40609:503037503","meshCode":"503037503","cityCode":"40609","city":"赤村","lat":33.63125,"lon":130.878125,"areaKm2":0.2679418,"populated2020":true,"population2020":37.3683,"populationNote":"2020年基準の国交省調整値"},"geometry":{"type":"Polygon","coordinates":[[[130.875,33.62916666666666],[130.875,33.63333333333333],[130.88125,33.63333333333333],[130.88125,33.62916666666666],[130.875,33.62916666666666]]]}},{"type":"Feature","id":"40609:503037504","properties":{"id":"40609:503037504","meshCode":"503037504","cityCode":"40609","city":"赤村","lat":33.63125,"lon":130.884375,"areaKm2":0.2679417,"populated2020":true,"population2020":20.9922,"populationNote":"2020年基準の国交省調整値"},"geometry":{"type":"Polygon","coordinates":[[[130.88125,33.62916666666666],[130.88125,33.63333333333333],[130.8875,33.63333333333333],[130.8875,33.62916666666667],[130.88125,33.62916666666666]]]}},{"type":"Feature","id":"40609:503037513","properties":{"id":"40609:503037513","meshCode":"503037513","cityCode":"40609","city":"赤村","lat":33.63125,"lon":130.890625,"areaKm2":0.2679417,"populated2020":false,"population2020":null,"populationNote":"境界またぎ・原典収録外のため自治体内人口は未集計"},"geometry":{"type":"Polygon","coordinates":[[[130.8875,33.62916666666667],[130.8875,33.63333333333333],[130.89375,33.63333333333333],[130.89375,33.62916666666666],[130.8875,33.62916666666667]]]}},{"type":"Feature","id":"40609:503037514","properties":{"id":"40609:503037514","meshCode":"503037514","cityCode":"40609","city":"赤村","lat":33.63125,"lon":130.896875,"areaKm2":0.2679416,"populated2020":true,"population2020":43.137,"populationNote":"2020年基準の国交省調整値"},"geometry":{"type":"Polygon","coordinates":[[[130.89375,33.62916666666666],[130.89375,33.63333333333333],[130.9,33.63333333333333],[130.9,33.62916666666666],[130.89375,33.62916666666666]]]}},{"type":"Feature","id":"40609:503037523","properties":{"id":"40609:503037523","meshCode":"503037523","cityCode":"40609","city":"赤村","lat":33.63125,"lon":130.903125,"areaKm2":0.2646991,"populated2020":false,"population2020":null,"populationNote":"境界またぎ・原典収録外のため自治体内人口は未集計"},"geometry":{"type":"Polygon","coordinates":[[[130.906245668,33.633333333],[130.90625,33.630348565401704],[130.906096667,33.630180829000004],[130.906030558,33.629701667],[130.90579166,33.629353333000005],[130.9057613342947,33.62916666666666],[130.9,33.62916666666666],[130.9,33.63333333333333],[130.906245668,33.633333333]]]}},{"type":"Feature","id":"40609:503037524","properties":{"id":"40609:503037524","meshCode":"503037524","cityCode":"40609","city":"赤村","lat":33.6318758,"lon":130.9067021,"areaKm2":0.0175859,"populated2020":true,"population2020":null,"populationNote":"境界またぎ・原典収録外のため自治体内人口は未集計"},"geometry":{"type":"Polygon","coordinates":[[[130.90625416300003,33.633288613],[130.907330558,33.63163999999999],[130.907121115,33.631126386999995],[130.90625,33.630348565401704],[130.90625416300003,33.633288613]]]}},{"type":"Feature","id":"40609:503036682","properties":{"id":"40609:503036682","meshCode":"503036682","cityCode":"40609","city":"赤村","lat":33.6354167,"lon":130.859375,"areaKm2":0.142733,"populated2020":true,"population2020":53.5856,"populationNote":"2020年基準の国交省調整値"},"geometry":{"type":"Polygon","coordinates":[[[130.85929294410178,33.63333333333333],[130.859525551,33.633997494999996],[130.859407224,33.635028612999996],[130.858907497,33.635246108],[130.858870272,33.635698613],[130.858504994,33.635999721000005],[130.858542218,33.63615110799999],[130.858893333,33.636575279000006],[130.859044449,33.637011946],[130.859464994,33.637128892],[130.859590558,33.637258892000006],[130.85964226975943,33.6375],[130.8625,33.6375],[130.8625,33.63333333333333],[130.85929294410178,33.63333333333333]]]}},{"type":"Feature","id":"40609:503036691","properties":{"id":"40609:503036691","meshCode":"503036691","cityCode":"40609","city":"赤村","lat":33.6354167,"lon":130.865625,"areaKm2":0.2679293,"populated2020":true,"population2020":140.5553,"populationNote":"2020年基準の国交省調整値"},"geometry":{"type":"Polygon","coordinates":[[[130.8625,33.63333333333333],[130.8625,33.6375],[130.86875,33.637499999999996],[130.86875,33.633333333333326],[130.8625,33.63333333333333]]]}},{"type":"Feature","id":"40609:503036692","properties":{"id":"40609:503036692","meshCode":"503036692","cityCode":"40609","city":"赤村","lat":33.6354167,"lon":130.871875,"areaKm2":0.2679292,"populated2020":true,"population2020":1.9554,"populationNote":"2020年基準の国交省調整値"},"geometry":{"type":"Polygon","coordinates":[[[130.86875,33.633333333333326],[130.86875,33.637499999999996],[130.875,33.6375],[130.875,33.63333333333333],[130.86875,33.633333333333326]]]}},{"type":"Feature","id":"40609:503037601","properties":{"id":"40609:503037601","meshCode":"503037601","cityCode":"40609","city":"赤村","lat":33.6354167,"lon":130.878125,"areaKm2":0.2679291,"populated2020":true,"population2020":46.8474,"populationNote":"2020年基準の国交省調整値"},"geometry":{"type":"Polygon","coordinates":[[[130.875,33.63333333333333],[130.875,33.6375],[130.88125,33.6375],[130.88125,33.63333333333333],[130.875,33.63333333333333]]]}},{"type":"Feature","id":"40609:503037602","properties":{"id":"40609:503037602","meshCode":"503037602","cityCode":"40609","city":"赤村","lat":33.6354167,"lon":130.884375,"areaKm2":0.267929,"populated2020":false,"population2020":null,"populationNote":"境界またぎ・原典収録外のため自治体内人口は未集計"},"geometry":{"type":"Polygon","coordinates":[[[130.88125,33.63333333333333],[130.88125,33.6375],[130.8875,33.6375],[130.8875,33.63333333333333],[130.88125,33.63333333333333]]]}},{"type":"Feature","id":"40609:503037611","properties":{"id":"40609:503037611","meshCode":"503037611","cityCode":"40609","city":"赤村","lat":33.6354167,"lon":130.890625,"areaKm2":0.2555297,"populated2020":false,"population2020":null,"populationNote":"境界またぎ・原典収録外のため自治体内人口は未集計"},"geometry":{"type":"Polygon","coordinates":[[[130.89223506218875,33.637499999999996],[130.893188612,33.636642495],[130.89349,33.635974162],[130.89356,33.635908613000005],[130.89375,33.63591607688657],[130.89375,33.63333333333333],[130.8875,33.63333333333333],[130.8875,33.6375],[130.89223506218875,33.637499999999996]]]}},{"type":"Feature","id":"40609:503037612","properties":{"id":"40609:503037612","meshCode":"503037612","cityCode":"40609","city":"赤村","lat":33.6354167,"lon":130.896875,"areaKm2":0.2402049,"populated2020":false,"population2020":null,"populationNote":"境界またぎ・原典収録外のため自治体内人口は未集計"},"geometry":{"type":"Polygon","coordinates":[[[130.893784163,33.635922495],[130.894592503,33.636046667],[130.894923333,33.636167225],[130.89638405061552,33.6375],[130.9,33.637499999999996],[130.9,33.63333333333333],[130.89375,33.63333333333333],[130.893784163,33.635922495]]]}},{"type":"Feature","id":"40609:503037621","properties":{"id":"40609:503037621","meshCode":"503037621","cityCode":"40609","city":"赤村","lat":33.6354167,"lon":130.903125,"areaKm2":0.2678612,"populated2020":false,"population2020":null,"populationNote":"境界またぎ・原典収録外のため自治体内人口は未集計"},"geometry":{"type":"Polygon","coordinates":[[[130.90625,33.6375],[130.9062456679367,33.63333333333333],[130.9,33.63333333333333],[130.9,33.637499999999996],[130.90625,33.6375]]]}},{"type":"Feature","id":"40609:503037622","properties":{"id":"40609:503037622","meshCode":"503037622","cityCode":"40609","city":"赤村","lat":33.6354993,"lon":130.9069994,"areaKm2":0.0446008,"populated2020":false,"population2020":null,"populationNote":"境界またぎ・原典収録外のため自治体内人口は未集計"},"geometry":{"type":"Polygon","coordinates":[[[130.906738054,33.637468612999996],[130.90803917,33.636954721],[130.908230272,33.63669972100001],[130.907848054,33.636034721],[130.907866394,33.635616387],[130.907535551,33.635313054],[130.907087224,33.635089162],[130.906921946,33.634499721000005],[130.90625,33.63364978613247],[130.90625,33.6375],[130.906738054,33.637468612999996]]]}},{"type":"Feature","id":"40609:503036684","properties":{"id":"40609:503036684","meshCode":"503036684","cityCode":"40609","city":"赤村","lat":33.6395978,"lon":130.8610972,"areaKm2":0.1264904,"populated2020":true,"population2020":60.9704,"populationNote":"2020年基準の国交省調整値"},"geometry":{"type":"Polygon","coordinates":[[[130.85964226975943,33.6375],[130.859923333,33.637842225],[130.860427782,33.638093613],[130.860533061,33.638574721000005],[130.860034994,33.638836667],[130.859951946,33.639298613],[130.859141115,33.64025027899999],[130.859143061,33.640748613],[130.85876944200004,33.641119162],[130.858352503,33.641340559],[130.857976472302,33.641666666666666],[130.8625,33.64166666666667],[130.8625,33.6375],[130.85964226975943,33.6375]]]}},{"type":"Feature","id":"40609:503036693","properties":{"id":"40609:503036693","meshCode":"503036693","cityCode":"40609","city":"赤村","lat":33.6395833,"lon":130.865625,"areaKm2":0.2357967,"populated2020":true,"population2020":57.9048,"populationNote":"2020年基準の国交省調整値"},"geometry":{"type":"Polygon","coordinates":[[[130.86638871622213,33.641666666666666],[130.86652166,33.641446946],[130.867223061,33.64089861299999],[130.867721115,33.639874162],[130.868184994,33.639515558999996],[130.868571388,33.639530559],[130.86875,33.63962583146843],[130.86875,33.637499999999996],[130.8625,33.6375],[130.8625,33.64166666666667],[130.86638871622213,33.641666666666666]]]}},{"type":"Feature","id":"40609:503036694","properties":{"id":"40609:503036694","meshCode":"503036694","cityCode":"40609","city":"赤村","lat":33.6395833,"lon":130.871875,"areaKm2":0.2201032,"populated2020":true,"population2020":6.5366,"populationNote":"2020年基準の国交省調整値"},"geometry":{"type":"Polygon","coordinates":[[[130.86875,33.63962583146843],[130.86914,33.640043054],[130.869428054,33.64006222500001],[130.869878054,33.640311946],[130.869995551,33.640523333000004],[130.870328612,33.64056722499999],[130.870856667,33.641244162],[130.871684721,33.641233333],[130.872272776,33.641618054],[130.872566394,33.641603333],[130.872937497,33.64137889199999],[130.873540272,33.641323892],[130.873588054,33.640910279],[130.873771946,33.640782494999996],[130.873995837,33.640789441],[130.874353333,33.640981946000004],[130.875,33.641014080999994],[130.875,33.6375],[130.86875,33.637499999999996],[130.86875,33.63962583146843]]]}},{"type":"Feature","id":"40609:503037603","properties":{"id":"40609:503037603","meshCode":"503037603","cityCode":"40609","city":"赤村","lat":33.6395833,"lon":130.878125,"areaKm2":0.2598242,"populated2020":true,"population2020":26.933,"populationNote":"2020年基準の国交省調整値"},"geometry":{"type":"Polygon","coordinates":[[[130.875,33.641014080999994],[130.875522218,33.641116387],[130.875952218,33.641019721],[130.876095551,33.641092225],[130.87634917,33.64147472100001],[130.87663635450735,33.64166666666667],[130.88125,33.64166666666667],[130.88125,33.6375],[130.875,33.6375],[130.875,33.641014080999994]]]}},{"type":"Feature","id":"40609:503037604","properties":{"id":"40609:503037604","meshCode":"503037604","cityCode":"40609","city":"赤村","lat":33.6395833,"lon":130.884375,"areaKm2":0.2679163,"populated2020":false,"population2020":null,"populationNote":"境界またぎ・原典収録外のため自治体内人口は未集計"},"geometry":{"type":"Polygon","coordinates":[[[130.88125,33.6375],[130.88125,33.64166666666667],[130.8875,33.64166666666667],[130.8875,33.6375],[130.88125,33.6375]]]}},{"type":"Feature","id":"40609:503037613","properties":{"id":"40609:503037613","meshCode":"503037613","cityCode":"40609","city":"赤村","lat":33.6395833,"lon":130.890625,"areaKm2":0.173903,"populated2020":false,"population2020":null,"populationNote":"境界またぎ・原典収録外のため自治体内人口は未集計"},"geometry":{"type":"Polygon","coordinates":[[[130.89036,33.641663054],[130.890290558,33.641410829],[130.890456109,33.641159162],[130.890908054,33.64090749500001],[130.891492503,33.640825],[130.891815837,33.640676946000006],[130.891668885,33.63976],[130.891753333,33.63933249499999],[130.89170083,33.638510829],[130.891796394,33.638221386999994],[130.892164163,33.637945828999996],[130.89223506218875,33.637499999999996],[130.8875,33.6375],[130.8875,33.64166666666667],[130.89036,33.641663054]]]}},{"type":"Feature","id":"40609:503037614","properties":{"id":"40609:503037614","meshCode":"503037614","cityCode":"40609","city":"赤村","lat":33.6384861,"lon":130.8988592,"areaKm2":0.043102,"populated2020":false,"population2020":null,"populationNote":"境界またぎ・原典収録外のため自治体内人口は未集計"},"geometry":{"type":"Polygon","coordinates":[[[130.89638405061552,33.6375],[130.896839728,33.637999441000005],[130.897398054,33.638144162],[130.897873061,33.638666108],[130.898167224,33.63884889199999],[130.899644721,33.639303613],[130.9,33.639350829],[130.9,33.637499999999996],[130.89638405061552,33.6375]]]}},{"type":"Feature","id":"40609:503037623","properties":{"id":"40609:503037623","meshCode":"503037623","cityCode":"40609","city":"赤村","lat":33.6391828,"lon":130.9018697,"areaKm2":0.1243716,"populated2020":false,"population2020":null,"populationNote":"境界またぎ・原典収録外のため自治体内人口は未集計"},"geometry":{"type":"Polygon","coordinates":[[[130.9,33.639350829],[130.900276667,33.63949333299999],[130.900287497,33.639751667],[130.900606109,33.640197775],[130.901003333,33.640411667],[130.901789728,33.640608054],[130.902414449,33.640883892],[130.902526667,33.640594441],[130.902563606,33.639870559],[130.902773061,33.63947416199999],[130.903066939,33.639332775],[130.903974721,33.63910861299999],[130.904296109,33.638856387],[130.905347224,33.638380829000006],[130.90625,33.63777482994494],[130.90625,33.6375],[130.9,33.637499999999996],[130.9,33.639350829]]]}},{"type":"Feature","id":"40609:503037624","properties":{"id":"40609:503037624","meshCode":"503037624","cityCode":"40609","city":"赤村","lat":33.6376621,"lon":130.9063278,"areaKm2":0.0005465,"populated2020":false,"population2020":null,"populationNote":"境界またぎ・原典収録外のため自治体内人口は未集計"},"geometry":{"type":"Polygon","coordinates":[[[130.90625,33.63777482994494],[130.906589442,33.637532775],[130.90666535544253,33.6375],[130.90625,33.6375],[130.90625,33.63777482994494]]]}},{"type":"Feature","id":"40609:503036781","properties":{"id":"40609:503036781","meshCode":"503036781","cityCode":"40609","city":"赤村","lat":33.6453629,"lon":130.8562442,"areaKm2":0.0012592,"populated2020":true,"population2020":null,"populationNote":"境界またぎ・原典収録外のため自治体内人口は未集計"},"geometry":{"type":"Polygon","coordinates":[[[130.8561,33.644919720999994],[130.85624166,33.645437495],[130.856205551,33.645550279],[130.85584803043452,33.645833333333336],[130.85625,33.645833333333336],[130.85625,33.64478962200857],[130.8561,33.644919720999994]]]}},{"type":"Feature","id":"40609:503036782","properties":{"id":"40609:503036782","meshCode":"503036782","cityCode":"40609","city":"赤村","lat":33.64375,"lon":130.859375,"areaKm2":0.2087322,"populated2020":true,"population2020":114.4497,"populationNote":"2020年基準の国交省調整値"},"geometry":{"type":"Polygon","coordinates":[[[130.857976472,33.641666667],[130.85783027200003,33.641828054],[130.857444994,33.641906946],[130.85721,33.642081667],[130.857173891,33.642494721000006],[130.857477224,33.64309944099999],[130.857423891,33.64351889200001],[130.857582776,33.643885000000004],[130.857374163,33.643989441],[130.856686667,33.64404472100001],[130.856626939,33.64413],[130.856513061,33.644457775],[130.85625,33.64478962200857],[130.85625,33.645833333333336],[130.86038995792939,33.64583333333334],[130.860652218,33.64545805400001],[130.861315551,33.644811387],[130.861215551,33.644489441000005],[130.861292218,33.644382775000004],[130.862116394,33.643727775],[130.8625,33.643531980672314],[130.8625,33.64166666666667],[130.857976472,33.641666667]]]}},{"type":"Feature","id":"40609:503036791","properties":{"id":"40609:503036791","meshCode":"503036791","cityCode":"40609","city":"赤村","lat":33.6424457,"lon":130.8642783,"areaKm2":0.0529495,"populated2020":true,"population2020":null,"populationNote":"境界またぎ・原典収録外のため自治体内人口は未集計"},"geometry":{"type":"Polygon","coordinates":[[[130.862501115,33.643531387],[130.86285083,33.64342277499999],[130.863719728,33.642803892],[130.864370272,33.643089721],[130.865458885,33.643132775000005],[130.865620558,33.643058054000015],[130.865927782,33.642765829],[130.86638871622213,33.641666666666666],[130.8625,33.64166666666667],[130.862501115,33.643531387]]]}},{"type":"Feature","id":"40609:503037701","properties":{"id":"40609:503037701","meshCode":"503037701","cityCode":"40609","city":"赤村","lat":33.6427483,"lon":130.8804094,"areaKm2":0.0505619,"populated2020":true,"population2020":null,"populationNote":"境界またぎ・原典収録外のため自治体内人口は未集計"},"geometry":{"type":"Polygon","coordinates":[[[130.876636355,33.64166666700001],[130.876904163,33.642064162],[130.877254449,33.642314162],[130.877654994,33.642420829],[130.877993061,33.642358892000004],[130.878165837,33.642407225],[130.878301946,33.642524441],[130.87846,33.64288638699999],[130.87864,33.64290361300001],[130.87914,33.642693333],[130.87948917,33.642706946],[130.87989166,33.642975],[130.880776939,33.643254441],[130.88125,33.64378582526193],[130.88125,33.64166666666667],[130.876636355,33.64166666700001]]]}},{"type":"Feature","id":"40609:503037702","properties":{"id":"40609:503037702","meshCode":"503037702","cityCode":"40609","city":"赤村","lat":33.64375,"lon":130.884375,"areaKm2":0.2394599,"populated2020":false,"population2020":null,"populationNote":"境界またぎ・原典収録外のため自治体内人口は未集計"},"geometry":{"type":"Polygon","coordinates":[[[130.881269442,33.643805829],[130.881412503,33.643945559],[130.881493606,33.644421387],[130.881772776,33.644865829],[130.881916109,33.64494499999999],[130.883197224,33.645272225],[130.883689728,33.645072225],[130.884617782,33.645529162],[130.88502282771577,33.645833333333336],[130.8875,33.64583333333334],[130.8875,33.64166666666667],[130.88125,33.64166666666667],[130.881269442,33.643805829]]]}},{"type":"Feature","id":"40609:503037711","properties":{"id":"40609:503037711","meshCode":"503037711","cityCode":"40609","city":"赤村","lat":33.64375,"lon":130.890625,"areaKm2":0.1867336,"populated2020":false,"population2020":null,"populationNote":"境界またぎ・原典収録外のため自治体内人口は未集計"},"geometry":{"type":"Polygon","coordinates":[[[130.89285632148858,33.645833333333336],[130.892633606,33.644328892],[130.892251388,33.644139441],[130.891997782,33.64352916199999],[130.891556667,33.643233054],[130.891212503,33.643176108],[130.890962776,33.642510829],[130.89036163384924,33.64166666666667],[130.8875,33.64166666666667],[130.8875,33.64583333333334],[130.89285632148858,33.645833333333336]]]}},{"type":"Feature","id":"40609:503036783","properties":{"id":"40609:503036783","meshCode":"503036783","cityCode":"40609","city":"赤村","lat":33.6463108,"lon":130.8559422,"areaKm2":0.0043542,"populated2020":true,"population2020":null,"populationNote":"境界またぎ・原典収録外のため自治体内人口は未集計"},"geometry":{"type":"Polygon","coordinates":[[[130.85584803043452,33.645833333333336],[130.85558972800004,33.646460279],[130.85625,33.64672102280034],[130.85625,33.645833333333336],[130.85584803043452,33.645833333333336]]]}},{"type":"Feature","id":"40609:503036784","properties":{"id":"40609:503036784","meshCode":"503036784","cityCode":"40609","city":"赤村","lat":33.6468317,"lon":130.8578888,"areaKm2":0.0568745,"populated2020":true,"population2020":null,"populationNote":"境界またぎ・原典収録外のため自治体内人口は未集計"},"geometry":{"type":"Polygon","coordinates":[[[130.85625,33.64672102280034],[130.856825551,33.647110829],[130.857511115,33.64784722499999],[130.857875551,33.64792610800001],[130.858386667,33.647909162],[130.858831115,33.64725416200001],[130.860099728,33.646258892],[130.86038995792939,33.64583333333334],[130.85625,33.645833333333336],[130.85625,33.64672102280034]]]}},{"type":"Feature","id":"40609:503037704","properties":{"id":"40609:503037704","meshCode":"503037704","cityCode":"40609","city":"赤村","lat":33.6468301,"lon":130.8871407,"areaKm2":0.020909,"populated2020":false,"population2020":null,"populationNote":"境界またぎ・原典収録外のため自治体内人口は未集計"},"geometry":{"type":"Polygon","coordinates":[[[130.88502282771577,33.645833333333336],[130.885433891,33.646256387],[130.886446939,33.64657166700001],[130.886634449,33.64669222500001],[130.8875,33.64773072404302],[130.8875,33.64583333333334],[130.88502282771577,33.645833333333336]]]}},{"type":"Feature","id":"40609:503037713","properties":{"id":"40609:503037713","meshCode":"503037713","cityCode":"40609","city":"赤村","lat":33.6479167,"lon":130.890625,"areaKm2":0.1946997,"populated2020":false,"population2020":null,"populationNote":"境界またぎ・原典収録外のため自治体内人口は未集計"},"geometry":{"type":"Polygon","coordinates":[[[130.8875,33.64773072404302],[130.888943606,33.649182225000004],[130.889230272,33.649237225],[130.889627224,33.64893749499999],[130.89004250300002,33.649037225],[130.890417497,33.649426946000006],[130.890531388,33.649909441],[130.89145166,33.649896108],[130.892046939,33.649682225],[130.892943891,33.64958249499999],[130.89319000000003,33.64939277500001],[130.893258327,33.649187224999984],[130.893034163,33.648311666999994],[130.89313693900002,33.647595],[130.892905551,33.647125279],[130.89285632148858,33.645833333333336],[130.8875,33.64583333333334],[130.8875,33.64773072404302]]]}}]}