{"type":"FeatureCollection","metadata":{"cityCode":"40609","city":"赤村","resolution":1000,"boundaryDate":"2026-01-01","populationLabel":"2020年基準人口（国交省調整値）","method":"標準地域メッシュを行政界で切抜き。中心が区域外のとき区域内代表点を判定点にする。人口不明をゼロにしない。"},"features":[{"type":"Feature","id":"40609:50302763","properties":{"id":"40609:50302763","meshCode":"50302763","cityCode":"40609","city":"赤村","lat":33.5579821,"lon":130.9213718,"areaKm2":0.014213,"populated2020":false,"population2020":null,"populationNote":"境界またぎ・収録外等のため人口未集計"},"geometry":{"type":"Polygon","coordinates":[[[130.922484086,33.558333333],[130.92217250300004,33.557886667],[130.922026667,33.557451387],[130.92086917,33.557656666999996],[130.920573333,33.557808613],[130.92017557680978,33.558333333333344],[130.922484086,33.558333333]]]}},{"type":"Feature","id":"40609:50302773","properties":{"id":"40609:50302773","meshCode":"50302773","cityCode":"40609","city":"赤村","lat":33.5631039,"lon":130.918491,"areaKm2":0.5503087,"populated2020":true,"population2020":1.8855,"populationNote":"収録500mメッシュ人口の合算（原典収録外は補完しない）"},"geometry":{"type":"Polygon","coordinates":[[[130.921391388,33.563791667000004],[130.92251166,33.561804441],[130.922926939,33.561438613],[130.923644163,33.560454162],[130.923342218,33.560028892],[130.922951946,33.559129162],[130.92248408616237,33.558333333333344],[130.92017557680978,33.558333333333344],[130.91986861200002,33.55915722500001],[130.919493333,33.55973805400001],[130.919186109,33.559889721],[130.918811115,33.55991666700001],[130.918481388,33.559845279],[130.917958327,33.560166667000004],[130.91764,33.560148892],[130.917401388,33.559988054],[130.91723083,33.56013110799999],[130.91665083,33.561068891999994],[130.915365837,33.56223],[130.915218327,33.562462225],[130.91510472100003,33.563194721],[130.914922776,33.563668054000004],[130.914425837,33.564315],[130.914403061,33.56472582899999],[130.914073333,33.56470805399999],[130.913424994,33.564484721],[130.913163606,33.564493613],[130.9125,33.56479299125625],[130.9125,33.56666666666668],[130.92100457781177,33.56666666666667],[130.920862776,33.565963613],[130.92095083,33.565192495000005],[130.92144166,33.564362225],[130.921391388,33.563791667000004]]]}},{"type":"Feature","id":"40609:50302772","properties":{"id":"40609:50302772","meshCode":"50302772","cityCode":"40609","city":"赤村","lat":33.5659778,"lon":130.9112571,"areaKm2":0.0395762,"populated2020":false,"population2020":null,"populationNote":"境界またぎ・収録外等のため人口未集計"},"geometry":{"type":"Polygon","coordinates":[[[130.9125,33.56479299125625],[130.911924163,33.564859721000005],[130.911344449,33.56515444099999],[130.910537224,33.565744162],[130.909741115,33.56610138700001],[130.90890891143584,33.56666666666668],[130.9125,33.56666666666668],[130.9125,33.56479299125625]]]}},{"type":"Feature","id":"40609:50302782","properties":{"id":"40609:50302782","meshCode":"50302782","cityCode":"40609","city":"赤村","lat":33.5714767,"lon":130.9079291,"areaKm2":0.7300192,"populated2020":false,"population2020":null,"populationNote":"境界またぎ・収録外等のため人口未集計"},"geometry":{"type":"Polygon","coordinates":[[[130.908655837,33.566919441],[130.90787166,33.567303333],[130.906904994,33.56751777499999],[130.905756667,33.567893054],[130.90563166,33.56808055900001],[130.905768054,33.569233054],[130.905608885,33.56942916199999],[130.905040272,33.569572225],[130.904505837,33.569929441000006],[130.904016939,33.570724441],[130.903675837,33.571117495],[130.903584994,33.57182],[130.903312218,33.572105559],[130.902664163,33.57247194600001],[130.902357224,33.57286499999999],[130.901891115,33.573159721],[130.901686394,33.573829721],[130.9,33.574236027],[130.9,33.575],[130.9125,33.575],[130.9125,33.56666666666668],[130.90890891143584,33.56666666666668],[130.908655837,33.566919441]]]}},{"type":"Feature","id":"40609:50302783","properties":{"id":"40609:50302783","meshCode":"50302783","cityCode":"40609","city":"赤村","lat":33.5709571,"lon":130.9169131,"areaKm2":0.7535234,"populated2020":false,"population2020":null,"populationNote":"境界またぎ・収録外等のため人口未集計"},"geometry":{"type":"Polygon","coordinates":[[[130.920271388,33.570744162],[130.920221115,33.570328892000006],[130.920825279,33.569784999999996],[130.920951115,33.569478892],[130.92090083,33.568351667],[130.92105166,33.566863613],[130.92100457781177,33.56666666666667],[130.9125,33.56666666666668],[130.9125,33.575],[130.92211166,33.57500000000001],[130.922184721,33.574949721],[130.922222503,33.574643333000004],[130.92215917,33.574362775000004],[130.921731115,33.573838892],[130.92181917,33.573453332999996],[130.922259728,33.57261277500001],[130.922259728,33.572454441],[130.921731388,33.572],[130.921643333,33.571831946],[130.921139728,33.571515559],[130.920271388,33.570744162]]]}},{"type":"Feature","id":"40609:50302689","properties":{"id":"40609:50302689","meshCode":"50302689","cityCode":"40609","city":"赤村","lat":33.5737883,"lon":130.873926,"areaKm2":0.0582514,"populated2020":false,"population2020":null,"populationNote":"境界またぎ・収録外等のため人口未集計"},"geometry":{"type":"Polygon","coordinates":[[[130.872633333,33.57421249499999],[130.871864306,33.57500000000001],[130.875,33.57500000000001],[130.875,33.57246038699999],[130.874523606,33.572196946],[130.874303061,33.571558333],[130.874231388,33.57154138700001],[130.873068885,33.573771667],[130.872633333,33.57412110800001],[130.872633333,33.57421249499999]]]}},{"type":"Feature","id":"40609:50302780","properties":{"id":"40609:50302780","meshCode":"50302780","cityCode":"40609","city":"赤村","lat":33.5741682,"lon":130.8760757,"areaKm2":0.0403862,"populated2020":false,"population2020":null,"populationNote":"境界またぎ・収録外等のため人口未集計"},"geometry":{"type":"Polygon","coordinates":[[[130.878349222,33.575],[130.878022218,33.574693613],[130.87702083,33.574057775],[130.87682,33.574035279],[130.87656166,33.574176108],[130.876403606,33.574170559],[130.87580083,33.572986387],[130.875628612,33.572794721],[130.875,33.57246038699999],[130.875,33.57500000000001],[130.878349222,33.575]]]}},{"type":"Feature","id":"40609:50302781","properties":{"id":"40609:50302781","meshCode":"50302781","cityCode":"40609","city":"赤村","lat":33.574734,"lon":130.8993475,"areaKm2":0.0080299,"populated2020":false,"population2020":null,"populationNote":"境界またぎ・収録外等のため人口未集計"},"geometry":{"type":"Polygon","coordinates":[[[130.899998885,33.574236387],[130.899142503,33.574523333],[130.898114643,33.575],[130.9,33.575],[130.899998885,33.574236387]]]}},{"type":"Feature","id":"40609:50302699","properties":{"id":"40609:50302699","meshCode":"50302699","cityCode":"40609","city":"赤村","lat":33.5796514,"lon":130.8725738,"areaKm2":0.3990327,"populated2020":false,"population2020":null,"populationNote":"境界またぎ・収録外等のため人口未集計"},"geometry":{"type":"Polygon","coordinates":[[[130.871483891,33.57550194600001],[130.871345551,33.575951108],[130.871643606,33.577411946000005],[130.871475279,33.577610829],[130.871037497,33.577663054],[130.87072778200002,33.57805277500001],[130.870147782,33.579083892],[130.870218885,33.580560829],[130.870172776,33.580678333],[130.869551388,33.58115472099999],[130.86921083000001,33.581625],[130.868853061,33.58243499999999],[130.868879780017,33.583333333333336],[130.875,33.583333333333336],[130.875,33.57500000000001],[130.871864306,33.57500000000001],[130.871483891,33.57550194600001]]]}},{"type":"Feature","id":"40609:50302790","properties":{"id":"40609:50302790","meshCode":"50302790","cityCode":"40609","city":"赤村","lat":33.5796728,"lon":130.8804952,"areaKm2":0.8881656,"populated2020":true,"population2020":null,"populationNote":"境界またぎ・収録外等のため人口未集計"},"geometry":{"type":"Polygon","coordinates":[[[130.880569728,33.575618333],[130.878840272,33.575263054],[130.878349222,33.575],[130.875,33.57500000000001],[130.875,33.583333333333336],[130.8875,33.58333333333334],[130.8875,33.57919695732161],[130.885374449,33.578573891999994],[130.883862218,33.578886387],[130.883464163,33.578886387],[130.883168612,33.578752224999995],[130.882622776,33.578350279000006],[130.883458327,33.57769555899999],[130.883745279,33.577312225],[130.884096939,33.576562495],[130.884183061,33.576190279],[130.88414,33.576009721],[130.883982218,33.575891387000006],[130.882970272,33.575835],[130.881628612,33.57554749500001],[130.880569728,33.575618333]]]}},{"type":"Feature","id":"40609:50302791","properties":{"id":"40609:50302791","meshCode":"50302791","cityCode":"40609","city":"赤村","lat":33.5803555,"lon":130.8949087,"areaKm2":0.6856328,"populated2020":false,"population2020":null,"populationNote":"境界またぎ・収録外等のため人口未集計"},"geometry":{"type":"Polygon","coordinates":[[[130.897310337,33.575562279],[130.896533606,33.577213613],[130.895089442,33.57840166700001],[130.894350558,33.578598054],[130.89325888500002,33.578481946],[130.892292503,33.57852666699999],[130.891826394,33.578642775000006],[130.890905551,33.57925889199999],[130.89054166,33.579866387],[130.889756939,33.580429162],[130.889336394,33.580563054],[130.888836109,33.58041138699999],[130.888517497,33.580179162],[130.888012218,33.579502775],[130.8875,33.57919695732161],[130.8875,33.58333333333334],[130.9,33.583333333333336],[130.9,33.575],[130.898114643,33.575],[130.89756221800002,33.57527361299999],[130.897310337,33.575562279]]]}},{"type":"Feature","id":"40609:50302792","properties":{"id":"40609:50302792","meshCode":"50302792","cityCode":"40609","city":"赤村","lat":33.5791667,"lon":130.90625,"areaKm2":1.0724016,"populated2020":false,"population2020":null,"populationNote":"境界またぎ・収録外等のため人口未集計"},"geometry":{"type":"Polygon","coordinates":[[[130.9125,33.575],[130.9,33.575],[130.9,33.583333333333336],[130.9125,33.583333333333336],[130.9125,33.575]]]}},{"type":"Feature","id":"40609:50302793","properties":{"id":"40609:50302793","meshCode":"50302793","cityCode":"40609","city":"赤村","lat":33.578966,"lon":130.9161613,"areaKm2":0.6213972,"populated2020":false,"population2020":null,"populationNote":"境界またぎ・収録外等のため人口未集計"},"geometry":{"type":"Polygon","coordinates":[[[130.918688612,33.58196055900001],[130.918965551,33.581238892],[130.919267497,33.580863054],[130.920435279,33.579852225],[130.920422776,33.579723613],[130.920121115,33.579338054000004],[130.920070558,33.578972225],[130.920171388,33.57829],[130.920095837,33.578013054],[130.919844163,33.577795559],[130.91973083,33.577538333],[130.919705551,33.576352224999994],[130.919944721,33.576086946000004],[130.920422776,33.575770559],[130.921303891,33.575444162000004],[130.921706394,33.575167225],[130.92211166,33.57500000000001],[130.9125,33.575],[130.9125,33.583333333333336],[130.91889939020461,33.58333333333334],[130.918738885,33.582939441],[130.918688612,33.58196055900001]]]}},{"type":"Feature","id":"40609:50303609","properties":{"id":"40609:50303609","meshCode":"50303609","cityCode":"40609","city":"赤村","lat":33.587173,"lon":130.8720704,"areaKm2":0.4908625,"populated2020":false,"population2020":null,"populationNote":"境界またぎ・収録外等のため人口未集計"},"geometry":{"type":"Polygon","coordinates":[[[130.868551946,33.58429722500001],[130.868061388,33.58450666700001],[130.868266109,33.584752224999995],[130.868284449,33.585234721],[130.868766109,33.586633054],[130.868849442,33.587598613000004],[130.86881,33.588114721],[130.86895166000002,33.588411387],[130.869428885,33.588818053999994],[130.869516394,33.58905277499999],[130.870081388,33.589404721],[130.870523891,33.589863333],[130.870463606,33.590629441],[130.870514721,33.590751108],[130.870828054,33.590919721],[130.870892776,33.591071108],[130.87095666700003,33.591276108],[130.87085808013174,33.591666666666676],[130.875,33.591666666666676],[130.875,33.583333333333336],[130.868879780017,33.583333333333336],[130.868868327,33.584027494999994],[130.868551946,33.58429722500001]]]}},{"type":"Feature","id":"40609:50303700","properties":{"id":"40609:50303700","meshCode":"50303700","cityCode":"40609","city":"赤村","lat":33.5875,"lon":130.88125,"areaKm2":1.0723012,"populated2020":true,"population2020":123.3781,"populationNote":"収録500mメッシュ人口の合算（原典収録外は補完しない）"},"geometry":{"type":"Polygon","coordinates":[[[130.8875,33.58333333333334],[130.875,33.583333333333336],[130.875,33.591666666666676],[130.8875,33.591666666666676],[130.8875,33.58333333333334]]]}},{"type":"Feature","id":"40609:50303701","properties":{"id":"40609:50303701","meshCode":"50303701","cityCode":"40609","city":"赤村","lat":33.5875,"lon":130.89375,"areaKm2":1.0723004,"populated2020":true,"population2020":60.7862,"populationNote":"収録500mメッシュ人口の合算（原典収録外は補完しない）"},"geometry":{"type":"Polygon","coordinates":[[[130.9,33.583333333333336],[130.8875,33.58333333333334],[130.8875,33.591666666666676],[130.9,33.591666666666676],[130.9,33.583333333333336]]]}},{"type":"Feature","id":"40609:50303702","properties":{"id":"40609:50303702","meshCode":"50303702","cityCode":"40609","city":"赤村","lat":33.5874199,"lon":130.9060783,"areaKm2":1.0412424,"populated2020":false,"population2020":null,"populationNote":"境界またぎ・収録外等のため人口未集計"},"geometry":{"type":"Polygon","coordinates":[[[130.9125,33.583333333333336],[130.9,33.583333333333336],[130.9,33.591666666666676],[130.91146736703362,33.591666666666676],[130.911411115,33.590668892],[130.911701115,33.590133613000006],[130.91166083,33.58987499999999],[130.911403333,33.589671667],[130.911351946,33.589488892],[130.911943891,33.58851333300001],[130.9125,33.58856907937482],[130.9125,33.583333333333336]]]}},{"type":"Feature","id":"40609:50303703","properties":{"id":"40609:50303703","meshCode":"50303703","cityCode":"40609","city":"赤村","lat":33.5852028,"lon":130.915316,"areaKm2":0.232904,"populated2020":false,"population2020":null,"populationNote":"境界またぎ・収録外等のため人口未集計"},"geometry":{"type":"Polygon","coordinates":[[[130.918475279,33.586033333],[130.919015551,33.58369110799999],[130.91889939020461,33.58333333333334],[130.9125,33.583333333333336],[130.9125,33.58856907937482],[130.913676667,33.588057774999996],[130.913959442,33.587823333],[130.914264721,33.586896387],[130.91447917,33.586633613],[130.914409728,33.586633613],[130.91454832700003,33.58655055900001],[130.916718612,33.586559162],[130.918247782,33.586439721],[130.918475279,33.586033333]]]}},{"type":"Feature","id":"40609:50303619","properties":{"id":"40609:50303619","meshCode":"50303619","cityCode":"40609","city":"赤村","lat":33.5963339,"lon":130.8716635,"areaKm2":0.5480497,"populated2020":true,"population2020":null,"populationNote":"境界またぎ・収録外等のため人口未集計"},"geometry":{"type":"Polygon","coordinates":[[[130.870616667,33.59203110799999],[130.870407782,33.59216333300002],[130.870176667,33.59247889200001],[130.870262776,33.59298638700001],[130.870174449,33.593610559],[130.869732503,33.594353054],[130.869599728,33.594487225],[130.868918327,33.59463027900001],[130.868737224,33.594835279],[130.868606939,33.595278891999996],[130.868797782,33.595545559],[130.868795551,33.59582472099999],[130.868208054,33.59627916200001],[130.868218885,33.596631108],[130.868014163,33.59726499999999],[130.867581946,33.597745],[130.867335551,33.598581387],[130.866936394,33.59897999999999],[130.866428885,33.599203892],[130.866293333,33.59978000000001],[130.865979663,33.6],[130.875,33.60000000000001],[130.875,33.591666666666676],[130.87085808013174,33.591666666666676],[130.870616667,33.59203110799999]]]}},{"type":"Feature","id":"40609:50303710","properties":{"id":"40609:50303710","meshCode":"50303710","cityCode":"40609","city":"赤村","lat":33.5958333,"lon":130.88125,"areaKm2":1.0721995,"populated2020":true,"population2020":204.0527,"populationNote":"収録500mメッシュ人口の合算（原典収録外は補完しない）"},"geometry":{"type":"Polygon","coordinates":[[[130.8875,33.591666666666676],[130.875,33.591666666666676],[130.875,33.60000000000001],[130.8875,33.6],[130.8875,33.591666666666676]]]}},{"type":"Feature","id":"40609:50303711","properties":{"id":"40609:50303711","meshCode":"50303711","cityCode":"40609","city":"赤村","lat":33.5958333,"lon":130.89375,"areaKm2":1.0721988,"populated2020":true,"population2020":128.8182,"populationNote":"収録500mメッシュ人口の合算（原典収録外は補完しない）"},"geometry":{"type":"Polygon","coordinates":[[[130.9,33.591666666666676],[130.8875,33.591666666666676],[130.8875,33.6],[130.9,33.6],[130.9,33.591666666666676]]]}},{"type":"Feature","id":"40609:50303712","properties":{"id":"40609:50303712","meshCode":"50303712","cityCode":"40609","city":"赤村","lat":33.5956385,"lon":130.9053982,"areaKm2":0.9165947,"populated2020":true,"population2020":20.0123,"populationNote":"収録500mメッシュ人口の合算（原典収録外は補完しない）"},"geometry":{"type":"Polygon","coordinates":[[[130.911344721,33.59583],[130.911274994,33.595133613],[130.911429442,33.59349666699999],[130.911231115,33.592503891999996],[130.911249442,33.592217775],[130.91146736703362,33.591666666666676],[130.9,33.591666666666676],[130.9,33.6],[130.907509585,33.6],[130.90874917,33.599303333],[130.909155837,33.598702225],[130.909949728,33.598271667],[130.910236394,33.59794082900001],[130.910523061,33.59737889200001],[130.910861115,33.597044441],[130.911778327,33.596653892],[130.911774721,33.596464162],[130.911344721,33.59583]]]}},{"type":"Feature","id":"40609:50303629","properties":{"id":"40609:50303629","meshCode":"50303629","cityCode":"40609","city":"赤村","lat":33.6042293,"lon":130.8697331,"areaKm2":0.9003948,"populated2020":true,"population2020":35.8775,"populationNote":"収録500mメッシュ人口の合算（原典収録外は補完しない）"},"geometry":{"type":"Polygon","coordinates":[[[130.86548917,33.60054861300001],[130.864913891,33.601408054000004],[130.864556667,33.602683613],[130.86421166,33.603231946],[130.863633333,33.603527495],[130.86369083,33.603678892],[130.863956939,33.603849999999994],[130.864548885,33.60452082899999],[130.864153333,33.605062225],[130.863620558,33.60549916200001],[130.863506109,33.606254721],[130.863724163,33.606504441000006],[130.864338054,33.606790000000004],[130.865116394,33.60768305399999],[130.86511083,33.60785333300001],[130.86473438374358,33.60833333333333],[130.875,33.60833333333333],[130.875,33.60000000000001],[130.865979663,33.6],[130.86548917,33.60054861300001]]]}},{"type":"Feature","id":"40609:50303720","properties":{"id":"40609:50303720","meshCode":"50303720","cityCode":"40609","city":"赤村","lat":33.6041667,"lon":130.88125,"areaKm2":1.0720977,"populated2020":true,"population2020":181.332,"populationNote":"収録500mメッシュ人口の合算（原典収録外は補完しない）"},"geometry":{"type":"Polygon","coordinates":[[[130.8875,33.6],[130.875,33.60000000000001],[130.875,33.60833333333333],[130.8875,33.608333333333334],[130.8875,33.6]]]}},{"type":"Feature","id":"40609:50303721","properties":{"id":"40609:50303721","meshCode":"50303721","cityCode":"40609","city":"赤村","lat":33.6041667,"lon":130.89375,"areaKm2":1.0720972,"populated2020":true,"population2020":19.0488,"populationNote":"収録500mメッシュ人口の合算（原典収録外は補完しない）"},"geometry":{"type":"Polygon","coordinates":[[[130.9,33.6],[130.8875,33.6],[130.8875,33.608333333333334],[130.9,33.60833333333333],[130.9,33.6]]]}},{"type":"Feature","id":"40609:50303722","properties":{"id":"40609:50303722","meshCode":"50303722","cityCode":"40609","city":"赤村","lat":33.6036508,"lon":130.9023373,"areaKm2":0.3657995,"populated2020":false,"population2020":null,"populationNote":"境界またぎ・収録外等のため人口未集計"},"geometry":{"type":"Polygon","coordinates":[[[130.90629166,33.601266667000004],[130.906468054,33.600739161999996],[130.906876109,33.60030138700001],[130.907509585,33.6],[130.9,33.6],[130.9,33.60833333333333],[130.90383350188574,33.60833333333333],[130.904121115,33.607770279],[130.904172503,33.607498054],[130.903610272,33.606881108],[130.903411946,33.606439720999994],[130.903430272,33.60583999999999],[130.903005279,33.604188612999984],[130.90328805400003,33.603633892],[130.903247782,33.602799162],[130.903343333,33.602630279],[130.903538054,33.60254777499999],[130.904890272,33.60237527900001],[130.90521,33.60226166700001],[130.905887497,33.601786946],[130.90629166,33.601266667000004]]]}},{"type":"Feature","id":"40609:50303639","properties":{"id":"40609:50303639","meshCode":"50303639","cityCode":"40609","city":"赤村","lat":33.612635,"lon":130.8692111,"areaKm2":0.989501,"populated2020":true,"population2020":445.8503,"populationNote":"収録500mメッシュ人口の合算（原典収録外は補完しない）"},"geometry":{"type":"Polygon","coordinates":[[[130.864378885,33.60888527899999],[130.864289442,33.609181667],[130.864148612,33.609264721],[130.864067782,33.609437495],[130.864093333,33.609537495],[130.864407224,33.609740279],[130.864360272,33.610006387],[130.86409917,33.610477495],[130.864176109,33.610716387],[130.863785837,33.611492495],[130.863440558,33.611820828999996],[130.863069728,33.612375],[130.863044994,33.612757495],[130.863212218,33.613471108000006],[130.863467497,33.614014440999995],[130.8625,33.61529840238555],[130.8625,33.61666666666667],[130.875,33.61666666666667],[130.875,33.60833333333333],[130.86473438374358,33.60833333333333],[130.864378885,33.60888527899999]]]}},{"type":"Feature","id":"40609:50303730","properties":{"id":"40609:50303730","meshCode":"50303730","cityCode":"40609","city":"赤村","lat":33.6125,"lon":130.88125,"areaKm2":1.071996,"populated2020":true,"population2020":412.8559,"populationNote":"収録500mメッシュ人口の合算（原典収録外は補完しない）"},"geometry":{"type":"Polygon","coordinates":[[[130.8875,33.608333333333334],[130.875,33.60833333333333],[130.875,33.61666666666667],[130.8875,33.61666666666667],[130.8875,33.608333333333334]]]}},{"type":"Feature","id":"40609:50303731","properties":{"id":"40609:50303731","meshCode":"50303731","cityCode":"40609","city":"赤村","lat":33.6123595,"lon":130.8934167,"areaKm2":1.0099457,"populated2020":true,"population2020":59.27,"populationNote":"収録500mメッシュ人口の合算（原典収録外は補完しない）"},"geometry":{"type":"Polygon","coordinates":[[[130.9,33.60833333333333],[130.8875,33.608333333333334],[130.8875,33.61666666666667],[130.89884980493193,33.61666666666667],[130.89878166,33.616333892],[130.898146939,33.615318892],[130.89801083,33.61485],[130.898062218,33.614298613],[130.898187224,33.613987225],[130.898885279,33.613129162],[130.899252776,33.612898054],[130.89948805400002,33.61291194599999],[130.9,33.61272216199999],[130.9,33.60833333333333]]]}},{"type":"Feature","id":"40609:50303732","properties":{"id":"40609:50303732","meshCode":"50303732","cityCode":"40609","city":"赤村","lat":33.6099293,"lon":130.9014046,"areaKm2":0.1029022,"populated2020":true,"population2020":null,"populationNote":"境界またぎ・収録外等のため人口未集計"},"geometry":{"type":"Polygon","coordinates":[[[130.9,33.61272216199999],[130.901095279,33.611927495],[130.901584163,33.611324162],[130.90207917,33.610919162],[130.902971946,33.61032305399999],[130.903060272,33.61012666700001],[130.902931946,33.609695829],[130.903596667,33.608798054],[130.90383350188574,33.60833333333333],[130.9,33.60833333333333],[130.9,33.61272216199999]]]}},{"type":"Feature","id":"40609:50303638","properties":{"id":"40609:50303638","meshCode":"50303638","cityCode":"40609","city":"赤村","lat":33.6161782,"lon":130.8621723,"areaKm2":0.0071369,"populated2020":true,"population2020":null,"populationNote":"境界またぎ・収録外等のため人口未集計"},"geometry":{"type":"Polygon","coordinates":[[[130.8625,33.61529840238555],[130.86170333300004,33.616196387],[130.86183846984346,33.61666666666667],[130.8625,33.61666666666667],[130.8625,33.61529840238555]]]}},{"type":"Feature","id":"40609:50303648","properties":{"id":"40609:50303648","meshCode":"50303648","cityCode":"40609","city":"赤村","lat":33.6214616,"lon":130.8614548,"areaKm2":0.1517998,"populated2020":true,"population2020":null,"populationNote":"境界またぎ・収録外等のため人口未集計"},"geometry":{"type":"Polygon","coordinates":[[[130.86183846984346,33.61666666666667],[130.862291946,33.617434162],[130.862311946,33.617632225],[130.861848054,33.617836667],[130.861312776,33.618526667],[130.861165837,33.61890582899999],[130.860234163,33.619892225],[130.86018166,33.620250279],[130.85989,33.620676386999996],[130.859997497,33.62117055900001],[130.859869728,33.621611666999996],[130.860047497,33.622158892],[130.86012832700004,33.623051667],[130.86040917,33.623202775],[130.860583891,33.623443613],[130.860454721,33.623974162],[130.86057194600002,33.624274162],[130.86138452700004,33.62500000000001],[130.8625,33.62500000000001],[130.8625,33.61666666666667],[130.86183846984346,33.61666666666667]]]}},{"type":"Feature","id":"40609:50303649","properties":{"id":"40609:50303649","meshCode":"50303649","cityCode":"40609","city":"赤村","lat":33.6208333,"lon":130.86875,"areaKm2":1.0718951,"populated2020":true,"population2020":204.1086,"populationNote":"収録500mメッシュ人口の合算（原典収録外は補完しない）"},"geometry":{"type":"Polygon","coordinates":[[[130.875,33.61666666666667],[130.8625,33.61666666666667],[130.8625,33.62500000000001],[130.875,33.625],[130.875,33.61666666666667]]]}},{"type":"Feature","id":"40609:50303740","properties":{"id":"40609:50303740","meshCode":"50303740","cityCode":"40609","city":"赤村","lat":33.6208333,"lon":130.88125,"areaKm2":1.0718944,"populated2020":true,"population2020":12.7003,"populationNote":"収録500mメッシュ人口の合算（原典収録外は補完しない）"},"geometry":{"type":"Polygon","coordinates":[[[130.8875,33.61666666666667],[130.875,33.61666666666667],[130.875,33.625],[130.8875,33.62500000000001],[130.8875,33.61666666666667]]]}},{"type":"Feature","id":"40609:50303741","properties":{"id":"40609:50303741","meshCode":"50303741","cityCode":"40609","city":"赤村","lat":33.6208767,"lon":130.8936791,"areaKm2":1.0589419,"populated2020":true,"population2020":60.7352,"populationNote":"収録500mメッシュ人口の合算（原典収録外は補完しない）"},"geometry":{"type":"Polygon","coordinates":[[[130.9,33.61835082900001],[130.899692218,33.618114162],[130.89905,33.61739527899999],[130.898914163,33.61712972100001],[130.89884980493193,33.61666666666667],[130.8875,33.61666666666667],[130.8875,33.62500000000001],[130.9,33.62500000000001],[130.9,33.61835082900001]]]}},{"type":"Feature","id":"40609:50303742","properties":{"id":"40609:50303742","meshCode":"50303742","cityCode":"40609","city":"赤村","lat":33.6224233,"lon":130.901492,"areaKm2":0.1750053,"populated2020":true,"population2020":7.6466,"populationNote":"収録500mメッシュ人口の合算（原典収録外は補完しない）"},"geometry":{"type":"Polygon","coordinates":[[[130.902736939,33.621386108],[130.902222218,33.620276387],[130.90171138800002,33.619697225],[130.9,33.61835082900001],[130.9,33.62500000000001],[130.903915772,33.625],[130.903636109,33.624596387],[130.903614163,33.624406946],[130.903823606,33.623945000000006],[130.903772218,33.623683054000004],[130.903361388,33.62307194600001],[130.902927497,33.62262389199999],[130.902736939,33.621386108]]]}},{"type":"Feature","id":"40609:50303658","properties":{"id":"40609:50303658","meshCode":"50303658","cityCode":"40609","city":"赤村","lat":33.6294574,"lon":130.86094,"areaKm2":0.2587318,"populated2020":true,"population2020":12.3619,"populationNote":"収録500mメッシュ人口の合算（原典収録外は補完しない）"},"geometry":{"type":"Polygon","coordinates":[[[130.861363333,33.625234721],[130.861101388,33.625347495],[130.860643606,33.625400829],[130.860474163,33.62583361299999],[130.860167497,33.626029441],[130.859204163,33.626919721],[130.858988054,33.62750749500001],[130.85944083,33.628321107999994],[130.859437497,33.628909162],[130.859164994,33.62943333300001],[130.859127497,33.62977389200001],[130.859513606,33.63076],[130.859307224,33.631277495],[130.859033606,33.632538613],[130.85929294410178,33.63333333333333],[130.8625,33.63333333333333],[130.8625,33.62500000000001],[130.86138452700004,33.62500000000001],[130.861363333,33.625234721]]]}},{"type":"Feature","id":"40609:50303659","properties":{"id":"40609:50303659","meshCode":"50303659","cityCode":"40609","city":"赤村","lat":33.6291667,"lon":130.86875,"areaKm2":1.0717932,"populated2020":true,"population2020":132.2661,"populationNote":"収録500mメッシュ人口の合算（原典収録外は補完しない）"},"geometry":{"type":"Polygon","coordinates":[[[130.875,33.625],[130.8625,33.62500000000001],[130.8625,33.63333333333333],[130.875,33.63333333333333],[130.875,33.625]]]}},{"type":"Feature","id":"40609:50303750","properties":{"id":"40609:50303750","meshCode":"50303750","cityCode":"40609","city":"赤村","lat":33.6291667,"lon":130.88125,"areaKm2":1.0717925,"populated2020":true,"population2020":58.3605,"populationNote":"収録500mメッシュ人口の合算（原典収録外は補完しない）"},"geometry":{"type":"Polygon","coordinates":[[[130.8875,33.62500000000001],[130.875,33.625],[130.875,33.63333333333333],[130.8875,33.63333333333333],[130.8875,33.62500000000001]]]}},{"type":"Feature","id":"40609:50303751","properties":{"id":"40609:50303751","meshCode":"50303751","cityCode":"40609","city":"赤村","lat":33.6291667,"lon":130.89375,"areaKm2":1.071792,"populated2020":true,"population2020":61.834,"populationNote":"収録500mメッシュ人口の合算（原典収録外は補完しない）"},"geometry":{"type":"Polygon","coordinates":[[[130.9,33.62500000000001],[130.8875,33.62500000000001],[130.8875,33.63333333333333],[130.9,33.63333333333333],[130.9,33.62500000000001]]]}},{"type":"Feature","id":"40609:50303752","properties":{"id":"40609:50303752","meshCode":"50303752","cityCode":"40609","city":"赤村","lat":33.6294846,"lon":130.9030256,"areaKm2":0.5074643,"populated2020":true,"population2020":null,"populationNote":"境界またぎ・収録外等のため人口未集計"},"geometry":{"type":"Polygon","coordinates":[[[130.90579166,33.629353333000005],[130.905633891,33.627960558999995],[130.90579917,33.62706777500001],[130.905747782,33.626774721],[130.905240558,33.626361387],[130.904282776,33.625816667],[130.903915772,33.625],[130.9,33.62500000000001],[130.9,33.63333333333333],[130.9062456679367,33.63333333333333],[130.906514994,33.63281638699999],[130.907330558,33.63163999999999],[130.907326939,33.63151944100001],[130.907121115,33.631126386999995],[130.906096667,33.630180829000004],[130.906030558,33.629701667],[130.90579166,33.629353333000005]]]}},{"type":"Feature","id":"40609:50303668","properties":{"id":"40609:50303668","meshCode":"50303668","cityCode":"40609","city":"赤村","lat":33.6375153,"lon":130.8608786,"areaKm2":0.2692234,"populated2020":true,"population2020":114.556,"populationNote":"収録500mメッシュ人口の合算（原典収録外は補完しない）"},"geometry":{"type":"Polygon","coordinates":[[[130.85929294410178,33.63333333333333],[130.859525551,33.633997494999996],[130.859407224,33.635028612999996],[130.858907497,33.635246108],[130.858870272,33.635698613],[130.858503891,33.636065829],[130.858893333,33.636575279000006],[130.859044449,33.637011946],[130.859464994,33.637128892],[130.859590558,33.637258892000006],[130.859694721,33.637625],[130.859923333,33.637842225],[130.860427782,33.638093613],[130.860533061,33.638574721000005],[130.860034994,33.638836667],[130.859951946,33.639298613],[130.859141115,33.64025027899999],[130.859143061,33.640748613],[130.85876944200004,33.641119162],[130.858352503,33.641340559],[130.857976472302,33.641666666666666],[130.8625,33.64166666666667],[130.8625,33.63333333333333],[130.85929294410178,33.63333333333333]]]}},{"type":"Feature","id":"40609:50303669","properties":{"id":"40609:50303669","meshCode":"50303669","cityCode":"40609","city":"赤村","lat":33.637219,"lon":130.8686625,"areaKm2":0.9917584,"populated2020":true,"population2020":206.9521,"populationNote":"収録500mメッシュ人口の合算（原典収録外は補完しない）"},"geometry":{"type":"Polygon","coordinates":[[[130.875,33.63333333333333],[130.8625,33.63333333333333],[130.8625,33.64166666666667],[130.86638871622213,33.641666666666666],[130.86652166,33.641446946],[130.867223061,33.64089861299999],[130.86764,33.639989441],[130.868184994,33.639515558999996],[130.868697224,33.639579721],[130.86914,33.640043054],[130.869428054,33.64006222500001],[130.869878054,33.640311946],[130.869995551,33.640523333000004],[130.870328612,33.64056722499999],[130.870856667,33.641244162],[130.871684721,33.641233333],[130.872272776,33.641618054],[130.872566394,33.641603333],[130.872937497,33.64137889199999],[130.873540272,33.641323892],[130.873588054,33.640910279],[130.873771946,33.640782494999996],[130.873995837,33.640789441],[130.874353333,33.640981946000004],[130.875,33.641014080999994],[130.875,33.63333333333333]]]}},{"type":"Feature","id":"40609:50303760","properties":{"id":"40609:50303760","meshCode":"50303760","cityCode":"40609","city":"赤村","lat":33.6374704,"lon":130.8812925,"areaKm2":1.0635986,"populated2020":true,"population2020":73.7804,"populationNote":"収録500mメッシュ人口の合算（原典収録外は補完しない）"},"geometry":{"type":"Polygon","coordinates":[[[130.8875,33.63333333333333],[130.875,33.63333333333333],[130.875,33.641014080999994],[130.875522218,33.641116387],[130.875952218,33.641019721],[130.876095551,33.641092225],[130.87634917,33.64147472100001],[130.87663635450735,33.64166666666667],[130.8875,33.64166666666667],[130.8875,33.63333333333333]]]}},{"type":"Feature","id":"40609:50303761","properties":{"id":"40609:50303761","meshCode":"50303761","cityCode":"40609","city":"赤村","lat":33.6364875,"lon":130.8929987,"areaKm2":0.7127396,"populated2020":false,"population2020":null,"populationNote":"境界またぎ・収録外等のため人口未集計"},"geometry":{"type":"Polygon","coordinates":[[[130.892291946,33.637387225],[130.893188612,33.636642495],[130.89356,33.635908613000005],[130.894798327,33.636101667],[130.896578612,33.637661667],[130.896839728,33.637999441000005],[130.897398054,33.638144162],[130.897873061,33.638666108],[130.89863389100003,33.639017495],[130.9,33.639350829],[130.9,33.63333333333333],[130.8875,33.63333333333333],[130.8875,33.64166666666667],[130.89036163384924,33.64166666666667],[130.890290558,33.641410829],[130.890456109,33.641159162],[130.890908054,33.64090749500001],[130.891492503,33.640825],[130.891815837,33.640676946000006],[130.891668885,33.63976],[130.891753333,33.63933249499999],[130.891726667,33.63832500000001],[130.891866394,33.63814555900001],[130.892105279,33.638038892],[130.892291946,33.637387225]]]}},{"type":"Feature","id":"40609:50303762","properties":{"id":"40609:50303762","meshCode":"50303762","cityCode":"40609","city":"赤村","lat":33.6364091,"lon":130.9033157,"areaKm2":0.4373801,"populated2020":false,"population2020":null,"populationNote":"境界またぎ・収録外等のため人口未集計"},"geometry":{"type":"Polygon","coordinates":[[[130.9062456679367,33.63333333333333],[130.9,33.63333333333333],[130.9,33.639350829],[130.900276667,33.63949333299999],[130.900287497,33.639751667],[130.900606109,33.640197775],[130.900753333,33.640287495],[130.901400272,33.640553054],[130.901789728,33.640608054],[130.902414449,33.640883892],[130.902526667,33.640594441],[130.902563606,33.639870559],[130.902773061,33.63947416199999],[130.903066939,33.639332775],[130.903974721,33.63910861299999],[130.904296109,33.638856387],[130.905347224,33.638380829000006],[130.906589442,33.637532775],[130.907697224,33.637113333],[130.90812,33.636882495],[130.908230272,33.63669972100001],[130.907848054,33.636034721],[130.907866394,33.635616387],[130.907535551,33.635313054],[130.907087224,33.635089162],[130.906921946,33.634499721000005],[130.90622832700004,33.633605829000004],[130.9062456679367,33.63333333333333]]]}},{"type":"Feature","id":"40609:50303678","properties":{"id":"40609:50303678","meshCode":"50303678","cityCode":"40609","city":"赤村","lat":33.6443598,"lon":130.8590579,"areaKm2":0.2712201,"populated2020":true,"population2020":null,"populationNote":"境界またぎ・収録外等のため人口未集計"},"geometry":{"type":"Polygon","coordinates":[[[130.857664163,33.641887775],[130.857254721,33.641998613],[130.857180272,33.642279441],[130.857220558,33.64262889199999],[130.857477224,33.64309944099999],[130.857423891,33.64351889200001],[130.857582776,33.643885000000004],[130.857374163,33.643989441],[130.856686667,33.64404472100001],[130.856357497,33.644696387],[130.8561,33.644919720999994],[130.856083061,33.64505194600001],[130.856235279,33.645288333],[130.856205551,33.645550279],[130.855847782,33.645828892000004],[130.855583333,33.64641749500001],[130.856588612,33.646929721],[130.857278612,33.647537774999996],[130.857511115,33.64784722499999],[130.857875551,33.64792610800001],[130.858386667,33.647909162],[130.858831115,33.64725416200001],[130.86020138800004,33.64616610800001],[130.86056166,33.645564441000005],[130.861315551,33.644811387],[130.861215551,33.644489441000005],[130.861292218,33.644382775000004],[130.862116394,33.643727775],[130.8625,33.643531980672314],[130.8625,33.64166666666667],[130.857976472302,33.641666666666666],[130.857664163,33.641887775]]]}},{"type":"Feature","id":"40609:50303679","properties":{"id":"40609:50303679","meshCode":"50303679","cityCode":"40609","city":"赤村","lat":33.6423777,"lon":130.8642384,"areaKm2":0.0529495,"populated2020":true,"population2020":null,"populationNote":"境界またぎ・収録外等のため人口未集計"},"geometry":{"type":"Polygon","coordinates":[[[130.862501115,33.643531387],[130.86285083,33.64342277499999],[130.863719728,33.642803892],[130.864370272,33.643089721],[130.865458885,33.643132775000005],[130.865620558,33.643058054000015],[130.865927782,33.642765829],[130.86638871622213,33.641666666666666],[130.8625,33.64166666666667],[130.862501115,33.643531387]]]}},{"type":"Feature","id":"40609:50303770","properties":{"id":"40609:50303770","meshCode":"50303770","cityCode":"40609","city":"赤村","lat":33.6435423,"lon":130.8838897,"areaKm2":0.3109308,"populated2020":true,"population2020":null,"populationNote":"境界またぎ・収録外等のため人口未集計"},"geometry":{"type":"Polygon","coordinates":[[[130.876643333,33.641671387],[130.876904163,33.642064162],[130.877254449,33.642314162],[130.877654994,33.642420829],[130.877993061,33.642358892000004],[130.878165837,33.642407225],[130.878301946,33.642524441],[130.87846,33.64288638699999],[130.87864,33.64290361300001],[130.879305279,33.642676107999996],[130.87948917,33.642706946],[130.880236939,33.64312000000001],[130.880776939,33.643254441],[130.881412503,33.643945559],[130.881438327,33.644318054],[130.881772776,33.644865829],[130.883197224,33.645272225],[130.883689728,33.645072225],[130.884419442,33.645425829],[130.884860558,33.64567055900001],[130.885433891,33.646256387],[130.886446939,33.64657166700001],[130.886634449,33.64669222500001],[130.8875,33.64773072404302],[130.8875,33.64166666666667],[130.876643333,33.641671387]]]}},{"type":"Feature","id":"40609:50303771","properties":{"id":"40609:50303771","meshCode":"50303771","cityCode":"40609","city":"赤村","lat":33.6458354,"lon":130.8901399,"areaKm2":0.3814333,"populated2020":false,"population2020":null,"populationNote":"境界またぎ・収録外等のため人口未集計"},"geometry":{"type":"Polygon","coordinates":[[[130.892905551,33.647125279],[130.892633606,33.644328892],[130.892251388,33.644139441],[130.891997782,33.64352916199999],[130.891556667,33.643233054],[130.891212503,33.643176108],[130.890962776,33.642510829],[130.89036163384924,33.64166666666667],[130.8875,33.64166666666667],[130.8875,33.64773072404302],[130.888873891,33.649133892],[130.889230272,33.649237225],[130.889627224,33.64893749499999],[130.889958054,33.648985559],[130.890417497,33.649426946000006],[130.890531388,33.649909441],[130.89145166,33.649896108],[130.892046939,33.649682225],[130.892686667,33.649651387],[130.893057782,33.649516946],[130.893258327,33.649187224999984],[130.893056109,33.648532495000005],[130.89313693900002,33.647595],[130.892905551,33.647125279]]]}}]}