{"type":"FeatureCollection","metadata":{"cityCode":"40602","city":"添田町","resolution":1000,"boundaryDate":"2026-01-01","populationLabel":"2020年基準人口（国交省調整値）","method":"標準地域メッシュを行政界で切抜き。中心が区域外のとき区域内代表点を判定点にする。人口不明をゼロにしない。"},"features":[{"type":"Feature","id":"40602:50301638","properties":{"id":"40602:50301638","meshCode":"50301638","cityCode":"40602","city":"添田町","lat":33.4486561,"lon":130.8573787,"areaKm2":0.2336598,"populated2020":false,"population2020":null,"populationNote":"境界またぎ・収録外等のため人口未集計"},"geometry":{"type":"Polygon","coordinates":[[[130.861724721,33.449968891999994],[130.861553061,33.44869972099999],[130.86161917,33.448328333000006],[130.861886394,33.447938333],[130.861922218,33.447735],[130.861188612,33.446819162],[130.860814449,33.447055559000006],[130.859994994,33.447281387],[130.858348327,33.448059162],[130.857313061,33.447752495],[130.856982776,33.447764441000004],[130.857068885,33.447358892],[130.856883061,33.447047775],[130.856083061,33.446926387],[130.855511946,33.446920829],[130.855091946,33.446986387],[130.854481115,33.44730610799999],[130.85386,33.44725833299999],[130.853117497,33.447737225],[130.853434721,33.448456666999995],[130.853432776,33.44867166700001],[130.852970272,33.44911444099999],[130.85299166,33.449548892],[130.852643696,33.45000000000001],[130.861724721,33.449968891999994]]]}},{"type":"Feature","id":"40602:50301639","properties":{"id":"40602:50301639","meshCode":"50301639","cityCode":"40602","city":"添田町","lat":33.4498953,"lon":130.873179,"areaKm2":0.0070545,"populated2020":false,"population2020":null,"populationNote":"境界またぎ・収録外等のため人口未集計"},"geometry":{"type":"Polygon","coordinates":[[[130.874967782,33.44990555900001],[130.873564163,33.44977277500001],[130.872486394,33.449815279],[130.871967224,33.449702775],[130.871510311,33.45000000000001],[130.875,33.45000000000001],[130.874967782,33.44990555900001]]]}},{"type":"Feature","id":"40602:50301730","properties":{"id":"40602:50301730","meshCode":"50301730","cityCode":"40602","city":"添田町","lat":33.4499732,"lon":130.8750618,"areaKm2":7.68e-05,"populated2020":false,"population2020":null,"populationNote":"境界またぎ・収録外等のため人口未集計"},"geometry":{"type":"Polygon","coordinates":[[[130.875,33.44991955900005],[130.875,33.45000000000001],[130.87518527899977,33.45000000000001],[130.875,33.44991955900005]]]}},{"type":"Feature","id":"40602:50301731","properties":{"id":"40602:50301731","meshCode":"50301731","cityCode":"40602","city":"添田町","lat":33.4499597,"lon":130.8999817,"areaKm2":3.43e-05,"populated2020":false,"population2020":null,"populationNote":"境界またぎ・収録外等のため人口未集計"},"geometry":{"type":"Polygon","coordinates":[[[130.89999981799997,33.449879468000056],[130.89994496800017,33.45000000000001],[130.9,33.45000000000001],[130.89999981799997,33.449879468000056]]]}},{"type":"Feature","id":"40602:50301732","properties":{"id":"40602:50301732","meshCode":"50301732","cityCode":"40602","city":"添田町","lat":33.4496276,"lon":130.9035099,"areaKm2":0.0520793,"populated2020":false,"population2020":null,"populationNote":"境界またぎ・収録外等のため人口未集計"},"geometry":{"type":"MultiPolygon","coordinates":[[[[130.9055452010001,33.44963874800004],[130.904994086,33.449134856000114],[130.903119598,33.44924515300006],[130.90180901400015,33.44898155900012],[130.90119344999994,33.449281847000066],[130.90090038899996,33.44930517999996],[130.900280661,33.44921157700014],[130.9,33.45000000000001],[130.90630574599982,33.45000000000001],[130.9055452010001,33.44963874800004]]],[[[130.90828108899996,33.44968176600003],[130.90778525299993,33.44958177500001],[130.90724468200045,33.45],[130.90865198399993,33.45],[130.90828108899996,33.44968176600003]]],[[[130.91022029800016,33.449705081000104],[130.90970848200047,33.45000000000001],[130.91085413699986,33.45],[130.91053447500008,33.449788694],[130.91022029800016,33.449705081000104]]]]}},{"type":"Feature","id":"40602:50301647","properties":{"id":"40602:50301647","meshCode":"50301647","cityCode":"40602","city":"添田町","lat":33.4563314,"lon":130.8486228,"areaKm2":0.126819,"populated2020":false,"population2020":null,"populationNote":"境界またぎ・収録外等のため人口未集計"},"geometry":{"type":"Polygon","coordinates":[[[130.85,33.452435],[130.849165551,33.453395559],[130.848605551,33.453791387],[130.848664994,33.454514162],[130.848596109,33.455072495],[130.848315279,33.455251108],[130.847951946,33.455687775],[130.847667497,33.455844162],[130.847295837,33.456218613],[130.847225551,33.456436387],[130.846850558,33.456841946000004],[130.84626166,33.457171667],[130.846186939,33.457912775],[130.84625083,33.458203613],[130.8461572235654,33.45833333333334],[130.85,33.458333333333336],[130.85,33.452435]]]}},{"type":"Feature","id":"40602:50301648","properties":{"id":"40602:50301648","meshCode":"50301648","cityCode":"40602","city":"添田町","lat":33.4542116,"lon":130.8563205,"areaKm2":1.0599484,"populated2020":false,"population2020":null,"populationNote":"境界またぎ・収録外等のため人口未集計"},"geometry":{"type":"Polygon","coordinates":[[[130.852418054,33.45030610800001],[130.85229166,33.450319441000005],[130.851587782,33.45005972100001],[130.850818054,33.450078892],[130.850634163,33.450161667],[130.850563606,33.451047495],[130.850233333,33.451513054],[130.850276394,33.45219416199999],[130.850168054,33.452382495],[130.85,33.452435],[130.85,33.458333333333336],[130.8625,33.458333333333336],[130.8625,33.450102717852246],[130.861758197,33.45000000000001],[130.852643696,33.45000000000001],[130.852418054,33.45030610800001]]]}},{"type":"Feature","id":"40602:50301649","properties":{"id":"40602:50301649","meshCode":"50301649","cityCode":"40602","city":"添田町","lat":33.4543862,"lon":130.8688637,"areaKm2":1.0152715,"populated2020":false,"population2020":null,"populationNote":"境界またぎ・収録外等のため人口未集計"},"geometry":{"type":"Polygon","coordinates":[[[130.871510311,33.45000000000001],[130.871167224,33.450618613],[130.87069111500003,33.45088749500001],[130.86948,33.45040194599999],[130.868401388,33.450313054],[130.866487782,33.450853892],[130.865946394,33.450834721],[130.86438083,33.451041667],[130.864194163,33.450985],[130.863788612,33.45067055900001],[130.863278054,33.450542225],[130.86284917,33.450237225],[130.8625,33.450102717852246],[130.8625,33.458333333333336],[130.875,33.45833333333334],[130.875,33.45000000000001],[130.871510311,33.45000000000001]]]}},{"type":"Feature","id":"40602:50301740","properties":{"id":"40602:50301740","meshCode":"50301740","cityCode":"40602","city":"添田町","lat":33.4546265,"lon":130.8811779,"areaKm2":0.9515483,"populated2020":false,"population2020":null,"populationNote":"境界またぎ・収録外等のため人口未集計"},"geometry":{"type":"Polygon","coordinates":[[[130.88117941600012,33.45147971199997],[130.88049247700008,33.45209744099997],[130.8792546950001,33.45119186500006],[130.878201089,33.451052649000076],[130.87711387800016,33.450358441],[130.87567832700017,33.450163928],[130.875,33.45000000000001],[130.875,33.45833333333334],[130.8875,33.45833333333334],[130.8875,33.45064344077973],[130.88498717300013,33.4509682520001],[130.8825196890001,33.45113284700011],[130.88184134900007,33.451111702999974],[130.88117941600012,33.45147971199997]]]}},{"type":"Feature","id":"40602:50301741","properties":{"id":"40602:50301741","meshCode":"50301741","cityCode":"40602","city":"添田町","lat":33.455047,"lon":130.8938294,"areaKm2":0.8394214,"populated2020":false,"population2020":null,"populationNote":"境界またぎ・収録外等のため人口未集計"},"geometry":{"type":"Polygon","coordinates":[[[130.9,33.45000000000001],[130.899324267,33.45125545899999],[130.89864649800006,33.451556],[130.89837204900005,33.451585441000084],[130.897431505,33.45148320700014],[130.89688262000004,33.45154736000006],[130.89632290500015,33.45163207200011],[130.89454875500007,33.4522028560001],[130.89277989599998,33.45227420700007],[130.890654358,33.45265913500009],[130.89018630400017,33.45264218900013],[130.889898249,33.45243608099997],[130.8887624250001,33.451200314999994],[130.88801548599997,33.45064256799998],[130.8875,33.45064344077973],[130.8875,33.45833333333334],[130.9,33.458333333333336],[130.9,33.45000000000001]]]}},{"type":"Feature","id":"40602:50301742","properties":{"id":"40602:50301742","meshCode":"50301742","cityCode":"40602","city":"添田町","lat":33.4542061,"lon":130.9061984,"areaKm2":1.0630773,"populated2020":false,"population2020":null,"populationNote":"境界またぎ・収録外等のため人口未集計"},"geometry":{"type":"Polygon","coordinates":[[[130.9125,33.45089344563336],[130.91205255499995,33.450815901],[130.91173005199994,33.450645622000025],[130.91085413699986,33.45],[130.90970848200047,33.45000000000001],[130.90883304800002,33.45018926100005],[130.90865198399993,33.45],[130.90724468200045,33.45],[130.90664050600003,33.45013262200007],[130.90630574599982,33.45000000000001],[130.9,33.45000000000001],[130.9,33.458333333333336],[130.9125,33.458333333333336],[130.9125,33.45089344563336]]]}},{"type":"Feature","id":"40602:50301743","properties":{"id":"40602:50301743","meshCode":"50301743","cityCode":"40602","city":"添田町","lat":33.4562901,"lon":130.9168413,"areaKm2":0.3979264,"populated2020":false,"population2020":null,"populationNote":"境界またぎ・収録外等のため人口未集計"},"geometry":{"type":"Polygon","coordinates":[[[130.91534368399994,33.453943955],[130.9125,33.45089344563336],[130.9125,33.458333333333336],[130.925,33.458333333333336],[130.925,33.457664207],[130.9247917250001,33.45762453200001],[130.924284501,33.456964523],[130.92349505799996,33.45691785600013],[130.92204534400014,33.456370909999976],[130.92097561600008,33.45652452299999],[130.91967644600004,33.456270910000065],[130.91905811900006,33.45593063100006],[130.917548119,33.455330901000025],[130.91691979200004,33.45512395499992],[130.91637645900005,33.45505062199999],[130.9157245140001,33.454803955000095],[130.91564811900002,33.45447673000012],[130.91534368399994,33.453943955]]]}},{"type":"Feature","id":"40602:50301744","properties":{"id":"40602:50301744","meshCode":"50301744","cityCode":"40602","city":"添田町","lat":33.4580194,"lon":130.9258773,"areaKm2":0.0119934,"populated2020":false,"population2020":null,"populationNote":"境界またぎ・収録外等のため人口未集計"},"geometry":{"type":"Polygon","coordinates":[[[130.92711464299998,33.4583333330001],[130.92628588799994,33.45762453200002],[130.925,33.457664207],[130.925,33.458333333333336],[130.92711464299998,33.4583333330001]]]}},{"type":"Feature","id":"40602:50301657","properties":{"id":"40602:50301657","meshCode":"50301657","cityCode":"40602","city":"添田町","lat":33.4632086,"lon":130.8462522,"areaKm2":0.5893595,"populated2020":false,"population2020":null,"populationNote":"境界またぎ・収録外等のため人口未集計"},"geometry":{"type":"Polygon","coordinates":[[[130.845795551,33.45867972100002],[130.845666394,33.459143054],[130.845283606,33.459309721],[130.844909442,33.459720829],[130.844698327,33.46104527899999],[130.844409728,33.461650559],[130.84436221800001,33.46213805399999],[130.84409083,33.46263999999999],[130.84334917,33.462721108000004],[130.842744994,33.462963613],[130.842011946,33.463976108],[130.841863891,33.464561946],[130.841707497,33.46476055899999],[130.841112776,33.46500361299999],[130.84043917,33.465596667],[130.839206939,33.46610444099999],[130.83857869044044,33.46666666666666],[130.85,33.46666666666667],[130.85,33.458333333333336],[130.8461572235654,33.45833333333334],[130.845795551,33.45867972100002]]]}},{"type":"Feature","id":"40602:50301658","properties":{"id":"40602:50301658","meshCode":"50301658","cityCode":"40602","city":"添田町","lat":33.4625,"lon":130.85625,"areaKm2":1.0738246,"populated2020":false,"population2020":null,"populationNote":"境界またぎ・収録外等のため人口未集計"},"geometry":{"type":"Polygon","coordinates":[[[130.8625,33.458333333333336],[130.85,33.458333333333336],[130.85,33.46666666666667],[130.8625,33.46666666666667],[130.8625,33.458333333333336]]]}},{"type":"Feature","id":"40602:50301659","properties":{"id":"40602:50301659","meshCode":"50301659","cityCode":"40602","city":"添田町","lat":33.4625,"lon":130.86875,"areaKm2":1.0738239,"populated2020":false,"population2020":null,"populationNote":"境界またぎ・収録外等のため人口未集計"},"geometry":{"type":"Polygon","coordinates":[[[130.875,33.45833333333334],[130.8625,33.458333333333336],[130.8625,33.46666666666667],[130.875,33.466666666666676],[130.875,33.45833333333334]]]}},{"type":"Feature","id":"40602:50301750","properties":{"id":"40602:50301750","meshCode":"50301750","cityCode":"40602","city":"添田町","lat":33.4625,"lon":130.88125,"areaKm2":1.0738232,"populated2020":true,"population2020":23.1984,"populationNote":"収録500mメッシュ人口の合算（原典収録外は補完しない）"},"geometry":{"type":"Polygon","coordinates":[[[130.8875,33.45833333333334],[130.875,33.45833333333334],[130.875,33.466666666666676],[130.8875,33.46666666666667],[130.8875,33.45833333333334]]]}},{"type":"Feature","id":"40602:50301751","properties":{"id":"40602:50301751","meshCode":"50301751","cityCode":"40602","city":"添田町","lat":33.4625,"lon":130.89375,"areaKm2":1.0738225,"populated2020":false,"population2020":null,"populationNote":"境界またぎ・収録外等のため人口未集計"},"geometry":{"type":"Polygon","coordinates":[[[130.9,33.458333333333336],[130.8875,33.45833333333334],[130.8875,33.46666666666667],[130.9,33.46666666666667],[130.9,33.458333333333336]]]}},{"type":"Feature","id":"40602:50301752","properties":{"id":"40602:50301752","meshCode":"50301752","cityCode":"40602","city":"添田町","lat":33.4625,"lon":130.90625,"areaKm2":1.0738219,"populated2020":false,"population2020":null,"populationNote":"境界またぎ・収録外等のため人口未集計"},"geometry":{"type":"Polygon","coordinates":[[[130.9125,33.458333333333336],[130.9,33.458333333333336],[130.9,33.46666666666667],[130.9125,33.46666666666667],[130.9125,33.458333333333336]]]}},{"type":"Feature","id":"40602:50301753","properties":{"id":"40602:50301753","meshCode":"50301753","cityCode":"40602","city":"添田町","lat":33.4625,"lon":130.91875,"areaKm2":1.0738215,"populated2020":false,"population2020":null,"populationNote":"境界またぎ・収録外等のため人口未集計"},"geometry":{"type":"Polygon","coordinates":[[[130.925,33.458333333333336],[130.9125,33.458333333333336],[130.9125,33.46666666666667],[130.925,33.46666666666667],[130.925,33.458333333333336]]]}},{"type":"Feature","id":"40602:50301754","properties":{"id":"40602:50301754","meshCode":"50301754","cityCode":"40602","city":"添田町","lat":33.4629954,"lon":130.9273902,"areaKm2":0.3925966,"populated2020":false,"population2020":null,"populationNote":"境界またぎ・収録外等のため人口未集計"},"geometry":{"type":"Polygon","coordinates":[[[130.92963836600006,33.462248955000064],[130.92928031099996,33.46137985599999],[130.929246433,33.46062546799993],[130.928592827,33.46011134200006],[130.92834671900005,33.45942389200002],[130.92793977999997,33.45899781100002],[130.9271146434186,33.458333333333336],[130.925,33.458333333333336],[130.925,33.46666666666667],[130.93057024612378,33.46666666666667],[130.93068138800004,33.46615809900004],[130.9304844620001,33.46379966699994],[130.93018696500008,33.463394703000006],[130.92980946800014,33.4631241620001],[130.92961669300007,33.46288335099996],[130.92963836600006,33.462248955000064]]]}},{"type":"Feature","id":"40602:50301666","properties":{"id":"40602:50301666","meshCode":"50301666","cityCode":"40602","city":"添田町","lat":33.4703226,"lon":130.8368098,"areaKm2":0.0728509,"populated2020":true,"population2020":null,"populationNote":"境界またぎ・収録外等のため人口未集計"},"geometry":{"type":"Polygon","coordinates":[[[130.837225279,33.467736108],[130.83606333300003,33.468370279],[130.835966939,33.46857833300001],[130.835863606,33.469699721],[130.836014449,33.470918892],[130.836295551,33.472179721],[130.83669917,33.472556387],[130.836947782,33.473043613],[130.8375,33.473378117204646],[130.8375,33.467505864260524],[130.837225279,33.467736108]]]}},{"type":"Feature","id":"40602:50301667","properties":{"id":"40602:50301667","meshCode":"50301667","cityCode":"40602","city":"添田町","lat":33.4706733,"lon":130.8439716,"areaKm2":1.0200879,"populated2020":false,"population2020":null,"populationNote":"境界またぎ・収録外等のため人口未集計"},"geometry":{"type":"Polygon","coordinates":[[[130.838121388,33.466954162],[130.8375,33.467505864260524],[130.8375,33.473378117204646],[130.838113891,33.47397749500001],[130.839077497,33.47395722499999],[130.839666109,33.474099162],[130.840196109,33.473765828999994],[130.840434721,33.473792225],[130.840856939,33.47396305400001],[130.841516109,33.474390279],[130.842165279,33.47446027899999],[130.842724643,33.475],[130.85,33.475],[130.85,33.46666666666667],[130.83857869044044,33.46666666666666],[130.838121388,33.466954162]]]}},{"type":"Feature","id":"40602:50301668","properties":{"id":"40602:50301668","meshCode":"50301668","cityCode":"40602","city":"添田町","lat":33.4708333,"lon":130.85625,"areaKm2":1.0737234,"populated2020":false,"population2020":null,"populationNote":"境界またぎ・収録外等のため人口未集計"},"geometry":{"type":"Polygon","coordinates":[[[130.8625,33.46666666666667],[130.85,33.46666666666667],[130.85,33.475],[130.8625,33.475000000000016],[130.8625,33.46666666666667]]]}},{"type":"Feature","id":"40602:50301669","properties":{"id":"40602:50301669","meshCode":"50301669","cityCode":"40602","city":"添田町","lat":33.4708333,"lon":130.86875,"areaKm2":1.0737226,"populated2020":true,"population2020":21.2384,"populationNote":"収録500mメッシュ人口の合算（原典収録外は補完しない）"},"geometry":{"type":"Polygon","coordinates":[[[130.875,33.466666666666676],[130.8625,33.46666666666667],[130.8625,33.475000000000016],[130.875,33.475],[130.875,33.466666666666676]]]}},{"type":"Feature","id":"40602:50301760","properties":{"id":"40602:50301760","meshCode":"50301760","cityCode":"40602","city":"添田町","lat":33.4708333,"lon":130.88125,"areaKm2":1.0737219,"populated2020":true,"population2020":5.0168,"populationNote":"収録500mメッシュ人口の合算（原典収録外は補完しない）"},"geometry":{"type":"Polygon","coordinates":[[[130.8875,33.46666666666667],[130.875,33.466666666666676],[130.875,33.475],[130.8875,33.47500000000001],[130.8875,33.46666666666667]]]}},{"type":"Feature","id":"40602:50301761","properties":{"id":"40602:50301761","meshCode":"50301761","cityCode":"40602","city":"添田町","lat":33.4708333,"lon":130.89375,"areaKm2":1.0737212,"populated2020":false,"population2020":null,"populationNote":"境界またぎ・収録外等のため人口未集計"},"geometry":{"type":"Polygon","coordinates":[[[130.9,33.46666666666667],[130.8875,33.46666666666667],[130.8875,33.47500000000001],[130.9,33.475],[130.9,33.46666666666667]]]}},{"type":"Feature","id":"40602:50301762","properties":{"id":"40602:50301762","meshCode":"50301762","cityCode":"40602","city":"添田町","lat":33.4708333,"lon":130.90625,"areaKm2":1.0737207,"populated2020":false,"population2020":null,"populationNote":"境界またぎ・収録外等のため人口未集計"},"geometry":{"type":"Polygon","coordinates":[[[130.9125,33.46666666666667],[130.9,33.46666666666667],[130.9,33.475],[130.9125,33.47500000000001],[130.9125,33.46666666666667]]]}},{"type":"Feature","id":"40602:50301763","properties":{"id":"40602:50301763","meshCode":"50301763","cityCode":"40602","city":"添田町","lat":33.4708333,"lon":130.91875,"areaKm2":1.0737201,"populated2020":false,"population2020":null,"populationNote":"境界またぎ・収録外等のため人口未集計"},"geometry":{"type":"Polygon","coordinates":[[[130.925,33.46666666666667],[130.9125,33.46666666666667],[130.9125,33.47500000000001],[130.925,33.475],[130.925,33.46666666666667]]]}},{"type":"Feature","id":"40602:50301764","properties":{"id":"40602:50301764","meshCode":"50301764","cityCode":"40602","city":"添田町","lat":33.4713533,"lon":130.9290267,"areaKm2":0.660859,"populated2020":false,"population2020":null,"populationNote":"境界またぎ・収録外等のため人口未集計"},"geometry":{"type":"Polygon","coordinates":[[[130.92982194599995,33.46670138700006],[130.93057024612378,33.46666666666667],[130.925,33.46666666666667],[130.925,33.475],[130.93558153000004,33.475],[130.92982194599995,33.46670138700006]]]}},{"type":"Feature","id":"40602:50301677","properties":{"id":"40602:50301677","meshCode":"50301677","cityCode":"40602","city":"添田町","lat":33.4791679,"lon":130.8488974,"areaKm2":0.3508793,"populated2020":true,"population2020":null,"populationNote":"境界またぎ・収録外等のため人口未集計"},"geometry":{"type":"Polygon","coordinates":[[[130.842724643,33.475],[130.844139728,33.476008613],[130.844508327,33.476443613],[130.844941388,33.476634441],[130.847436394,33.478107775000005],[130.847792776,33.478663613],[130.847796939,33.479342495000004],[130.847415551,33.479619721],[130.84717083,33.480165279],[130.846710558,33.48051972100001],[130.846905837,33.480952775000006],[130.846471946,33.481530559],[130.846212776,33.481576946000004],[130.846027497,33.481699721],[130.84579917,33.482278054000005],[130.845530558,33.482681387],[130.844673333,33.482559721],[130.844213061,33.482781667],[130.843341946,33.482912225],[130.843178885,33.483077775],[130.84318452705463,33.483333333333334],[130.85,33.483333333333334],[130.85,33.475],[130.842724643,33.475]]]}},{"type":"Feature","id":"40602:50301678","properties":{"id":"40602:50301678","meshCode":"50301678","cityCode":"40602","city":"添田町","lat":33.4791667,"lon":130.85625,"areaKm2":1.073622,"populated2020":false,"population2020":null,"populationNote":"境界またぎ・収録外等のため人口未集計"},"geometry":{"type":"Polygon","coordinates":[[[130.8625,33.475000000000016],[130.85,33.475],[130.85,33.483333333333334],[130.8625,33.48333333333334],[130.8625,33.475000000000016]]]}},{"type":"Feature","id":"40602:50301679","properties":{"id":"40602:50301679","meshCode":"50301679","cityCode":"40602","city":"添田町","lat":33.4791667,"lon":130.86875,"areaKm2":1.0736212,"populated2020":true,"population2020":30.322,"populationNote":"収録500mメッシュ人口の合算（原典収録外は補完しない）"},"geometry":{"type":"Polygon","coordinates":[[[130.875,33.475],[130.8625,33.475000000000016],[130.8625,33.48333333333334],[130.875,33.483333333333334],[130.875,33.475]]]}},{"type":"Feature","id":"40602:50301770","properties":{"id":"40602:50301770","meshCode":"50301770","cityCode":"40602","city":"添田町","lat":33.4791667,"lon":130.88125,"areaKm2":1.0736205,"populated2020":true,"population2020":4.0496,"populationNote":"収録500mメッシュ人口の合算（原典収録外は補完しない）"},"geometry":{"type":"Polygon","coordinates":[[[130.8875,33.47500000000001],[130.875,33.475],[130.875,33.483333333333334],[130.8875,33.48333333333334],[130.8875,33.47500000000001]]]}},{"type":"Feature","id":"40602:50301771","properties":{"id":"40602:50301771","meshCode":"50301771","cityCode":"40602","city":"添田町","lat":33.4791667,"lon":130.89375,"areaKm2":1.0736199,"populated2020":true,"population2020":3.0274,"populationNote":"収録500mメッシュ人口の合算（原典収録外は補完しない）"},"geometry":{"type":"Polygon","coordinates":[[[130.9,33.475],[130.8875,33.47500000000001],[130.8875,33.48333333333334],[130.9,33.48333333333334],[130.9,33.475]]]}},{"type":"Feature","id":"40602:50301772","properties":{"id":"40602:50301772","meshCode":"50301772","cityCode":"40602","city":"添田町","lat":33.4791667,"lon":130.90625,"areaKm2":1.0736193,"populated2020":false,"population2020":null,"populationNote":"境界またぎ・収録外等のため人口未集計"},"geometry":{"type":"Polygon","coordinates":[[[130.9125,33.47500000000001],[130.9,33.475],[130.9,33.48333333333334],[130.9125,33.483333333333334],[130.9125,33.47500000000001]]]}},{"type":"Feature","id":"40602:50301773","properties":{"id":"40602:50301773","meshCode":"50301773","cityCode":"40602","city":"添田町","lat":33.4791667,"lon":130.91875,"areaKm2":1.0736188,"populated2020":false,"population2020":null,"populationNote":"境界またぎ・収録外等のため人口未集計"},"geometry":{"type":"Polygon","coordinates":[[[130.925,33.475],[130.9125,33.47500000000001],[130.9125,33.483333333333334],[130.925,33.48333333333334],[130.925,33.475]]]}},{"type":"Feature","id":"40602:50301774","properties":{"id":"40602:50301774","meshCode":"50301774","cityCode":"40602","city":"添田町","lat":33.4792514,"lon":130.9311035,"areaKm2":1.0462894,"populated2020":false,"population2020":null,"populationNote":"境界またぎ・収録外等のため人口未集計"},"geometry":{"type":"Polygon","coordinates":[[[130.9375,33.4777642244968],[130.93558153000004,33.475],[130.925,33.475],[130.925,33.48333333333334],[130.9375,33.483333333333334],[130.9375,33.4777642244968]]]}},{"type":"Feature","id":"40602:50301775","properties":{"id":"40602:50301775","meshCode":"50301775","cityCode":"40602","city":"添田町","lat":33.4814796,"lon":130.9387922,"areaKm2":0.1110902,"populated2020":false,"population2020":null,"populationNote":"境界またぎ・収録外等のため人口未集計"},"geometry":{"type":"Polygon","coordinates":[[[130.9375,33.4777642244968],[130.9375,33.483333333333334],[130.9414901693957,33.483333333333334],[130.94118944200014,33.48308],[130.9375,33.4777642244968]]]}},{"type":"Feature","id":"40602:50301685","properties":{"id":"40602:50301685","meshCode":"50301685","cityCode":"40602","city":"添田町","lat":33.4898692,"lon":130.8215013,"areaKm2":0.2753973,"populated2020":false,"population2020":null,"populationNote":"境界またぎ・収録外等のため人口未集計"},"geometry":{"type":"Polygon","coordinates":[[[130.823716667,33.487149162],[130.823564449,33.487045829],[130.822964721,33.487409721],[130.822434163,33.48741277500001],[130.821934994,33.487513333],[130.821409442,33.48747722499999],[130.82122083,33.487854440999996],[130.820998885,33.488040559],[130.820228327,33.48820110799999],[130.82023917,33.488490559],[130.819974163,33.488954162],[130.819991946,33.489344721],[130.819404449,33.489704441],[130.819166939,33.489638891999995],[130.81836,33.488956667],[130.817626109,33.48884472100001],[130.817295837,33.48894082900001],[130.817124721,33.489577495],[130.817324449,33.490028892],[130.817295837,33.490883053999994],[130.817266939,33.491015559],[130.816903606,33.49129555900001],[130.81677847015715,33.491666666666674],[130.825,33.491666666666674],[130.825,33.488267531999995],[130.824580272,33.487909162],[130.823945837,33.487619162],[130.823784163,33.487429721],[130.823716667,33.487149162]]]}},{"type":"Feature","id":"40602:50301686","properties":{"id":"40602:50301686","meshCode":"50301686","cityCode":"40602","city":"添田町","lat":33.489246,"lon":130.83219,"areaKm2":0.5770721,"populated2020":false,"population2020":null,"populationNote":"境界またぎ・収録外等のため人口未集計"},"geometry":{"type":"Polygon","coordinates":[[[130.837216667,33.48435361300001],[130.836836109,33.484850829],[130.835923333,33.484972495],[130.835608885,33.48525666700001],[130.835074163,33.485500279],[130.834941115,33.48573666699999],[130.834918885,33.48611527900001],[130.834801115,33.486261946],[130.834156394,33.486482225],[130.834171388,33.486701667],[130.834355279,33.487055559],[130.834244721,33.48722749499999],[130.834057224,33.48732444099999],[130.83375,33.487367775],[130.833076394,33.48697666700001],[130.832748885,33.486983892000005],[130.832300272,33.48727805400001],[130.831838612,33.487382225],[130.831444163,33.48767166700001],[130.830640558,33.487710559],[130.829279442,33.488241387],[130.828714163,33.488132495],[130.828345837,33.487786387],[130.828043606,33.487708892],[130.827746109,33.487834162],[130.827356939,33.488263612999994],[130.827008885,33.488485559],[130.826475279,33.48862333299999],[130.825548327,33.488502495000006],[130.825,33.488267531999995],[130.825,33.491666666666674],[130.8375,33.49166666666667],[130.8375,33.48425805789376],[130.837216667,33.48435361300001]]]}},{"type":"Feature","id":"40602:50301687","properties":{"id":"40602:50301687","meshCode":"50301687","cityCode":"40602","city":"添田町","lat":33.4877917,"lon":130.8439986,"areaKm2":0.9864785,"populated2020":false,"population2020":null,"populationNote":"境界またぎ・収録外等のため人口未集計"},"geometry":{"type":"Polygon","coordinates":[[[130.84318452705463,33.483333333333334],[130.843117224,33.48411000000001],[130.843309728,33.484605829],[130.84283416300002,33.485503613],[130.842663333,33.485623892],[130.842118327,33.48554638699999],[130.841326109,33.485562495],[130.841087224,33.485468054],[130.84071083,33.484931387],[130.839816394,33.484257495],[130.839368054,33.484311667],[130.838562503,33.484139441],[130.8375,33.48425805789376],[130.8375,33.49166666666667],[130.85,33.49166666666667],[130.85,33.483333333333334],[130.84318452705463,33.483333333333334]]]}},{"type":"Feature","id":"40602:50301688","properties":{"id":"40602:50301688","meshCode":"50301688","cityCode":"40602","city":"添田町","lat":33.4875,"lon":130.85625,"areaKm2":1.0735206,"populated2020":true,"population2020":2.0182,"populationNote":"収録500mメッシュ人口の合算（原典収録外は補完しない）"},"geometry":{"type":"Polygon","coordinates":[[[130.8625,33.48333333333334],[130.85,33.483333333333334],[130.85,33.49166666666667],[130.8625,33.49166666666667],[130.8625,33.48333333333334]]]}},{"type":"Feature","id":"40602:50301689","properties":{"id":"40602:50301689","meshCode":"50301689","cityCode":"40602","city":"添田町","lat":33.4875,"lon":130.86875,"areaKm2":1.0735199,"populated2020":true,"population2020":10.1433,"populationNote":"収録500mメッシュ人口の合算（原典収録外は補完しない）"},"geometry":{"type":"Polygon","coordinates":[[[130.875,33.483333333333334],[130.8625,33.48333333333334],[130.8625,33.49166666666667],[130.875,33.49166666666667],[130.875,33.483333333333334]]]}},{"type":"Feature","id":"40602:50301780","properties":{"id":"40602:50301780","meshCode":"50301780","cityCode":"40602","city":"添田町","lat":33.4875,"lon":130.88125,"areaKm2":1.0735192,"populated2020":true,"population2020":14.1815,"populationNote":"収録500mメッシュ人口の合算（原典収録外は補完しない）"},"geometry":{"type":"Polygon","coordinates":[[[130.8875,33.48333333333334],[130.875,33.483333333333334],[130.875,33.49166666666667],[130.8875,33.49166666666667],[130.8875,33.48333333333334]]]}},{"type":"Feature","id":"40602:50301781","properties":{"id":"40602:50301781","meshCode":"50301781","cityCode":"40602","city":"添田町","lat":33.4875,"lon":130.89375,"areaKm2":1.0735185,"populated2020":true,"population2020":10.0573,"populationNote":"収録500mメッシュ人口の合算（原典収録外は補完しない）"},"geometry":{"type":"Polygon","coordinates":[[[130.9,33.48333333333334],[130.8875,33.48333333333334],[130.8875,33.49166666666667],[130.9,33.491666666666674],[130.9,33.48333333333334]]]}},{"type":"Feature","id":"40602:50301782","properties":{"id":"40602:50301782","meshCode":"50301782","cityCode":"40602","city":"添田町","lat":33.4875,"lon":130.90625,"areaKm2":1.073518,"populated2020":true,"population2020":70.7832,"populationNote":"収録500mメッシュ人口の合算（原典収録外は補完しない）"},"geometry":{"type":"Polygon","coordinates":[[[130.9125,33.483333333333334],[130.9,33.48333333333334],[130.9,33.491666666666674],[130.9125,33.49166666666666],[130.9125,33.483333333333334]]]}},{"type":"Feature","id":"40602:50301783","properties":{"id":"40602:50301783","meshCode":"50301783","cityCode":"40602","city":"添田町","lat":33.4875,"lon":130.91875,"areaKm2":1.0735175,"populated2020":false,"population2020":null,"populationNote":"境界またぎ・収録外等のため人口未集計"},"geometry":{"type":"Polygon","coordinates":[[[130.925,33.48333333333334],[130.9125,33.483333333333334],[130.9125,33.49166666666666],[130.925,33.49166666666667],[130.925,33.48333333333334]]]}},{"type":"Feature","id":"40602:50301784","properties":{"id":"40602:50301784","meshCode":"50301784","cityCode":"40602","city":"添田町","lat":33.4875,"lon":130.93125,"areaKm2":1.073517,"populated2020":false,"population2020":null,"populationNote":"境界またぎ・収録外等のため人口未集計"},"geometry":{"type":"Polygon","coordinates":[[[130.9375,33.483333333333334],[130.925,33.48333333333334],[130.925,33.49166666666667],[130.9375,33.49166666666667],[130.9375,33.483333333333334]]]}},{"type":"Feature","id":"40602:50301785","properties":{"id":"40602:50301785","meshCode":"50301785","cityCode":"40602","city":"添田町","lat":33.4882576,"lon":130.9424308,"areaKm2":0.7535389,"populated2020":false,"population2020":null,"populationNote":"境界またぎ・収録外等のため人口未集計"},"geometry":{"type":"Polygon","coordinates":[[[130.94300693900016,33.485470559000134],[130.94241832700004,33.485642494999986],[130.9421316600001,33.485333892000085],[130.94198055800018,33.48483527899999],[130.941831115,33.48362055900003],[130.9414901693957,33.483333333333334],[130.9375,33.483333333333334],[130.9375,33.49166666666667],[130.9484261610858,33.49166666666667],[130.948807224,33.490521945999994],[130.9487969390001,33.490148892000036],[130.94916389100013,33.489745],[130.94988749700008,33.48766916200004],[130.94881610900006,33.487705829],[130.94658277600013,33.48726055900011],[130.94495277600004,33.486507495000126],[130.9435808300001,33.485547495000105],[130.94300693900016,33.485470559000134]]]}},{"type":"Feature","id":"40602:50301695","properties":{"id":"40602:50301695","meshCode":"50301695","cityCode":"40602","city":"添田町","lat":33.4960288,"lon":130.8195826,"areaKm2":0.9209915,"populated2020":false,"population2020":null,"populationNote":"境界またぎ・収録外等のため人口未集計"},"geometry":{"type":"Polygon","coordinates":[[[130.81677847015715,33.491666666666674],[130.816212776,33.49213194599999],[130.815329728,33.492195829],[130.81489166,33.492745829],[130.814644721,33.492904721],[130.814176394,33.49296972100001],[130.814028612,33.493062225],[130.81409166,33.493271387],[130.814585837,33.493942775],[130.814646109,33.494296667],[130.814584994,33.494642775],[130.814852218,33.495356387],[130.815202776,33.495588613],[130.81529166,33.495741387],[130.815374163,33.49633389200001],[130.815032503,33.496581667],[130.814647497,33.497012495],[130.814173606,33.497026946],[130.813837497,33.49711610800001],[130.813624163,33.49753166699999],[130.81326083,33.497763892],[130.813230558,33.498299162],[130.813032503,33.498493054],[130.812834994,33.498978613],[130.8125,33.499046895948055],[130.8125,33.49999999999999],[130.825,33.5],[130.825,33.491666666666674],[130.81677847015715,33.491666666666674]]]}},{"type":"Feature","id":"40602:50301696","properties":{"id":"40602:50301696","meshCode":"50301696","cityCode":"40602","city":"添田町","lat":33.4958333,"lon":130.83125,"areaKm2":1.0734211,"populated2020":false,"population2020":null,"populationNote":"境界またぎ・収録外等のため人口未集計"},"geometry":{"type":"Polygon","coordinates":[[[130.8375,33.49166666666667],[130.825,33.491666666666674],[130.825,33.5],[130.8375,33.49999999999999],[130.8375,33.49166666666667]]]}},{"type":"Feature","id":"40602:50301697","properties":{"id":"40602:50301697","meshCode":"50301697","cityCode":"40602","city":"添田町","lat":33.4958333,"lon":130.84375,"areaKm2":1.0734201,"populated2020":true,"population2020":4.051,"populationNote":"収録500mメッシュ人口の合算（原典収録外は補完しない）"},"geometry":{"type":"Polygon","coordinates":[[[130.85,33.49166666666667],[130.8375,33.49166666666667],[130.8375,33.49999999999999],[130.85,33.49999999999999],[130.85,33.49166666666667]]]}},{"type":"Feature","id":"40602:50301698","properties":{"id":"40602:50301698","meshCode":"50301698","cityCode":"40602","city":"添田町","lat":33.4958333,"lon":130.85625,"areaKm2":1.0734192,"populated2020":true,"population2020":3.0479,"populationNote":"収録500mメッシュ人口の合算（原典収録外は補完しない）"},"geometry":{"type":"Polygon","coordinates":[[[130.8625,33.49166666666667],[130.85,33.49166666666667],[130.85,33.49999999999999],[130.8625,33.5],[130.8625,33.49166666666667]]]}},{"type":"Feature","id":"40602:50301699","properties":{"id":"40602:50301699","meshCode":"50301699","cityCode":"40602","city":"添田町","lat":33.4958333,"lon":130.86875,"areaKm2":1.0734184,"populated2020":true,"population2020":74.8253,"populationNote":"収録500mメッシュ人口の合算（原典収録外は補完しない）"},"geometry":{"type":"Polygon","coordinates":[[[130.875,33.49166666666667],[130.8625,33.49166666666667],[130.8625,33.5],[130.875,33.5],[130.875,33.49166666666667]]]}},{"type":"Feature","id":"40602:50301790","properties":{"id":"40602:50301790","meshCode":"50301790","cityCode":"40602","city":"添田町","lat":33.4958333,"lon":130.88125,"areaKm2":1.0734177,"populated2020":true,"population2020":20.234,"populationNote":"収録500mメッシュ人口の合算（原典収録外は補完しない）"},"geometry":{"type":"Polygon","coordinates":[[[130.8875,33.49166666666667],[130.875,33.49166666666667],[130.875,33.5],[130.8875,33.49999999999999],[130.8875,33.49166666666667]]]}},{"type":"Feature","id":"40602:50301791","properties":{"id":"40602:50301791","meshCode":"50301791","cityCode":"40602","city":"添田町","lat":33.4958333,"lon":130.89375,"areaKm2":1.0734172,"populated2020":true,"population2020":6.0159,"populationNote":"収録500mメッシュ人口の合算（原典収録外は補完しない）"},"geometry":{"type":"Polygon","coordinates":[[[130.9,33.491666666666674],[130.8875,33.49166666666667],[130.8875,33.49999999999999],[130.9,33.49999999999999],[130.9,33.491666666666674]]]}},{"type":"Feature","id":"40602:50301792","properties":{"id":"40602:50301792","meshCode":"50301792","cityCode":"40602","city":"添田町","lat":33.4958333,"lon":130.90625,"areaKm2":1.0734165,"populated2020":true,"population2020":8.1169,"populationNote":"収録500mメッシュ人口の合算（原典収録外は補完しない）"},"geometry":{"type":"Polygon","coordinates":[[[130.9125,33.49166666666666],[130.9,33.491666666666674],[130.9,33.49999999999999],[130.9125,33.49999999999999],[130.9125,33.49166666666666]]]}},{"type":"Feature","id":"40602:50301793","properties":{"id":"40602:50301793","meshCode":"50301793","cityCode":"40602","city":"添田町","lat":33.4958333,"lon":130.91875,"areaKm2":1.073416,"populated2020":false,"population2020":null,"populationNote":"境界またぎ・収録外等のため人口未集計"},"geometry":{"type":"Polygon","coordinates":[[[130.925,33.49166666666667],[130.9125,33.49166666666666],[130.9125,33.49999999999999],[130.925,33.5],[130.925,33.49166666666667]]]}},{"type":"Feature","id":"40602:50301794","properties":{"id":"40602:50301794","meshCode":"50301794","cityCode":"40602","city":"添田町","lat":33.4958333,"lon":130.93125,"areaKm2":1.0734156,"populated2020":false,"population2020":null,"populationNote":"境界またぎ・収録外等のため人口未集計"},"geometry":{"type":"Polygon","coordinates":[[[130.9375,33.49166666666667],[130.925,33.49166666666667],[130.925,33.5],[130.9375,33.5],[130.9375,33.49166666666667]]]}},{"type":"Feature","id":"40602:50301795","properties":{"id":"40602:50301795","meshCode":"50301795","cityCode":"40602","city":"添田町","lat":33.4944353,"lon":130.941982,"areaKm2":0.5640441,"populated2020":false,"population2020":null,"populationNote":"境界またぎ・収録外等のため人口未集計"},"geometry":{"type":"Polygon","coordinates":[[[130.94468277600015,33.495222495],[130.945381388,33.49517444100013],[130.9460902720001,33.49556333299994],[130.94654416300003,33.495675559],[130.94716083000003,33.49553555899997],[130.94746693900004,33.494797225000006],[130.94780832699996,33.49449777500007],[130.94797138800004,33.49418082899996],[130.94817499400006,33.49318],[130.94856277600002,33.49261444100006],[130.94837888500012,33.492128892000096],[130.9484261610858,33.49166666666667],[130.9375,33.49166666666667],[130.9375,33.5],[130.938050272,33.5],[130.93792333299996,33.49943027900002],[130.93795888500006,33.49922166700014],[130.93807639400006,33.499045],[130.93868861199996,33.498576667000066],[130.941278054,33.49770722500006],[130.941537497,33.49758722500008],[130.94213888500008,33.49708610800013],[130.94281250300003,33.49711000000014],[130.94301583699996,33.496778613],[130.94304666699998,33.49620889200003],[130.94317917,33.49594805400011],[130.94468277600015,33.495222495]]]}},{"type":"Feature","id":"40602:50301694","properties":{"id":"40602:50301694","meshCode":"50301694","cityCode":"40602","city":"添田町","lat":33.4995707,"lon":130.8123447,"areaKm2":0.0027944,"populated2020":false,"population2020":null,"populationNote":"境界またぎ・収録外等のため人口未集計"},"geometry":{"type":"Polygon","coordinates":[[[130.8125,33.499046895948055],[130.812183891,33.499193333],[130.812294449,33.499623054],[130.812015227,33.49999999999999],[130.8125,33.49999999999999],[130.8125,33.499046895948055]]]}},{"type":"Feature","id":"40602:50302604","properties":{"id":"40602:50302604","meshCode":"50302604","cityCode":"40602","city":"添田町","lat":33.5046327,"lon":130.81156,"areaKm2":0.1525846,"populated2020":false,"population2020":null,"populationNote":"境界またぎ・収録外等のため人口未集計"},"geometry":{"type":"Polygon","coordinates":[[[130.812015227,33.49999999999999],[130.811403333,33.500923054000005],[130.81062000000003,33.502550279],[130.810644721,33.50321000000001],[130.810412218,33.504289721],[130.810576667,33.504900829],[130.810376667,33.506094162],[130.810375551,33.50704333299999],[130.810284163,33.50750166700001],[130.810377497,33.507766387000004],[130.810793891,33.50820222499999],[130.81080011697452,33.50833333333334],[130.8125,33.50833333333334],[130.8125,33.49999999999999],[130.812015227,33.49999999999999]]]}},{"type":"Feature","id":"40602:50302605","properties":{"id":"40602:50302605","meshCode":"50302605","cityCode":"40602","city":"添田町","lat":33.5041667,"lon":130.81875,"areaKm2":1.0733207,"populated2020":false,"population2020":null,"populationNote":"境界またぎ・収録外等のため人口未集計"},"geometry":{"type":"Polygon","coordinates":[[[130.825,33.5],[130.8125,33.49999999999999],[130.8125,33.50833333333334],[130.825,33.50833333333333],[130.825,33.5]]]}},{"type":"Feature","id":"40602:50302606","properties":{"id":"40602:50302606","meshCode":"50302606","cityCode":"40602","city":"添田町","lat":33.5041667,"lon":130.83125,"areaKm2":1.0733196,"populated2020":false,"population2020":null,"populationNote":"境界またぎ・収録外等のため人口未集計"},"geometry":{"type":"Polygon","coordinates":[[[130.8375,33.49999999999999],[130.825,33.5],[130.825,33.50833333333333],[130.8375,33.50833333333334],[130.8375,33.49999999999999]]]}},{"type":"Feature","id":"40602:50302607","properties":{"id":"40602:50302607","meshCode":"50302607","cityCode":"40602","city":"添田町","lat":33.5041667,"lon":130.84375,"areaKm2":1.0733188,"populated2020":false,"population2020":null,"populationNote":"境界またぎ・収録外等のため人口未集計"},"geometry":{"type":"Polygon","coordinates":[[[130.85,33.49999999999999],[130.8375,33.49999999999999],[130.8375,33.50833333333334],[130.85,33.50833333333333],[130.85,33.49999999999999]]]}},{"type":"Feature","id":"40602:50302608","properties":{"id":"40602:50302608","meshCode":"50302608","cityCode":"40602","city":"添田町","lat":33.5041667,"lon":130.85625,"areaKm2":1.073318,"populated2020":true,"population2020":6.0377,"populationNote":"収録500mメッシュ人口の合算（原典収録外は補完しない）"},"geometry":{"type":"Polygon","coordinates":[[[130.8625,33.5],[130.85,33.49999999999999],[130.85,33.50833333333333],[130.8625,33.50833333333333],[130.8625,33.5]]]}},{"type":"Feature","id":"40602:50302609","properties":{"id":"40602:50302609","meshCode":"50302609","cityCode":"40602","city":"添田町","lat":33.5041667,"lon":130.86875,"areaKm2":1.0733172,"populated2020":true,"population2020":40.4141,"populationNote":"収録500mメッシュ人口の合算（原典収録外は補完しない）"},"geometry":{"type":"Polygon","coordinates":[[[130.875,33.5],[130.8625,33.5],[130.8625,33.50833333333333],[130.875,33.50833333333334],[130.875,33.5]]]}},{"type":"Feature","id":"40602:50302700","properties":{"id":"40602:50302700","meshCode":"50302700","cityCode":"40602","city":"添田町","lat":33.5041667,"lon":130.88125,"areaKm2":1.0733164,"populated2020":true,"population2020":1.0164,"populationNote":"収録500mメッシュ人口の合算（原典収録外は補完しない）"},"geometry":{"type":"Polygon","coordinates":[[[130.8875,33.49999999999999],[130.875,33.5],[130.875,33.50833333333334],[130.8875,33.50833333333334],[130.8875,33.49999999999999]]]}},{"type":"Feature","id":"40602:50302701","properties":{"id":"40602:50302701","meshCode":"50302701","cityCode":"40602","city":"添田町","lat":33.5041667,"lon":130.89375,"areaKm2":1.0733157,"populated2020":true,"population2020":9.0473,"populationNote":"収録500mメッシュ人口の合算（原典収録外は補完しない）"},"geometry":{"type":"Polygon","coordinates":[[[130.9,33.49999999999999],[130.8875,33.49999999999999],[130.8875,33.50833333333334],[130.9,33.50833333333333],[130.9,33.49999999999999]]]}},{"type":"Feature","id":"40602:50302702","properties":{"id":"40602:50302702","meshCode":"50302702","cityCode":"40602","city":"添田町","lat":33.5041667,"lon":130.90625,"areaKm2":1.0733152,"populated2020":false,"population2020":null,"populationNote":"境界またぎ・収録外等のため人口未集計"},"geometry":{"type":"Polygon","coordinates":[[[130.9125,33.49999999999999],[130.9,33.49999999999999],[130.9,33.50833333333333],[130.9125,33.50833333333333],[130.9125,33.49999999999999]]]}},{"type":"Feature","id":"40602:50302703","properties":{"id":"40602:50302703","meshCode":"50302703","cityCode":"40602","city":"添田町","lat":33.5041667,"lon":130.91875,"areaKm2":1.0733147,"populated2020":false,"population2020":null,"populationNote":"境界またぎ・収録外等のため人口未集計"},"geometry":{"type":"Polygon","coordinates":[[[130.925,33.5],[130.9125,33.49999999999999],[130.9125,33.50833333333333],[130.925,33.50833333333334],[130.925,33.5]]]}},{"type":"Feature","id":"40602:50302704","properties":{"id":"40602:50302704","meshCode":"50302704","cityCode":"40602","city":"添田町","lat":33.5041667,"lon":130.93125,"areaKm2":1.0733142,"populated2020":true,"population2020":4.0379,"populationNote":"収録500mメッシュ人口の合算（原典収録外は補完しない）"},"geometry":{"type":"Polygon","coordinates":[[[130.9375,33.5],[130.925,33.5],[130.925,33.50833333333334],[130.9375,33.50833333333334],[130.9375,33.5]]]}},{"type":"Feature","id":"40602:50302705","properties":{"id":"40602:50302705","meshCode":"50302705","cityCode":"40602","city":"添田町","lat":33.5047658,"lon":130.9382863,"areaKm2":0.1178111,"populated2020":false,"population2020":null,"populationNote":"境界またぎ・収録外等のため人口未集計"},"geometry":{"type":"Polygon","coordinates":[[[130.938343061,33.50395889200001],[130.938897224,33.502035],[130.938918054,33.501301108],[130.938790558,33.500899720999996],[130.938443606,33.500615],[130.938050272,33.5],[130.9375,33.5],[130.9375,33.50833333333334],[130.93993396923395,33.50833333333334],[130.939766394,33.508094441],[130.939966939,33.507643333000004],[130.939903891,33.507258054],[130.939954163,33.507020559],[130.938758612,33.50653610799999],[130.93833083,33.506091108000014],[130.938368327,33.505883613],[130.938695837,33.505596946],[130.938972503,33.505481387],[130.939022776,33.505362775],[130.939010272,33.50519444100001],[130.938343061,33.50395889200001]]]}},{"type":"Feature","id":"40602:50302614","properties":{"id":"40602:50302614","meshCode":"50302614","cityCode":"40602","city":"添田町","lat":33.5115933,"lon":130.811646,"areaKm2":0.1206574,"populated2020":false,"population2020":null,"populationNote":"境界またぎ・収録外等のため人口未集計"},"geometry":{"type":"Polygon","coordinates":[[[130.81080011697452,33.50833333333334],[130.810647782,33.508622225],[130.810219728,33.508798612999996],[130.810174449,33.508889441],[130.810267782,33.509615000000004],[130.81083917,33.510033892],[130.811089442,33.510611946],[130.810714163,33.51242833300001],[130.810884449,33.51274],[130.810748885,33.513615279],[130.810976667,33.514012225],[130.811188327,33.514686946000005],[130.811559728,33.515236108],[130.811764721,33.515417225],[130.812149442,33.515457495],[130.8125,33.51562917734483],[130.8125,33.50833333333334],[130.81080011697452,33.50833333333334]]]}},{"type":"Feature","id":"40602:50302615","properties":{"id":"40602:50302615","meshCode":"50302615","cityCode":"40602","city":"添田町","lat":33.5124637,"lon":130.8188048,"areaKm2":1.0629753,"populated2020":false,"population2020":null,"populationNote":"境界またぎ・収録外等のため人口未集計"},"geometry":{"type":"Polygon","coordinates":[[[130.825,33.50833333333333],[130.8125,33.50833333333334],[130.8125,33.51562917734483],[130.813083333,33.515793333],[130.813727782,33.516303892],[130.81399499374731,33.51666666666667],[130.825,33.516666666666666],[130.825,33.50833333333333]]]}},{"type":"Feature","id":"40602:50302616","properties":{"id":"40602:50302616","meshCode":"50302616","cityCode":"40602","city":"添田町","lat":33.5125,"lon":130.83125,"areaKm2":1.0732183,"populated2020":false,"population2020":null,"populationNote":"境界またぎ・収録外等のため人口未集計"},"geometry":{"type":"Polygon","coordinates":[[[130.8375,33.50833333333334],[130.825,33.50833333333333],[130.825,33.516666666666666],[130.8375,33.516666666666666],[130.8375,33.50833333333334]]]}},{"type":"Feature","id":"40602:50302617","properties":{"id":"40602:50302617","meshCode":"50302617","cityCode":"40602","city":"添田町","lat":33.5125,"lon":130.84375,"areaKm2":1.0732172,"populated2020":false,"population2020":null,"populationNote":"境界またぎ・収録外等のため人口未集計"},"geometry":{"type":"Polygon","coordinates":[[[130.85,33.50833333333333],[130.8375,33.50833333333334],[130.8375,33.516666666666666],[130.85,33.516666666666666],[130.85,33.50833333333333]]]}},{"type":"Feature","id":"40602:50302618","properties":{"id":"40602:50302618","meshCode":"50302618","cityCode":"40602","city":"添田町","lat":33.5125,"lon":130.85625,"areaKm2":1.0732164,"populated2020":true,"population2020":48.6017,"populationNote":"収録500mメッシュ人口の合算（原典収録外は補完しない）"},"geometry":{"type":"Polygon","coordinates":[[[130.8625,33.50833333333333],[130.85,33.50833333333333],[130.85,33.516666666666666],[130.8625,33.516666666666666],[130.8625,33.50833333333333]]]}},{"type":"Feature","id":"40602:50302619","properties":{"id":"40602:50302619","meshCode":"50302619","cityCode":"40602","city":"添田町","lat":33.5125,"lon":130.86875,"areaKm2":1.0732156,"populated2020":true,"population2020":70.7147,"populationNote":"収録500mメッシュ人口の合算（原典収録外は補完しない）"},"geometry":{"type":"Polygon","coordinates":[[[130.875,33.50833333333334],[130.8625,33.50833333333333],[130.8625,33.516666666666666],[130.875,33.516666666666666],[130.875,33.50833333333334]]]}},{"type":"Feature","id":"40602:50302710","properties":{"id":"40602:50302710","meshCode":"50302710","cityCode":"40602","city":"添田町","lat":33.5125,"lon":130.88125,"areaKm2":1.0732149,"populated2020":true,"population2020":12.1852,"populationNote":"収録500mメッシュ人口の合算（原典収録外は補完しない）"},"geometry":{"type":"Polygon","coordinates":[[[130.8875,33.50833333333334],[130.875,33.50833333333334],[130.875,33.516666666666666],[130.8875,33.51666666666667],[130.8875,33.50833333333334]]]}},{"type":"Feature","id":"40602:50302711","properties":{"id":"40602:50302711","meshCode":"50302711","cityCode":"40602","city":"添田町","lat":33.5125,"lon":130.89375,"areaKm2":1.0732144,"populated2020":false,"population2020":null,"populationNote":"境界またぎ・収録外等のため人口未集計"},"geometry":{"type":"Polygon","coordinates":[[[130.9,33.50833333333333],[130.8875,33.50833333333334],[130.8875,33.51666666666667],[130.9,33.516666666666666],[130.9,33.50833333333333]]]}},{"type":"Feature","id":"40602:50302712","properties":{"id":"40602:50302712","meshCode":"50302712","cityCode":"40602","city":"添田町","lat":33.5125,"lon":130.90625,"areaKm2":1.0732137,"populated2020":true,"population2020":103.1217,"populationNote":"収録500mメッシュ人口の合算（原典収録外は補完しない）"},"geometry":{"type":"Polygon","coordinates":[[[130.9125,33.50833333333333],[130.9,33.50833333333333],[130.9,33.516666666666666],[130.9125,33.51666666666666],[130.9125,33.50833333333333]]]}},{"type":"Feature","id":"40602:50302713","properties":{"id":"40602:50302713","meshCode":"50302713","cityCode":"40602","city":"添田町","lat":33.5125,"lon":130.91875,"areaKm2":1.0732132,"populated2020":true,"population2020":18.2148,"populationNote":"収録500mメッシュ人口の合算（原典収録外は補完しない）"},"geometry":{"type":"Polygon","coordinates":[[[130.925,33.50833333333334],[130.9125,33.50833333333333],[130.9125,33.51666666666666],[130.925,33.51666666666667],[130.925,33.50833333333334]]]}},{"type":"Feature","id":"40602:50302714","properties":{"id":"40602:50302714","meshCode":"50302714","cityCode":"40602","city":"添田町","lat":33.5122491,"lon":130.9306994,"areaKm2":0.9660612,"populated2020":false,"population2020":null,"populationNote":"境界またぎ・収録外等のため人口未集計"},"geometry":{"type":"Polygon","coordinates":[[[130.936811388,33.512648613],[130.9375,33.51217942968165],[130.9375,33.50833333333334],[130.925,33.50833333333334],[130.925,33.51666666666667],[130.93514538173002,33.51666666666666],[130.934886109,33.516598613],[130.934672218,33.516420829],[130.934584163,33.516232775000006],[130.93460917,33.516025279000004],[130.934835837,33.515639441],[130.934521115,33.515303333],[130.934508885,33.51516500000001],[130.934709728,33.515050829],[130.934798054,33.514428333],[130.935049728,33.513844999999996],[130.935112503,33.51322194600001],[130.93572917000003,33.51319222499999],[130.935867497,33.512826387],[130.936043606,33.512678054],[130.936257782,33.512598892],[130.936572218,33.51267805399999],[130.936811388,33.512648613]]]}},{"type":"Feature","id":"40602:50302715","properties":{"id":"40602:50302715","meshCode":"50302715","cityCode":"40602","city":"添田町","lat":33.5097699,"lon":130.9384973,"areaKm2":0.0657779,"populated2020":false,"population2020":null,"populationNote":"境界またぎ・収録外等のため人口未集計"},"geometry":{"type":"Polygon","coordinates":[[[130.9375,33.51217942968165],[130.938258885,33.511748892],[130.938485279,33.51149194599999],[130.938784721,33.510921946],[130.938923333,33.510358333],[130.93920027200002,33.510022495],[130.939627782,33.509547775],[130.940219442,33.509132495],[130.940156394,33.50866777499999],[130.93993396923395,33.50833333333334],[130.9375,33.50833333333334],[130.9375,33.51217942968165]]]}},{"type":"Feature","id":"40602:50302625","properties":{"id":"40602:50302625","meshCode":"50302625","cityCode":"40602","city":"添田町","lat":33.5176115,"lon":130.8210384,"areaKm2":0.166073,"populated2020":false,"population2020":null,"populationNote":"境界またぎ・収録外等のため人口未集計"},"geometry":{"type":"Polygon","coordinates":[[[130.81399499374731,33.51666666666667],[130.814811946,33.517354721000004],[130.81706166,33.51781944100001],[130.818521115,33.517630000000004],[130.819385837,33.517880559],[130.819975279,33.51791666700001],[130.820895837,33.51781472099999],[130.82123917,33.517844441],[130.821544163,33.517995279],[130.823118054,33.519341108],[130.825,33.519843667],[130.825,33.516666666666666],[130.81399499374731,33.51666666666667]]]}},{"type":"Feature","id":"40602:50302626","properties":{"id":"40602:50302626","meshCode":"50302626","cityCode":"40602","city":"添田町","lat":33.5205912,"lon":130.8318651,"areaKm2":0.9565604,"populated2020":false,"population2020":null,"populationNote":"境界またぎ・収録外等のため人口未集計"},"geometry":{"type":"Polygon","coordinates":[[[130.825674721,33.520153054],[130.82585166,33.520315829],[130.827104994,33.52093833299999],[130.827346394,33.521950559],[130.827488054,33.523403613000006],[130.828084475,33.525000000000006],[130.8375,33.525],[130.8375,33.516666666666666],[130.825,33.516666666666666],[130.825,33.519843667],[130.825674721,33.520153054]]]}},{"type":"Feature","id":"40602:50302627","properties":{"id":"40602:50302627","meshCode":"50302627","cityCode":"40602","city":"添田町","lat":33.5208333,"lon":130.84375,"areaKm2":1.0731159,"populated2020":false,"population2020":null,"populationNote":"境界またぎ・収録外等のため人口未集計"},"geometry":{"type":"Polygon","coordinates":[[[130.85,33.516666666666666],[130.8375,33.516666666666666],[130.8375,33.525],[130.85,33.52499999999999],[130.85,33.516666666666666]]]}},{"type":"Feature","id":"40602:50302628","properties":{"id":"40602:50302628","meshCode":"50302628","cityCode":"40602","city":"添田町","lat":33.5208333,"lon":130.85625,"areaKm2":1.073115,"populated2020":true,"population2020":29.3728,"populationNote":"収録500mメッシュ人口の合算（原典収録外は補完しない）"},"geometry":{"type":"Polygon","coordinates":[[[130.8625,33.516666666666666],[130.85,33.516666666666666],[130.85,33.52499999999999],[130.8625,33.525],[130.8625,33.516666666666666]]]}},{"type":"Feature","id":"40602:50302629","properties":{"id":"40602:50302629","meshCode":"50302629","cityCode":"40602","city":"添田町","lat":33.5208333,"lon":130.86875,"areaKm2":1.0731142,"populated2020":true,"population2020":41.5004,"populationNote":"収録500mメッシュ人口の合算（原典収録外は補完しない）"},"geometry":{"type":"Polygon","coordinates":[[[130.875,33.516666666666666],[130.8625,33.516666666666666],[130.8625,33.525],[130.875,33.525],[130.875,33.516666666666666]]]}},{"type":"Feature","id":"40602:50302720","properties":{"id":"40602:50302720","meshCode":"50302720","cityCode":"40602","city":"添田町","lat":33.5208333,"lon":130.88125,"areaKm2":1.0731136,"populated2020":true,"population2020":5.0555,"populationNote":"収録500mメッシュ人口の合算（原典収録外は補完しない）"},"geometry":{"type":"Polygon","coordinates":[[[130.8875,33.51666666666667],[130.875,33.516666666666666],[130.875,33.525],[130.8875,33.525],[130.8875,33.51666666666667]]]}},{"type":"Feature","id":"40602:50302721","properties":{"id":"40602:50302721","meshCode":"50302721","cityCode":"40602","city":"添田町","lat":33.5208333,"lon":130.89375,"areaKm2":1.0731128,"populated2020":true,"population2020":31.2605,"populationNote":"収録500mメッシュ人口の合算（原典収録外は補完しない）"},"geometry":{"type":"Polygon","coordinates":[[[130.9,33.516666666666666],[130.8875,33.51666666666667],[130.8875,33.525],[130.9,33.525000000000006],[130.9,33.516666666666666]]]}},{"type":"Feature","id":"40602:50302722","properties":{"id":"40602:50302722","meshCode":"50302722","cityCode":"40602","city":"添田町","lat":33.5208333,"lon":130.90625,"areaKm2":1.0731123,"populated2020":true,"population2020":16.1622,"populationNote":"収録500mメッシュ人口の合算（原典収録外は補完しない）"},"geometry":{"type":"Polygon","coordinates":[[[130.9125,33.51666666666666],[130.9,33.516666666666666],[130.9,33.525000000000006],[130.9125,33.525],[130.9125,33.51666666666666]]]}},{"type":"Feature","id":"40602:50302723","properties":{"id":"40602:50302723","meshCode":"50302723","cityCode":"40602","city":"添田町","lat":33.5208333,"lon":130.91875,"areaKm2":1.0731118,"populated2020":true,"population2020":20.2026,"populationNote":"収録500mメッシュ人口の合算（原典収録外は補完しない）"},"geometry":{"type":"Polygon","coordinates":[[[130.925,33.51666666666667],[130.9125,33.51666666666666],[130.9125,33.525],[130.925,33.525],[130.925,33.51666666666667]]]}},{"type":"Feature","id":"40602:50302724","properties":{"id":"40602:50302724","meshCode":"50302724","cityCode":"40602","city":"添田町","lat":33.5206547,"lon":130.9296098,"areaKm2":0.7860998,"populated2020":false,"population2020":null,"populationNote":"境界またぎ・収録外等のため人口未集計"},"geometry":{"type":"Polygon","coordinates":[[[130.934924163,33.520528613],[130.935037224,33.519772495],[130.934747782,33.519416387],[130.934672218,33.518872495],[130.934445551,33.518496946],[130.934483333,33.518180559],[130.934634449,33.517824441],[130.935049728,33.517409441000005],[130.935137782,33.51701389200001],[130.935389442,33.516746946],[130.93514538173002,33.51666666666666],[130.925,33.51666666666667],[130.925,33.525],[130.932882633,33.52499999999999],[130.933074449,33.524797495],[130.933200272,33.523966946],[130.933426939,33.523650559],[130.933477224,33.52343305400001],[130.933326109,33.522770558999994],[130.933137497,33.522385],[130.933464721,33.52196000000001],[130.933829728,33.521712775000005],[130.93418166,33.521072495],[130.934760558,33.52085499999998],[130.934924163,33.520528613]]]}},{"type":"Feature","id":"40602:50302636","properties":{"id":"40602:50302636","meshCode":"50302636","cityCode":"40602","city":"添田町","lat":33.5287737,"lon":130.8336083,"areaKm2":0.6498262,"populated2020":false,"population2020":null,"populationNote":"境界またぎ・収録外等のため人口未集計"},"geometry":{"type":"Polygon","coordinates":[[[130.828191946,33.52527027900001],[130.827881115,33.525662225],[130.828078327,33.525975559],[130.828594994,33.526362495],[130.829074449,33.528270559],[130.829538054,33.528848892],[130.830533606,33.529418054],[130.830933606,33.52992361300001],[130.830958612,33.53045527900001],[130.830824994,33.530861667],[130.830871946,33.531186108],[130.831373333,33.531554162000006],[130.831599442,33.532099162],[130.831425279,33.532919721],[130.83147786005608,33.53333333333333],[130.8375,33.53333333333334],[130.8375,33.525],[130.828084475,33.525000000000006],[130.828191946,33.52527027900001]]]}},{"type":"Feature","id":"40602:50302637","properties":{"id":"40602:50302637","meshCode":"50302637","cityCode":"40602","city":"添田町","lat":33.5291667,"lon":130.84375,"areaKm2":1.0730144,"populated2020":true,"population2020":17.2321,"populationNote":"収録500mメッシュ人口の合算（原典収録外は補完しない）"},"geometry":{"type":"Polygon","coordinates":[[[130.85,33.52499999999999],[130.8375,33.525],[130.8375,33.53333333333334],[130.85,33.53333333333333],[130.85,33.52499999999999]]]}},{"type":"Feature","id":"40602:50302638","properties":{"id":"40602:50302638","meshCode":"50302638","cityCode":"40602","city":"添田町","lat":33.5291667,"lon":130.85625,"areaKm2":1.0730136,"populated2020":true,"population2020":24.2737,"populationNote":"収録500mメッシュ人口の合算（原典収録外は補完しない）"},"geometry":{"type":"Polygon","coordinates":[[[130.8625,33.525],[130.85,33.52499999999999],[130.85,33.53333333333333],[130.8625,33.53333333333333],[130.8625,33.525]]]}},{"type":"Feature","id":"40602:50302639","properties":{"id":"40602:50302639","meshCode":"50302639","cityCode":"40602","city":"添田町","lat":33.5291667,"lon":130.86875,"areaKm2":1.0730128,"populated2020":true,"population2020":73.8022,"populationNote":"収録500mメッシュ人口の合算（原典収録外は補完しない）"},"geometry":{"type":"Polygon","coordinates":[[[130.875,33.525],[130.8625,33.525],[130.8625,33.53333333333333],[130.875,33.533333333333324],[130.875,33.525]]]}},{"type":"Feature","id":"40602:50302730","properties":{"id":"40602:50302730","meshCode":"50302730","cityCode":"40602","city":"添田町","lat":33.5291667,"lon":130.88125,"areaKm2":1.073012,"populated2020":false,"population2020":null,"populationNote":"境界またぎ・収録外等のため人口未集計"},"geometry":{"type":"Polygon","coordinates":[[[130.8875,33.525],[130.875,33.525],[130.875,33.533333333333324],[130.8875,33.53333333333334],[130.8875,33.525]]]}},{"type":"Feature","id":"40602:50302731","properties":{"id":"40602:50302731","meshCode":"50302731","cityCode":"40602","city":"添田町","lat":33.5291667,"lon":130.89375,"areaKm2":1.0730113,"populated2020":true,"population2020":32.3397,"populationNote":"収録500mメッシュ人口の合算（原典収録外は補完しない）"},"geometry":{"type":"Polygon","coordinates":[[[130.9,33.525000000000006],[130.8875,33.525],[130.8875,33.53333333333334],[130.9,33.53333333333334],[130.9,33.525000000000006]]]}},{"type":"Feature","id":"40602:50302732","properties":{"id":"40602:50302732","meshCode":"50302732","cityCode":"40602","city":"添田町","lat":33.5291667,"lon":130.90625,"areaKm2":1.0730108,"populated2020":false,"population2020":null,"populationNote":"境界またぎ・収録外等のため人口未集計"},"geometry":{"type":"Polygon","coordinates":[[[130.9125,33.525],[130.9,33.525000000000006],[130.9,33.53333333333334],[130.9125,33.53333333333333],[130.9125,33.525]]]}},{"type":"Feature","id":"40602:50302733","properties":{"id":"40602:50302733","meshCode":"50302733","cityCode":"40602","city":"添田町","lat":33.5291667,"lon":130.91875,"areaKm2":1.0730103,"populated2020":true,"population2020":21.2219,"populationNote":"収録500mメッシュ人口の合算（原典収録外は補完しない）"},"geometry":{"type":"Polygon","coordinates":[[[130.925,33.525],[130.9125,33.525],[130.9125,33.53333333333333],[130.925,33.53333333333333],[130.925,33.525]]]}},{"type":"Feature","id":"40602:50302734","properties":{"id":"40602:50302734","meshCode":"50302734","cityCode":"40602","city":"添田町","lat":33.5293378,"lon":130.9283816,"areaKm2":0.5752689,"populated2020":false,"population2020":null,"populationNote":"境界またぎ・収録外等のため人口未集計"},"geometry":{"type":"Polygon","coordinates":[[[130.931878885,33.525182775],[130.932382218,33.525192775],[130.932882633,33.52499999999999],[130.925,33.525],[130.925,33.53333333333333],[130.93244236088577,33.533333333333324],[130.933111946,33.532656667],[130.933162218,33.532458892],[130.933099442,33.532340279],[130.932923061,33.532261108],[130.931928885,33.531381108000005],[130.931815551,33.530975559],[130.931966667,33.530461387],[130.931928885,33.530352775],[130.931564163,33.530120279],[130.931400558,33.529497225],[130.93121166,33.529378613000006],[130.931010272,33.529062225],[130.931060558,33.528815],[130.931287224,33.528449162],[130.931362776,33.527855829],[130.931111115,33.527183892],[130.931274721,33.526896946],[130.931073333,33.52616166699999],[130.93121166,33.525479441],[130.931463606,33.525291667000005],[130.931878885,33.525182775]]]}},{"type":"Feature","id":"40602:50302646","properties":{"id":"40602:50302646","meshCode":"50302646","cityCode":"40602","city":"添田町","lat":33.5374577,"lon":130.8346199,"areaKm2":0.4936051,"populated2020":true,"population2020":2.0376,"populationNote":"収録500mメッシュ人口の合算（原典収録外は補完しない）"},"geometry":{"type":"Polygon","coordinates":[[[130.831556939,33.53368694600001],[130.831934994,33.534198054],[130.83195917,33.534582225],[130.83187722400004,33.534942224999995],[130.831527224,33.535509162],[130.831206939,33.536268333],[130.83197166,33.537373892],[130.831694449,33.53803889200001],[130.83185917,33.53874027900001],[130.831698054,33.540303054000006],[130.832104163,33.541019721],[130.832177224,33.541475279],[130.83231988275153,33.541666666666664],[130.8375,33.54166666666667],[130.8375,33.53333333333334],[130.83147786005608,33.53333333333333],[130.831556939,33.53368694600001]]]}},{"type":"Feature","id":"40602:50302647","properties":{"id":"40602:50302647","meshCode":"50302647","cityCode":"40602","city":"添田町","lat":33.5375,"lon":130.84375,"areaKm2":1.0729128,"populated2020":true,"population2020":35.3867,"populationNote":"収録500mメッシュ人口の合算（原典収録外は補完しない）"},"geometry":{"type":"Polygon","coordinates":[[[130.85,33.53333333333333],[130.8375,33.53333333333334],[130.8375,33.54166666666667],[130.85,33.541666666666664],[130.85,33.53333333333333]]]}},{"type":"Feature","id":"40602:50302648","properties":{"id":"40602:50302648","meshCode":"50302648","cityCode":"40602","city":"添田町","lat":33.5375,"lon":130.85625,"areaKm2":1.072912,"populated2020":true,"population2020":293.1479,"populationNote":"収録500mメッシュ人口の合算（原典収録外は補完しない）"},"geometry":{"type":"Polygon","coordinates":[[[130.8625,33.53333333333333],[130.85,33.53333333333333],[130.85,33.541666666666664],[130.8625,33.54166666666667],[130.8625,33.53333333333333]]]}},{"type":"Feature","id":"40602:50302649","properties":{"id":"40602:50302649","meshCode":"50302649","cityCode":"40602","city":"添田町","lat":33.5375,"lon":130.86875,"areaKm2":1.0729112,"populated2020":true,"population2020":57.6579,"populationNote":"収録500mメッシュ人口の合算（原典収録外は補完しない）"},"geometry":{"type":"Polygon","coordinates":[[[130.875,33.533333333333324],[130.8625,33.53333333333333],[130.8625,33.54166666666667],[130.875,33.541666666666664],[130.875,33.533333333333324]]]}},{"type":"Feature","id":"40602:50302740","properties":{"id":"40602:50302740","meshCode":"50302740","cityCode":"40602","city":"添田町","lat":33.5375,"lon":130.88125,"areaKm2":1.0729104,"populated2020":false,"population2020":null,"populationNote":"境界またぎ・収録外等のため人口未集計"},"geometry":{"type":"Polygon","coordinates":[[[130.8875,33.53333333333334],[130.875,33.533333333333324],[130.875,33.541666666666664],[130.8875,33.541666666666664],[130.8875,33.53333333333334]]]}},{"type":"Feature","id":"40602:50302741","properties":{"id":"40602:50302741","meshCode":"50302741","cityCode":"40602","city":"添田町","lat":33.5375,"lon":130.89375,"areaKm2":1.07291,"populated2020":true,"population2020":3.0133,"populationNote":"収録500mメッシュ人口の合算（原典収録外は補完しない）"},"geometry":{"type":"Polygon","coordinates":[[[130.9,33.53333333333334],[130.8875,33.53333333333334],[130.8875,33.541666666666664],[130.9,33.541666666666664],[130.9,33.53333333333334]]]}},{"type":"Feature","id":"40602:50302742","properties":{"id":"40602:50302742","meshCode":"50302742","cityCode":"40602","city":"添田町","lat":33.5375,"lon":130.90625,"areaKm2":1.0729093,"populated2020":true,"population2020":14.1097,"populationNote":"収録500mメッシュ人口の合算（原典収録外は補完しない）"},"geometry":{"type":"Polygon","coordinates":[[[130.9125,33.53333333333333],[130.9,33.53333333333334],[130.9,33.541666666666664],[130.9125,33.541666666666664],[130.9125,33.53333333333333]]]}},{"type":"Feature","id":"40602:50302743","properties":{"id":"40602:50302743","meshCode":"50302743","cityCode":"40602","city":"添田町","lat":33.5375,"lon":130.91875,"areaKm2":1.0729088,"populated2020":true,"population2020":35.4721,"populationNote":"収録500mメッシュ人口の合算（原典収録外は補完しない）"},"geometry":{"type":"Polygon","coordinates":[[[130.925,33.53333333333333],[130.9125,33.53333333333333],[130.9125,33.541666666666664],[130.925,33.54166666666667],[130.925,33.53333333333333]]]}},{"type":"Feature","id":"40602:50302744","properties":{"id":"40602:50302744","meshCode":"50302744","cityCode":"40602","city":"添田町","lat":33.5366761,"lon":130.927749,"areaKm2":0.4203036,"populated2020":false,"population2020":null,"populationNote":"境界またぎ・収録外等のため人口未集計"},"geometry":{"type":"Polygon","coordinates":[[[130.931351388,33.53609277499999],[130.931326109,33.53548944100001],[130.931678612,33.534115279000005],[130.932232218,33.53378916199999],[130.93244236088577,33.533333333333324],[130.925,33.53333333333333],[130.925,33.54166666666667],[130.9265131392757,33.54166666666667],[130.927203891,33.54063416200001],[130.927984449,33.540218892],[130.928343606,33.53957277500001],[130.928985551,33.53935527899999],[130.929488885,33.538594162],[130.929954163,33.538158892000006],[130.930155551,33.537852494999996],[130.930218612,33.53719972100001],[130.930457782,33.536893613000004],[130.931275837,33.536280559],[130.931351388,33.53609277499999]]]}},{"type":"Feature","id":"40602:50302656","properties":{"id":"40602:50302656","meshCode":"50302656","cityCode":"40602","city":"添田町","lat":33.5461044,"lon":130.8343602,"areaKm2":0.5307517,"populated2020":false,"population2020":null,"populationNote":"境界またぎ・収録外等のため人口未集計"},"geometry":{"type":"Polygon","coordinates":[[[130.83231988275153,33.541666666666664],[130.832699442,33.542299162],[130.832667782,33.542539721],[130.832240558,33.543175829],[130.831742503,33.54369277499999],[130.831545279,33.544052494999995],[130.831573061,33.545021108],[130.831398054,33.545423613],[130.831520272,33.545770829],[130.831509442,33.54610805400001],[130.830541946,33.546953613],[130.83019166,33.547637775],[130.830843061,33.54968055900001],[130.830877419,33.55],[130.8375,33.54999999999999],[130.8375,33.54166666666667],[130.83231988275153,33.541666666666664]]]}},{"type":"Feature","id":"40602:50302657","properties":{"id":"40602:50302657","meshCode":"50302657","cityCode":"40602","city":"添田町","lat":33.5458333,"lon":130.84375,"areaKm2":1.0728113,"populated2020":true,"population2020":203.8946,"populationNote":"収録500mメッシュ人口の合算（原典収録外は補完しない）"},"geometry":{"type":"Polygon","coordinates":[[[130.85,33.541666666666664],[130.8375,33.54166666666667],[130.8375,33.54999999999999],[130.85,33.55],[130.85,33.541666666666664]]]}},{"type":"Feature","id":"40602:50302658","properties":{"id":"40602:50302658","meshCode":"50302658","cityCode":"40602","city":"添田町","lat":33.5458333,"lon":130.85625,"areaKm2":1.0728104,"populated2020":true,"population2020":159.4801,"populationNote":"収録500mメッシュ人口の合算（原典収録外は補完しない）"},"geometry":{"type":"Polygon","coordinates":[[[130.8625,33.54166666666667],[130.85,33.541666666666664],[130.85,33.55],[130.8625,33.55],[130.8625,33.54166666666667]]]}},{"type":"Feature","id":"40602:50302659","properties":{"id":"40602:50302659","meshCode":"50302659","cityCode":"40602","city":"添田町","lat":33.5458333,"lon":130.86875,"areaKm2":1.0728096,"populated2020":true,"population2020":84.9832,"populationNote":"収録500mメッシュ人口の合算（原典収録外は補完しない）"},"geometry":{"type":"Polygon","coordinates":[[[130.875,33.541666666666664],[130.8625,33.54166666666667],[130.8625,33.55],[130.875,33.55],[130.875,33.541666666666664]]]}},{"type":"Feature","id":"40602:50302750","properties":{"id":"40602:50302750","meshCode":"50302750","cityCode":"40602","city":"添田町","lat":33.5458333,"lon":130.88125,"areaKm2":1.072809,"populated2020":true,"population2020":2.0279,"populationNote":"収録500mメッシュ人口の合算（原典収録外は補完しない）"},"geometry":{"type":"Polygon","coordinates":[[[130.8875,33.541666666666664],[130.875,33.541666666666664],[130.875,33.55],[130.8875,33.55],[130.8875,33.541666666666664]]]}},{"type":"Feature","id":"40602:50302751","properties":{"id":"40602:50302751","meshCode":"50302751","cityCode":"40602","city":"添田町","lat":33.5458333,"lon":130.89375,"areaKm2":1.0728084,"populated2020":true,"population2020":2.0224,"populationNote":"収録500mメッシュ人口の合算（原典収録外は補完しない）"},"geometry":{"type":"Polygon","coordinates":[[[130.9,33.541666666666664],[130.8875,33.541666666666664],[130.8875,33.55],[130.9,33.55],[130.9,33.541666666666664]]]}},{"type":"Feature","id":"40602:50302752","properties":{"id":"40602:50302752","meshCode":"50302752","cityCode":"40602","city":"添田町","lat":33.5458333,"lon":130.90625,"areaKm2":1.0728078,"populated2020":true,"population2020":5.0633,"populationNote":"収録500mメッシュ人口の合算（原典収録外は補完しない）"},"geometry":{"type":"Polygon","coordinates":[[[130.9125,33.541666666666664],[130.9,33.541666666666664],[130.9,33.55],[130.9125,33.54999999999999],[130.9125,33.541666666666664]]]}},{"type":"Feature","id":"40602:50302753","properties":{"id":"40602:50302753","meshCode":"50302753","cityCode":"40602","city":"添田町","lat":33.5455724,"lon":130.9181355,"areaKm2":0.9555181,"populated2020":false,"population2020":null,"populationNote":"境界またぎ・収録外等のため人口未集計"},"geometry":{"type":"Polygon","coordinates":[[[130.923946667,33.54557],[130.92427166,33.544984441],[130.924586394,33.544756946],[130.925,33.54426830599999],[130.925,33.54166666666667],[130.9125,33.541666666666664],[130.9125,33.54999999999999],[130.921375473,33.550000000000004],[130.92168166,33.549284441000005],[130.922336109,33.548483892],[130.922386394,33.548157495],[130.922499728,33.547989441000006],[130.922776394,33.547811387],[130.922927224,33.547092495],[130.923204163,33.546410559],[130.923946667,33.54557]]]}},{"type":"Feature","id":"40602:50302754","properties":{"id":"40602:50302754","meshCode":"50302754","cityCode":"40602","city":"添田町","lat":33.5426423,"lon":130.9254556,"areaKm2":0.0203442,"populated2020":false,"population2020":null,"populationNote":"境界またぎ・収録外等のため人口未集計"},"geometry":{"type":"Polygon","coordinates":[[[130.925,33.54426830599999],[130.925266109,33.544153892],[130.925593333,33.543570279],[130.925605837,33.543115559],[130.925908054,33.542423613],[130.9265131392757,33.54166666666667],[130.925,33.54166666666667],[130.925,33.54426830599999]]]}},{"type":"Feature","id":"40602:50302666","properties":{"id":"40602:50302666","meshCode":"50302666","cityCode":"40602","city":"添田町","lat":33.5539597,"lon":130.8344946,"areaKm2":0.5105182,"populated2020":true,"population2020":null,"populationNote":"境界またぎ・収録外等のため人口未集計"},"geometry":{"type":"Polygon","coordinates":[[[130.830877419,33.55],[130.830515837,33.55075138699999],[130.830628054,33.551414162],[130.830794449,33.551830279],[130.831468054,33.553161946],[130.83228083,33.553877775000004],[130.83239917,33.55417166699999],[130.832213333,33.55457194600001],[130.831788327,33.554658892],[130.831518054,33.554941387],[130.831549728,33.55525166700001],[130.832061388,33.55581],[130.831927497,33.556686946],[130.832155551,33.557927775],[130.83208055792622,33.55833333333334],[130.8375,33.558333333333344],[130.8375,33.54999999999999],[130.830877419,33.55]]]}},{"type":"Feature","id":"40602:50302667","properties":{"id":"40602:50302667","meshCode":"50302667","cityCode":"40602","city":"添田町","lat":33.5541667,"lon":130.84375,"areaKm2":1.0727099,"populated2020":true,"population2020":140.477,"populationNote":"収録500mメッシュ人口の合算（原典収録外は補完しない）"},"geometry":{"type":"Polygon","coordinates":[[[130.85,33.55],[130.8375,33.54999999999999],[130.8375,33.558333333333344],[130.85,33.55833333333334],[130.85,33.55]]]}},{"type":"Feature","id":"40602:50302668","properties":{"id":"40602:50302668","meshCode":"50302668","cityCode":"40602","city":"添田町","lat":33.5541667,"lon":130.85625,"areaKm2":1.0727088,"populated2020":true,"population2020":142.3749,"populationNote":"収録500mメッシュ人口の合算（原典収録外は補完しない）"},"geometry":{"type":"Polygon","coordinates":[[[130.8625,33.55],[130.85,33.55],[130.85,33.55833333333334],[130.8625,33.558333333333344],[130.8625,33.55]]]}},{"type":"Feature","id":"40602:50302669","properties":{"id":"40602:50302669","meshCode":"50302669","cityCode":"40602","city":"添田町","lat":33.5541667,"lon":130.86875,"areaKm2":1.0727081,"populated2020":true,"population2020":63.6731,"populationNote":"収録500mメッシュ人口の合算（原典収録外は補完しない）"},"geometry":{"type":"Polygon","coordinates":[[[130.875,33.55],[130.8625,33.55],[130.8625,33.558333333333344],[130.875,33.55833333333334],[130.875,33.55]]]}},{"type":"Feature","id":"40602:50302760","properties":{"id":"40602:50302760","meshCode":"50302760","cityCode":"40602","city":"添田町","lat":33.5541667,"lon":130.88125,"areaKm2":1.0727076,"populated2020":false,"population2020":null,"populationNote":"境界またぎ・収録外等のため人口未集計"},"geometry":{"type":"Polygon","coordinates":[[[130.8875,33.55],[130.875,33.55],[130.875,33.55833333333334],[130.8875,33.558333333333344],[130.8875,33.55]]]}},{"type":"Feature","id":"40602:50302761","properties":{"id":"40602:50302761","meshCode":"50302761","cityCode":"40602","city":"添田町","lat":33.5541667,"lon":130.89375,"areaKm2":1.0727068,"populated2020":true,"population2020":2.0063,"populationNote":"収録500mメッシュ人口の合算（原典収録外は補完しない）"},"geometry":{"type":"Polygon","coordinates":[[[130.9,33.55],[130.8875,33.55],[130.8875,33.558333333333344],[130.9,33.55833333333334],[130.9,33.55]]]}},{"type":"Feature","id":"40602:50302762","properties":{"id":"40602:50302762","meshCode":"50302762","cityCode":"40602","city":"添田町","lat":33.5541667,"lon":130.90625,"areaKm2":1.0727063,"populated2020":false,"population2020":null,"populationNote":"境界またぎ・収録外等のため人口未集計"},"geometry":{"type":"Polygon","coordinates":[[[130.9125,33.54999999999999],[130.9,33.55],[130.9,33.55833333333334],[130.9125,33.558333333333344],[130.9125,33.54999999999999]]]}},{"type":"Feature","id":"40602:50302763","properties":{"id":"40602:50302763","meshCode":"50302763","cityCode":"40602","city":"添田町","lat":33.554258,"lon":130.9168157,"areaKm2":0.7364377,"populated2020":false,"population2020":null,"populationNote":"境界またぎ・収録外等のため人口未集計"},"geometry":{"type":"Polygon","coordinates":[[[130.921416939,33.554637495],[130.92061166,33.553362225],[130.920410272,33.552709721],[130.920146109,33.552379161999994],[130.920007782,33.552013333],[130.920070558,33.551855],[130.920473333,33.551657225],[130.921001946,33.55040166700001],[130.921366939,33.550134721],[130.921375473,33.550000000000004],[130.9125,33.54999999999999],[130.9125,33.558333333333344],[130.92017557680978,33.558333333333344],[130.920573333,33.557808613],[130.92086917,33.557656666999996],[130.922026667,33.557451387],[130.922096394,33.55711916199999],[130.922348054,33.557030279],[130.922373333,33.55689166700001],[130.922209728,33.55660499999999],[130.921882776,33.556278613],[130.92169389100002,33.555576946],[130.921391946,33.555121946],[130.921416939,33.554637495]]]}},{"type":"Feature","id":"40602:50302676","properties":{"id":"40602:50302676","meshCode":"50302676","cityCode":"40602","city":"添田町","lat":33.5626674,"lon":130.834595,"areaKm2":0.4920805,"populated2020":true,"population2020":null,"populationNote":"境界またぎ・収録外等のため人口未集計"},"geometry":{"type":"Polygon","coordinates":[[[130.832061115,33.558539441],[130.832507497,33.559236946],[130.832740272,33.559909999999995],[130.832393061,33.56065805400001],[130.832016939,33.561040279000004],[130.832133333,33.561706387],[130.831982218,33.562547775],[130.831813061,33.562638054],[130.83093,33.562721667],[130.830615279,33.56297527899999],[130.830556667,33.563264162],[130.83088083,33.564190829],[130.83133083,33.564769162],[130.831454994,33.56560222499999],[130.831788612,33.56613277499999],[130.832074449,33.566462225],[130.83214824893457,33.56666666666668],[130.8375,33.56666666666668],[130.8375,33.558333333333344],[130.83208055792622,33.55833333333334],[130.832061115,33.558539441]]]}},{"type":"Feature","id":"40602:50302677","properties":{"id":"40602:50302677","meshCode":"50302677","cityCode":"40602","city":"添田町","lat":33.5625,"lon":130.84375,"areaKm2":1.0726084,"populated2020":true,"population2020":311.3084,"populationNote":"収録500mメッシュ人口の合算（原典収録外は補完しない）"},"geometry":{"type":"Polygon","coordinates":[[[130.85,33.55833333333334],[130.8375,33.558333333333344],[130.8375,33.56666666666668],[130.85,33.56666666666668],[130.85,33.55833333333334]]]}},{"type":"Feature","id":"40602:50302678","properties":{"id":"40602:50302678","meshCode":"50302678","cityCode":"40602","city":"添田町","lat":33.5625,"lon":130.85625,"areaKm2":1.0726075,"populated2020":true,"population2020":1296.4077,"populationNote":"収録500mメッシュ人口の合算（原典収録外は補完しない）"},"geometry":{"type":"Polygon","coordinates":[[[130.8625,33.558333333333344],[130.85,33.55833333333334],[130.85,33.56666666666668],[130.8625,33.56666666666668],[130.8625,33.558333333333344]]]}},{"type":"Feature","id":"40602:50302679","properties":{"id":"40602:50302679","meshCode":"50302679","cityCode":"40602","city":"添田町","lat":33.5625,"lon":130.86875,"areaKm2":1.0726068,"populated2020":true,"population2020":21.1686,"populationNote":"収録500mメッシュ人口の合算（原典収録外は補完しない）"},"geometry":{"type":"Polygon","coordinates":[[[130.875,33.55833333333334],[130.8625,33.558333333333344],[130.8625,33.56666666666668],[130.875,33.56666666666668],[130.875,33.55833333333334]]]}},{"type":"Feature","id":"40602:50302770","properties":{"id":"40602:50302770","meshCode":"50302770","cityCode":"40602","city":"添田町","lat":33.5625,"lon":130.88125,"areaKm2":1.072606,"populated2020":false,"population2020":null,"populationNote":"境界またぎ・収録外等のため人口未集計"},"geometry":{"type":"Polygon","coordinates":[[[130.8875,33.558333333333344],[130.875,33.55833333333334],[130.875,33.56666666666668],[130.8875,33.56666666666668],[130.8875,33.558333333333344]]]}},{"type":"Feature","id":"40602:50302771","properties":{"id":"40602:50302771","meshCode":"50302771","cityCode":"40602","city":"添田町","lat":33.5625,"lon":130.89375,"areaKm2":1.0726052,"populated2020":true,"population2020":35.336,"populationNote":"収録500mメッシュ人口の合算（原典収録外は補完しない）"},"geometry":{"type":"Polygon","coordinates":[[[130.9,33.55833333333334],[130.8875,33.558333333333344],[130.8875,33.56666666666668],[130.9,33.56666666666668],[130.9,33.55833333333334]]]}},{"type":"Feature","id":"40602:50302772","properties":{"id":"40602:50302772","meshCode":"50302772","cityCode":"40602","city":"添田町","lat":33.5623668,"lon":130.9060582,"areaKm2":1.0330274,"populated2020":false,"population2020":null,"populationNote":"境界またぎ・収録外等のため人口未集計"},"geometry":{"type":"Polygon","coordinates":[[[130.9125,33.558333333333344],[130.9,33.55833333333334],[130.9,33.56666666666668],[130.90890891143584,33.56666666666668],[130.909741115,33.56610138700001],[130.910537224,33.565744162],[130.911344449,33.56515444099999],[130.911924163,33.564859721000005],[130.9125,33.56479299125625],[130.9125,33.558333333333344]]]}},{"type":"Feature","id":"40602:50302773","properties":{"id":"40602:50302773","meshCode":"50302773","cityCode":"40602","city":"添田町","lat":33.5606697,"lon":130.9150902,"areaKm2":0.2756137,"populated2020":false,"population2020":null,"populationNote":"境界またぎ・収録外等のため人口未集計"},"geometry":{"type":"Polygon","coordinates":[[[130.918481388,33.559845279],[130.919186109,33.559889721],[130.919493333,33.55973805400001],[130.91986861200002,33.55915722500001],[130.92017557680978,33.558333333333344],[130.9125,33.558333333333344],[130.9125,33.56479299125625],[130.913163606,33.564493613],[130.913424994,33.564484721],[130.914073333,33.56470805399999],[130.914403061,33.56472582899999],[130.914425837,33.564315],[130.914922776,33.563668054000004],[130.91510472100003,33.563194721],[130.915218327,33.562462225],[130.915365837,33.56223],[130.91665083,33.561068891999994],[130.91723083,33.56013110799999],[130.917401388,33.559988054],[130.91764,33.560148892],[130.917958327,33.560166667000004],[130.918481388,33.559845279]]]}},{"type":"Feature","id":"40602:50302686","properties":{"id":"40602:50302686","meshCode":"50302686","cityCode":"40602","city":"添田町","lat":33.568812,"lon":130.8357251,"areaKm2":0.1240553,"populated2020":true,"population2020":null,"populationNote":"境界またぎ・収録外等のため人口未集計"},"geometry":{"type":"MultiPolygon","coordinates":[[[[130.83215333300004,33.566692495],[130.832134994,33.567252225],[130.832206109,33.567376108],[130.834485837,33.56817833299999],[130.83535166,33.56863194600001],[130.835840272,33.569276386999995],[130.836490272,33.569810829],[130.836677782,33.569829441],[130.837136667,33.569290829],[130.8375,33.569337199149686],[130.8375,33.56666666666668],[130.83215333300004,33.566692495]]],[[[130.837282776,33.572669162],[130.836845279,33.572776387000005],[130.836553606,33.573458333],[130.836444994,33.574045000000005],[130.836625551,33.574359162],[130.836652866,33.57500000000001],[130.8375,33.57500000000001],[130.8375,33.572538487562376],[130.837282776,33.572669162]]]]}},{"type":"Feature","id":"40602:50302687","properties":{"id":"40602:50302687","meshCode":"50302687","cityCode":"40602","city":"添田町","lat":33.5708347,"lon":130.8439104,"areaKm2":1.0433614,"populated2020":true,"population2020":540.2993,"populationNote":"収録500mメッシュ人口の合算（原典収録外は補完しない）"},"geometry":{"type":"Polygon","coordinates":[[[130.838298612,33.56960000000001],[130.838653606,33.56996305399999],[130.838721115,33.57068138700001],[130.838458054,33.571487225],[130.83789166,33.572277225],[130.8375,33.572538487562376],[130.8375,33.57500000000001],[130.85,33.575],[130.85,33.56666666666668],[130.8375,33.56666666666668],[130.8375,33.569337199149686],[130.838298612,33.56960000000001]]]}},{"type":"Feature","id":"40602:50302688","properties":{"id":"40602:50302688","meshCode":"50302688","cityCode":"40602","city":"添田町","lat":33.5708333,"lon":130.85625,"areaKm2":1.072506,"populated2020":true,"population2020":1558.5974,"populationNote":"収録500mメッシュ人口の合算（原典収録外は補完しない）"},"geometry":{"type":"Polygon","coordinates":[[[130.8625,33.56666666666668],[130.85,33.56666666666668],[130.85,33.575],[130.8625,33.575],[130.8625,33.56666666666668]]]}},{"type":"Feature","id":"40602:50302689","properties":{"id":"40602:50302689","meshCode":"50302689","cityCode":"40602","city":"添田町","lat":33.5706636,"lon":130.8684527,"areaKm2":1.0142525,"populated2020":true,"population2020":32.3182,"populationNote":"収録500mメッシュ人口の合算（原典収録外は補完しない）"},"geometry":{"type":"Polygon","coordinates":[[[130.875,33.56666666666668],[130.8625,33.56666666666668],[130.8625,33.575],[130.871864306,33.57500000000001],[130.872633333,33.57421249499999],[130.872633333,33.57412110800001],[130.873068885,33.573771667],[130.874231388,33.57154138700001],[130.874303061,33.571558333],[130.874523606,33.572196946],[130.875,33.57246038699999],[130.875,33.56666666666668]]]}},{"type":"Feature","id":"40602:50302780","properties":{"id":"40602:50302780","meshCode":"50302780","cityCode":"40602","city":"添田町","lat":33.5707028,"lon":130.8814525,"areaKm2":1.0321169,"populated2020":true,"population2020":49.5359,"populationNote":"収録500mメッシュ人口の合算（原典収録外は補完しない）"},"geometry":{"type":"Polygon","coordinates":[[[130.8875,33.56666666666668],[130.875,33.56666666666668],[130.875,33.57246038699999],[130.875628612,33.572794721],[130.87580083,33.572986387],[130.876403606,33.574170559],[130.87656166,33.574176108],[130.87682,33.574035279],[130.87702083,33.574057775],[130.878022218,33.574693613],[130.878349222,33.575],[130.8875,33.575],[130.8875,33.56666666666668]]]}},{"type":"Feature","id":"40602:50302781","properties":{"id":"40602:50302781","meshCode":"50302781","cityCode":"40602","city":"添田町","lat":33.5708039,"lon":130.8937078,"areaKm2":1.0644726,"populated2020":true,"population2020":2.0164,"populationNote":"収録500mメッシュ人口の合算（原典収録外は補完しない）"},"geometry":{"type":"Polygon","coordinates":[[[130.9,33.56666666666668],[130.8875,33.56666666666668],[130.8875,33.575],[130.898114643,33.575],[130.899142503,33.574523333],[130.9,33.574236027],[130.9,33.56666666666668]]]}},{"type":"Feature","id":"40602:50302782","properties":{"id":"40602:50302782","meshCode":"50302782","cityCode":"40602","city":"添田町","lat":33.569462,"lon":130.9026709,"areaKm2":0.3424851,"populated2020":false,"population2020":null,"populationNote":"境界またぎ・収録外等のため人口未集計"},"geometry":{"type":"Polygon","coordinates":[[[130.906904994,33.56751777499999],[130.90787166,33.567303333],[130.908292218,33.567133613],[130.908655837,33.566919441],[130.90890891143584,33.56666666666668],[130.9,33.56666666666668],[130.9,33.574236027],[130.901686394,33.573829721],[130.901891115,33.573159721],[130.902357224,33.57286499999999],[130.902664163,33.57247194600001],[130.903312218,33.572105559],[130.903584994,33.57182],[130.903675837,33.571117495],[130.904016939,33.570724441],[130.904505837,33.569929441000006],[130.905040272,33.569572225],[130.905608885,33.56942916199999],[130.905768054,33.569233054],[130.90563166,33.56808055900001],[130.905756667,33.567893054],[130.906904994,33.56751777499999]]]}},{"type":"Feature","id":"40602:50302696","properties":{"id":"40602:50302696","meshCode":"50302696","cityCode":"40602","city":"添田町","lat":33.5811286,"lon":130.8356817,"areaKm2":0.1588727,"populated2020":true,"population2020":null,"populationNote":"境界またぎ・収録外等のため人口未集計"},"geometry":{"type":"MultiPolygon","coordinates":[[[[130.836654449,33.575605559],[130.836884449,33.576477495],[130.836759442,33.57708777500001],[130.837090272,33.577574162],[130.83713166,33.577958333000005],[130.8375,33.57831564482323],[130.8375,33.57500000000001],[130.836652866,33.57500000000001],[130.836654449,33.575605559]]],[[[130.8372431596754,33.579166666666666],[130.835981115,33.58024],[130.834910272,33.580818892],[130.833393333,33.581497494999994],[130.833009442,33.581767225],[130.832497782,33.58231000000001],[130.83240858595676,33.58333333333334],[130.8375,33.583333333333336],[130.8375,33.57861822096098],[130.8372431596754,33.579166666666666]]]]}},{"type":"Feature","id":"40602:50302697","properties":{"id":"40602:50302697","meshCode":"50302697","cityCode":"40602","city":"添田町","lat":33.5791667,"lon":130.8437505,"areaKm2":1.0723265,"populated2020":true,"population2020":697.8343,"populationNote":"収録500mメッシュ人口の合算（原典収録外は補完しない）"},"geometry":{"type":"Polygon","coordinates":[[[130.8375,33.57500000000001],[130.8375,33.583333333333336],[130.85,33.583333333333336],[130.85,33.575],[130.8375,33.57500000000001]]]}},{"type":"Feature","id":"40602:50302698","properties":{"id":"40602:50302698","meshCode":"50302698","cityCode":"40602","city":"添田町","lat":33.5789852,"lon":130.8559936,"areaKm2":1.0174691,"populated2020":true,"population2020":null,"populationNote":"境界またぎ・収録外等のため人口未集計"},"geometry":{"type":"Polygon","coordinates":[[[130.8625,33.575],[130.85,33.575],[130.85,33.583333333333336],[130.85870571959052,33.58333333333333],[130.859088612,33.58285944099999],[130.859336667,33.582308613000016],[130.859836109,33.582193613],[130.860131388,33.581991386999995],[130.861686939,33.581401108],[130.8625,33.581347739464725],[130.8625,33.575]]]}},{"type":"Feature","id":"40602:50302699","properties":{"id":"40602:50302699","meshCode":"50302699","cityCode":"40602","city":"添田町","lat":33.5785586,"lon":130.8666984,"areaKm2":0.6192402,"populated2020":false,"population2020":null,"populationNote":"境界またぎ・収録外等のため人口未集計"},"geometry":{"type":"Polygon","coordinates":[[[130.870147782,33.579083892],[130.87072778200002,33.57805277500001],[130.871037497,33.577663054],[130.871475279,33.577610829],[130.871600272,33.577522225],[130.871630272,33.57722499999999],[130.87142917,33.576528333000006],[130.87134166,33.575835278999996],[130.871483891,33.57550194600001],[130.871864306,33.57500000000001],[130.8625,33.575],[130.8625,33.581347739464725],[130.864600272,33.581822225],[130.865237224,33.582086387],[130.865684449,33.582470559],[130.866024994,33.583079162000004],[130.86653238764805,33.583333333333336],[130.868879780017,33.583333333333336],[130.868853061,33.58243499999999],[130.86921083000001,33.581625],[130.869551388,33.58115472099999],[130.870172776,33.580678333],[130.870218885,33.580560829],[130.870147782,33.579083892]]]}},{"type":"Feature","id":"40602:50302790","properties":{"id":"40602:50302790","meshCode":"50302790","cityCode":"40602","city":"添田町","lat":33.5767269,"lon":130.8848887,"areaKm2":0.1842384,"populated2020":true,"population2020":null,"populationNote":"境界またぎ・収録外等のため人口未集計"},"geometry":{"type":"Polygon","coordinates":[[[130.878840272,33.575263054],[130.880569728,33.575618333],[130.881628612,33.57554749500001],[130.882970272,33.575835],[130.883982218,33.575891387000006],[130.88414,33.576009721],[130.884183061,33.576190279],[130.884096939,33.576562495],[130.883745279,33.577312225],[130.883458327,33.57769555899999],[130.882622776,33.578350279000006],[130.882736667,33.57847527899999],[130.883464163,33.578886387],[130.884248885,33.578823891999996],[130.885374449,33.578573891999994],[130.8875,33.57919695732161],[130.8875,33.575],[130.878349222,33.575],[130.878840272,33.575263054]]]}},{"type":"Feature","id":"40602:50302791","properties":{"id":"40602:50302791","meshCode":"50302791","cityCode":"40602","city":"添田町","lat":33.5770592,"lon":130.8916959,"areaKm2":0.3867704,"populated2020":false,"population2020":null,"populationNote":"境界またぎ・収録外等のため人口未集計"},"geometry":{"type":"Polygon","coordinates":[[[130.894350558,33.578598054],[130.895089442,33.57840166700001],[130.896533606,33.577213613],[130.897346394,33.575461108],[130.89756221800002,33.57527361299999],[130.898114643,33.575],[130.8875,33.575],[130.8875,33.57919695732161],[130.888012218,33.579502775],[130.888517497,33.580179162],[130.888836109,33.58041138699999],[130.889336394,33.580563054],[130.889756939,33.580429162],[130.89054166,33.579866387],[130.890905551,33.57925889199999],[130.891826394,33.578642775000006],[130.892292503,33.57852666699999],[130.89325888500002,33.578481946],[130.894350558,33.578598054]]]}},{"type":"Feature","id":"40602:50303606","properties":{"id":"40602:50303606","meshCode":"50303606","cityCode":"40602","city":"添田町","lat":33.5868754,"lon":130.835181,"areaKm2":0.3244092,"populated2020":true,"population2020":null,"populationNote":"境界またぎ・収録外等のため人口未集計"},"geometry":{"type":"Polygon","coordinates":[[[130.83240858595676,33.58333333333334],[130.832274721,33.58398305400001],[130.831821388,33.584338054],[130.831880272,33.584503333],[130.832285279,33.584938892000004],[130.832851388,33.58533749499999],[130.833702776,33.585212495],[130.834296394,33.585413054],[130.834331115,33.585479162],[130.833798054,33.586632495],[130.833773606,33.586990279],[130.833903333,33.587456387],[130.833210558,33.588627495],[130.832896394,33.58884249500001],[130.8328,33.58929972100002],[130.832278054,33.590162495],[130.83288917,33.590570829],[130.833376109,33.59026500000001],[130.833804994,33.590541108],[130.835974994,33.591068054],[130.836343891,33.590869440999995],[130.836328054,33.590300279],[130.836430558,33.590145279],[130.8375,33.589103333760804],[130.8375,33.583333333333336],[130.83240858595676,33.58333333333334]]]}},{"type":"Feature","id":"40602:50303607","properties":{"id":"40602:50303607","meshCode":"50303607","cityCode":"40602","city":"添田町","lat":33.5854518,"lon":130.8435949,"areaKm2":0.5342887,"populated2020":true,"population2020":null,"populationNote":"境界またぎ・収録外等のため人口未集計"},"geometry":{"type":"Polygon","coordinates":[[[130.83955917,33.587454721],[130.841441946,33.587522225],[130.842354994,33.58807222500001],[130.844427224,33.586761667000005],[130.845307224,33.586043613],[130.847478612,33.58765416200001],[130.848813606,33.588021387],[130.849136667,33.587723892],[130.849336939,33.587702775],[130.85,33.587938667],[130.85,33.583333333333336],[130.8375,33.583333333333336],[130.8375,33.589103333760804],[130.83788166,33.588501946],[130.83826917,33.588101667],[130.838823061,33.588015279],[130.83955917,33.587454721]]]}},{"type":"Feature","id":"40602:50303608","properties":{"id":"40602:50303608","meshCode":"50303608","cityCode":"40602","city":"添田町","lat":33.586801,"lon":130.8538578,"areaKm2":0.5055336,"populated2020":true,"population2020":null,"populationNote":"境界またぎ・収録外等のため人口未集計"},"geometry":{"type":"Polygon","coordinates":[[[130.85654,33.588488333],[130.857012503,33.587046387],[130.857371115,33.586898613],[130.857786109,33.586479162],[130.857857224,33.585690279000005],[130.857178327,33.584585559],[130.856979442,33.583637495],[130.857888327,33.58362582899999],[130.85870571959052,33.58333333333333],[130.85,33.583333333333336],[130.85,33.587938667],[130.851363606,33.588426667],[130.852653891,33.590426387],[130.853513606,33.591131387],[130.853547224,33.591378333000016],[130.85413499332049,33.591666666666676],[130.85548839247954,33.591666666666676],[130.85624416300004,33.59113805399999],[130.856389728,33.590717775],[130.856137782,33.589503613000005],[130.856474449,33.589005279],[130.85654,33.588488333]]]}},{"type":"Feature","id":"40602:50303609","properties":{"id":"40602:50303609","meshCode":"50303609","cityCode":"40602","city":"添田町","lat":33.5837756,"lon":130.8679958,"areaKm2":0.0172037,"populated2020":false,"population2020":null,"populationNote":"境界またぎ・収録外等のため人口未集計"},"geometry":{"type":"Polygon","coordinates":[[[130.868868327,33.584027494999994],[130.868879780017,33.583333333333336],[130.86653238764805,33.583333333333336],[130.866812776,33.583485829],[130.868061388,33.58450666700001],[130.868685551,33.584225559000004],[130.868868327,33.584027494999994]]]}},{"type":"Feature","id":"40602:50303618","properties":{"id":"40602:50303618","meshCode":"50303618","cityCode":"40602","city":"添田町","lat":33.5917834,"lon":130.8548465,"areaKm2":0.0025224,"populated2020":true,"population2020":null,"populationNote":"境界またぎ・収録外等のため人口未集計"},"geometry":{"type":"Polygon","coordinates":[[[130.85413499332049,33.591666666666676],[130.854886109,33.592007495],[130.85548839247954,33.591666666666676],[130.85413499332049,33.591666666666676]]]}}]}