{"type":"FeatureCollection","metadata":{"cityCode":"40605","city":"川崎町","resolution":1000,"boundaryDate":"2026-01-01","populationLabel":"2020年基準人口（国交省調整値）","method":"標準地域メッシュを行政界で切抜き。中心が区域外のとき区域内代表点を判定点にする。人口不明をゼロにしない。"},"features":[{"type":"Feature","id":"40605:50302614","properties":{"id":"40605:50302614","meshCode":"50302614","cityCode":"40605","city":"川崎町","lat":33.5140035,"lon":130.8079112,"areaKm2":0.4096807,"populated2020":false,"population2020":null,"populationNote":"境界またぎ・収録外等のため人口未集計"},"geometry":{"type":"Polygon","coordinates":[[[130.810725837,33.512344441],[130.811089442,33.510611946],[130.81083917,33.510033892],[130.810335279,33.509671387000004],[130.809136667,33.510861387],[130.808921946,33.511321108],[130.808311388,33.511642495],[130.806504994,33.51177110799999],[130.804068612,33.511200279],[130.804293606,33.512851108],[130.804285837,33.51407638700001],[130.803633606,33.51494916200001],[130.803598054,33.515145],[130.803646109,33.515302775],[130.804262776,33.516045829],[130.8042410510697,33.516666666666666],[130.8125,33.51666666666667],[130.8125,33.51562917734483],[130.812149442,33.515457495],[130.811722218,33.515393054],[130.811188327,33.514686946000005],[130.810976667,33.514012225],[130.810748885,33.513615279],[130.810884449,33.51274],[130.810725837,33.512344441]]]}},{"type":"Feature","id":"40605:50302615","properties":{"id":"40605:50302615","meshCode":"50302615","cityCode":"40605","city":"川崎町","lat":33.5162714,"lon":130.8130666,"areaKm2":0.010243,"populated2020":false,"population2020":null,"populationNote":"境界またぎ・収録外等のため人口未集計"},"geometry":{"type":"Polygon","coordinates":[[[130.81399499374731,33.51666666666667],[130.813727782,33.516303892],[130.813083333,33.515793333],[130.8125,33.51562917734483],[130.8125,33.51666666666667],[130.81399499374731,33.51666666666667]]]}},{"type":"Feature","id":"40605:50302624","properties":{"id":"40605:50302624","meshCode":"50302624","cityCode":"40605","city":"川崎町","lat":33.5208099,"lon":130.8083275,"areaKm2":0.7159135,"populated2020":false,"population2020":null,"populationNote":"境界またぎ・収録外等のため人口未集計"},"geometry":{"type":"Polygon","coordinates":[[[130.80416166,33.516890559],[130.803691388,33.517340559000004],[130.803645279,33.51747722499999],[130.804373333,33.518502495],[130.804458054,33.51961833300001],[130.803860558,33.520200559],[130.803790558,33.520512225],[130.804268612,33.521640279],[130.804055837,33.522135279],[130.804211946,33.52278916200001],[130.804306939,33.524331108000005],[130.80457,33.525],[130.8125,33.525],[130.8125,33.51666666666667],[130.8042410510697,33.516666666666666],[130.80416166,33.516890559]]]}},{"type":"Feature","id":"40605:50302625","properties":{"id":"40605:50302625","meshCode":"50302625","cityCode":"40605","city":"川崎町","lat":33.5214232,"lon":130.818331,"areaKm2":0.9070456,"populated2020":false,"population2020":null,"populationNote":"境界またぎ・収録外等のため人口未集計"},"geometry":{"type":"Polygon","coordinates":[[[130.818521115,33.517630000000004],[130.817367497,33.51781444099999],[130.816745279,33.51777194600001],[130.814769442,33.517338613],[130.814318327,33.51703027900001],[130.81399499374731,33.51666666666667],[130.8125,33.51666666666667],[130.8125,33.525],[130.825,33.525],[130.825,33.519843667],[130.823118054,33.519341108],[130.821408612,33.517894441],[130.821074721,33.517813053999994],[130.819975279,33.51791666700001],[130.819385837,33.517880559],[130.818521115,33.517630000000004]]]}},{"type":"Feature","id":"40605:50302626","properties":{"id":"40605:50302626","meshCode":"50302626","cityCode":"40605","city":"川崎町","lat":33.5228207,"lon":130.8262021,"areaKm2":0.1165551,"populated2020":false,"population2020":null,"populationNote":"境界またぎ・収録外等のため人口未集計"},"geometry":{"type":"Polygon","coordinates":[[[130.827104994,33.52093833299999],[130.82585166,33.520315829],[130.825502503,33.52004110800001],[130.825,33.519843667],[130.825,33.525],[130.828084475,33.525000000000006],[130.827488054,33.523403613000006],[130.827346394,33.521950559],[130.827104994,33.52093833299999]]]}},{"type":"Feature","id":"40605:50302634","properties":{"id":"40605:50302634","meshCode":"50302634","cityCode":"40605","city":"川崎町","lat":33.5290656,"lon":130.8089039,"areaKm2":0.6141451,"populated2020":true,"population2020":1.0042,"populationNote":"収録500mメッシュ人口の合算（原典収録外は補完しない）"},"geometry":{"type":"Polygon","coordinates":[[[130.804828327,33.525666108],[130.804691946,33.52644055900001],[130.80517083,33.528197774999995],[130.805601946,33.528830559000006],[130.805943333,33.529947494999995],[130.806086394,33.53086749500002],[130.806422218,33.53109222500001],[130.806476109,33.531219441],[130.80615,33.53159055900001],[130.805444994,33.53174277499999],[130.805314163,33.531847495],[130.805228612,33.531996387],[130.8050866669923,33.53333333333334],[130.8125,33.53333333333333],[130.8125,33.525],[130.80457,33.525],[130.804828327,33.525666108]]]}},{"type":"Feature","id":"40605:50302635","properties":{"id":"40605:50302635","meshCode":"50302635","cityCode":"40605","city":"川崎町","lat":33.5291667,"lon":130.81875,"areaKm2":1.0730164,"populated2020":true,"population2020":24.4129,"populationNote":"収録500mメッシュ人口の合算（原典収録外は補完しない）"},"geometry":{"type":"Polygon","coordinates":[[[130.825,33.525],[130.8125,33.525],[130.8125,33.53333333333333],[130.825,33.533333333333324],[130.825,33.525]]]}},{"type":"Feature","id":"40605:50302636","properties":{"id":"40605:50302636","meshCode":"50302636","cityCode":"40605","city":"川崎町","lat":33.5297701,"lon":130.8276288,"areaKm2":0.4231902,"populated2020":false,"population2020":null,"populationNote":"境界またぎ・収録外等のため人口未集計"},"geometry":{"type":"Polygon","coordinates":[[[130.82971221800003,33.528996108],[130.829074449,33.528270559],[130.828594994,33.526362495],[130.828078327,33.525975559],[130.827881115,33.525662225],[130.828191946,33.52527027900001],[130.828084475,33.525000000000006],[130.825,33.525],[130.825,33.533333333333324],[130.83147786005608,33.53333333333333],[130.831425279,33.532919721],[130.831599442,33.532099162],[130.831373333,33.531554162000006],[130.830871946,33.531186108],[130.830824994,33.530861667],[130.830958612,33.53045527900001],[130.830933606,33.52992361300001],[130.830533606,33.529418054],[130.82971221800003,33.528996108]]]}},{"type":"Feature","id":"40605:50302644","properties":{"id":"40605:50302644","meshCode":"50302644","cityCode":"40605","city":"川崎町","lat":33.5378438,"lon":130.8085525,"areaKm2":0.6574073,"populated2020":false,"population2020":null,"populationNote":"境界またぎ・収録外等のため人口未集計"},"geometry":{"type":"Polygon","coordinates":[[[130.805185279,33.533823333],[130.806188327,33.534653612999996],[130.806404721,33.535024721],[130.806532776,33.536089999999994],[130.806714449,33.536491946],[130.806678885,33.536843892],[130.806144994,33.537153892],[130.805076394,33.537394162],[130.803613333,33.538491666999995],[130.803444994,33.539281667],[130.80351527900004,33.539760559],[130.803443061,33.540515000000006],[130.803114994,33.54109082899999],[130.8030937739431,33.54166666666667],[130.8125,33.541666666666664],[130.8125,33.53333333333333],[130.8050866669923,33.53333333333334],[130.805185279,33.533823333]]]}},{"type":"Feature","id":"40605:50302645","properties":{"id":"40605:50302645","meshCode":"50302645","cityCode":"40605","city":"川崎町","lat":33.5375,"lon":130.81875,"areaKm2":1.0729148,"populated2020":true,"population2020":45.735,"populationNote":"収録500mメッシュ人口の合算（原典収録外は補完しない）"},"geometry":{"type":"Polygon","coordinates":[[[130.825,33.533333333333324],[130.8125,33.53333333333333],[130.8125,33.541666666666664],[130.825,33.541666666666664],[130.825,33.533333333333324]]]}},{"type":"Feature","id":"40605:50302646","properties":{"id":"40605:50302646","meshCode":"50302646","cityCode":"40605","city":"川崎町","lat":33.5375361,"lon":130.8283786,"areaKm2":0.5793081,"populated2020":true,"population2020":null,"populationNote":"境界またぎ・収録外等のため人口未集計"},"geometry":{"type":"Polygon","coordinates":[[[130.831206939,33.536268333],[130.83187722400004,33.534942224999995],[130.831952503,33.534323892],[130.831801388,33.533952495],[130.831556939,33.53368694600001],[130.83147786005608,33.53333333333333],[130.825,33.533333333333324],[130.825,33.541666666666664],[130.83231988275153,33.541666666666664],[130.832154163,33.541412494999996],[130.832104163,33.541019721],[130.831698054,33.540303054000006],[130.83185917,33.53874027900001],[130.831694449,33.53803889200001],[130.83197166,33.537373892],[130.831206939,33.536268333]]]}},{"type":"Feature","id":"40605:50302654","properties":{"id":"40605:50302654","meshCode":"50302654","cityCode":"40605","city":"川崎町","lat":33.5460831,"lon":130.8073823,"areaKm2":0.8667078,"populated2020":true,"population2020":2.0279,"populationNote":"収録500mメッシュ人口の合算（原典収録外は補完しない）"},"geometry":{"type":"Polygon","coordinates":[[[130.803255279,33.542453333],[130.803716109,33.543490829],[130.803475551,33.543917775],[130.803063061,33.545197225],[130.802540558,33.54641055900001],[130.802668612,33.547234162],[130.802117224,33.547553892],[130.80137083,33.548123892],[130.800683061,33.548873333],[130.800084721,33.54908916200001],[130.8,33.549220279000004],[130.8,33.54999999999999],[130.8125,33.55],[130.8125,33.541666666666664],[130.8030937739431,33.54166666666667],[130.803255279,33.542453333]]]}},{"type":"Feature","id":"40605:50302655","properties":{"id":"40605:50302655","meshCode":"50302655","cityCode":"40605","city":"川崎町","lat":33.5458333,"lon":130.81875,"areaKm2":1.0728132,"populated2020":true,"population2020":99.672,"populationNote":"収録500mメッシュ人口の合算（原典収録外は補完しない）"},"geometry":{"type":"Polygon","coordinates":[[[130.825,33.541666666666664],[130.8125,33.541666666666664],[130.8125,33.55],[130.825,33.55],[130.825,33.541666666666664]]]}},{"type":"Feature","id":"40605:50302656","properties":{"id":"40605:50302656","meshCode":"50302656","cityCode":"40605","city":"川崎町","lat":33.5455679,"lon":130.8282047,"areaKm2":0.542061,"populated2020":false,"population2020":null,"populationNote":"境界またぎ・収録外等のため人口未集計"},"geometry":{"type":"Polygon","coordinates":[[[130.831520272,33.545770829],[130.831398054,33.545423613],[130.831573061,33.545021108],[130.831545279,33.544052494999995],[130.831742503,33.54369277499999],[130.832422503,33.542925279],[130.832697497,33.542421108],[130.832668885,33.542171946],[130.83231988275153,33.541666666666664],[130.825,33.541666666666664],[130.825,33.55],[130.830877419,33.55],[130.830843061,33.54968055900001],[130.83018,33.54769889200001],[130.830497497,33.547006667000005],[130.831509442,33.54610805400001],[130.831520272,33.545770829]]]}},{"type":"Feature","id":"40605:50302653","properties":{"id":"40605:50302653","meshCode":"50302653","cityCode":"40605","city":"川崎町","lat":33.5497385,"lon":130.7998664,"areaKm2":0.0016183,"populated2020":false,"population2020":null,"populationNote":"境界またぎ・収録外等のため人口未集計"},"geometry":{"type":"Polygon","coordinates":[[[130.8,33.549220279000004],[130.799691115,33.549834162],[130.79957808,33.55],[130.8,33.54999999999999],[130.8,33.549220279000004]]]}},{"type":"Feature","id":"40605:50302663","properties":{"id":"40605:50302663","meshCode":"50302663","cityCode":"40605","city":"川崎町","lat":33.5553662,"lon":130.7968553,"areaKm2":0.4280232,"populated2020":false,"population2020":null,"populationNote":"境界またぎ・収録外等のため人口未集計"},"geometry":{"type":"Polygon","coordinates":[[[130.799456394,33.55007249500001],[130.798533891,33.55019889199999],[130.798163606,33.550428054],[130.79780083,33.550781387],[130.797688327,33.551985279],[130.797317224,33.552415278999995],[130.797177497,33.552881667],[130.79598972800002,33.55336194600001],[130.79566083,33.553830559],[130.795408612,33.554461946],[130.79476917,33.554810559],[130.79385805400003,33.555171946],[130.792909728,33.555957775],[130.791543606,33.55607222500001],[130.791624449,33.557236667],[130.79159263306616,33.55833333333334],[130.8,33.558333333333344],[130.8,33.54999999999999],[130.79957808,33.55],[130.799456394,33.55007249500001]]]}},{"type":"Feature","id":"40605:50302664","properties":{"id":"40605:50302664","meshCode":"50302664","cityCode":"40605","city":"川崎町","lat":33.5541667,"lon":130.80625,"areaKm2":1.0727128,"populated2020":true,"population2020":46.8218,"populationNote":"収録500mメッシュ人口の合算（原典収録外は補完しない）"},"geometry":{"type":"Polygon","coordinates":[[[130.8125,33.55],[130.8,33.54999999999999],[130.8,33.558333333333344],[130.8125,33.558333333333344],[130.8125,33.55]]]}},{"type":"Feature","id":"40605:50302665","properties":{"id":"40605:50302665","meshCode":"50302665","cityCode":"40605","city":"川崎町","lat":33.5541667,"lon":130.81875,"areaKm2":1.0727117,"populated2020":true,"population2020":89.317,"populationNote":"収録500mメッシュ人口の合算（原典収録外は補完しない）"},"geometry":{"type":"Polygon","coordinates":[[[130.825,33.55],[130.8125,33.55],[130.8125,33.558333333333344],[130.825,33.558333333333344],[130.825,33.55]]]}},{"type":"Feature","id":"40605:50302666","properties":{"id":"40605:50302666","meshCode":"50302666","cityCode":"40605","city":"川崎町","lat":33.5543546,"lon":130.8283037,"areaKm2":0.5621923,"populated2020":true,"population2020":55.8942,"populationNote":"収録500mメッシュ人口の合算（原典収録外は補完しない）"},"geometry":{"type":"Polygon","coordinates":[[[130.831468054,33.553161946],[130.830628054,33.551414162],[130.830515837,33.55075138699999],[130.830877419,33.55],[130.825,33.55],[130.825,33.558333333333344],[130.83208055792622,33.55833333333334],[130.832155551,33.557927775],[130.831927497,33.556686946],[130.832061388,33.55581],[130.831549728,33.55525166700001],[130.831518054,33.554941387],[130.831788327,33.554658892],[130.832213333,33.55457194600001],[130.83239917,33.55417166699999],[130.83228083,33.553877775000004],[130.831468054,33.553161946]]]}},{"type":"Feature","id":"40605:50302673","properties":{"id":"40605:50302673","meshCode":"50302673","cityCode":"40605","city":"川崎町","lat":33.5628581,"lon":130.7948863,"areaKm2":0.8557253,"populated2020":true,"population2020":null,"populationNote":"境界またぎ・収録外等のため人口未集計"},"geometry":{"type":"Polygon","coordinates":[[[130.79159263306616,33.55833333333334],[130.792313891,33.560306667],[130.791925279,33.56076861299999],[130.791843333,33.56121222499999],[130.791703061,33.561312225],[130.791001946,33.561398333],[130.790727951,33.561864332999995],[130.789711115,33.561883054000006],[130.78945888500002,33.56195694600001],[130.789316667,33.56260110800001],[130.788965551,33.562712775],[130.788792503,33.562975559],[130.789039728,33.563978054],[130.788965551,33.564817775],[130.788697224,33.565262775],[130.788021946,33.565833054],[130.787866939,33.56615416199999],[130.787728327,33.566250829000005],[130.7875,33.566262478145205],[130.7875,33.56666666666668],[130.8,33.56666666666668],[130.8,33.558333333333344],[130.79159263306616,33.55833333333334]]]}},{"type":"Feature","id":"40605:50302674","properties":{"id":"40605:50302674","meshCode":"50302674","cityCode":"40605","city":"川崎町","lat":33.5625,"lon":130.80625,"areaKm2":1.0726112,"populated2020":true,"population2020":2.0419,"populationNote":"収録500mメッシュ人口の合算（原典収録外は補完しない）"},"geometry":{"type":"Polygon","coordinates":[[[130.8125,33.558333333333344],[130.8,33.558333333333344],[130.8,33.56666666666668],[130.8125,33.56666666666668],[130.8125,33.558333333333344]]]}},{"type":"Feature","id":"40605:50302675","properties":{"id":"40605:50302675","meshCode":"50302675","cityCode":"40605","city":"川崎町","lat":33.5625,"lon":130.81875,"areaKm2":1.0726102,"populated2020":true,"population2020":32.5965,"populationNote":"収録500mメッシュ人口の合算（原典収録外は補完しない）"},"geometry":{"type":"Polygon","coordinates":[[[130.825,33.558333333333344],[130.8125,33.558333333333344],[130.8125,33.56666666666668],[130.825,33.56666666666668],[130.825,33.558333333333344]]]}},{"type":"Feature","id":"40605:50302676","properties":{"id":"40605:50302676","meshCode":"50302676","cityCode":"40605","city":"川崎町","lat":33.5623581,"lon":130.8284146,"areaKm2":0.5805286,"populated2020":true,"population2020":null,"populationNote":"境界またぎ・収録外等のため人口未集計"},"geometry":{"type":"Polygon","coordinates":[[[130.83202555100002,33.562358613],[130.832133333,33.561706387],[130.832016939,33.561040279000004],[130.832393061,33.56065805400001],[130.832740272,33.559909999999995],[130.832507497,33.559236946],[130.832074721,33.558603892],[130.83208055792622,33.55833333333334],[130.825,33.558333333333344],[130.825,33.56666666666668],[130.83214824893457,33.56666666666668],[130.831454994,33.56560222499999],[130.83133083,33.564769162],[130.83088083,33.564190829],[130.830556667,33.563264162],[130.830615279,33.56297527899999],[130.830822218,33.562787775000004],[130.83103083,33.56269194600001],[130.831903333,33.562620279],[130.83202555100002,33.562358613]]]}},{"type":"Feature","id":"40605:50302672","properties":{"id":"40605:50302672","meshCode":"50302672","cityCode":"40605","city":"川崎町","lat":33.5665425,"lon":130.7872884,"areaKm2":0.0012093,"populated2020":true,"population2020":null,"populationNote":"境界またぎ・収録外等のため人口未集計"},"geometry":{"type":"Polygon","coordinates":[[[130.78749166,33.566263613000004],[130.787370558,33.566398891999995],[130.7869142542636,33.56666666666668],[130.7875,33.56666666666668],[130.78749166,33.566263613000004]]]}},{"type":"Feature","id":"40605:50302682","properties":{"id":"40605:50302682","meshCode":"50302682","cityCode":"40605","city":"川崎町","lat":33.568305,"lon":130.7866675,"areaKm2":0.0523744,"populated2020":false,"population2020":null,"populationNote":"境界またぎ・収録外等のため人口未集計"},"geometry":{"type":"Polygon","coordinates":[[[130.78514444900003,33.568310279],[130.785678327,33.568876387],[130.78635083,33.569141387],[130.78648832700003,33.569523892],[130.78681083,33.56993666700001],[130.787040558,33.570095279],[130.7875,33.57023459916486],[130.7875,33.56666666666668],[130.7869142542636,33.56666666666668],[130.786778054,33.566838613],[130.786005551,33.567248333],[130.78529861200002,33.568207225],[130.78514444900003,33.568310279]]]}},{"type":"Feature","id":"40605:50302683","properties":{"id":"40605:50302683","meshCode":"50302683","cityCode":"40605","city":"川崎町","lat":33.5703856,"lon":130.7944596,"areaKm2":0.9123789,"populated2020":true,"population2020":35.5596,"populationNote":"収録500mメッシュ人口の合算（原典収録外は補完しない）"},"geometry":{"type":"Polygon","coordinates":[[[130.788658327,33.570420559000006],[130.788841115,33.57058500000001],[130.789397224,33.571597774999994],[130.789639728,33.572636667],[130.789460558,33.573050279000014],[130.790775279,33.572977225],[130.791605551,33.573325829],[130.792341388,33.57339110800001],[130.792736667,33.573707495],[130.793422503,33.57454222500001],[130.794873696,33.575],[130.8,33.574999999999996],[130.8,33.56666666666668],[130.7875,33.56666666666668],[130.7875,33.57023459916486],[130.788658327,33.570420559000006]]]}},{"type":"Feature","id":"40605:50302684","properties":{"id":"40605:50302684","meshCode":"50302684","cityCode":"40605","city":"川崎町","lat":33.5708333,"lon":130.80625,"areaKm2":1.0725096,"populated2020":true,"population2020":110.0434,"populationNote":"収録500mメッシュ人口の合算（原典収録外は補完しない）"},"geometry":{"type":"Polygon","coordinates":[[[130.8125,33.56666666666668],[130.8,33.56666666666668],[130.8,33.574999999999996],[130.8125,33.575],[130.8125,33.56666666666668]]]}},{"type":"Feature","id":"40605:50302685","properties":{"id":"40605:50302685","meshCode":"50302685","cityCode":"40605","city":"川崎町","lat":33.5708333,"lon":130.81875,"areaKm2":1.0725086,"populated2020":true,"population2020":472.9358,"populationNote":"収録500mメッシュ人口の合算（原典収録外は補完しない）"},"geometry":{"type":"Polygon","coordinates":[[[130.825,33.56666666666668],[130.8125,33.56666666666668],[130.8125,33.575],[130.825,33.575],[130.825,33.56666666666668]]]}},{"type":"Feature","id":"40605:50302686","properties":{"id":"40605:50302686","meshCode":"50302686","cityCode":"40605","city":"川崎町","lat":33.5710977,"lon":130.8306647,"areaKm2":0.9484523,"populated2020":true,"population2020":216.9854,"populationNote":"収録500mメッシュ人口の合算（原典収録外は補完しない）"},"geometry":{"type":"Polygon","coordinates":[[[130.8375,33.569337199149686],[130.837136667,33.569290829],[130.836677782,33.569829441],[130.836490272,33.569810829],[130.835840272,33.569276386999995],[130.83535166,33.56863194600001],[130.834485837,33.56817833299999],[130.832206109,33.567376108],[130.832134994,33.567252225],[130.83214824893457,33.56666666666668],[130.825,33.56666666666668],[130.825,33.575],[130.836652866,33.57500000000001],[130.836625551,33.574359162],[130.836444994,33.574045000000005],[130.836648885,33.573113054],[130.836845279,33.572776387000005],[130.837178054,33.572715279],[130.8375,33.572538487562376],[130.8375,33.569337199149686]]]}},{"type":"Feature","id":"40605:50302687","properties":{"id":"40605:50302687","meshCode":"50302687","cityCode":"40605","city":"川崎町","lat":33.5707832,"lon":130.8380074,"areaKm2":0.0291453,"populated2020":true,"population2020":null,"populationNote":"境界またぎ・収録外等のため人口未集計"},"geometry":{"type":"Polygon","coordinates":[[[130.838721115,33.57068138700001],[130.838653606,33.56996305399999],[130.838528612,33.569790829],[130.838212218,33.56956138700001],[130.8375,33.569337199149686],[130.8375,33.572538487562376],[130.83789166,33.572277225],[130.838458054,33.571487225],[130.838721115,33.57068138700001]]]}},{"type":"Feature","id":"40605:50302693","properties":{"id":"40605:50302693","meshCode":"50302693","cityCode":"40605","city":"川崎町","lat":33.5784333,"lon":130.7972646,"areaKm2":0.4085739,"populated2020":false,"population2020":null,"populationNote":"境界またぎ・収録外等のため人口未集計"},"geometry":{"type":"Polygon","coordinates":[[[130.795117224,33.57510444100001],[130.795257497,33.575257495],[130.795223891,33.575480559],[130.794841388,33.575588333],[130.794306394,33.57602],[130.793929442,33.57615833300001],[130.79357166,33.576746108],[130.79305583700003,33.57727916200001],[130.793004994,33.57787416199999],[130.79287138800004,33.578195279],[130.793032776,33.57873166700001],[130.79386083,33.578965829],[130.794231115,33.579348333000006],[130.79480166,33.579655],[130.79513166,33.579923054],[130.796071388,33.580065559],[130.796414721,33.580361108000005],[130.797052503,33.581020559],[130.797443061,33.581930279000005],[130.797898054,33.582240279],[130.79795214000393,33.58333333333334],[130.8,33.583333333333336],[130.8,33.574999999999996],[130.794873696,33.575],[130.795117224,33.57510444100001]]]}},{"type":"Feature","id":"40605:50302694","properties":{"id":"40605:50302694","meshCode":"50302694","cityCode":"40605","city":"川崎町","lat":33.5791667,"lon":130.80625,"areaKm2":1.072408,"populated2020":true,"population2020":173.4248,"populationNote":"収録500mメッシュ人口の合算（原典収録外は補完しない）"},"geometry":{"type":"Polygon","coordinates":[[[130.8125,33.575],[130.8,33.574999999999996],[130.8,33.583333333333336],[130.8125,33.583333333333336],[130.8125,33.575]]]}},{"type":"Feature","id":"40605:50302695","properties":{"id":"40605:50302695","meshCode":"50302695","cityCode":"40605","city":"川崎町","lat":33.5791667,"lon":130.81875,"areaKm2":1.072407,"populated2020":true,"population2020":489.483,"populationNote":"収録500mメッシュ人口の合算（原典収録外は補完しない）"},"geometry":{"type":"Polygon","coordinates":[[[130.825,33.575],[130.8125,33.575],[130.8125,33.583333333333336],[130.825,33.583333333333336],[130.825,33.575]]]}},{"type":"Feature","id":"40605:50302696","properties":{"id":"40605:50302696","meshCode":"50302696","cityCode":"40605","city":"川崎町","lat":33.5788255,"lon":130.8304793,"areaKm2":0.9135332,"populated2020":true,"population2020":null,"populationNote":"境界またぎ・収録外等のため人口未集計"},"geometry":{"type":"Polygon","coordinates":[[[130.837313061,33.579050828999996],[130.8375,33.57861822096098],[130.8375,33.57831564482323],[130.83713166,33.577958333000005],[130.837090272,33.577574162],[130.836759442,33.57708777500001],[130.836884449,33.576477495],[130.836680558,33.575862495],[130.836652866,33.57500000000001],[130.825,33.575],[130.825,33.583333333333336],[130.83240858595676,33.58333333333334],[130.832497782,33.58231000000001],[130.833009442,33.581767225],[130.833393333,33.581497494999994],[130.834910272,33.580818892],[130.835981115,33.58024],[130.837068885,33.579351946],[130.837313061,33.579050828999996]]]}},{"type":"Feature","id":"40605:50302697","properties":{"id":"40605:50302697","meshCode":"50302697","cityCode":"40605","city":"川崎町","lat":33.5784676,"lon":130.8375154,"areaKm2":7.87e-05,"populated2020":true,"population2020":null,"populationNote":"境界またぎ・収録外等のため人口未集計"},"geometry":{"type":"Polygon","coordinates":[[[130.8375,33.57861822096098],[130.837542218,33.57845833299999],[130.8375,33.57831564482323],[130.8375,33.57861822096098]]]}},{"type":"Feature","id":"40605:50303603","properties":{"id":"40605:50303603","meshCode":"50303603","cityCode":"40605","city":"川崎町","lat":33.5872715,"lon":130.7988761,"areaKm2":0.1857582,"populated2020":true,"population2020":null,"populationNote":"境界またぎ・収録外等のため人口未集計"},"geometry":{"type":"Polygon","coordinates":[[[130.79795214000393,33.58333333333334],[130.797928612,33.584493054000006],[130.797547782,33.585103613],[130.797382218,33.585989162],[130.797611115,33.586557495],[130.797959442,33.587053612999995],[130.797913333,33.58746389200001],[130.797355837,33.587848613000006],[130.797368885,33.588872775],[130.797778054,33.589545558999994],[130.797915837,33.589951667],[130.79854416300003,33.590584162],[130.7988808949544,33.591666666666676],[130.8,33.59166666666667],[130.8,33.583333333333336],[130.79795214000393,33.58333333333334]]]}},{"type":"Feature","id":"40605:50303604","properties":{"id":"40605:50303604","meshCode":"50303604","cityCode":"40605","city":"川崎町","lat":33.5875,"lon":130.80625,"areaKm2":1.0723064,"populated2020":true,"population2020":207.4181,"populationNote":"収録500mメッシュ人口の合算（原典収録外は補完しない）"},"geometry":{"type":"Polygon","coordinates":[[[130.8125,33.583333333333336],[130.8,33.583333333333336],[130.8,33.59166666666667],[130.8125,33.591666666666676],[130.8125,33.583333333333336]]]}},{"type":"Feature","id":"40605:50303605","properties":{"id":"40605:50303605","meshCode":"50303605","cityCode":"40605","city":"川崎町","lat":33.5875,"lon":130.81875,"areaKm2":1.0723054,"populated2020":true,"population2020":806.4437,"populationNote":"収録500mメッシュ人口の合算（原典収録外は補完しない）"},"geometry":{"type":"Polygon","coordinates":[[[130.825,33.583333333333336],[130.8125,33.583333333333336],[130.8125,33.591666666666676],[130.825,33.591666666666676],[130.825,33.583333333333336]]]}},{"type":"Feature","id":"40605:50303606","properties":{"id":"40605:50303606","meshCode":"50303606","cityCode":"40605","city":"川崎町","lat":33.5877024,"lon":130.8293538,"areaKm2":0.7293229,"populated2020":true,"population2020":null,"populationNote":"境界またぎ・収録外等のため人口未集計"},"geometry":{"type":"Polygon","coordinates":[[[130.833903333,33.587456387],[130.833773606,33.586990279],[130.833798054,33.586632495],[130.834323333,33.585432495],[130.833702776,33.585212495],[130.832851388,33.58533749499999],[130.832208327,33.584863054],[130.831821388,33.584338054],[130.832274721,33.58398305400001],[130.83240858595676,33.58333333333334],[130.825,33.583333333333336],[130.825,33.591666666666676],[130.8373141627477,33.591666666666676],[130.83676306100003,33.591015],[130.836493606,33.59090749500001],[130.836343891,33.590869440999995],[130.835974994,33.591068054],[130.835393333,33.590960559],[130.833804994,33.590541108],[130.833376109,33.59026500000001],[130.83288917,33.590570829],[130.832278054,33.590162495],[130.8328,33.58929972100002],[130.832896394,33.58884249500001],[130.833210558,33.588627495],[130.833903333,33.587456387]]]}},{"type":"Feature","id":"40605:50303613","properties":{"id":"40605:50303613","meshCode":"50303613","cityCode":"40605","city":"川崎町","lat":33.5958344,"lon":130.7997932,"areaKm2":0.117199,"populated2020":true,"population2020":null,"populationNote":"境界またぎ・収録外等のため人口未集計"},"geometry":{"type":"Polygon","coordinates":[[[130.7988808949544,33.591666666666676],[130.79883,33.592488054],[130.798898327,33.592797775],[130.799053333,33.593043613000006],[130.799493333,33.593376946],[130.799742218,33.594148613],[130.799647782,33.594876387],[130.799717224,33.595260559],[130.799438327,33.596210279],[130.79939917,33.596752224999996],[130.799208054,33.59696694600001],[130.799194163,33.597117775],[130.799364163,33.597302495],[130.799385279,33.597509721],[130.79927444900002,33.59790055900001],[130.799153333,33.598028613],[130.798718054,33.597891946000004],[130.797914163,33.59803055900001],[130.796725551,33.597842495],[130.796429442,33.59908610800001],[130.796179442,33.599187225],[130.795985551,33.599415],[130.796114163,33.599761107999996],[130.796312866,33.6],[130.8,33.6],[130.8,33.59166666666667],[130.7988808949544,33.591666666666676]]]}},{"type":"Feature","id":"40605:50303614","properties":{"id":"40605:50303614","meshCode":"50303614","cityCode":"40605","city":"川崎町","lat":33.5958333,"lon":130.80625,"areaKm2":1.0722048,"populated2020":true,"population2020":519.7925,"populationNote":"収録500mメッシュ人口の合算（原典収録外は補完しない）"},"geometry":{"type":"Polygon","coordinates":[[[130.8125,33.591666666666676],[130.8,33.59166666666667],[130.8,33.6],[130.8125,33.6],[130.8125,33.591666666666676]]]}},{"type":"Feature","id":"40605:50303615","properties":{"id":"40605:50303615","meshCode":"50303615","cityCode":"40605","city":"川崎町","lat":33.5958333,"lon":130.81875,"areaKm2":1.0722036,"populated2020":true,"population2020":1997.9375,"populationNote":"収録500mメッシュ人口の合算（原典収録外は補完しない）"},"geometry":{"type":"Polygon","coordinates":[[[130.825,33.591666666666676],[130.8125,33.591666666666676],[130.8125,33.6],[130.825,33.6],[130.825,33.591666666666676]]]}},{"type":"Feature","id":"40605:50303616","properties":{"id":"40605:50303616","meshCode":"50303616","cityCode":"40605","city":"川崎町","lat":33.5958468,"lon":130.831223,"areaKm2":1.0674739,"populated2020":true,"population2020":1940.9276,"populationNote":"収録500mメッシュ人口の合算（原典収録外は補完しない）"},"geometry":{"type":"Polygon","coordinates":[[[130.8375,33.593620588567056],[130.837285279,33.593477494999995],[130.837069442,33.592864441],[130.837444994,33.592027775],[130.837468054,33.59187],[130.8373141627477,33.591666666666676],[130.825,33.591666666666676],[130.825,33.6],[130.8375,33.60000000000001],[130.8375,33.593620588567056]]]}},{"type":"Feature","id":"40605:50303617","properties":{"id":"40605:50303617","meshCode":"50303617","cityCode":"40605","city":"川崎町","lat":33.5972936,"lon":130.8390589,"areaKm2":0.1891883,"populated2020":true,"population2020":null,"populationNote":"境界またぎ・収録外等のため人口未集計"},"geometry":{"type":"Polygon","coordinates":[[[130.840003891,33.595649441],[130.840102218,33.59520889200001],[130.839967497,33.594768892000005],[130.839775837,33.594556108],[130.83936917,33.594349721],[130.838918054,33.59398],[130.8375,33.593620588567056],[130.8375,33.60000000000001],[130.841242192,33.6],[130.841317782,33.599732225],[130.841057782,33.599131667],[130.841216939,33.59884082899999],[130.841545279,33.598545829],[130.84149917,33.59837527900001],[130.840963333,33.597908613],[130.840261946,33.597065279],[130.84036917,33.596546946],[130.840330272,33.59632777499999],[130.840054449,33.59599499999999],[130.840003891,33.595649441]]]}},{"type":"Feature","id":"40605:50303623","properties":{"id":"40605:50303623","meshCode":"50303623","cityCode":"40605","city":"川崎町","lat":33.6029933,"lon":130.7988263,"areaKm2":0.1599266,"populated2020":true,"population2020":null,"populationNote":"境界またぎ・収録外等のため人口未集計"},"geometry":{"type":"Polygon","coordinates":[[[130.796312866,33.6],[130.797345837,33.601460279],[130.797455837,33.601797775],[130.797513061,33.602295279],[130.797358327,33.60299555899999],[130.797372503,33.603582225],[130.797422776,33.60367416199999],[130.798375551,33.60414749499999],[130.798320272,33.604342775],[130.798068054,33.604652225],[130.798587782,33.60501389200001],[130.798761115,33.605579162],[130.799358612,33.606100829],[130.799522503,33.606356946],[130.799304163,33.60714861299999],[130.79913516196754,33.608333333333334],[130.8,33.60833333333333],[130.8,33.6],[130.796312866,33.6]]]}},{"type":"Feature","id":"40605:50303624","properties":{"id":"40605:50303624","meshCode":"50303624","cityCode":"40605","city":"川崎町","lat":33.6041667,"lon":130.80625,"areaKm2":1.0721031,"populated2020":true,"population2020":892.1854,"populationNote":"収録500mメッシュ人口の合算（原典収録外は補完しない）"},"geometry":{"type":"Polygon","coordinates":[[[130.8125,33.6],[130.8,33.6],[130.8,33.60833333333333],[130.8125,33.60833333333333],[130.8125,33.6]]]}},{"type":"Feature","id":"40605:50303625","properties":{"id":"40605:50303625","meshCode":"50303625","cityCode":"40605","city":"川崎町","lat":33.6041667,"lon":130.81875,"areaKm2":1.072102,"populated2020":true,"population2020":1673.4763,"populationNote":"収録500mメッシュ人口の合算（原典収録外は補完しない）"},"geometry":{"type":"Polygon","coordinates":[[[130.825,33.6],[130.8125,33.6],[130.8125,33.60833333333333],[130.825,33.60833333333334],[130.825,33.6]]]}},{"type":"Feature","id":"40605:50303626","properties":{"id":"40605:50303626","meshCode":"50303626","cityCode":"40605","city":"川崎町","lat":33.6036738,"lon":130.8297962,"areaKm2":0.7870897,"populated2020":true,"population2020":null,"populationNote":"境界またぎ・収録外等のため人口未集計"},"geometry":{"type":"Polygon","coordinates":[[[130.834764721,33.604026387000005],[130.835223891,33.60384110799999],[130.835628327,33.603419721],[130.835405279,33.601938613],[130.83608027200003,33.601291667],[130.836291115,33.600929162],[130.83661917,33.60071],[130.8375,33.60095085234468],[130.8375,33.60000000000001],[130.825,33.6],[130.825,33.60833333333334],[130.83160910497537,33.608333333333334],[130.831648612,33.607992495],[130.831986394,33.607348613],[130.832155837,33.605582225],[130.832305279,33.605448333000005],[130.832841115,33.605288054],[130.833082218,33.604496108],[130.83444166,33.604433054],[130.834574449,33.60438444100001],[130.834764721,33.604026387000005]]]}},{"type":"Feature","id":"40605:50303627","properties":{"id":"40605:50303627","meshCode":"50303627","cityCode":"40605","city":"川崎町","lat":33.6004252,"lon":130.8390572,"areaKm2":0.0289572,"populated2020":true,"population2020":null,"populationNote":"境界またぎ・収録外等のため人口未集計"},"geometry":{"type":"Polygon","coordinates":[[[130.83772389100002,33.60099027900001],[130.838285279,33.600871946],[130.839840272,33.600922495],[130.841242192,33.6],[130.8375,33.60000000000001],[130.8375,33.60095085234468],[130.83772389100002,33.60099027900001]]]}},{"type":"Feature","id":"40605:50303633","properties":{"id":"40605:50303633","meshCode":"50303633","cityCode":"40605","city":"川崎町","lat":33.6150523,"lon":130.7980401,"areaKm2":0.1142827,"populated2020":true,"population2020":null,"populationNote":"境界またぎ・収録外等のため人口未集計"},"geometry":{"type":"MultiPolygon","coordinates":[[[[130.79913516196754,33.608333333333334],[130.79915917,33.608765279],[130.799435551,33.609247775],[130.8,33.60981402699999],[130.8,33.60833333333333],[130.79913516196754,33.608333333333334]]],[[[130.8,33.61331036],[130.797687497,33.614749721],[130.795794994,33.615588054],[130.794651946,33.616008333],[130.794396939,33.616225828999994],[130.79409158223052,33.61666666666667],[130.8,33.616666666666674],[130.8,33.61331036]]]]}},{"type":"Feature","id":"40605:50303634","properties":{"id":"40605:50303634","meshCode":"50303634","cityCode":"40605","city":"川崎町","lat":33.6125254,"lon":130.8064376,"areaKm2":1.037501,"populated2020":true,"population2020":1752.1288,"populationNote":"収録500mメッシュ人口の合算（原典収録外は補完しない）"},"geometry":{"type":"Polygon","coordinates":[[[130.8,33.60981402699999],[130.801458327,33.611532495],[130.801640272,33.612213054],[130.801445837,33.612441387],[130.8,33.61331036],[130.8,33.616666666666674],[130.8125,33.61666666666667],[130.8125,33.60833333333333],[130.8,33.60833333333333],[130.8,33.60981402699999]]]}},{"type":"Feature","id":"40605:50303635","properties":{"id":"40605:50303635","meshCode":"50303635","cityCode":"40605","city":"川崎町","lat":33.6120221,"lon":130.8175679,"areaKm2":0.8336194,"populated2020":true,"population2020":null,"populationNote":"境界またぎ・収録外等のため人口未集計"},"geometry":{"type":"Polygon","coordinates":[[[130.822572218,33.612476666999996],[130.822697224,33.611835],[130.822973333,33.61160833300001],[130.823359728,33.610915559000006],[130.823262503,33.610504441],[130.823955837,33.609742225],[130.825,33.609833613],[130.825,33.60833333333334],[130.8125,33.60833333333333],[130.8125,33.61666666666667],[130.8153830619114,33.61666666666667],[130.815803061,33.61653499999999],[130.81614416251392,33.61666666666667],[130.81795228341494,33.61666666666667],[130.818147497,33.616455829],[130.818238612,33.616205],[130.819038054,33.615953054],[130.819184163,33.615833333000005],[130.819386667,33.615274162],[130.820604994,33.615511667],[130.821225279,33.61520027900001],[130.820822776,33.614660279],[130.820708054,33.614389441],[130.820724994,33.614067495],[130.821295551,33.613997495],[130.82186499400004,33.613762225],[130.82200805400004,33.613175559000005],[130.822661946,33.61286833300001],[130.822572218,33.612476666999996]]]}},{"type":"Feature","id":"40605:50303636","properties":{"id":"40605:50303636","meshCode":"50303636","cityCode":"40605","city":"川崎町","lat":33.6091989,"lon":130.827865,"areaKm2":0.106851,"populated2020":true,"population2020":15.2525,"populationNote":"収録500mメッシュ人口の合算（原典収録外は補完しない）"},"geometry":{"type":"Polygon","coordinates":[[[130.831494163,33.60860055900001],[130.83160910497537,33.608333333333334],[130.825,33.60833333333334],[130.825,33.609833613],[130.825444163,33.60982722499999],[130.826058054,33.61034833299999],[130.826254994,33.610433054],[130.82929722400002,33.61004527899999],[130.829845551,33.609869441],[130.831494163,33.60860055900001]]]}},{"type":"Feature","id":"40605:50303643","properties":{"id":"40605:50303643","meshCode":"50303643","cityCode":"40605","city":"川崎町","lat":33.6200539,"lon":130.7970923,"areaKm2":0.4232129,"populated2020":true,"population2020":null,"populationNote":"境界またぎ・収録外等のため人口未集計"},"geometry":{"type":"Polygon","coordinates":[[[130.793634449,33.617317775],[130.793552218,33.618098892],[130.793872776,33.618684441],[130.794049442,33.620499721],[130.794483606,33.62159194600001],[130.794837782,33.623119162],[130.795742218,33.623393054],[130.79647,33.623941946],[130.797250272,33.624211946],[130.79722166,33.62382694600001],[130.797668054,33.623422775],[130.798483333,33.623737775],[130.799067497,33.62409389199999],[130.799398885,33.62409389199999],[130.799687782,33.623828054],[130.8,33.623250829],[130.8,33.616666666666674],[130.79409158223052,33.61666666666667],[130.793634449,33.617317775]]]}},{"type":"Feature","id":"40605:50303644","properties":{"id":"40605:50303644","meshCode":"50303644","cityCode":"40605","city":"川崎町","lat":33.6190407,"lon":130.8052477,"areaKm2":0.5622296,"populated2020":true,"population2020":null,"populationNote":"境界またぎ・収録外等のため人口未集計"},"geometry":{"type":"Polygon","coordinates":[[[130.807937224,33.62082194600001],[130.808534163,33.620806946],[130.808075279,33.620294441],[130.80903083,33.61976166699999],[130.809356394,33.619503054],[130.810570272,33.619503054],[130.8125,33.61858581999989],[130.8125,33.61666666666667],[130.8,33.616666666666674],[130.8,33.623250829],[130.800379728,33.622991108],[130.800972218,33.622961387000004],[130.80170083,33.621771667],[130.801958054,33.621713332999995],[130.80276805400004,33.621802495],[130.80342166,33.621973613],[130.803510272,33.622063054],[130.80364,33.622065],[130.804133891,33.62179166699999],[130.804434449,33.62176916200001],[130.80515499400002,33.622007225],[130.805297224,33.621992495],[130.805855279,33.621581946],[130.806044721,33.621524721],[130.807429442,33.621556667],[130.807189442,33.621152225],[130.807978612,33.621180829000004],[130.807937224,33.62082194600001]]]}},{"type":"Feature","id":"40605:50303645","properties":{"id":"40605:50303645","meshCode":"50303645","cityCode":"40605","city":"川崎町","lat":33.6168961,"lon":130.8170302,"areaKm2":0.0199603,"populated2020":true,"population2020":null,"populationNote":"境界またぎ・収録外等のため人口未集計"},"geometry":{"type":"MultiPolygon","coordinates":[[[[130.81614416251392,33.61666666666667],[130.816974449,33.617170279],[130.81749749700003,33.616969162],[130.81795228341494,33.61666666666667],[130.81614416251392,33.61666666666667]]],[[[130.8125,33.61858581999989],[130.812924721,33.61831944099999],[130.812824163,33.617865829],[130.813036109,33.617437225],[130.813075551,33.61700861300002],[130.81327166,33.616971667],[130.813853061,33.617060829],[130.814104449,33.616894441],[130.814536939,33.616928333],[130.8153830619114,33.61666666666667],[130.8125,33.61666666666667],[130.8125,33.61858581999989]]]]}}]}