{"type":"FeatureCollection","metadata":{"cityCode":"40610","city":"福智町","resolution":1000,"boundaryDate":"2026-01-01","populationLabel":"2020年基準人口（国交省調整値）","method":"標準地域メッシュを行政界で切抜き。中心が区域外のとき区域内代表点を判定点にする。人口不明をゼロにしない。"},"features":[{"type":"Feature","id":"40610:50303690","properties":{"id":"40610:50303690","meshCode":"50303690","cityCode":"40610","city":"福智町","lat":33.6656125,"lon":130.7583357,"areaKm2":0.1828275,"populated2020":true,"population2020":null,"populationNote":"境界またぎ・収録外等のため人口未集計"},"geometry":{"type":"Polygon","coordinates":[[[130.7625,33.666666666666664],[130.7625,33.665073230155535],[130.761753061,33.66439138700001],[130.761589442,33.664338892],[130.760734721,33.664380559],[130.759657497,33.664776387],[130.75926,33.66481000000001],[130.756513061,33.66404694599999],[130.755815551,33.664570559],[130.755290558,33.664861386999995],[130.754682503,33.665152495],[130.754232776,33.665239441],[130.753998885,33.665890829],[130.75356655000638,33.666666666666664],[130.7625,33.666666666666664]]]}},{"type":"Feature","id":"40610:50303691","properties":{"id":"40610:50303691","meshCode":"50303691","cityCode":"40610","city":"福智町","lat":33.6660097,"lon":130.7656488,"areaKm2":0.0847359,"populated2020":true,"population2020":null,"populationNote":"境界またぎ・収録外等のため人口未集計"},"geometry":{"type":"MultiPolygon","coordinates":[[[[130.768417782,33.665883892],[130.768081115,33.665557775],[130.767199442,33.665370559],[130.76616166,33.664933054],[130.765530272,33.665219162],[130.763647497,33.66555110800001],[130.762626939,33.665201667000005],[130.7625,33.665073230155535],[130.7625,33.666666666666664],[130.76964999872055,33.666666666666664],[130.768685837,33.666376387],[130.768417782,33.665883892]]],[[[130.775,33.666137946],[130.77475238715942,33.66666666666666],[130.775,33.666666666666664],[130.775,33.666137946]]],[[[130.77361221828573,33.666666666666664],[130.77383158135777,33.666666666666664],[130.773763606,33.66663138700001],[130.77361221828573,33.666666666666664]]]]}},{"type":"Feature","id":"40610:50303692","properties":{"id":"40610:50303692","meshCode":"50303692","cityCode":"40610","city":"福智町","lat":33.666452,"lon":130.7754713,"areaKm2":0.0045447,"populated2020":true,"population2020":null,"populationNote":"境界またぎ・収録外等のため人口未集計"},"geometry":{"type":"Polygon","coordinates":[[[130.77609810593555,33.666666666666664],[130.776045837,33.666395279],[130.775906939,33.666340559],[130.775,33.666137946],[130.775,33.666666666666664],[130.77609810593555,33.666666666666664]]]}},{"type":"Feature","id":"40610:50303693","properties":{"id":"40610:50303693","meshCode":"50303693","cityCode":"40610","city":"福智町","lat":33.6663592,"lon":130.7891989,"areaKm2":0.0175937,"populated2020":true,"population2020":null,"populationNote":"境界またぎ・収録外等のため人口未集計"},"geometry":{"type":"Polygon","coordinates":[[[130.79231,33.666657225],[130.792065551,33.66649027900001],[130.79155166,33.666625829],[130.791184721,33.666421387],[130.79082194600002,33.666598613],[130.790200558,33.666441387000006],[130.790006394,33.666454162],[130.788533891,33.665715],[130.788101115,33.665869162],[130.787814163,33.66624500000001],[130.787985551,33.666308892],[130.7877419202714,33.666666666666664],[130.79231,33.666657225]]]}},{"type":"Feature","id":"40610:50304600","properties":{"id":"40610:50304600","meshCode":"50304600","cityCode":"40610","city":"福智町","lat":33.6710108,"lon":130.7576601,"areaKm2":0.8236222,"populated2020":true,"population2020":100.176,"populationNote":"収録500mメッシュ人口の合算（原典収録外は補完しない）"},"geometry":{"type":"Polygon","coordinates":[[[130.753535279,33.667048613],[130.753791946,33.667464721],[130.75384389100003,33.667751108],[130.753433606,33.668585559],[130.75342917,33.66907582900001],[130.752985551,33.670054721],[130.75322,33.67167361300001],[130.753129728,33.672565559],[130.752648885,33.673034721],[130.752342218,33.673205829000004],[130.751982503,33.67326972100002],[130.751252776,33.673890559],[130.751298054,33.67487222500001],[130.751604942,33.675000000000004],[130.7625,33.675],[130.7625,33.666666666666664],[130.75356655000638,33.666666666666664],[130.753535279,33.667048613]]]}},{"type":"Feature","id":"40610:50304601","properties":{"id":"40610:50304601","meshCode":"50304601","cityCode":"40610","city":"福智町","lat":33.6708929,"lon":130.7686998,"areaKm2":1.0552827,"populated2020":true,"population2020":561.3563,"populationNote":"収録500mメッシュ人口の合算（原典収録外は補完しない）"},"geometry":{"type":"Polygon","coordinates":[[[130.775,33.666666666666664],[130.77475238715942,33.66666666666666],[130.774600272,33.666984721],[130.77383158135777,33.666666666666664],[130.77361221828573,33.666666666666664],[130.773474449,33.66682694600001],[130.772980558,33.666713333000004],[130.772815551,33.66709638700001],[130.77227,33.66741999999999],[130.76964999872055,33.666666666666664],[130.7625,33.666666666666664],[130.7625,33.675],[130.775,33.675000000000004],[130.775,33.666666666666664]]]}},{"type":"Feature","id":"40610:50304602","properties":{"id":"40610:50304602","meshCode":"50304602","cityCode":"40610","city":"福智町","lat":33.6708912,"lon":130.7768125,"areaKm2":0.5146514,"populated2020":true,"population2020":null,"populationNote":"境界またぎ・収録外等のため人口未集計"},"geometry":{"type":"MultiPolygon","coordinates":[[[[130.778652503,33.670515559],[130.775176109,33.669304720999996],[130.776117224,33.66676555899999],[130.77609810593555,33.666666666666664],[130.775,33.666666666666664],[130.775,33.675000000000004],[130.779786472,33.675],[130.779244449,33.673054162000014],[130.778925279,33.67274444099999],[130.77802917,33.672395829],[130.778093333,33.672078613],[130.778723891,33.670626387],[130.778652503,33.670515559]]],[[[130.786992503,33.66746110799999],[130.786735837,33.667589441],[130.78627166,33.668164162],[130.785653333,33.668471387],[130.78529861200002,33.668728054],[130.784934721,33.669203892],[130.784474994,33.66944249499999],[130.784465837,33.670570279],[130.783922776,33.671461667],[130.783194163,33.672154721],[130.782967224,33.67262749499999],[130.781774163,33.67393082899999],[130.780261414,33.675],[130.7875,33.675],[130.7875,33.66695657664862],[130.786992503,33.66746110799999]]]]}},{"type":"Feature","id":"40610:50304603","properties":{"id":"40610:50304603","meshCode":"50304603","cityCode":"40610","city":"福智町","lat":33.6716878,"lon":130.7927743,"areaKm2":0.7441012,"populated2020":true,"population2020":null,"populationNote":"境界またぎ・収録外等のため人口未集計"},"geometry":{"type":"Polygon","coordinates":[[[130.792885837,33.670629441],[130.792406939,33.670411108],[130.792358054,33.670203333],[130.792514721,33.669063333],[130.792478885,33.66878500000001],[130.792704163,33.667990278999994],[130.792758054,33.667401667],[130.792690558,33.667000829],[130.7923165887674,33.666666666666664],[130.7877419202714,33.666666666666664],[130.7875,33.66695657664862],[130.7875,33.675],[130.8,33.675],[130.8,33.670509081],[130.798410272,33.670070559],[130.797440272,33.670033892],[130.797126394,33.670120278999995],[130.795823061,33.671069721],[130.795043061,33.672575],[130.793778054,33.671705],[130.792918054,33.671412495],[130.792822218,33.67117333299999],[130.792935279,33.67077582900001],[130.792885837,33.670629441]]]}},{"type":"Feature","id":"40610:50304604","properties":{"id":"40610:50304604","meshCode":"50304604","cityCode":"40610","city":"福智町","lat":33.6727008,"lon":130.8034048,"areaKm2":0.3109906,"populated2020":true,"population2020":null,"populationNote":"境界またぎ・収録外等のため人口未集計"},"geometry":{"type":"Polygon","coordinates":[[[130.80577083000003,33.670443613],[130.80275,33.669995],[130.802534994,33.670009721],[130.802423606,33.670414721],[130.802868054,33.670444440999994],[130.802770558,33.670900558999996],[130.801026667,33.670747775],[130.8,33.670509081],[130.8,33.675],[130.805515694,33.675],[130.805938612,33.674812775],[130.806148885,33.674801667],[130.806305837,33.674577225],[130.806564721,33.67441000000001],[130.806585279,33.674308613],[130.806461115,33.673206666999995],[130.806902218,33.672963613],[130.806998054,33.67278889199999],[130.807137497,33.672119162],[130.807271388,33.671935000000005],[130.80751,33.67121972100001],[130.806156939,33.671155559000006],[130.80604083,33.670725],[130.805750558,33.670651387],[130.80577083000003,33.670443613]]]}},{"type":"Feature","id":"40610:50304610","properties":{"id":"40610:50304610","meshCode":"50304610","cityCode":"40610","city":"福智町","lat":33.6790949,"lon":130.7574316,"areaKm2":0.8664826,"populated2020":true,"population2020":null,"populationNote":"境界またぎ・収録外等のため人口未集計"},"geometry":{"type":"Polygon","coordinates":[[[130.751604942,33.675000000000004],[130.752140272,33.675713333000004],[130.751994163,33.676062224999995],[130.752221388,33.676969162000006],[130.75236,33.677184440999994],[130.752728612,33.67745082900001],[130.752689728,33.678147495],[130.75252166,33.678410279],[130.751922503,33.67899972099999],[130.752173061,33.680114720999995],[130.75191166,33.680806108],[130.751930272,33.680992225],[130.752382776,33.68160722500001],[130.75395230919955,33.68333333333333],[130.7625,33.68333333333334],[130.7625,33.675],[130.751604942,33.675000000000004]]]}},{"type":"Feature","id":"40610:50304611","properties":{"id":"40610:50304611","meshCode":"50304611","cityCode":"40610","city":"福智町","lat":33.6791667,"lon":130.76875,"areaKm2":1.0711906,"populated2020":true,"population2020":866.879,"populationNote":"収録500mメッシュ人口の合算（原典収録外は補完しない）"},"geometry":{"type":"Polygon","coordinates":[[[130.775,33.675000000000004],[130.7625,33.675],[130.7625,33.68333333333334],[130.775,33.68333333333333],[130.775,33.675000000000004]]]}},{"type":"Feature","id":"40610:50304612","properties":{"id":"40610:50304612","meshCode":"50304612","cityCode":"40610","city":"福智町","lat":33.6791679,"lon":130.7812504,"areaKm2":1.070864,"populated2020":true,"population2020":1658.8198,"populationNote":"収録500mメッシュ人口の合算（原典収録外は補完しない）"},"geometry":{"type":"Polygon","coordinates":[[[130.780082218,33.675095000000006],[130.779786472,33.675],[130.775,33.675000000000004],[130.775,33.68333333333333],[130.7875,33.68333333333334],[130.7875,33.675],[130.780261414,33.675],[130.780082218,33.675095000000006]]]}},{"type":"Feature","id":"40610:50304613","properties":{"id":"40610:50304613","meshCode":"50304613","cityCode":"40610","city":"福智町","lat":33.6791667,"lon":130.79375,"areaKm2":1.0711881,"populated2020":true,"population2020":1353.1783,"populationNote":"収録500mメッシュ人口の合算（原典収録外は補完しない）"},"geometry":{"type":"Polygon","coordinates":[[[130.8,33.675],[130.7875,33.675],[130.7875,33.68333333333334],[130.8,33.68333333333333],[130.8,33.675]]]}},{"type":"Feature","id":"40610:50304614","properties":{"id":"40610:50304614","meshCode":"50304614","cityCode":"40610","city":"福智町","lat":33.67939,"lon":130.8024755,"areaKm2":0.409149,"populated2020":true,"population2020":null,"populationNote":"境界またぎ・収録外等のため人口未集計"},"geometry":{"type":"Polygon","coordinates":[[[130.803764721,33.678937774999994],[130.803835279,33.678472495],[130.804550558,33.677250829],[130.80482083,33.67578638700001],[130.805109728,33.675258054],[130.805515694,33.675],[130.8,33.675],[130.8,33.68333333333333],[130.80687819689342,33.683333333333344],[130.806895551,33.682946387],[130.806727497,33.682729162],[130.806242776,33.68225444099999],[130.80601027200004,33.68233000000001],[130.805015551,33.681362775000004],[130.803810558,33.679988613],[130.803764721,33.678937774999994]]]}},{"type":"Feature","id":"40610:50304620","properties":{"id":"40610:50304620","meshCode":"50304620","cityCode":"40610","city":"福智町","lat":33.6878141,"lon":130.75788,"areaKm2":0.7754446,"populated2020":true,"population2020":null,"populationNote":"境界またぎ・収録外等のため人口未集計"},"geometry":{"type":"Polygon","coordinates":[[[130.75395230919955,33.68333333333333],[130.755103606,33.684760278999995],[130.755282503,33.685526946],[130.754893333,33.68585722500001],[130.754246109,33.68599],[130.754061115,33.686172495],[130.753843061,33.686884162000005],[130.753847782,33.68727472100001],[130.754031388,33.687997225],[130.753995551,33.688320278999996],[130.753396667,33.68856249500001],[130.753043333,33.688845279],[130.752643606,33.688921945999994],[130.751929442,33.689208613],[130.751674163,33.689445829],[130.751660272,33.689741387],[130.75195444900004,33.690697775],[130.751912438,33.690830721],[130.751220026,33.691410081],[130.75127652410197,33.69166666666667],[130.7625,33.69166666666666],[130.7625,33.68333333333334],[130.75395230919955,33.68333333333333]]]}},{"type":"Feature","id":"40610:50304621","properties":{"id":"40610:50304621","meshCode":"50304621","cityCode":"40610","city":"福智町","lat":33.6875,"lon":130.76875,"areaKm2":1.0710887,"populated2020":true,"population2020":1339.1552,"populationNote":"収録500mメッシュ人口の合算（原典収録外は補完しない）"},"geometry":{"type":"Polygon","coordinates":[[[130.775,33.68333333333333],[130.7625,33.68333333333334],[130.7625,33.69166666666666],[130.775,33.69166666666667],[130.775,33.68333333333333]]]}},{"type":"Feature","id":"40610:50304622","properties":{"id":"40610:50304622","meshCode":"50304622","cityCode":"40610","city":"福智町","lat":33.6875,"lon":130.78125,"areaKm2":1.0710874,"populated2020":true,"population2020":875.8684,"populationNote":"収録500mメッシュ人口の合算（原典収録外は補完しない）"},"geometry":{"type":"Polygon","coordinates":[[[130.7875,33.68333333333334],[130.775,33.68333333333333],[130.775,33.69166666666667],[130.7875,33.69166666666666],[130.7875,33.68333333333334]]]}},{"type":"Feature","id":"40610:50304623","properties":{"id":"40610:50304623","meshCode":"50304623","cityCode":"40610","city":"福智町","lat":33.6875,"lon":130.79375,"areaKm2":1.0710861,"populated2020":true,"population2020":1676.1218,"populationNote":"収録500mメッシュ人口の合算（原典収録外は補完しない）"},"geometry":{"type":"Polygon","coordinates":[[[130.8,33.68333333333333],[130.7875,33.68333333333334],[130.7875,33.69166666666666],[130.8,33.69166666666666],[130.8,33.68333333333333]]]}},{"type":"Feature","id":"40610:50304624","properties":{"id":"40610:50304624","meshCode":"50304624","cityCode":"40610","city":"福智町","lat":33.6877211,"lon":130.803659,"areaKm2":0.6095814,"populated2020":true,"population2020":null,"populationNote":"境界またぎ・収録外等のため人口未集計"},"geometry":{"type":"Polygon","coordinates":[[[130.806423606,33.68748],[130.806382503,33.686503054],[130.806862776,33.685713613000004],[130.806925551,33.685459721],[130.806632218,33.684907495],[130.806947497,33.684158613],[130.806843606,33.683709721],[130.80687819689342,33.683333333333344],[130.8,33.68333333333333],[130.8,33.69166666666666],[130.8099287808184,33.69166666666667],[130.809468327,33.690953613000005],[130.808823606,33.689483613],[130.808646109,33.689595829],[130.808336939,33.69004277500001],[130.806356667,33.69051944099999],[130.806641946,33.689406387],[130.806572776,33.68908416199999],[130.806166394,33.688221667],[130.806423606,33.68748]]]}},{"type":"Feature","id":"40610:50304539","properties":{"id":"40610:50304539","meshCode":"50304539","cityCode":"40610","city":"福智町","lat":33.6979004,"lon":130.7488985,"areaKm2":0.0997686,"populated2020":true,"population2020":null,"populationNote":"境界またぎ・収録外等のため人口未集計"},"geometry":{"type":"MultiPolygon","coordinates":[[[[130.749998054,33.693818333],[130.75,33.693926252],[130.75,33.693807828999994],[130.749998054,33.693818333]]],[[[130.749657497,33.694557495],[130.749554721,33.694862225],[130.749641946,33.69524],[130.749252776,33.69549333300001],[130.749000272,33.696011387],[130.74874166,33.696110000000004],[130.748243891,33.696135559000005],[130.747850272,33.696460279],[130.747812776,33.69684361299999],[130.74799138800003,33.698251946],[130.747808612,33.699772495],[130.747717782,33.699868054],[130.747362776,33.699951108],[130.747223891,33.699636667],[130.746723333,33.699511667],[130.746221115,33.699659162],[130.74608358,33.699999999999996],[130.75,33.7],[130.75,33.69447246800001],[130.749657497,33.694557495]]]]}},{"type":"Feature","id":"40610:50304630","properties":{"id":"40610:50304630","meshCode":"50304630","cityCode":"40610","city":"福智町","lat":33.6958859,"lon":130.7563383,"areaKm2":1.0548197,"populated2020":true,"population2020":1398.3005,"populationNote":"収録500mメッシュ人口の合算（原典収録外は補完しない）"},"geometry":{"type":"Polygon","coordinates":[[[130.75127652410197,33.69166666666667],[130.751142218,33.69238222500001],[130.750788885,33.69276889199999],[130.75044166,33.692976946],[130.75,33.693807828999994],[130.75010083,33.69434944100001],[130.75,33.69447246800001],[130.75,33.7],[130.7625,33.699999999999996],[130.7625,33.69166666666666],[130.75127652410197,33.69166666666667]]]}},{"type":"Feature","id":"40610:50304631","properties":{"id":"40610:50304631","meshCode":"50304631","cityCode":"40610","city":"福智町","lat":33.6958333,"lon":130.76875,"areaKm2":1.0709867,"populated2020":true,"population2020":2286.9108,"populationNote":"収録500mメッシュ人口の合算（原典収録外は補完しない）"},"geometry":{"type":"Polygon","coordinates":[[[130.775,33.69166666666667],[130.7625,33.69166666666666],[130.7625,33.699999999999996],[130.775,33.7],[130.775,33.69166666666667]]]}},{"type":"Feature","id":"40610:50304632","properties":{"id":"40610:50304632","meshCode":"50304632","cityCode":"40610","city":"福智町","lat":33.6958333,"lon":130.78125,"areaKm2":1.0709855,"populated2020":true,"population2020":847.4998,"populationNote":"収録500mメッシュ人口の合算（原典収録外は補完しない）"},"geometry":{"type":"Polygon","coordinates":[[[130.7875,33.69166666666666],[130.775,33.69166666666667],[130.775,33.7],[130.7875,33.70000000000001],[130.7875,33.69166666666666]]]}},{"type":"Feature","id":"40610:50304633","properties":{"id":"40610:50304633","meshCode":"50304633","cityCode":"40610","city":"福智町","lat":33.6958333,"lon":130.79375,"areaKm2":1.0709843,"populated2020":true,"population2020":556.1215,"populationNote":"収録500mメッシュ人口の合算（原典収録外は補完しない）"},"geometry":{"type":"Polygon","coordinates":[[[130.8,33.69166666666666],[130.7875,33.69166666666666],[130.7875,33.70000000000001],[130.8,33.699999999999996],[130.8,33.69166666666666]]]}},{"type":"Feature","id":"40610:50304634","properties":{"id":"40610:50304634","meshCode":"50304634","cityCode":"40610","city":"福智町","lat":33.695997,"lon":130.8059456,"areaKm2":1.0125668,"populated2020":true,"population2020":375.7254,"populationNote":"収録500mメッシュ人口の合算（原典収録外は補完しない）"},"geometry":{"type":"Polygon","coordinates":[[[130.8125,33.694832225000006],[130.81152917,33.694673892],[130.811350272,33.694578333],[130.811067497,33.693974721],[130.810592218,33.693389999999994],[130.810508885,33.692832225000004],[130.8099287808184,33.69166666666667],[130.8,33.69166666666666],[130.8,33.699999999999996],[130.8125,33.7],[130.8125,33.694832225000006]]]}},{"type":"Feature","id":"40610:50304635","properties":{"id":"40610:50304635","meshCode":"50304635","cityCode":"40610","city":"福智町","lat":33.6973643,"lon":130.8183277,"areaKm2":0.6634431,"populated2020":true,"population2020":28.5652,"populationNote":"収録500mメッシュ人口の合算（原典収録外は補完しない）"},"geometry":{"type":"Polygon","coordinates":[[[130.81769083,33.694009721],[130.816428612,33.694339162],[130.815251388,33.694182495],[130.81503166,33.694063054],[130.81455,33.69399110799999],[130.813882776,33.694385],[130.813401115,33.694491946],[130.812763891,33.69480082900001],[130.8125,33.694832225000006],[130.8125,33.7],[130.825,33.7],[130.825,33.695678495],[130.824511946,33.69590444100001],[130.822862218,33.69602944100001],[130.82236,33.695744162000004],[130.821713333,33.695676387],[130.820206667,33.695126386999995],[130.819797224,33.694848613000005],[130.819336939,33.69417861299999],[130.819202218,33.694092495],[130.818886667,33.69402972099999],[130.81769083,33.694009721]]]}},{"type":"Feature","id":"40610:50304636","properties":{"id":"40610:50304636","meshCode":"50304636","cityCode":"40610","city":"福智町","lat":33.6981095,"lon":130.8263577,"areaKm2":0.1143551,"populated2020":false,"population2020":null,"populationNote":"境界またぎ・収録外等のため人口未集計"},"geometry":{"type":"Polygon","coordinates":[[[130.825783606,33.695702225],[130.825,33.695678495],[130.825,33.7],[130.828412192,33.7],[130.828135279,33.699372775],[130.828023606,33.698831667],[130.827637497,33.698235278999995],[130.827671946,33.697403333],[130.82754,33.696723613],[130.827054994,33.696543054],[130.82643,33.69598],[130.825783606,33.695702225]]]}},{"type":"Feature","id":"40610:50304549","properties":{"id":"40610:50304549","meshCode":"50304549","cityCode":"40610","city":"福智町","lat":33.7037172,"lon":130.7477349,"areaKm2":0.3620804,"populated2020":false,"population2020":null,"populationNote":"境界またぎ・収録外等のため人口未集計"},"geometry":{"type":"Polygon","coordinates":[[[130.74608358,33.699999999999996],[130.74591083,33.70047138700001],[130.745619728,33.700700559],[130.745398054,33.70074694600001],[130.744922776,33.70066416200001],[130.744568054,33.700714721],[130.744148054,33.701528054],[130.743817224,33.701758613],[130.744031946,33.702455],[130.744653891,33.70304944099999],[130.744904994,33.703492775],[130.745027782,33.70355527899999],[130.74549917,33.703555279],[130.745698885,33.703641946],[130.745953606,33.703980558999994],[130.746177224,33.704135829],[130.747018327,33.704456108],[130.747145279,33.704607225],[130.746932503,33.70528666700001],[130.74702917,33.70568777500001],[130.74669917,33.70614722500002],[130.746748885,33.706889161999996],[130.746429442,33.70751389200001],[130.7464182229074,33.708333333333336],[130.75,33.70833333333334],[130.75,33.7],[130.74608358,33.699999999999996]]]}},{"type":"Feature","id":"40610:50304640","properties":{"id":"40610:50304640","meshCode":"50304640","cityCode":"40610","city":"福智町","lat":33.7041667,"lon":130.75625,"areaKm2":1.0708861,"populated2020":true,"population2020":574.6755,"populationNote":"収録500mメッシュ人口の合算（原典収録外は補完しない）"},"geometry":{"type":"Polygon","coordinates":[[[130.7625,33.699999999999996],[130.75,33.7],[130.75,33.70833333333334],[130.7625,33.70833333333333],[130.7625,33.699999999999996]]]}},{"type":"Feature","id":"40610:50304641","properties":{"id":"40610:50304641","meshCode":"50304641","cityCode":"40610","city":"福智町","lat":33.7041667,"lon":130.76875,"areaKm2":1.0708848,"populated2020":true,"population2020":662.2004,"populationNote":"収録500mメッシュ人口の合算（原典収録外は補完しない）"},"geometry":{"type":"Polygon","coordinates":[[[130.775,33.7],[130.7625,33.699999999999996],[130.7625,33.70833333333333],[130.775,33.708333333333336],[130.775,33.7]]]}},{"type":"Feature","id":"40610:50304642","properties":{"id":"40610:50304642","meshCode":"50304642","cityCode":"40610","city":"福智町","lat":33.7041667,"lon":130.78125,"areaKm2":1.0708835,"populated2020":true,"population2020":289.9176,"populationNote":"収録500mメッシュ人口の合算（原典収録外は補完しない）"},"geometry":{"type":"Polygon","coordinates":[[[130.7875,33.70000000000001],[130.775,33.7],[130.775,33.708333333333336],[130.7875,33.708333333333336],[130.7875,33.70000000000001]]]}},{"type":"Feature","id":"40610:50304643","properties":{"id":"40610:50304643","meshCode":"50304643","cityCode":"40610","city":"福智町","lat":33.7041667,"lon":130.79375,"areaKm2":1.0708823,"populated2020":true,"population2020":250.2696,"populationNote":"収録500mメッシュ人口の合算（原典収録外は補完しない）"},"geometry":{"type":"Polygon","coordinates":[[[130.8,33.699999999999996],[130.7875,33.70000000000001],[130.7875,33.708333333333336],[130.8,33.708333333333336],[130.8,33.699999999999996]]]}},{"type":"Feature","id":"40610:50304644","properties":{"id":"40610:50304644","meshCode":"50304644","cityCode":"40610","city":"福智町","lat":33.7041667,"lon":130.80625,"areaKm2":1.0708812,"populated2020":true,"population2020":98.9032,"populationNote":"収録500mメッシュ人口の合算（原典収録外は補完しない）"},"geometry":{"type":"Polygon","coordinates":[[[130.8125,33.7],[130.8,33.699999999999996],[130.8,33.708333333333336],[130.8125,33.70833333333333],[130.8125,33.7]]]}},{"type":"Feature","id":"40610:50304645","properties":{"id":"40610:50304645","meshCode":"50304645","cityCode":"40610","city":"福智町","lat":33.7041667,"lon":130.81875,"areaKm2":1.0708801,"populated2020":true,"population2020":3.0694,"populationNote":"収録500mメッシュ人口の合算（原典収録外は補完しない）"},"geometry":{"type":"Polygon","coordinates":[[[130.825,33.7],[130.8125,33.7],[130.8125,33.70833333333333],[130.825,33.708333333333336],[130.825,33.7]]]}},{"type":"Feature","id":"40610:50304646","properties":{"id":"40610:50304646","meshCode":"50304646","cityCode":"40610","city":"福智町","lat":33.7045569,"lon":130.8276194,"areaKm2":0.4334416,"populated2020":false,"population2020":null,"populationNote":"境界またぎ・収録外等のため人口未集計"},"geometry":{"type":"Polygon","coordinates":[[[130.831038327,33.704201387],[130.83082166,33.703664162],[130.830060272,33.70310305400001],[130.829816939,33.702663054],[130.829363333,33.702232224999996],[130.828777782,33.70209972100001],[130.828642776,33.701954441],[130.828760558,33.701052775],[130.82869,33.700850279],[130.828383891,33.70067000000001],[130.82827389100004,33.700473054],[130.828412192,33.7],[130.825,33.7],[130.825,33.708333333333336],[130.83101374798926,33.708333333333336],[130.830825279,33.707451387],[130.830652503,33.70703361299999],[130.830578612,33.706402225],[130.830677497,33.705885279],[130.830628885,33.705001946],[130.830682218,33.70480138700001],[130.830996394,33.70450138700001],[130.831038327,33.704201387]]]}},{"type":"Feature","id":"40610:50304559","properties":{"id":"40610:50304559","meshCode":"50304559","cityCode":"40610","city":"福智町","lat":33.7125018,"lon":130.749572,"areaKm2":0.1245017,"populated2020":true,"population2020":null,"populationNote":"境界またぎ・収録外等のため人口未集計"},"geometry":{"type":"Polygon","coordinates":[[[130.746351946,33.708571946000006],[130.746618612,33.709166946],[130.746872218,33.709412775],[130.747484163,33.709693054],[130.748323061,33.710407495],[130.74897805400002,33.710593892],[130.749236109,33.710820000000005],[130.749307782,33.711104721000005],[130.749083606,33.71229944099999],[130.749539442,33.713095],[130.749548612,33.713302775],[130.74918917,33.714118054],[130.748193333,33.715901946],[130.74871,33.716115559],[130.74939547259453,33.71666666666667],[130.75,33.71666666666667],[130.75,33.70833333333334],[130.7464182229074,33.708333333333336],[130.746351946,33.708571946000006]]]}},{"type":"Feature","id":"40610:50304650","properties":{"id":"40610:50304650","meshCode":"50304650","cityCode":"40610","city":"福智町","lat":33.7125,"lon":130.75625,"areaKm2":1.0707842,"populated2020":true,"population2020":95.9839,"populationNote":"収録500mメッシュ人口の合算（原典収録外は補完しない）"},"geometry":{"type":"Polygon","coordinates":[[[130.7625,33.70833333333333],[130.75,33.70833333333334],[130.75,33.71666666666667],[130.7625,33.71666666666667],[130.7625,33.70833333333333]]]}},{"type":"Feature","id":"40610:50304651","properties":{"id":"40610:50304651","meshCode":"50304651","cityCode":"40610","city":"福智町","lat":33.7125,"lon":130.76875,"areaKm2":1.0707828,"populated2020":true,"population2020":343.031,"populationNote":"収録500mメッシュ人口の合算（原典収録外は補完しない）"},"geometry":{"type":"Polygon","coordinates":[[[130.775,33.708333333333336],[130.7625,33.70833333333333],[130.7625,33.71666666666667],[130.775,33.716666666666676],[130.775,33.708333333333336]]]}},{"type":"Feature","id":"40610:50304652","properties":{"id":"40610:50304652","meshCode":"50304652","cityCode":"40610","city":"福智町","lat":33.7125,"lon":130.78125,"areaKm2":1.0707815,"populated2020":true,"population2020":339.1654,"populationNote":"収録500mメッシュ人口の合算（原典収録外は補完しない）"},"geometry":{"type":"Polygon","coordinates":[[[130.7875,33.708333333333336],[130.775,33.708333333333336],[130.775,33.716666666666676],[130.7875,33.71666666666667],[130.7875,33.708333333333336]]]}},{"type":"Feature","id":"40610:50304653","properties":{"id":"40610:50304653","meshCode":"50304653","cityCode":"40610","city":"福智町","lat":33.7125,"lon":130.79375,"areaKm2":1.0707803,"populated2020":true,"population2020":147.1256,"populationNote":"収録500mメッシュ人口の合算（原典収録外は補完しない）"},"geometry":{"type":"Polygon","coordinates":[[[130.8,33.708333333333336],[130.7875,33.708333333333336],[130.7875,33.71666666666667],[130.8,33.71666666666666],[130.8,33.708333333333336]]]}},{"type":"Feature","id":"40610:50304654","properties":{"id":"40610:50304654","meshCode":"50304654","cityCode":"40610","city":"福智町","lat":33.7125,"lon":130.80625,"areaKm2":1.0707792,"populated2020":true,"population2020":3.0555,"populationNote":"収録500mメッシュ人口の合算（原典収録外は補完しない）"},"geometry":{"type":"Polygon","coordinates":[[[130.8125,33.70833333333333],[130.8,33.708333333333336],[130.8,33.71666666666666],[130.8125,33.716666666666676],[130.8125,33.70833333333333]]]}},{"type":"Feature","id":"40610:50304655","properties":{"id":"40610:50304655","meshCode":"50304655","cityCode":"40610","city":"福智町","lat":33.7125,"lon":130.81875,"areaKm2":1.0707781,"populated2020":false,"population2020":null,"populationNote":"境界またぎ・収録外等のため人口未集計"},"geometry":{"type":"Polygon","coordinates":[[[130.825,33.708333333333336],[130.8125,33.70833333333333],[130.8125,33.716666666666676],[130.825,33.71666666666667],[130.825,33.708333333333336]]]}},{"type":"Feature","id":"40610:50304656","properties":{"id":"40610:50304656","meshCode":"50304656","cityCode":"40610","city":"福智町","lat":33.711075,"lon":130.8271853,"areaKm2":0.2717447,"populated2020":false,"population2020":null,"populationNote":"境界またぎ・収録外等のため人口未集計"},"geometry":{"type":"Polygon","coordinates":[[[130.827756939,33.712556107999994],[130.829414163,33.711808892],[130.829936939,33.71142416200001],[130.830451946,33.709251108],[130.830786394,33.708803892],[130.83101374798926,33.708333333333336],[130.825,33.708333333333336],[130.825,33.71666666666667],[130.8252917512368,33.71666666666667],[130.826004449,33.715235559],[130.826654449,33.714681667],[130.826814721,33.71402277499999],[130.826574721,33.71287249499999],[130.826926394,33.712668332999996],[130.827756939,33.712556107999994]]]}},{"type":"Feature","id":"40610:50304569","properties":{"id":"40610:50304569","meshCode":"50304569","cityCode":"40610","city":"福智町","lat":33.7168369,"lon":130.7497827,"areaKm2":0.0017023,"populated2020":true,"population2020":null,"populationNote":"境界またぎ・収録外等のため人口未集計"},"geometry":{"type":"Polygon","coordinates":[[[130.749395473,33.716666667000005],[130.749596667,33.716898054],[130.75,33.717144613],[130.75,33.71666666666667],[130.749395473,33.716666667000005]]]}},{"type":"Feature","id":"40610:50304660","properties":{"id":"40610:50304660","meshCode":"50304660","cityCode":"40610","city":"福智町","lat":33.717764,"lon":130.7579503,"areaKm2":0.2285087,"populated2020":true,"population2020":null,"populationNote":"境界またぎ・収録外等のため人口未集計"},"geometry":{"type":"Polygon","coordinates":[[[130.75037917,33.717361387],[130.751303333,33.717575],[130.753422503,33.717556667],[130.754346667,33.717710000000004],[130.756820558,33.718541667000004],[130.757562503,33.718718613],[130.758268885,33.719103333],[130.758489728,33.71930389199999],[130.758673333,33.719139721],[130.758939442,33.719081387],[130.76074083,33.71939],[130.761052218,33.719546946],[130.761290272,33.719908054],[130.761612218,33.720041387],[130.761974721,33.72002500000001],[130.7625,33.719736219598744],[130.7625,33.71666666666667],[130.75,33.71666666666667],[130.75,33.717144613],[130.75037917,33.717361387]]]}},{"type":"Feature","id":"40610:50304661","properties":{"id":"40610:50304661","meshCode":"50304661","cityCode":"40610","city":"福智町","lat":33.7192529,"lon":130.7695229,"areaKm2":0.6284808,"populated2020":true,"population2020":null,"populationNote":"境界またぎ・収録外等のため人口未集計"},"geometry":{"type":"Polygon","coordinates":[[[130.762810272,33.719671108],[130.763077782,33.719755],[130.763374994,33.720085],[130.764113891,33.720265829],[130.764733333,33.720903891999995],[130.765434994,33.720933333],[130.766508612,33.72115222499999],[130.767277224,33.72104305399999],[130.768381946,33.721335],[130.769162776,33.721230829],[130.769422503,33.721285558999995],[130.770104163,33.721637775],[130.77063166,33.721657775],[130.773298054,33.72257],[130.774111946,33.723058892],[130.774432218,33.72354389200001],[130.77449,33.723876387],[130.774424721,33.72414444099999],[130.774038612,33.72468082899999],[130.773908716,33.725],[130.775,33.725],[130.775,33.716666666666676],[130.7625,33.71666666666667],[130.7625,33.719736219598744],[130.762810272,33.719671108]]]}},{"type":"Feature","id":"40610:50304662","properties":{"id":"40610:50304662","meshCode":"50304662","cityCode":"40610","city":"福智町","lat":33.7208333,"lon":130.78125,"areaKm2":1.0706795,"populated2020":true,"population2020":228.7239,"populationNote":"収録500mメッシュ人口の合算（原典収録外は補完しない）"},"geometry":{"type":"Polygon","coordinates":[[[130.7875,33.71666666666667],[130.775,33.716666666666676],[130.775,33.725],[130.7875,33.724999999999994],[130.7875,33.71666666666667]]]}},{"type":"Feature","id":"40610:50304663","properties":{"id":"40610:50304663","meshCode":"50304663","cityCode":"40610","city":"福智町","lat":33.7208333,"lon":130.79375,"areaKm2":1.0706783,"populated2020":true,"population2020":28.6232,"populationNote":"収録500mメッシュ人口の合算（原典収録外は補完しない）"},"geometry":{"type":"Polygon","coordinates":[[[130.8,33.71666666666666],[130.7875,33.71666666666667],[130.7875,33.724999999999994],[130.8,33.724999999999994],[130.8,33.71666666666666]]]}},{"type":"Feature","id":"40610:50304664","properties":{"id":"40610:50304664","meshCode":"50304664","cityCode":"40610","city":"福智町","lat":33.7208333,"lon":130.80625,"areaKm2":1.0706772,"populated2020":false,"population2020":null,"populationNote":"境界またぎ・収録外等のため人口未集計"},"geometry":{"type":"Polygon","coordinates":[[[130.8125,33.716666666666676],[130.8,33.71666666666666],[130.8,33.724999999999994],[130.8125,33.724999999999994],[130.8125,33.716666666666676]]]}},{"type":"Feature","id":"40610:50304665","properties":{"id":"40610:50304665","meshCode":"50304665","cityCode":"40610","city":"福智町","lat":33.7203397,"lon":130.8176205,"areaKm2":0.8371586,"populated2020":false,"population2020":null,"populationNote":"境界またぎ・収録外等のため人口未集計"},"geometry":{"type":"Polygon","coordinates":[[[130.822760558,33.720661667],[130.823248612,33.72011166699999],[130.823914163,33.719590829],[130.824212503,33.719036946],[130.824708612,33.718645],[130.825,33.718287414],[130.825,33.71666666666667],[130.8125,33.716666666666676],[130.8125,33.724999999999994],[130.820642192,33.725],[130.820004163,33.72410638699999],[130.819587497,33.723112775],[130.819562776,33.722853613],[130.820253606,33.721984162],[130.820731115,33.721517225],[130.820897497,33.720997495],[130.821941115,33.72114166699999],[130.822024994,33.721263892],[130.822760558,33.720661667]]]}},{"type":"Feature","id":"40610:50304666","properties":{"id":"40610:50304666","meshCode":"50304666","cityCode":"40610","city":"福智町","lat":33.7173889,"lon":130.8250742,"areaKm2":0.0021521,"populated2020":false,"population2020":null,"populationNote":"境界またぎ・収録外等のため人口未集計"},"geometry":{"type":"Polygon","coordinates":[[[130.825003891,33.71828249499999],[130.825149728,33.71786694600001],[130.825093061,33.716974441],[130.8252917512368,33.71666666666667],[130.825,33.71666666666667],[130.825003891,33.71828249499999]]]}},{"type":"Feature","id":"40610:50304671","properties":{"id":"40610:50304671","meshCode":"50304671","cityCode":"40610","city":"福智町","lat":33.7251742,"lon":130.7745382,"areaKm2":0.0036544,"populated2020":true,"population2020":null,"populationNote":"境界またぎ・収録外等のため人口未集計"},"geometry":{"type":"Polygon","coordinates":[[[130.773886109,33.725173053999995],[130.774594163,33.725353892],[130.775,33.725488559],[130.775,33.725],[130.773908716,33.725],[130.773886109,33.725173053999995]]]}},{"type":"Feature","id":"40610:50304672","properties":{"id":"40610:50304672","meshCode":"50304672","cityCode":"40610","city":"福智町","lat":33.7277881,"lon":130.7836616,"areaKm2":0.4670519,"populated2020":true,"population2020":null,"populationNote":"境界またぎ・収録外等のため人口未集計"},"geometry":{"type":"Polygon","coordinates":[[[130.775,33.725488559],[130.776400272,33.725928333],[130.777621946,33.72614],[130.778362218,33.727092225],[130.778906667,33.72744805400001],[130.779446667,33.727659441],[130.780089442,33.727710559],[130.782038885,33.727408054],[130.782602218,33.727590559],[130.783600558,33.728602775],[130.78403166,33.729171945999994],[130.784302218,33.730196946],[130.784339442,33.731069162],[130.784207224,33.731434162],[130.784488885,33.731762495],[130.784753333,33.731784162],[130.78494,33.731915559],[130.78550769107017,33.733333333333334],[130.7875,33.73333333333334],[130.7875,33.724999999999994],[130.775,33.725],[130.775,33.725488559]]]}},{"type":"Feature","id":"40610:50304673","properties":{"id":"40610:50304673","meshCode":"50304673","cityCode":"40610","city":"福智町","lat":33.7291667,"lon":130.79375,"areaKm2":1.0705763,"populated2020":true,"population2020":17.3397,"populationNote":"収録500mメッシュ人口の合算（原典収録外は補完しない）"},"geometry":{"type":"Polygon","coordinates":[[[130.8,33.724999999999994],[130.7875,33.724999999999994],[130.7875,33.73333333333334],[130.8,33.73333333333333],[130.8,33.724999999999994]]]}},{"type":"Feature","id":"40610:50304674","properties":{"id":"40610:50304674","meshCode":"50304674","cityCode":"40610","city":"福智町","lat":33.7291188,"lon":130.806174,"areaKm2":1.0565163,"populated2020":false,"population2020":null,"populationNote":"境界またぎ・収録外等のため人口未集計"},"geometry":{"type":"Polygon","coordinates":[[[130.8125,33.724999999999994],[130.8,33.724999999999994],[130.8,33.73333333333333],[130.8108970298009,33.733333333333334],[130.811128612,33.732991387],[130.811676394,33.732582775000004],[130.812108885,33.732134162],[130.8125,33.73148329517556],[130.8125,33.724999999999994]]]}},{"type":"Feature","id":"40610:50304675","properties":{"id":"40610:50304675","meshCode":"50304675","cityCode":"40610","city":"福智町","lat":33.7266848,"lon":130.8155277,"areaKm2":0.2259996,"populated2020":false,"population2020":null,"populationNote":"境界またぎ・収録外等のため人口未集計"},"geometry":{"type":"Polygon","coordinates":[[[130.819272218,33.726435829],[130.820932776,33.725488613],[130.820642192,33.725],[130.8125,33.724999999999994],[130.8125,33.73148329517556],[130.813284721,33.730570829],[130.813325279,33.730180559],[130.813235279,33.729486946],[130.81345166,33.729211387],[130.813858885,33.728901387],[130.813902218,33.728211946],[130.814090558,33.727995],[130.814693606,33.727746946],[130.81513693900004,33.72766861299999],[130.815639442,33.727672225],[130.816255551,33.727865279],[130.816849442,33.72779249500001],[130.817033061,33.72772666699999],[130.817937782,33.727012225],[130.819272218,33.726435829]]]}},{"type":"Feature","id":"40610:50304682","properties":{"id":"40610:50304682","meshCode":"50304682","cityCode":"40610","city":"福智町","lat":33.7336998,"lon":130.7863368,"areaKm2":0.0137081,"populated2020":false,"population2020":null,"populationNote":"境界またぎ・収録外等のため人口未集計"},"geometry":{"type":"Polygon","coordinates":[[[130.78550769107017,33.733333333333334],[130.785523333,33.734093613],[130.785640272,33.734241387],[130.785904721,33.734303612999994],[130.78663583700003,33.733933054],[130.7875,33.733708089864216],[130.7875,33.73333333333334],[130.78550769107017,33.733333333333334]]]}},{"type":"Feature","id":"40610:50304683","properties":{"id":"40610:50304683","meshCode":"50304683","cityCode":"40610","city":"福智町","lat":33.7366598,"lon":130.7941526,"areaKm2":0.7951108,"populated2020":false,"population2020":null,"populationNote":"境界またぎ・収録外等のため人口未集計"},"geometry":{"type":"Polygon","coordinates":[[[130.787753061,33.733845559],[130.788173333,33.734451387],[130.788551388,33.73549610799999],[130.788680272,33.737606387],[130.78855583700002,33.739140559],[130.788795279,33.73966749499999],[130.789883061,33.739990559],[130.791108885,33.740110829],[130.792121946,33.740753333],[130.793105279,33.74057638699999],[130.793486394,33.740738613],[130.793792776,33.740773333],[130.794454163,33.74054722499999],[130.795177782,33.739932495000005],[130.796098885,33.73944361299999],[130.797531946,33.73902582899999],[130.797682503,33.739231946],[130.8,33.740651027],[130.8,33.73333333333333],[130.7875,33.73333333333334],[130.7875,33.733708089864216],[130.787753061,33.733845559]]]}},{"type":"Feature","id":"40610:50304684","properties":{"id":"40610:50304684","meshCode":"50304684","cityCode":"40610","city":"福智町","lat":33.7369504,"lon":130.8031132,"areaKm2":0.4787901,"populated2020":false,"population2020":null,"populationNote":"境界またぎ・収録外等のため人口未集計"},"geometry":{"type":"Polygon","coordinates":[[[130.806807224,33.73438249499999],[130.808240272,33.734215279000004],[130.809736667,33.733704721],[130.810452503,33.733683054],[130.810661115,33.73361722500001],[130.8108970298009,33.733333333333334],[130.8,33.73333333333333],[130.8,33.740651027],[130.800442776,33.74092277500001],[130.801436667,33.74128777500001],[130.80205917,33.741605],[130.8042638001752,33.74166666666667],[130.805640558,33.737958892],[130.805590558,33.737730829],[130.805301388,33.737375279],[130.805142503,33.736711108],[130.80544111500004,33.735163333],[130.805727497,33.73457582900001],[130.806228612,33.734535828999995],[130.806807224,33.73438249499999]]]}},{"type":"Feature","id":"40610:50304694","properties":{"id":"40610:50304694","meshCode":"50304694","cityCode":"40610","city":"福智町","lat":33.7417977,"lon":130.8038859,"areaKm2":0.0018446,"populated2020":false,"population2020":null,"populationNote":"境界またぎ・収録外等のため人口未集計"},"geometry":{"type":"Polygon","coordinates":[[[130.80330377291875,33.74166666666667],[130.804028612,33.742035829],[130.8042638001752,33.74166666666667],[130.80330377291875,33.74166666666667]]]}}]}