{"type":"FeatureCollection","metadata":{"cityCode":"40621","city":"苅田町","resolution":1000,"boundaryDate":"2026-01-01","populationLabel":"2020年基準人口（国交省調整値）","method":"標準地域メッシュを行政界で切抜き。中心が区域外のとき区域内代表点を判定点にする。人口不明をゼロにしない。"},"features":[{"type":"Feature","id":"40621:50304785","properties":{"id":"40621:50304785","meshCode":"50304785","cityCode":"40621","city":"苅田町","lat":33.7393781,"lon":130.9454727,"areaKm2":0.4654671,"populated2020":true,"population2020":null,"populationNote":"境界またぎ・収録外等のため人口未集計"},"geometry":{"type":"Polygon","coordinates":[[[130.95,33.735684080999995],[130.94816917,33.73576666699999],[130.948146667,33.736199441],[130.945588054,33.73637889199999],[130.945062218,33.736650279],[130.943927497,33.737013333],[130.943807497,33.73738],[130.94347,33.737456946],[130.943426939,33.738295279],[130.943174994,33.73923610800001],[130.94317,33.73982861299999],[130.942926394,33.740013613],[130.942161115,33.740023054],[130.941338327,33.73974],[130.94074166,33.739968333],[130.94032555100003,33.740025829],[130.938695551,33.74013527899999],[130.938334163,33.740130828999995],[130.937934449,33.740024721],[130.9375,33.740083476851254],[130.9375,33.74166666666667],[130.95,33.74166666666667],[130.95,33.735684080999995]]]}},{"type":"Feature","id":"40621:50304786","properties":{"id":"40621:50304786","meshCode":"50304786","cityCode":"40621","city":"苅田町","lat":33.7393777,"lon":130.9554257,"areaKm2":0.5479321,"populated2020":true,"population2020":null,"populationNote":"境界またぎ・収録外等のため人口未集計"},"geometry":{"type":"Polygon","coordinates":[[[130.952822218,33.737294441],[130.95264055800004,33.736842775],[130.951905279,33.736417225],[130.951674163,33.735798892],[130.95153693900002,33.73569889200001],[130.95,33.735684080999995],[130.95,33.74166666666667],[130.9625,33.74166666666667],[130.9625,33.7388277171809],[130.958627224,33.738435],[130.957627782,33.738526667],[130.956994994,33.738680828999996],[130.956791115,33.738269721],[130.957176939,33.73784027899999],[130.957233606,33.737482495],[130.957008885,33.737312225],[130.956976667,33.73639777500001],[130.957410272,33.736328613],[130.957415837,33.736114721],[130.956418612,33.73615972099999],[130.95555917,33.736322225],[130.95467166,33.736991108000005],[130.95306917000002,33.737524441],[130.952822218,33.737294441]]]}},{"type":"Feature","id":"40621:50304784","properties":{"id":"40621:50304784","meshCode":"50304784","cityCode":"40621","city":"苅田町","lat":33.7409144,"lon":130.9346111,"areaKm2":0.092975,"populated2020":true,"population2020":null,"populationNote":"境界またぎ・収録外等のため人口未集計"},"geometry":{"type":"Polygon","coordinates":[[[130.937201946,33.740182495000006],[130.936260272,33.740190559],[130.935555837,33.739850829],[130.935270558,33.739835],[130.934971946,33.739876946],[130.934471115,33.740082775],[130.933241115,33.74014222499999],[130.931903891,33.740561667],[130.931436109,33.74109000000001],[130.9311110890514,33.74166666666667],[130.9375,33.74166666666667],[130.9375,33.740083476851254],[130.937201946,33.740182495000006]]]}},{"type":"Feature","id":"40621:50304787","properties":{"id":"40621:50304787","meshCode":"50304787","cityCode":"40621","city":"苅田町","lat":33.7405582,"lon":130.9649314,"areaKm2":0.1236101,"populated2020":true,"population2020":null,"populationNote":"境界またぎ・収録外等のため人口未集計"},"geometry":{"type":"Polygon","coordinates":[[[130.968603333,33.741251667],[130.965156667,33.739297775],[130.964053061,33.738990829],[130.9625,33.7388277171809],[130.9625,33.74166666666667],[130.96981147777103,33.74166666666667],[130.968603333,33.741251667]]]}},{"type":"Feature","id":"40621:50304788","properties":{"id":"40621:50304788","meshCode":"50304788","cityCode":"40621","city":"苅田町","lat":33.7414895,"lon":130.9858036,"areaKm2":0.0101024,"populated2020":true,"population2020":null,"populationNote":"境界またぎ・収録外等のため人口未集計"},"geometry":{"type":"Polygon","coordinates":[[[130.9875,33.74166666666666],[130.986477497,33.74131249500001],[130.985712218,33.741203333],[130.984801388,33.741378613],[130.9841743065763,33.74166666666666],[130.9875,33.74166666666666]]]}},{"type":"Feature","id":"40621:50304789","properties":{"id":"40621:50304789","meshCode":"50304789","cityCode":"40621","city":"苅田町","lat":33.7416536,"lon":130.9875394,"areaKm2":2.38e-05,"populated2020":true,"population2020":null,"populationNote":"境界またぎ・収録外等のため人口未集計"},"geometry":{"type":"Polygon","coordinates":[[[130.987593333,33.74165805399999],[130.9875,33.74162768144181],[130.9875,33.74166666666666],[130.987593333,33.74165805399999]]]}},{"type":"Feature","id":"40621:50304793","properties":{"id":"40621:50304793","meshCode":"50304793","cityCode":"40621","city":"苅田町","lat":33.7482252,"lon":130.9197381,"areaKm2":0.416622,"populated2020":true,"population2020":null,"populationNote":"境界またぎ・収録外等のため人口未集計"},"geometry":{"type":"Polygon","coordinates":[[[130.925,33.744857892],[130.923723333,33.74501333300001],[130.922724163,33.745363333],[130.922558327,33.745433613],[130.922352503,33.745949721],[130.920983333,33.746214720999994],[130.920636667,33.746409441],[130.920132776,33.746921946],[130.919839728,33.747061946],[130.918781946,33.747204162],[130.918060558,33.747660559],[130.916497782,33.74775000000002],[130.915572776,33.74752194599999],[130.91460166,33.747421946],[130.913400558,33.747459162],[130.9125,33.74764086410819],[130.9125,33.75000000000001],[130.925,33.75000000000001],[130.925,33.744857892]]]}},{"type":"Feature","id":"40621:50304794","properties":{"id":"40621:50304794","meshCode":"50304794","cityCode":"40621","city":"苅田町","lat":33.7463788,"lon":130.931951,"areaKm2":0.8890967,"populated2020":true,"population2020":null,"populationNote":"境界またぎ・収録外等のため人口未集計"},"geometry":{"type":"Polygon","coordinates":[[[130.9311110890514,33.74166666666667],[130.931086394,33.74249916200001],[130.930654449,33.743667495],[130.930084163,33.744195559000005],[130.929569442,33.74447389200001],[130.92911166,33.744663613],[130.928133606,33.74480638699999],[130.926608612,33.744881667000016],[130.925,33.744857892],[130.925,33.75000000000001],[130.9375,33.75],[130.9375,33.74166666666667],[130.9311110890514,33.74166666666667]]]}},{"type":"Feature","id":"40621:50304795","properties":{"id":"40621:50304795","meshCode":"50304795","cityCode":"40621","city":"苅田町","lat":33.7458333,"lon":130.94375,"areaKm2":1.0703633,"populated2020":true,"population2020":1069.4756,"populationNote":"収録500mメッシュ人口の合算（原典収録外は補完しない）"},"geometry":{"type":"Polygon","coordinates":[[[130.95,33.74166666666667],[130.9375,33.74166666666667],[130.9375,33.75],[130.95,33.75],[130.95,33.74166666666667]]]}},{"type":"Feature","id":"40621:50304796","properties":{"id":"40621:50304796","meshCode":"50304796","cityCode":"40621","city":"苅田町","lat":33.7458333,"lon":130.95625,"areaKm2":1.070363,"populated2020":true,"population2020":171.3528,"populationNote":"収録500mメッシュ人口の合算（原典収録外は補完しない）"},"geometry":{"type":"Polygon","coordinates":[[[130.9625,33.74166666666667],[130.95,33.74166666666667],[130.95,33.75],[130.9625,33.75000000000001],[130.9625,33.74166666666667]]]}},{"type":"Feature","id":"40621:50304797","properties":{"id":"40621:50304797","meshCode":"50304797","cityCode":"40621","city":"苅田町","lat":33.7458678,"lon":130.9687134,"areaKm2":1.061338,"populated2020":true,"population2020":1472.5881,"populationNote":"収録500mメッシュ人口の合算（原典収録外は補完しない）"},"geometry":{"type":"Polygon","coordinates":[[[130.975,33.74220200000001],[130.973982776,33.741858613000005],[130.972935551,33.741752225],[130.97096917,33.74182444100001],[130.970408327,33.741808332999994],[130.96981147777103,33.74166666666667],[130.9625,33.74166666666667],[130.9625,33.75000000000001],[130.975,33.75],[130.975,33.74220200000001]]]}},{"type":"Feature","id":"40621:50304798","properties":{"id":"40621:50304798","meshCode":"50304798","cityCode":"40621","city":"苅田町","lat":33.7464511,"lon":130.9817294,"areaKm2":0.8784718,"populated2020":true,"population2020":null,"populationNote":"境界またぎ・収録外等のため人口未集計"},"geometry":{"type":"Polygon","coordinates":[[[130.9841743065763,33.74166666666666],[130.982436667,33.742771387],[130.979127224,33.745137774999996],[130.978876939,33.74527444100001],[130.97852944200002,33.745340279000004],[130.977731115,33.745154162],[130.977257782,33.744772775],[130.975908885,33.74275638700001],[130.975525279,33.742419440999996],[130.975,33.74220200000001],[130.975,33.75],[130.9875,33.75000000000001],[130.9875,33.74166666666666],[130.9841743065763,33.74166666666666]]]}},{"type":"Feature","id":"40621:50304799","properties":{"id":"40621:50304799","meshCode":"50304799","cityCode":"40621","city":"苅田町","lat":33.7469689,"lon":130.992269,"areaKm2":0.6656636,"populated2020":true,"population2020":null,"populationNote":"境界またぎ・収録外等のため人口未集計"},"geometry":{"type":"Polygon","coordinates":[[[130.994090558,33.74491416200001],[130.991769728,33.743402495],[130.990779442,33.742911387],[130.98888083,33.742119162],[130.9875,33.74166666666666],[130.9875,33.75000000000001],[131.0,33.75],[131.0,33.748638892],[130.99870861200003,33.747981667],[130.99620166,33.746151667],[130.994090558,33.74491416200001]]]}},{"type":"Feature","id":"40621:50304792","properties":{"id":"40621:50304792","meshCode":"50304792","cityCode":"40621","city":"苅田町","lat":33.7490918,"lon":130.9113231,"areaKm2":0.0486894,"populated2020":false,"population2020":null,"populationNote":"境界またぎ・収録外等のため人口未集計"},"geometry":{"type":"Polygon","coordinates":[[[130.909894449,33.749339162],[130.909390726,33.75000000000001],[130.9125,33.75000000000001],[130.9125,33.74764086410819],[130.912068885,33.74770972100001],[130.91142083,33.748169441],[130.91039277600004,33.748611387],[130.910040558,33.74887777499999],[130.909894449,33.749339162]]]}},{"type":"Feature","id":"40621:50314090","properties":{"id":"40621:50314090","meshCode":"50314090","cityCode":"40621","city":"苅田町","lat":33.7495682,"lon":131.0014108,"areaKm2":0.0281131,"populated2020":false,"population2020":null,"populationNote":"境界またぎ・収録外等のため人口未集計"},"geometry":{"type":"Polygon","coordinates":[[[131.004168275,33.749918243],[131.002464163,33.749504721],[131.0,33.748638892],[131.0,33.75],[131.004160623,33.75000000000001],[131.004168275,33.749918243]]]}},{"type":"Feature","id":"40621:50305702","properties":{"id":"40621:50305702","meshCode":"50305702","cityCode":"40621","city":"苅田町","lat":33.7519468,"lon":130.9113144,"areaKm2":0.1065383,"populated2020":false,"population2020":null,"populationNote":"境界またぎ・収録外等のため人口未集計"},"geometry":{"type":"Polygon","coordinates":[[[130.909275551,33.75016082900001],[130.909358054,33.75072277500001],[130.909686939,33.75136472100001],[130.910935837,33.753205829],[130.911395279,33.754139441],[130.9125,33.755578485689696],[130.9125,33.75000000000001],[130.909390726,33.75000000000001],[130.909275551,33.75016082900001]]]}},{"type":"Feature","id":"40621:50305703","properties":{"id":"40621:50305703","meshCode":"50305703","cityCode":"40621","city":"苅田町","lat":33.7541187,"lon":130.9188481,"areaKm2":1.0527659,"populated2020":true,"population2020":18.6066,"populationNote":"収録500mメッシュ人口の合算（原典収録外は補完しない）"},"geometry":{"type":"Polygon","coordinates":[[[130.925,33.75000000000001],[130.9125,33.75000000000001],[130.9125,33.755578485689696],[130.913265279,33.756381946],[130.913416109,33.756699162000004],[130.913037497,33.757725],[130.9131349679394,33.75833333333333],[130.925,33.75833333333334],[130.925,33.75000000000001]]]}},{"type":"Feature","id":"40621:50305704","properties":{"id":"40621:50305704","meshCode":"50305704","cityCode":"40621","city":"苅田町","lat":33.7541667,"lon":130.93125,"areaKm2":1.0702615,"populated2020":true,"population2020":150.7061,"populationNote":"収録500mメッシュ人口の合算（原典収録外は補完しない）"},"geometry":{"type":"Polygon","coordinates":[[[130.9375,33.75],[130.925,33.75000000000001],[130.925,33.75833333333334],[130.9375,33.758333333333326],[130.9375,33.75]]]}},{"type":"Feature","id":"40621:50305705","properties":{"id":"40621:50305705","meshCode":"50305705","cityCode":"40621","city":"苅田町","lat":33.7541667,"lon":130.94375,"areaKm2":1.0702612,"populated2020":true,"population2020":429.6378,"populationNote":"収録500mメッシュ人口の合算（原典収録外は補完しない）"},"geometry":{"type":"Polygon","coordinates":[[[130.95,33.75],[130.9375,33.75],[130.9375,33.758333333333326],[130.95,33.75833333333333],[130.95,33.75]]]}},{"type":"Feature","id":"40621:50305706","properties":{"id":"40621:50305706","meshCode":"50305706","cityCode":"40621","city":"苅田町","lat":33.7541667,"lon":130.95625,"areaKm2":1.0702609,"populated2020":true,"population2020":9.149,"populationNote":"収録500mメッシュ人口の合算（原典収録外は補完しない）"},"geometry":{"type":"Polygon","coordinates":[[[130.9625,33.75000000000001],[130.95,33.75],[130.95,33.75833333333333],[130.9625,33.75833333333333],[130.9625,33.75000000000001]]]}},{"type":"Feature","id":"40621:50305707","properties":{"id":"40621:50305707","meshCode":"50305707","cityCode":"40621","city":"苅田町","lat":33.7541667,"lon":130.96875,"areaKm2":1.0702607,"populated2020":true,"population2020":2917.1274,"populationNote":"収録500mメッシュ人口の合算（原典収録外は補完しない）"},"geometry":{"type":"Polygon","coordinates":[[[130.975,33.75],[130.9625,33.75000000000001],[130.9625,33.75833333333333],[130.975,33.75833333333333],[130.975,33.75]]]}},{"type":"Feature","id":"40621:50305708","properties":{"id":"40621:50305708","meshCode":"50305708","cityCode":"40621","city":"苅田町","lat":33.7541667,"lon":130.98125,"areaKm2":1.0702606,"populated2020":true,"population2020":3803.9424,"populationNote":"収録500mメッシュ人口の合算（原典収録外は補完しない）"},"geometry":{"type":"Polygon","coordinates":[[[130.9875,33.75000000000001],[130.975,33.75],[130.975,33.75833333333333],[130.9875,33.75833333333333],[130.9875,33.75000000000001]]]}},{"type":"Feature","id":"40621:50305709","properties":{"id":"40621:50305709","meshCode":"50305709","cityCode":"40621","city":"苅田町","lat":33.7541667,"lon":130.99375,"areaKm2":1.0702604,"populated2020":true,"population2020":499.1639,"populationNote":"収録500mメッシュ人口の合算（原典収録外は補完しない）"},"geometry":{"type":"Polygon","coordinates":[[[131.0,33.75],[130.9875,33.75000000000001],[130.9875,33.75833333333333],[131.0,33.758333333333326],[131.0,33.75]]]}},{"type":"Feature","id":"40621:50315000","properties":{"id":"40621:50315000","meshCode":"50315000","cityCode":"40621","city":"苅田町","lat":33.7532624,"lon":131.0017095,"areaKm2":0.2501682,"populated2020":true,"population2020":263.8971,"populationNote":"収録500mメッシュ人口の合算（原典収録外は補完しない）"},"geometry":{"type":"Polygon","coordinates":[[[131.003492853,33.754256729999994],[131.003350195,33.75344],[131.004423541,33.752129568],[131.004225123,33.75166710800001],[131.004272166,33.75120527899999],[131.004156446,33.751173820000005],[131.003890169,33.751414117],[131.004054332,33.75116309],[131.004160623,33.75000000000001],[131.0,33.75],[131.0,33.758333333333326],[131.002508625537,33.758333333333326],[131.000808093,33.757277748],[131.001019131,33.756978396],[131.001125136,33.757066306],[131.001007899,33.756658216],[131.001437198,33.756096568000004],[131.002637951,33.754912757],[131.003455603,33.754403450000005],[131.003492853,33.754256729999994]]]}},{"type":"Feature","id":"40621:50305712","properties":{"id":"40621:50305712","meshCode":"50305712","cityCode":"40621","city":"苅田町","lat":33.7643327,"lon":130.9118287,"areaKm2":0.0694148,"populated2020":true,"population2020":null,"populationNote":"境界またぎ・収録外等のため人口未集計"},"geometry":{"type":"Polygon","coordinates":[[[130.9125,33.75989030432577],[130.911990272,33.760548613000005],[130.911821115,33.760948333],[130.911931115,33.762205559],[130.911725279,33.763269162],[130.911859611,33.76383635100001],[130.910650674,33.765504586],[130.910682335,33.765726883],[130.9101763291791,33.766666666666666],[130.9125,33.76666666666666],[130.9125,33.75989030432577]]]}},{"type":"Feature","id":"40621:50305713","properties":{"id":"40621:50305713","meshCode":"50305713","cityCode":"40621","city":"苅田町","lat":33.7625221,"lon":130.9187868,"areaKm2":1.0636296,"populated2020":false,"population2020":null,"populationNote":"境界またぎ・収録外等のため人口未集計"},"geometry":{"type":"Polygon","coordinates":[[[130.913044721,33.758929721],[130.9125,33.75989030432577],[130.9125,33.76666666666666],[130.925,33.766666666666666],[130.925,33.75833333333334],[130.9131349679394,33.75833333333333],[130.913044721,33.758929721]]]}},{"type":"Feature","id":"40621:50305714","properties":{"id":"40621:50305714","meshCode":"50305714","cityCode":"40621","city":"苅田町","lat":33.7625,"lon":130.93125,"areaKm2":1.0701595,"populated2020":true,"population2020":123.9714,"populationNote":"収録500mメッシュ人口の合算（原典収録外は補完しない）"},"geometry":{"type":"Polygon","coordinates":[[[130.9375,33.758333333333326],[130.925,33.75833333333334],[130.925,33.766666666666666],[130.9375,33.766666666666666],[130.9375,33.758333333333326]]]}},{"type":"Feature","id":"40621:50305715","properties":{"id":"40621:50305715","meshCode":"50305715","cityCode":"40621","city":"苅田町","lat":33.7625,"lon":130.94375,"areaKm2":1.0701591,"populated2020":true,"population2020":65.992,"populationNote":"収録500mメッシュ人口の合算（原典収録外は補完しない）"},"geometry":{"type":"Polygon","coordinates":[[[130.95,33.75833333333333],[130.9375,33.758333333333326],[130.9375,33.766666666666666],[130.95,33.76666666666667],[130.95,33.75833333333333]]]}},{"type":"Feature","id":"40621:50305716","properties":{"id":"40621:50305716","meshCode":"50305716","cityCode":"40621","city":"苅田町","lat":33.7625,"lon":130.95625,"areaKm2":1.0701588,"populated2020":false,"population2020":null,"populationNote":"境界またぎ・収録外等のため人口未集計"},"geometry":{"type":"Polygon","coordinates":[[[130.9625,33.75833333333333],[130.95,33.75833333333333],[130.95,33.76666666666667],[130.9625,33.766666666666666],[130.9625,33.75833333333333]]]}},{"type":"Feature","id":"40621:50305717","properties":{"id":"40621:50305717","meshCode":"50305717","cityCode":"40621","city":"苅田町","lat":33.7625,"lon":130.96875,"areaKm2":1.0701586,"populated2020":true,"population2020":1960.808,"populationNote":"収録500mメッシュ人口の合算（原典収録外は補完しない）"},"geometry":{"type":"Polygon","coordinates":[[[130.975,33.75833333333333],[130.9625,33.75833333333333],[130.9625,33.766666666666666],[130.975,33.766666666666666],[130.975,33.75833333333333]]]}},{"type":"Feature","id":"40621:50305718","properties":{"id":"40621:50305718","meshCode":"50305718","cityCode":"40621","city":"苅田町","lat":33.7625,"lon":130.98125,"areaKm2":1.0701584,"populated2020":true,"population2020":3572.497,"populationNote":"収録500mメッシュ人口の合算（原典収録外は補完しない）"},"geometry":{"type":"Polygon","coordinates":[[[130.9875,33.75833333333333],[130.975,33.75833333333333],[130.975,33.766666666666666],[130.9875,33.76666666666666],[130.9875,33.75833333333333]]]}},{"type":"Feature","id":"40621:50305719","properties":{"id":"40621:50305719","meshCode":"50305719","cityCode":"40621","city":"苅田町","lat":33.7625,"lon":130.99375,"areaKm2":1.0701584,"populated2020":false,"population2020":null,"populationNote":"境界またぎ・収録外等のため人口未集計"},"geometry":{"type":"Polygon","coordinates":[[[131.0,33.758333333333326],[130.9875,33.75833333333333],[130.9875,33.76666666666666],[131.0,33.766666666666666],[131.0,33.758333333333326]]]}},{"type":"Feature","id":"40621:50315010","properties":{"id":"40621:50315010","meshCode":"50315010","cityCode":"40621","city":"苅田町","lat":33.7633918,"lon":131.0049815,"areaKm2":0.7468354,"populated2020":false,"population2020":null,"populationNote":"境界またぎ・収録外等のため人口未集計"},"geometry":{"type":"Polygon","coordinates":[[[131.0125,33.76466101382154],[131.002508625537,33.758333333333326],[131.0,33.758333333333326],[131.0,33.766666666666666],[131.0125,33.76666666666666],[131.0125,33.76466101382154]]]}},{"type":"Feature","id":"40621:50315011","properties":{"id":"40621:50315011","meshCode":"50315011","cityCode":"40621","city":"苅田町","lat":33.7659981,"lon":131.0135491,"areaKm2":0.0324236,"populated2020":false,"population2020":null,"populationNote":"境界またぎ・収録外等のため人口未集計"},"geometry":{"type":"Polygon","coordinates":[[[131.0125,33.76466101382154],[131.0125,33.76666666666666],[131.0156472884769,33.766666666666666],[131.0125,33.76466101382154]]]}},{"type":"Feature","id":"40621:50305722","properties":{"id":"40621:50305722","meshCode":"50305722","cityCode":"40621","city":"苅田町","lat":33.76728,"lon":130.9116347,"areaKm2":0.0245066,"populated2020":false,"population2020":null,"populationNote":"境界またぎ・収録外等のため人口未集計"},"geometry":{"type":"Polygon","coordinates":[[[130.910176329,33.766666667],[130.91008677000002,33.76683330599999],[130.9125,33.76850233357895],[130.9125,33.76666666666666],[130.910176329,33.766666667]]]}},{"type":"Feature","id":"40621:50305723","properties":{"id":"40621:50305723","meshCode":"50305723","cityCode":"40621","city":"苅田町","lat":33.7704821,"lon":130.9197784,"areaKm2":0.8698059,"populated2020":false,"population2020":null,"populationNote":"境界またぎ・収録外等のため人口未集計"},"geometry":{"type":"Polygon","coordinates":[[[130.913937082,33.769551928],[130.916616732,33.77122327],[130.916647782,33.771599162],[130.916544721,33.771850829],[130.916331388,33.772078054],[130.915802218,33.772422775],[130.915644449,33.77289027900001],[130.916063061,33.774064441],[130.916143606,33.774557225],[130.916536939,33.77499166700001],[130.9170207,33.775],[130.917459728,33.774791946],[130.918283333,33.774712494999996],[130.91893166,33.774763613],[130.919310558,33.775],[130.925,33.775],[130.925,33.766666666666666],[130.9125,33.76666666666666],[130.9125,33.76850233357895],[130.913937082,33.769551928]]]}},{"type":"Feature","id":"40621:50305724","properties":{"id":"40621:50305724","meshCode":"50305724","cityCode":"40621","city":"苅田町","lat":33.7708333,"lon":130.93125,"areaKm2":1.0700573,"populated2020":true,"population2020":15.4998,"populationNote":"収録500mメッシュ人口の合算（原典収録外は補完しない）"},"geometry":{"type":"Polygon","coordinates":[[[130.9375,33.766666666666666],[130.925,33.766666666666666],[130.925,33.775],[130.9375,33.77499999999999],[130.9375,33.766666666666666]]]}},{"type":"Feature","id":"40621:50305725","properties":{"id":"40621:50305725","meshCode":"50305725","cityCode":"40621","city":"苅田町","lat":33.7708333,"lon":130.94375,"areaKm2":1.0700569,"populated2020":false,"population2020":null,"populationNote":"境界またぎ・収録外等のため人口未集計"},"geometry":{"type":"Polygon","coordinates":[[[130.95,33.76666666666667],[130.9375,33.766666666666666],[130.9375,33.77499999999999],[130.95,33.775000000000006],[130.95,33.76666666666667]]]}},{"type":"Feature","id":"40621:50305726","properties":{"id":"40621:50305726","meshCode":"50305726","cityCode":"40621","city":"苅田町","lat":33.7708333,"lon":130.95625,"areaKm2":1.0700567,"populated2020":false,"population2020":null,"populationNote":"境界またぎ・収録外等のため人口未集計"},"geometry":{"type":"Polygon","coordinates":[[[130.9625,33.766666666666666],[130.95,33.76666666666667],[130.95,33.775000000000006],[130.9625,33.77499999999999],[130.9625,33.766666666666666]]]}},{"type":"Feature","id":"40621:50305727","properties":{"id":"40621:50305727","meshCode":"50305727","cityCode":"40621","city":"苅田町","lat":33.7708333,"lon":130.96875,"areaKm2":1.0700564,"populated2020":true,"population2020":1694.7572,"populationNote":"収録500mメッシュ人口の合算（原典収録外は補完しない）"},"geometry":{"type":"Polygon","coordinates":[[[130.975,33.766666666666666],[130.9625,33.766666666666666],[130.9625,33.77499999999999],[130.975,33.775],[130.975,33.766666666666666]]]}},{"type":"Feature","id":"40621:50305728","properties":{"id":"40621:50305728","meshCode":"50305728","cityCode":"40621","city":"苅田町","lat":33.7708333,"lon":130.98125,"areaKm2":1.0700564,"populated2020":true,"population2020":2656.7738,"populationNote":"収録500mメッシュ人口の合算（原典収録外は補完しない）"},"geometry":{"type":"Polygon","coordinates":[[[130.9875,33.76666666666666],[130.975,33.766666666666666],[130.975,33.775],[130.9875,33.775000000000006],[130.9875,33.76666666666666]]]}},{"type":"Feature","id":"40621:50305729","properties":{"id":"40621:50305729","meshCode":"50305729","cityCode":"40621","city":"苅田町","lat":33.7704338,"lon":130.9932388,"areaKm2":0.9170223,"populated2020":false,"population2020":null,"populationNote":"境界またぎ・収録外等のため人口未集計"},"geometry":{"type":"Polygon","coordinates":[[[130.999273515,33.769370667000004],[131.0,33.769846523],[131.0,33.766666666666666],[130.9875,33.76666666666666],[130.9875,33.775000000000006],[130.994614332,33.775],[130.994465032,33.774900027],[130.993905863,33.774950414],[130.99190703,33.773622532],[130.992156783,33.773317586],[130.992867198,33.773443693999994],[130.993614773,33.77332958600001],[130.994129468,33.773075775],[130.994456887,33.77278538700001],[130.99528051900003,33.77314418900001],[130.996014604,33.772991559],[130.996300493,33.773125829],[130.996628482,33.773486586],[130.996990597,33.77365592799999],[130.997131725,33.773432955],[130.998861569,33.774197495],[130.999177497,33.774259892],[130.999327678,33.774019694],[131.0,33.77431882],[131.0,33.772602838],[130.997667095,33.771033297],[130.999273515,33.769370667000004]]]}},{"type":"Feature","id":"40621:50315020","properties":{"id":"40621:50315020","meshCode":"50315020","cityCode":"40621","city":"苅田町","lat":33.7703299,"lon":131.0069736,"areaKm2":0.8827534,"populated2020":false,"population2020":null,"populationNote":"境界またぎ・収録外等のため人口未集計"},"geometry":{"type":"MultiPolygon","coordinates":[[[[131.0,33.769846523],[131.007882555,33.775],[131.0125,33.775000000000006],[131.0125,33.76666666666666],[131.0,33.766666666666666],[131.0,33.769846523]]],[[[131.0,33.772787865],[131.000110558,33.772677216000005],[131.0,33.772602838],[131.0,33.772787865]]],[[[131.001234955,33.774865080999994],[131.001912023,33.774113991],[131.0,33.772831360000005],[131.0,33.77431882],[131.001234955,33.774865080999994]]]]}},{"type":"Feature","id":"40621:50315021","properties":{"id":"40621:50315021","meshCode":"50315021","cityCode":"40621","city":"苅田町","lat":33.7700745,"lon":131.014379,"areaKm2":0.2865882,"populated2020":false,"population2020":null,"populationNote":"境界またぎ・収録外等のため人口未集計"},"geometry":{"type":"Polygon","coordinates":[[[131.013649857,33.775],[131.017722789,33.767988243],[131.017527458,33.767863387],[131.017696796,33.767612162],[131.017583113,33.76757701799999],[131.017391738,33.767777477],[131.0156472884769,33.766666666666666],[131.0125,33.76666666666666],[131.0125,33.775000000000006],[131.013649857,33.775]]]}},{"type":"Feature","id":"40621:50305733","properties":{"id":"40621:50305733","meshCode":"50305733","cityCode":"40621","city":"苅田町","lat":33.7764641,"lon":130.9228561,"areaKm2":0.1432003,"populated2020":false,"population2020":null,"populationNote":"境界またぎ・収録外等のため人口未集計"},"geometry":{"type":"MultiPolygon","coordinates":[[[[130.916561479,33.775],[130.916823606,33.775036666999995],[130.9170207,33.775],[130.916561479,33.775]]],[[[130.919438885,33.775090829],[130.919721946,33.77605972100001],[130.920023061,33.776502224999994],[130.921107497,33.776746946],[130.922113333,33.777314441],[130.92315917,33.777687225],[130.923394449,33.77796638699999],[130.923658885,33.778711108],[130.923838885,33.778926946],[130.92412917000001,33.77909944100001],[130.925,33.77895216200001],[130.925,33.775],[130.919310558,33.775],[130.919438885,33.775090829]]]]}},{"type":"Feature","id":"40621:50305734","properties":{"id":"40621:50305734","meshCode":"50305734","cityCode":"40621","city":"苅田町","lat":33.776769,"lon":130.9297876,"areaKm2":0.3790593,"populated2020":false,"population2020":null,"populationNote":"境界またぎ・収録外等のため人口未集計"},"geometry":{"type":"Polygon","coordinates":[[[130.931191388,33.778483892],[130.932325837,33.777616667],[130.933743891,33.775846387],[130.934574449,33.776384162],[130.935438327,33.776580829],[130.936171388,33.776566946],[130.936921388,33.776232494999995],[130.937278054,33.776418613],[130.9375,33.77664283305771],[130.9375,33.77499999999999],[130.925,33.775],[130.925,33.77895216200001],[130.92562917,33.778849441],[130.92653,33.779425278999994],[130.92669166,33.77973555900001],[130.926919728,33.779918333],[130.927029728,33.779932225],[130.927626939,33.77969],[130.928189442,33.77920722500001],[130.92871166,33.779165829],[130.93055166,33.778746108],[130.931191388,33.778483892]]]}},{"type":"Feature","id":"40621:50305735","properties":{"id":"40621:50305735","meshCode":"50305735","cityCode":"40621","city":"苅田町","lat":33.7768462,"lon":130.9445708,"areaKm2":0.4427587,"populated2020":false,"population2020":null,"populationNote":"境界またぎ・収録外等のため人口未集計"},"geometry":{"type":"Polygon","coordinates":[[[130.937557224,33.776791108],[130.937667497,33.777084162],[130.93782917,33.777184162],[130.940123333,33.777881666999996],[130.940685551,33.778205559],[130.942222503,33.778498892],[130.942545837,33.778502225000004],[130.942887782,33.778374721],[130.943834721,33.777689162],[130.944173061,33.777609721],[130.944472218,33.77765666700001],[130.944810558,33.777829162],[130.945542218,33.77839805400001],[130.946542218,33.77857055900001],[130.947592218,33.779131666999994],[130.947808885,33.779307495],[130.947941388,33.779776387],[130.948411946,33.780228054],[130.948694994,33.780290279],[130.95,33.780161441],[130.95,33.775000000000006],[130.9375,33.77499999999999],[130.937557224,33.776791108]]]}},{"type":"Feature","id":"40621:50305736","properties":{"id":"40621:50305736","meshCode":"50305736","cityCode":"40621","city":"苅田町","lat":33.7788643,"lon":130.9567558,"areaKm2":0.9633438,"populated2020":false,"population2020":null,"populationNote":"境界またぎ・収録外等のため人口未集計"},"geometry":{"type":"Polygon","coordinates":[[[130.9625,33.77499999999999],[130.95,33.775000000000006],[130.95,33.780161441],[130.950361115,33.779927775],[130.950552503,33.779896667],[130.95221972800002,33.780630279],[130.953274721,33.780858054],[130.953461946,33.782131108],[130.95410472118124,33.78333333333334],[130.9625,33.78333333333333],[130.9625,33.77499999999999]]]}},{"type":"Feature","id":"40621:50305737","properties":{"id":"40621:50305737","meshCode":"50305737","cityCode":"40621","city":"苅田町","lat":33.7791667,"lon":130.96875,"areaKm2":1.0699544,"populated2020":true,"population2020":444.6835,"populationNote":"収録500mメッシュ人口の合算（原典収録外は補完しない）"},"geometry":{"type":"Polygon","coordinates":[[[130.975,33.775],[130.9625,33.77499999999999],[130.9625,33.78333333333333],[130.975,33.78333333333333],[130.975,33.775]]]}},{"type":"Feature","id":"40621:50305738","properties":{"id":"40621:50305738","meshCode":"50305738","cityCode":"40621","city":"苅田町","lat":33.7791667,"lon":130.98125,"areaKm2":1.0699541,"populated2020":true,"population2020":4487.2998,"populationNote":"収録500mメッシュ人口の合算（原典収録外は補完しない）"},"geometry":{"type":"Polygon","coordinates":[[[130.9875,33.775000000000006],[130.975,33.775],[130.975,33.78333333333333],[130.9875,33.783333333333324],[130.9875,33.775000000000006]]]}},{"type":"Feature","id":"40621:50305739","properties":{"id":"40621:50305739","meshCode":"50305739","cityCode":"40621","city":"苅田町","lat":33.7794732,"lon":130.9932724,"areaKm2":0.9673678,"populated2020":true,"population2020":13.4661,"populationNote":"収録500mメッシュ人口の合算（原典収録外は補完しない）"},"geometry":{"type":"Polygon","coordinates":[[[131.0,33.779033252],[130.999074916,33.77842289200001],[130.999340558,33.77815786499999],[130.994614332,33.775],[130.9875,33.775000000000006],[130.9875,33.783333333333324],[131.0,33.78333333333333],[131.0,33.779033252]]]}},{"type":"Feature","id":"40621:50315030","properties":{"id":"40621:50315030","meshCode":"50315030","cityCode":"40621","city":"苅田町","lat":33.7814973,"lon":131.0015725,"areaKm2":0.1787126,"populated2020":false,"population2020":null,"populationNote":"境界またぎ・収録外等のため人口未集計"},"geometry":{"type":"MultiPolygon","coordinates":[[[[131.011688833,33.77749339599999],[131.01213751,33.77700744999999],[131.0125,33.77724913531203],[131.012400973,33.77715051400001],[131.0125,33.77697901918264],[131.0125,33.775000000000006],[131.007882555,33.775],[131.011688833,33.77749339599999]]],[[[131.0125,33.77910220756384],[131.0125,33.77898980233638],[131.010637652,33.782201144000005],[131.010685577,33.782220757],[131.0125,33.77910220756384]]],[[[131.0,33.78333333333333],[131.0036899218375,33.783333333333324],[131.003702827,33.78325086500001],[131.00299697800003,33.78104797299999],[131.0,33.779033252],[131.0,33.78333333333333]]]]}},{"type":"Feature","id":"40621:50315031","properties":{"id":"40621:50315031","meshCode":"50315031","cityCode":"40621","city":"苅田町","lat":33.7758059,"lon":131.0128405,"areaKm2":0.0141485,"populated2020":false,"population2020":null,"populationNote":"境界またぎ・収録外等のため人口未集計"},"geometry":{"type":"MultiPolygon","coordinates":[[[[131.013649857,33.775],[131.0125,33.775000000000006],[131.0125,33.77697901918264],[131.012712075,33.77661174799999],[131.013649857,33.775]]],[[[131.0125,33.77910220756384],[131.013311868,33.777707811],[131.0125,33.777214280161566],[131.013233632,33.777725649],[131.0125,33.77898980233638],[131.0125,33.77910220756384]]],[[[131.017654864,33.783333333],[131.017653593,33.781148225],[131.017597315,33.781148586],[131.0175980030001,33.783333333333324],[131.017654864,33.783333333]]]]}},{"type":"Feature","id":"40621:50305746","properties":{"id":"40621:50305746","meshCode":"50305746","cityCode":"40621","city":"苅田町","lat":33.7868213,"lon":130.9591293,"areaKm2":0.5261984,"populated2020":false,"population2020":null,"populationNote":"境界またぎ・収録外等のため人口未集計"},"geometry":{"type":"Polygon","coordinates":[[[130.95410472118124,33.78333333333334],[130.954728054,33.784907225],[130.955246667,33.78542777500001],[130.95492166,33.785853054],[130.955193606,33.78692194600001],[130.955428885,33.787187495000005],[130.955851946,33.787384161999995],[130.956072503,33.78758749499999],[130.956549728,33.78877110799999],[130.957314449,33.789343613],[130.957566394,33.790755278999995],[130.95772083,33.79081055900001],[130.95900749700002,33.79044833299999],[130.959658327,33.79043110800001],[130.959985551,33.790548333],[130.960333061,33.79079166700001],[130.960561115,33.791301946],[130.96096202263686,33.791666666666664],[130.9625,33.791666666666664],[130.9625,33.78333333333333],[130.95410472118124,33.78333333333334]]]}},{"type":"Feature","id":"40621:50305747","properties":{"id":"40621:50305747","meshCode":"50305747","cityCode":"40621","city":"苅田町","lat":33.7875,"lon":130.96875,"areaKm2":1.0698521,"populated2020":true,"population2020":139.8624,"populationNote":"収録500mメッシュ人口の合算（原典収録外は補完しない）"},"geometry":{"type":"Polygon","coordinates":[[[130.975,33.78333333333333],[130.9625,33.78333333333333],[130.9625,33.791666666666664],[130.975,33.79166666666666],[130.975,33.78333333333333]]]}},{"type":"Feature","id":"40621:50305748","properties":{"id":"40621:50305748","meshCode":"50305748","cityCode":"40621","city":"苅田町","lat":33.7875332,"lon":130.9811267,"areaKm2":1.0446852,"populated2020":true,"population2020":3892.8305,"populationNote":"収録500mメッシュ人口の合算（原典収録外は補完しない）"},"geometry":{"type":"Polygon","coordinates":[[[130.986979754,33.787401441],[130.987146278,33.787341305999995],[130.986046744,33.78607202700001],[130.98500847,33.785568694],[130.985052477,33.785355],[130.984975694,33.785346081],[130.985177082,33.784757586000005],[130.985538586,33.784850135],[130.985552607,33.78493002700001],[130.985580467,33.784860532],[130.985988949,33.784967946],[130.986156252,33.785478306],[130.986871414,33.78617608100001],[130.987230117,33.786320288000006],[130.9875,33.78625137090285],[130.9875,33.783333333333324],[130.975,33.78333333333333],[130.975,33.79166666666666],[130.9875,33.791666666666664],[130.9875,33.78810166924934],[130.987313165,33.787694865],[130.987073554,33.787659333],[130.986979754,33.787401441]]]}},{"type":"Feature","id":"40621:50305749","properties":{"id":"40621:50305749","meshCode":"50305749","cityCode":"40621","city":"苅田町","lat":33.7870535,"lon":130.9942446,"areaKm2":0.8914343,"populated2020":true,"population2020":60.0711,"populationNote":"収録500mメッシュ人口の合算（原典収録外は補完しない）"},"geometry":{"type":"MultiPolygon","coordinates":[[[[130.98873406,33.785999721],[130.990256252,33.789365360000005],[130.991063696,33.78912755899999],[130.99220897484838,33.791666666666664],[130.9962116590461,33.79166666666667],[130.99560275,33.791028414],[130.996584617,33.790440198],[130.998297082,33.791542054],[131.0,33.789661414],[131.0,33.78333333333333],[130.9875,33.783333333333324],[130.9875,33.78625137090285],[130.987568638,33.78636658600001],[130.98873406,33.785999721]]],[[[130.9875,33.791666666666664],[130.988887575,33.791257171],[130.98899499393926,33.791666666666664],[130.988918586,33.79124736000001],[130.9875,33.78810166924934],[130.9875,33.791666666666664]]]]}},{"type":"Feature","id":"40621:50315040","properties":{"id":"40621:50315040","meshCode":"50315040","cityCode":"40621","city":"苅田町","lat":33.7866109,"lon":131.001031,"areaKm2":0.1694285,"populated2020":false,"population2020":null,"populationNote":"境界またぎ・収録外等のため人口未集計"},"geometry":{"type":"MultiPolygon","coordinates":[[[[131.001426913,33.78786286500001],[131.001685616,33.787370198000005],[131.0036899218375,33.783333333333324],[131.0,33.78333333333333],[131.0,33.789661414],[131.000639222,33.788961883000006],[131.001473904,33.789830378],[131.001228249,33.790133946],[131.001505214,33.789829622],[131.000712957,33.789004577],[131.001329857,33.78834219800001],[131.001531894,33.78792597299999],[131.001426913,33.78786286500001]]],[[[131.00837675982194,33.7875],[131.00741987,33.790135279],[131.006758988,33.79013942300001],[131.00649,33.79001996400001],[131.006225473,33.78999691899999],[131.006192646,33.789923135],[131.006202192,33.789986622],[131.006286615,33.790139098999994],[131.006469196,33.790224676],[131.007013722,33.790976441],[131.007628003,33.79107936],[131.007725305,33.79136113500001],[131.008183528,33.79149419800001],[131.00846128355332,33.79166666666666],[131.01060622588892,33.79166666666666],[131.010389663,33.791426225],[131.009847198,33.791263495],[131.00794703,33.790309613],[131.007592802,33.789866892],[131.008460778,33.787460288],[131.00837675982194,33.7875]]]]}},{"type":"Feature","id":"40621:50315041","properties":{"id":"40621:50315041","meshCode":"50315041","cityCode":"40621","city":"苅田町","lat":33.7871259,"lon":131.0176571,"areaKm2":0.0032069,"populated2020":false,"population2020":null,"populationNote":"境界またぎ・収録外等のため人口未集計"},"geometry":{"type":"MultiPolygon","coordinates":[[[[131.0175980030001,33.783333333333324],[131.017626744,33.787605739],[131.017704851,33.787604811],[131.0176548640002,33.783333333333324],[131.0175980030001,33.783333333333324]]],[[[131.017626304,33.787877423],[131.017602879,33.790986459],[131.01820374773692,33.791666666666664],[131.017659637,33.79097726100001],[131.01770546,33.787876622],[131.017626304,33.787877423]]]]}},{"type":"Feature","id":"40621:50305756","properties":{"id":"40621:50305756","meshCode":"50305756","cityCode":"40621","city":"苅田町","lat":33.7922366,"lon":130.962009,"areaKm2":0.0129241,"populated2020":false,"population2020":null,"populationNote":"境界またぎ・収録外等のため人口未集計"},"geometry":{"type":"Polygon","coordinates":[[[130.960962023,33.79166666700001],[130.961432503,33.792112225],[130.9625,33.793401748229],[130.9625,33.791666666666664],[130.960962023,33.79166666700001]]]}},{"type":"Feature","id":"40621:50305757","properties":{"id":"40621:50305757","meshCode":"50305757","cityCode":"40621","city":"苅田町","lat":33.7952645,"lon":130.9698701,"areaKm2":0.8302138,"populated2020":true,"population2020":null,"populationNote":"境界またぎ・収録外等のため人口未集計"},"geometry":{"type":"Polygon","coordinates":[[[130.9625,33.793401748229],[130.963665279,33.794859721],[130.965241115,33.795686667000005],[130.966322218,33.796579721],[130.966643891,33.797056946],[130.96671749700002,33.79753277500001],[130.966835279,33.797684441],[130.967491946,33.798096386999994],[130.967863333,33.798527225],[130.968308327,33.798834162],[130.969454864,33.79999999999999],[130.975,33.8],[130.975,33.79166666666666],[130.9625,33.791666666666664],[130.9625,33.793401748229]]]}},{"type":"Feature","id":"40621:50305758","properties":{"id":"40621:50305758","meshCode":"50305758","cityCode":"40621","city":"苅田町","lat":33.7958613,"lon":130.9811952,"areaKm2":1.0601097,"populated2020":true,"population2020":2647.6762,"populationNote":"収録500mメッシュ人口の合算（原典収録外は補完しない）"},"geometry":{"type":"Polygon","coordinates":[[[130.9875,33.794003389970655],[130.98725166,33.794030865],[130.987193359,33.793673568],[130.9875,33.793609653407096],[130.987188872,33.793644874],[130.986932283,33.792090919],[130.986991051,33.791875802],[130.9875,33.791666666666664],[130.975,33.79166666666666],[130.975,33.8],[130.9875,33.8],[130.9875,33.794003389970655]]]}},{"type":"Feature","id":"40621:50305759","properties":{"id":"40621:50305759","meshCode":"50305759","cityCode":"40621","city":"苅田町","lat":33.7940675,"lon":130.9966469,"areaKm2":0.479892,"populated2020":false,"population2020":null,"populationNote":"境界またぎ・収録外等のため人口未集計"},"geometry":{"type":"MultiPolygon","coordinates":[[[[130.9875,33.791666666666664],[130.9875,33.79169499105016],[130.98758905404713,33.791666666666664],[130.9875,33.791666666666664]]],[[[130.989146174,33.792496234],[130.98896047994066,33.791666666666664],[130.989108975,33.792500766],[130.989146174,33.792496234]]],[[[130.98954939,33.792576892],[130.989061505,33.793432333],[130.9875,33.793640789601874],[130.989085668,33.79346344100001],[130.98954939,33.792576892]]],[[[130.99220897484838,33.791666666666664],[130.993528106,33.794578108],[130.993467198,33.794703721000005],[130.999036783,33.79665802700001],[131.0,33.796137802],[131.0,33.792866694],[130.999206135,33.792588892],[130.999151505,33.792693027],[130.9962116590461,33.79166666666667],[130.99220897484838,33.791666666666664]]],[[[130.987880026,33.795917441],[130.987561284,33.79399664000001],[130.9875,33.794003389970655],[130.9875,33.8],[130.99620297,33.79999999999999],[130.993780169,33.79915769400001],[130.991750532,33.796807775],[130.991679027,33.79678533300001],[130.991827393,33.796966865],[130.991757613,33.79711319799999],[130.99127406,33.79655530600001],[130.991172218,33.796602],[130.989871388,33.796561694000005],[130.989881777,33.79644222499999],[130.989995162,33.79641608099999],[130.989204112,33.796398414],[130.98926153,33.79655630600001],[130.987850246,33.796513972999996],[130.987880026,33.795917441]]]]}},{"type":"Feature","id":"40621:50315050","properties":{"id":"40621:50315050","meshCode":"50315050","cityCode":"40621","city":"苅田町","lat":33.7948204,"lon":131.0010468,"areaKm2":0.0837104,"populated2020":false,"population2020":null,"populationNote":"境界またぎ・収録外等のため人口未集計"},"geometry":{"type":"MultiPolygon","coordinates":[[[[131.000202698,33.792939252000004],[131.0,33.792866694],[131.0,33.793327162],[131.000149364,33.79303880199999],[131.000202698,33.792939252000004]]],[[[131.00846128355332,33.79166666666666],[131.009848171,33.79299261300001],[131.010192892,33.793124864999996],[131.010443774,33.793352414],[131.011597834,33.79353661300001],[131.011829689,33.793647946],[131.011947613,33.793621694],[131.0125,33.79515491217133],[131.012056083,33.79386827900001],[131.012245253,33.793678721],[131.012397951,33.793632198],[131.012366861,33.793728135],[131.0125,33.79367282107899],[131.0125,33.793054466470394],[131.012301971,33.793031892],[131.0117693,33.792618891999986],[131.011411167,33.792485559],[131.011034994,33.792226198],[131.010862114,33.79220025200001],[131.01072061,33.79195291900001],[131.011021803,33.791993919],[131.010767588,33.791889721],[131.01060622588892,33.79166666666666],[131.00846128355332,33.79166666666666]]],[[[131.0,33.796137802],[131.001949974,33.795088495],[131.002434189,33.794183892],[131.0,33.793363225],[131.0,33.796137802]]],[[[131.0125,33.79994884934167],[131.01218911800007,33.799996027000084],[131.01218985700018,33.8],[131.0125,33.8],[131.0125,33.79994884934167]]]]}},{"type":"Feature","id":"40621:50315051","properties":{"id":"40621:50315051","meshCode":"50315051","cityCode":"40621","city":"苅田町","lat":33.7933799,"lon":131.01282,"areaKm2":0.0066962,"populated2020":false,"population2020":null,"populationNote":"境界またぎ・収録外等のため人口未集計"},"geometry":{"type":"MultiPolygon","coordinates":[[[[131.020425577,33.794415568],[131.01817245073758,33.791666666666664],[131.020363567,33.794449955000005],[131.020425577,33.794415568]]],[[[131.012778418,33.793617559],[131.013345383,33.79370069400001],[131.013164254,33.79339661299999],[131.0125,33.793054466470394],[131.0125,33.79367282107899],[131.012778418,33.793617559]]],[[[131.023234773,33.798054711999995],[131.020659326,33.794718568],[131.02059786,33.794751288],[131.02319978,33.798085342],[131.024017756,33.798409423],[131.023234773,33.798054711999995]]],[[[131.0125,33.79510723675403],[131.013129585,33.797047468],[131.0132393,33.797028252],[131.0125,33.79510723675403]]],[[[131.0125,33.8],[131.01252601800002,33.79994490100012],[131.0125,33.79994884934167],[131.0125,33.8]]]]}},{"type":"Feature","id":"40621:50305767","properties":{"id":"40621:50305767","meshCode":"50305767","cityCode":"40621","city":"苅田町","lat":33.801996,"lon":130.9731096,"areaKm2":0.1740226,"populated2020":true,"population2020":null,"populationNote":"境界またぎ・収録外等のため人口未集計"},"geometry":{"type":"Polygon","coordinates":[[[130.969454864,33.79999999999999],[130.970094163,33.800573613],[130.970395551,33.801187495],[130.971074721,33.80183749500001],[130.971365279,33.802399441],[130.971530272,33.802454721],[130.971629728,33.802399441],[130.971894449,33.802544441],[130.972555279,33.803663333],[130.975,33.805686721],[130.975,33.8],[130.969454864,33.79999999999999]]]}},{"type":"Feature","id":"40621:50305768","properties":{"id":"40621:50305768","meshCode":"50305768","cityCode":"40621","city":"苅田町","lat":33.8040204,"lon":130.9814784,"areaKm2":1.024056,"populated2020":true,"population2020":1109.9531,"populationNote":"収録500mメッシュ人口の合算（原典収録外は補完しない）"},"geometry":{"type":"Polygon","coordinates":[[[130.9875,33.8],[130.975,33.8],[130.975,33.805686721],[130.9783586644009,33.80833333333333],[130.9875,33.80833333333334],[130.9875,33.8]]]}},{"type":"Feature","id":"40621:50305769","properties":{"id":"40621:50305769","meshCode":"50305769","cityCode":"40621","city":"苅田町","lat":33.8041114,"lon":130.9933033,"areaKm2":0.9821103,"populated2020":false,"population2020":null,"populationNote":"境界またぎ・収録外等のため人口未集計"},"geometry":{"type":"MultiPolygon","coordinates":[[[[130.999214137,33.80393625199999],[130.999623696,33.80385716200001],[131.0,33.80311508100001],[131.0,33.800543225],[130.998248301,33.800635027000006],[130.998174332,33.80078289200001],[130.998039339,33.800848532],[130.997479663,33.800647081],[130.997411089,33.800529892],[130.996631984,33.80025635999999],[130.996654332,33.800209505],[130.996953593,33.800315631],[130.99697994800002,33.800271541],[130.99620297,33.79999999999999],[130.9875,33.8],[130.9875,33.80833333333334],[130.9970047468395,33.80833333333333],[130.999214137,33.80393625199999]]],[[[130.998819105,33.807100495],[130.99819719784568,33.80833333333334],[131.0,33.80833333333333],[131.0,33.80692074800005],[130.998819105,33.807100495]]]]}},{"type":"Feature","id":"40621:50315060","properties":{"id":"40621:50315060","meshCode":"50315060","cityCode":"40621","city":"苅田町","lat":33.8070296,"lon":131.0054795,"areaKm2":0.2013351,"populated2020":false,"population2020":null,"populationNote":"境界またぎ・収録外等のため人口未集計"},"geometry":{"type":"MultiPolygon","coordinates":[[[[131.007386744,33.800173081],[131.002199663,33.80043089200001],[131.002182503,33.800533386999994],[131.002216524,33.800443495],[131.004184306,33.800341748],[131.004191115,33.800424054],[131.004200415,33.800340829],[131.007386744,33.800173081]]],[[[131.005600921,33.80101678400007],[131.00783931299998,33.800715694000075],[131.00496182900008,33.806425613000044],[131.004454721,33.806248802000084],[131.0,33.80692074800005],[131.0,33.80833333333333],[131.0125,33.80833333333334],[131.0125,33.80646872806085],[131.01191824900013,33.80684825200012],[131.0115931910001,33.80649323400008],[131.01149544700013,33.80651018899994],[131.009281946,33.80796668500005],[131.00500224400014,33.8064441620001],[131.00788986999999,33.80070716200004],[131.0125,33.8],[131.007890428,33.80067173900005],[131.007808716,33.800133197999976],[131.00786412500008,33.80067363100005],[131.005600921,33.80101678400007]]],[[[131.005065966,33.801126054],[131.003465058,33.80134574800001],[131.003469274,33.801367748],[131.005065966,33.801126054]]],[[[131.0,33.80311508100001],[131.000674358,33.80178500000001],[131.002920947,33.801449639999994],[131.002314384,33.801525225],[131.002219442,33.800769081],[131.002276498,33.801530973],[131.000670584,33.801775162],[131.000236304,33.800530973],[131.0,33.800543225],[131.0,33.80311508100001]]]]}},{"type":"Feature","id":"40621:50315061","properties":{"id":"40621:50315061","meshCode":"50315061","cityCode":"40621","city":"苅田町","lat":33.8062656,"lon":131.0157395,"areaKm2":0.2251124,"populated2020":false,"population2020":null,"populationNote":"境界またぎ・収録外等のため人口未集計"},"geometry":{"type":"MultiPolygon","coordinates":[[[[131.01253772999996,33.79999999999999],[131.0125,33.80003668601294],[131.01254413700008,33.80003010799999],[131.01253772999996,33.79999999999999]]],[[[131.019201102,33.804771036000034],[131.01591736700004,33.80361936900005],[131.01353264600004,33.80517955900001],[131.0136705320001,33.805315577000044],[131.01376543499998,33.805253549999975],[131.01399204900008,33.80549534200008],[131.0125,33.80646872806085],[131.0125,33.80833333333334],[131.01741783383164,33.80833333333333],[131.019201102,33.804771036000034]]]]}},{"type":"Feature","id":"40621:50305778","properties":{"id":"40621:50305778","meshCode":"50305778","cityCode":"40621","city":"苅田町","lat":33.8104592,"lon":130.9866682,"areaKm2":0.1326373,"populated2020":false,"population2020":null,"populationNote":"境界またぎ・収録外等のため人口未集計"},"geometry":{"type":"Polygon","coordinates":[[[130.9783586644009,33.80833333333333],[130.981297134,33.81063034200001],[130.983310584,33.80874055900001],[130.983665875,33.808889531999995],[130.983455357,33.810011468],[130.983548833,33.810024378],[130.983747367,33.808902901],[130.983943748,33.80863609000001],[130.984333139,33.80878549500001],[130.984894189,33.809125946],[130.984986252,33.809601748],[130.985404332,33.809835775],[130.984996744,33.81073738700002],[130.985260804,33.810256468],[130.986866355,33.81082200000001],[130.986233943,33.812071333],[130.9875,33.812518275009815],[130.986274449,33.812059080999994],[130.986785642,33.81105136000001],[130.9875,33.811307187212364],[130.9875,33.80833333333334],[130.9783586644009,33.80833333333333]]]}},{"type":"Feature","id":"40621:50305779","properties":{"id":"40621:50305779","meshCode":"50305779","cityCode":"40621","city":"苅田町","lat":33.8110153,"lon":130.9945459,"areaKm2":0.6141172,"populated2020":false,"population2020":null,"populationNote":"境界またぎ・収録外等のため人口未集計"},"geometry":{"type":"MultiPolygon","coordinates":[[[[130.988212218,33.812384694],[130.98830166,33.812416252],[130.988770999,33.811494081],[130.989584747,33.81177889200001],[130.989340052,33.81226100000001],[130.989040415,33.81215780200001],[130.989020337,33.812203612999994],[130.989374838,33.81233069400001],[130.989641479,33.811798829],[131.0,33.81543974800004],[131.0,33.80833333333333],[130.99819719784568,33.80833333333334],[130.997258171,33.810201694],[130.996249364,33.80983364],[130.9970047468395,33.80833333333333],[130.9875,33.80833333333334],[130.9875,33.811307187212364],[130.988572892,33.811687108],[130.988212218,33.812384694]]],[[[130.9875,33.81248995091536],[130.988250195,33.812783108000005],[130.988846252,33.812714306],[130.988249001,33.81275327899999],[130.9875,33.81248995091536]]]]}},{"type":"Feature","id":"40621:50315070","properties":{"id":"40621:50315070","meshCode":"50315070","cityCode":"40621","city":"苅田町","lat":33.8124216,"lon":131.0063562,"areaKm2":1.047699,"populated2020":false,"population2020":null,"populationNote":"境界またぎ・収録外等のため人口未集計"},"geometry":{"type":"Polygon","coordinates":[[[131.0125,33.80833333333334],[131.0,33.80833333333333],[131.0,33.81543974800004],[131.00347544604887,33.81666666666667],[131.0125,33.81666666666666],[131.0125,33.80833333333334]]]}},{"type":"Feature","id":"40621:50315071","properties":{"id":"40621:50315071","meshCode":"50315071","cityCode":"40621","city":"苅田町","lat":33.8114716,"lon":131.0141704,"areaKm2":0.2416873,"populated2020":false,"population2020":null,"populationNote":"境界またぎ・収録外等のため人口未集計"},"geometry":{"type":"Polygon","coordinates":[[[131.01323478616683,33.81666666666667],[131.01741783383164,33.80833333333333],[131.0125,33.80833333333334],[131.0125,33.81666666666666],[131.01323478616683,33.81666666666667]]]}},{"type":"Feature","id":"40621:50305789","properties":{"id":"40621:50305789","meshCode":"50305789","cityCode":"40621","city":"苅田町","lat":33.818406,"lon":130.9955864,"areaKm2":0.0026108,"populated2020":false,"population2020":null,"populationNote":"境界またぎ・収録外等のため人口未集計"},"geometry":{"type":"Polygon","coordinates":[[[130.995497224,33.818256946],[130.994944163,33.81822889200001],[130.995368885,33.81851055900001],[130.995901946,33.818606387],[130.996178612,33.81855],[130.995942503,33.818364161999995],[130.995497224,33.818256946]]]}},{"type":"Feature","id":"40621:50315080","properties":{"id":"40621:50315080","meshCode":"50315080","cityCode":"40621","city":"苅田町","lat":33.8176569,"lon":131.009371,"areaKm2":0.1402583,"populated2020":false,"population2020":null,"populationNote":"境界またぎ・収録外等のため人口未集計"},"geometry":{"type":"Polygon","coordinates":[[[131.00347569400014,33.81666674799999],[131.01176920900002,33.81959056799997],[131.0125,33.81813523005918],[131.0125,33.81666666666666],[131.00347569400014,33.81666674799999]]]}},{"type":"Feature","id":"40621:50315081","properties":{"id":"40621:50315081","meshCode":"50315081","cityCode":"40621","city":"苅田町","lat":33.8171563,"lon":131.012745,"areaKm2":0.0055413,"populated2020":false,"population2020":null,"populationNote":"境界またぎ・収録外等のため人口未集計"},"geometry":{"type":"Polygon","coordinates":[[[131.0125,33.81813523005918],[131.0132347860001,33.816666667000106],[131.01323478616683,33.81666666666667],[131.0125,33.81666666666666],[131.0125,33.81813523005918]]]}},{"type":"Feature","id":"40621:50315082","properties":{"id":"40621:50315082","meshCode":"50315082","cityCode":"40621","city":"苅田町","lat":33.8227251,"lon":131.0344753,"areaKm2":0.282799,"populated2020":false,"population2020":null,"populationNote":"境界またぎ・収録外等のため人口未集計"},"geometry":{"type":"Polygon","coordinates":[[[131.0375,33.82071574349995],[131.03227016900007,33.81993161300005],[131.03214111500006,33.82001361300007],[131.031297912,33.82431872099994],[131.03121053200005,33.824362747999935],[131.03107885900013,33.824999999999996],[131.0375,33.824999999999996],[131.0375,33.82071574349995]]]}},{"type":"Feature","id":"40621:50315083","properties":{"id":"40621:50315083","meshCode":"50315083","cityCode":"40621","city":"苅田町","lat":33.8229385,"lon":131.0394152,"areaKm2":0.1608109,"populated2020":false,"population2020":null,"populationNote":"境界またぎ・収録外等のため人口未集計"},"geometry":{"type":"Polygon","coordinates":[[[131.0375,33.82071574349995],[131.0375,33.824999999999996],[131.04103243800003,33.825],[131.04178136199994,33.821324044999976],[131.0375,33.82071574349995]]]}},{"type":"Feature","id":"40621:50315092","properties":{"id":"40621:50315092","meshCode":"50315092","cityCode":"40621","city":"苅田町","lat":33.8293177,"lon":131.0338735,"areaKm2":0.6180233,"populated2020":false,"population2020":null,"populationNote":"境界またぎ・収録外等のため人口未集計"},"geometry":{"type":"Polygon","coordinates":[[[131.03107885900013,33.824999999999996],[131.0294631389315,33.833333333333336],[131.0375,33.833333333333336],[131.0375,33.824999999999996],[131.03107885900013,33.824999999999996]]]}},{"type":"Feature","id":"40621:50315093","properties":{"id":"40621:50315093","meshCode":"50315093","cityCode":"40621","city":"苅田町","lat":33.8287273,"lon":131.0388865,"areaKm2":0.2295705,"populated2020":false,"population2020":null,"populationNote":"境界またぎ・収録外等のため人口未集計"},"geometry":{"type":"Polygon","coordinates":[[[131.04103243800003,33.825],[131.0375,33.824999999999996],[131.0375,33.833333333333336],[131.03933462993214,33.833333333333336],[131.04103243800003,33.825]]]}},{"type":"Feature","id":"40621:50316002","properties":{"id":"40621:50316002","meshCode":"50316002","cityCode":"40621","city":"苅田町","lat":33.8341104,"lon":131.0339664,"areaKm2":0.1232106,"populated2020":false,"population2020":null,"populationNote":"境界またぎ・収録外等のため人口未集計"},"geometry":{"type":"Polygon","coordinates":[[[131.029281336,33.834218414],[131.034524968,33.834965252],[131.0375,33.83538813381739],[131.0375,33.833333333333336],[131.0294631389315,33.833333333333336],[131.029281336,33.834218414]]]}},{"type":"Feature","id":"40621:50316003","properties":{"id":"40621:50316003","meshCode":"50316003","cityCode":"40621","city":"苅田町","lat":33.8343619,"lon":131.0383217,"areaKm2":0.0357039,"populated2020":false,"population2020":null,"populationNote":"境界またぎ・収録外等のため人口未集計"},"geometry":{"type":"Polygon","coordinates":[[[131.0375,33.83538813381739],[131.038876148,33.835583748],[131.03933462993214,33.833333333333336],[131.0375,33.833333333333336],[131.0375,33.83538813381739]]]}}]}