{"type":"FeatureCollection","metadata":{"cityCode":"40642","city":"吉富町","resolution":500,"boundaryDate":"2026-01-01","populationLabel":"2020年基準人口（国交省調整値）","method":"標準地域メッシュを行政界で切抜き。中心が区域外のとき区域内代表点を判定点にする。人口不明をゼロにしない。"},"features":[{"type":"Feature","id":"40642:503131033","properties":{"id":"40642:503131033","meshCode":"503131033","cityCode":"40642","city":"吉富町","lat":33.5895833,"lon":131.165625,"areaKm2":0.134383,"populated2020":true,"population2020":4.0327,"populationNote":"2020年基準の国交省調整値"},"geometry":{"type":"Polygon","coordinates":[[[131.16875,33.58774355191349],[131.166316939,33.58895499999999],[131.166125551,33.588875],[131.165743333,33.588338333],[131.164924994,33.587871946],[131.16439166,33.58811166699999],[131.163837782,33.588229721],[131.163858054,33.588453613],[131.164126939,33.588916667],[131.164680558,33.589271387],[131.165046939,33.589664441],[131.16549795095125,33.591666666666676],[131.16875,33.59166666666667],[131.16875,33.58774355191349]]]}},{"type":"Feature","id":"40642:503131034","properties":{"id":"40642:503131034","meshCode":"503131034","cityCode":"40642","city":"吉富町","lat":33.5895833,"lon":131.171875,"areaKm2":0.1445794,"populated2020":true,"population2020":null,"populationNote":"境界またぎ・原典収録外のため自治体内人口は未集計"},"geometry":{"type":"Polygon","coordinates":[[[131.173583891,33.59139194600001],[131.173095837,33.590260559],[131.172851388,33.589404162],[131.172695837,33.588423892],[131.171361388,33.588419721],[131.171198327,33.58861138700001],[131.170249728,33.588790278999994],[131.170148054,33.588847775000005],[131.170070558,33.58932082900001],[131.169968885,33.589410279],[131.169854721,33.589352775],[131.169765279,33.58913555899999],[131.169492776,33.587568333],[131.16875,33.58774355191349],[131.16875,33.59166666666667],[131.17380719772905,33.591666666666676],[131.173583891,33.59139194600001]]]}},{"type":"Feature","id":"40642:503131131","properties":{"id":"40642:503131131","meshCode":"503131131","cityCode":"40642","city":"吉富町","lat":33.59375,"lon":131.165625,"areaKm2":0.1736283,"populated2020":true,"population2020":null,"populationNote":"境界またぎ・原典収録外のため自治体内人口は未集計"},"geometry":{"type":"Polygon","coordinates":[[[131.165497951,33.591666667],[131.165555837,33.592354721],[131.165425551,33.592453613],[131.165128612,33.593003333],[131.164855551,33.593223892],[131.164448612,33.593338892],[131.163939728,33.593706387000005],[131.164008885,33.593898054],[131.16499416300002,33.59482805399999],[131.165051115,33.59519194599999],[131.164436394,33.595297495],[131.163797224,33.595524441],[131.163369728,33.595508333000005],[131.16273405567193,33.59583333333333],[131.16875,33.59583333333333],[131.16875,33.59166666666667],[131.165497951,33.591666667]]]}},{"type":"Feature","id":"40642:503131132","properties":{"id":"40642:503131132","meshCode":"503131132","cityCode":"40642","city":"吉富町","lat":33.59375,"lon":131.171875,"areaKm2":0.2616134,"populated2020":true,"population2020":338.0354,"populationNote":"2020年基準の国交省調整値"},"geometry":{"type":"Polygon","coordinates":[[[131.174268054,33.592126946],[131.17380719772905,33.591666666666676],[131.16875,33.59166666666667],[131.16875,33.59583333333333],[131.175,33.59583333333334],[131.175,33.592607585999986],[131.174268054,33.592126946]]]}},{"type":"Feature","id":"40642:503131141","properties":{"id":"40642:503131141","meshCode":"503131141","cityCode":"40642","city":"吉富町","lat":33.5941925,"lon":131.1760649,"areaKm2":0.0642304,"populated2020":true,"population2020":22.3341,"populationNote":"2020年基準の国交省調整値"},"geometry":{"type":"Polygon","coordinates":[[[131.17808231762567,33.59583333333333],[131.177093333,33.59414],[131.176726939,33.59376305399999],[131.175668612,33.592989721],[131.175,33.592607585999986],[131.175,33.59583333333334],[131.17808231762567,33.59583333333333]]]}},{"type":"Feature","id":"40642:503131124","properties":{"id":"40642:503131124","meshCode":"503131124","cityCode":"40642","city":"吉富町","lat":33.5979167,"lon":131.159375,"areaKm2":0.1767984,"populated2020":true,"population2020":null,"populationNote":"境界またぎ・原典収録外のため自治体内人口は未集計"},"geometry":{"type":"Polygon","coordinates":[[[131.156652218,33.598253054],[131.157083891,33.599074441000006],[131.157250558,33.60000000000001],[131.1625,33.60000000000001],[131.1625,33.595896090311726],[131.161879728,33.596096387],[131.161167224,33.596529440999994],[131.16027166,33.596781667],[131.159465279,33.596861387],[131.158500558,33.597069162],[131.157051388,33.598101387],[131.156652218,33.598253054]]]}},{"type":"Feature","id":"40642:503131133","properties":{"id":"40642:503131133","meshCode":"503131133","cityCode":"40642","city":"吉富町","lat":33.5979167,"lon":131.165625,"areaKm2":0.2679687,"populated2020":true,"population2020":554.8702,"populationNote":"2020年基準の国交省調整値"},"geometry":{"type":"Polygon","coordinates":[[[131.162730272,33.59583444100001],[131.1625,33.595896090311726],[131.1625,33.60000000000001],[131.16875,33.6],[131.16875,33.59583333333333],[131.162730272,33.59583444100001]]]}},{"type":"Feature","id":"40642:503131134","properties":{"id":"40642:503131134","meshCode":"503131134","cityCode":"40642","city":"吉富町","lat":33.5979167,"lon":131.171875,"areaKm2":0.2680444,"populated2020":true,"population2020":464.5679,"populationNote":"2020年基準の国交省調整値"},"geometry":{"type":"Polygon","coordinates":[[[131.16875,33.59583333333333],[131.16875,33.6],[131.175,33.6],[131.175,33.59583333333334],[131.16875,33.59583333333333]]]}},{"type":"Feature","id":"40642:503131143","properties":{"id":"40642:503131143","meshCode":"503131143","cityCode":"40642","city":"吉富町","lat":33.5979167,"lon":131.178125,"areaKm2":0.1362705,"populated2020":true,"population2020":119.8992,"populationNote":"2020年基準の国交省調整値"},"geometry":{"type":"Polygon","coordinates":[[[131.177784643,33.6],[131.178273891,33.598153053999994],[131.178388054,33.59714361299999],[131.178379728,33.596817495],[131.17808231762567,33.59583333333333],[131.175,33.59583333333334],[131.175,33.6],[131.177784643,33.6]]]}},{"type":"Feature","id":"40642:503131221","properties":{"id":"40642:503131221","meshCode":"503131221","cityCode":"40642","city":"吉富町","lat":33.6024597,"lon":131.1545703,"areaKm2":0.0823974,"populated2020":true,"population2020":null,"populationNote":"境界またぎ・原典収録外のため自治体内人口は未集計"},"geometry":{"type":"Polygon","coordinates":[[[131.15625,33.60080448678821],[131.15284166,33.602274441000006],[131.152858054,33.602421387],[131.153728885,33.603814441000004],[131.15411632110738,33.604166666666664],[131.15625,33.604166666666664],[131.15625,33.60080448678821]]]}},{"type":"Feature","id":"40642:503131222","properties":{"id":"40642:503131222","meshCode":"503131222","cityCode":"40642","city":"吉富町","lat":33.6020833,"lon":131.159375,"areaKm2":0.2609758,"populated2020":true,"population2020":214.8953,"populationNote":"2020年基準の国交省調整値"},"geometry":{"type":"Polygon","coordinates":[[[131.157250558,33.60000000000001],[131.157328054,33.600515559],[131.15625,33.60080448678821],[131.15625,33.604166666666664],[131.1625,33.604166666666664],[131.1625,33.60000000000001],[131.157250558,33.60000000000001]]]}},{"type":"Feature","id":"40642:503131231","properties":{"id":"40642:503131231","meshCode":"503131231","cityCode":"40642","city":"吉富町","lat":33.6020833,"lon":131.165625,"areaKm2":0.2680316,"populated2020":true,"population2020":563.6291,"populationNote":"2020年基準の国交省調整値"},"geometry":{"type":"Polygon","coordinates":[[[131.1625,33.60000000000001],[131.1625,33.604166666666664],[131.16875,33.60416666666666],[131.16875,33.6],[131.1625,33.60000000000001]]]}},{"type":"Feature","id":"40642:503131232","properties":{"id":"40642:503131232","meshCode":"503131232","cityCode":"40642","city":"吉富町","lat":33.6020833,"lon":131.171875,"areaKm2":0.2680317,"populated2020":true,"population2020":443.0318,"populationNote":"2020年基準の国交省調整値"},"geometry":{"type":"Polygon","coordinates":[[[131.16875,33.6],[131.16875,33.60416666666666],[131.175,33.604166666666664],[131.175,33.6],[131.16875,33.6]]]}},{"type":"Feature","id":"40642:503131241","properties":{"id":"40642:503131241","meshCode":"503131241","cityCode":"40642","city":"吉富町","lat":33.6017989,"lon":131.1762156,"areaKm2":0.1081442,"populated2020":true,"population2020":178.512,"populationNote":"2020年基準の国交省調整値"},"geometry":{"type":"Polygon","coordinates":[[[131.17772179516723,33.60416666666666],[131.177378327,33.60293972099999],[131.177361946,33.602211108000006],[131.177784643,33.6],[131.175,33.6],[131.175,33.604166666666664],[131.17772179516723,33.60416666666666]]]}},{"type":"Feature","id":"40642:503131223","properties":{"id":"40642:503131223","meshCode":"503131223","cityCode":"40642","city":"吉富町","lat":33.6047443,"lon":131.1554872,"areaKm2":0.0145843,"populated2020":true,"population2020":null,"populationNote":"境界またぎ・原典収録外のため自治体内人口は未集計"},"geometry":{"type":"Polygon","coordinates":[[[131.15411632110738,33.604166666666664],[131.154787497,33.60479222499999],[131.155068612,33.604878333],[131.155601946,33.604894441],[131.15625,33.60539329650567],[131.15625,33.604166666666664],[131.15411632110738,33.604166666666664]]]}},{"type":"Feature","id":"40642:503131224","properties":{"id":"40642:503131224","meshCode":"503131224","cityCode":"40642","city":"吉富町","lat":33.60625,"lon":131.159375,"areaKm2":0.1904226,"populated2020":true,"population2020":null,"populationNote":"境界またぎ・原典収録外のため自治体内人口は未集計"},"geometry":{"type":"Polygon","coordinates":[[[131.15625,33.60539329650567],[131.156896667,33.605754162],[131.157381115,33.605348333],[131.157531388,33.605450559],[131.15784083,33.605789161999994],[131.158610272,33.60701944099999],[131.159575279,33.607243054],[131.160071946,33.60755305399999],[131.1601911150271,33.608333333333334],[131.1625,33.60833333333333],[131.1625,33.604166666666664],[131.15625,33.604166666666664],[131.15625,33.60539329650567]]]}},{"type":"Feature","id":"40642:503131233","properties":{"id":"40642:503131233","meshCode":"503131233","cityCode":"40642","city":"吉富町","lat":33.60625,"lon":131.165625,"areaKm2":0.2680188,"populated2020":true,"population2020":517.2947,"populationNote":"2020年基準の国交省調整値"},"geometry":{"type":"Polygon","coordinates":[[[131.1625,33.604166666666664],[131.1625,33.60833333333333],[131.16875,33.608333333333334],[131.16875,33.60416666666666],[131.1625,33.604166666666664]]]}},{"type":"Feature","id":"40642:503131234","properties":{"id":"40642:503131234","meshCode":"503131234","cityCode":"40642","city":"吉富町","lat":33.60625,"lon":131.171875,"areaKm2":0.268019,"populated2020":true,"population2020":554.4179,"populationNote":"2020年基準の国交省調整値"},"geometry":{"type":"Polygon","coordinates":[[[131.16875,33.60416666666666],[131.16875,33.608333333333334],[131.175,33.60833333333334],[131.175,33.604166666666664],[131.16875,33.60416666666666]]]}},{"type":"Feature","id":"40642:503131243","properties":{"id":"40642:503131243","meshCode":"503131243","cityCode":"40642","city":"吉富町","lat":33.60625,"lon":131.178125,"areaKm2":0.1582653,"populated2020":true,"population2020":312.7764,"populationNote":"2020年基準の国交省調整値"},"geometry":{"type":"Polygon","coordinates":[[[131.179897613,33.608333333000004],[131.178273606,33.605578892],[131.177915551,33.604824721],[131.17772179516723,33.60416666666666],[131.175,33.604166666666664],[131.175,33.60833333333334],[131.179897613,33.608333333000004]]]}},{"type":"Feature","id":"40642:503131322","properties":{"id":"40642:503131322","meshCode":"503131322","cityCode":"40642","city":"吉富町","lat":33.6096219,"lon":131.1616716,"areaKm2":0.0368782,"populated2020":true,"population2020":null,"populationNote":"境界またぎ・原典収録外のため自治体内人口は未集計"},"geometry":{"type":"Polygon","coordinates":[[[131.160194163,33.608370828999995],[131.160849442,33.609109162],[131.160955279,33.609508613],[131.16082083,33.609716108],[131.160995837,33.610070829],[131.161150558,33.610189162000005],[131.161415279,33.610077225],[131.16152917,33.610118892],[131.1625,33.61094422870968],[131.1625,33.60833333333333],[131.160194163,33.608370828999995]]]}},{"type":"Feature","id":"40642:503131331","properties":{"id":"40642:503131331","meshCode":"503131331","cityCode":"40642","city":"吉富町","lat":33.6104167,"lon":131.165625,"areaKm2":0.2379239,"populated2020":true,"population2020":194.1642,"populationNote":"2020年基準の国交省調整値"},"geometry":{"type":"Polygon","coordinates":[[[131.1625,33.61094422870968],[131.163234994,33.61137000000001],[131.164309728,33.611608054],[131.164635551,33.611604721],[131.165140272,33.611435559],[131.165315551,33.611457775],[131.165360272,33.611595279],[131.1650513284549,33.6125],[131.16875,33.61249999999999],[131.16875,33.608333333333334],[131.1625,33.60833333333333],[131.1625,33.61094422870968]]]}},{"type":"Feature","id":"40642:503131332","properties":{"id":"40642:503131332","meshCode":"503131332","cityCode":"40642","city":"吉富町","lat":33.6104167,"lon":131.171875,"areaKm2":0.2680062,"populated2020":true,"population2020":169.1621,"populationNote":"2020年基準の国交省調整値"},"geometry":{"type":"Polygon","coordinates":[[[131.16875,33.608333333333334],[131.16875,33.61249999999999],[131.175,33.6125],[131.175,33.60833333333334],[131.16875,33.608333333333334]]]}},{"type":"Feature","id":"40642:503131341","properties":{"id":"40642:503131341","meshCode":"503131341","cityCode":"40642","city":"吉富町","lat":33.6104167,"lon":131.178125,"areaKm2":0.2535438,"populated2020":true,"population2020":672.8173,"populationNote":"2020年基準の国交省調整値"},"geometry":{"type":"Polygon","coordinates":[[[131.18125,33.61040865837084],[131.17989761321635,33.60833333333333],[131.175,33.60833333333334],[131.175,33.6125],[131.18125,33.6125],[131.18125,33.61040865837084]]]}},{"type":"Feature","id":"40642:503131342","properties":{"id":"40642:503131342","meshCode":"503131342","cityCode":"40642","city":"吉富町","lat":33.6115369,"lon":131.1816187,"areaKm2":0.0148507,"populated2020":false,"population2020":null,"populationNote":"境界またぎ・原典収録外のため自治体内人口は未集計"},"geometry":{"type":"Polygon","coordinates":[[[131.182637782,33.612474162000005],[131.182157224,33.611796946],[131.18125,33.61040865837084],[131.18125,33.6125],[131.182637782,33.612474162000005]]]}},{"type":"Feature","id":"40642:503131333","properties":{"id":"40642:503131333","meshCode":"503131333","cityCode":"40642","city":"吉富町","lat":33.6145833,"lon":131.165625,"areaKm2":0.1470791,"populated2020":true,"population2020":null,"populationNote":"境界またぎ・原典収録外のため自治体内人口は未集計"},"geometry":{"type":"Polygon","coordinates":[[[131.1650513284549,33.6125],[131.165152503,33.61295610799999],[131.164948885,33.613245279],[131.164875837,33.61355222500001],[131.164981388,33.61440527900001],[131.165294721,33.61513527899999],[131.166023606,33.61610361300001],[131.16613399493417,33.61666666666667],[131.16875,33.61666666666667],[131.16875,33.61249999999999],[131.1650513284549,33.6125]]]}},{"type":"Feature","id":"40642:503131334","properties":{"id":"40642:503131334","meshCode":"503131334","cityCode":"40642","city":"吉富町","lat":33.6145833,"lon":131.171875,"areaKm2":0.2679935,"populated2020":true,"population2020":131.8746,"populationNote":"2020年基準の国交省調整値"},"geometry":{"type":"Polygon","coordinates":[[[131.16875,33.61249999999999],[131.16875,33.61666666666667],[131.175,33.616666666666674],[131.175,33.6125],[131.16875,33.61249999999999]]]}},{"type":"Feature","id":"40642:503131343","properties":{"id":"40642:503131343","meshCode":"503131343","cityCode":"40642","city":"吉富町","lat":33.6145833,"lon":131.178125,"areaKm2":0.2679937,"populated2020":true,"population2020":243.4746,"populationNote":"2020年基準の国交省調整値"},"geometry":{"type":"Polygon","coordinates":[[[131.175,33.6125],[131.175,33.616666666666674],[131.18125,33.61666666666667],[131.18125,33.6125],[131.175,33.6125]]]}},{"type":"Feature","id":"40642:503131344","properties":{"id":"40642:503131344","meshCode":"503131344","cityCode":"40642","city":"吉富町","lat":33.6147238,"lon":131.1827988,"areaKm2":0.1268128,"populated2020":true,"population2020":111.2359,"populationNote":"2020年基準の国交省調整値"},"geometry":{"type":"Polygon","coordinates":[[[131.18549267185594,33.61666666666667],[131.185096667,33.615765279],[131.184730272,33.615222225],[131.18265856957964,33.6125],[131.18125,33.6125],[131.18125,33.61666666666667],[131.18549267185594,33.61666666666667]]]}},{"type":"Feature","id":"40642:503131431","properties":{"id":"40642:503131431","meshCode":"503131431","cityCode":"40642","city":"吉富町","lat":33.6170606,"lon":131.1662511,"areaKm2":0.0062922,"populated2020":false,"population2020":null,"populationNote":"境界またぎ・原典収録外のため自治体内人口は未集計"},"geometry":{"type":"Polygon","coordinates":[[[131.166133995,33.616666667000004],[131.166259792,33.617347990999995],[131.166277004,33.616937883000006],[131.16714037600002,33.616913144],[131.167356342,33.616997757],[131.167833087,33.616857694000004],[131.16875,33.616805403499995],[131.16875,33.61666666666667],[131.166133995,33.616666667000004]]]}},{"type":"Feature","id":"40642:503131432","properties":{"id":"40642:503131432","meshCode":"503131432","cityCode":"40642","city":"吉富町","lat":33.61875,"lon":131.171875,"areaKm2":0.1420504,"populated2020":false,"population2020":null,"populationNote":"境界またぎ・原典収録外のため自治体内人口は未集計"},"geometry":{"type":"Polygon","coordinates":[[[131.16875,33.616805403499995],[131.169674838,33.616767279],[131.170647056,33.618465054],[131.17116978,33.618915441],[131.17144,33.61905433300001],[131.171054371,33.619446413999995],[131.171876109,33.619662883],[131.175,33.61984235999999],[131.175,33.616666666666674],[131.16875,33.61666666666667],[131.16875,33.616805403499995]]]}},{"type":"Feature","id":"40642:503131441","properties":{"id":"40642:503131441","meshCode":"503131441","cityCode":"40642","city":"吉富町","lat":33.61875,"lon":131.178125,"areaKm2":0.2493662,"populated2020":true,"population2020":13.2189,"populationNote":"2020年基準の国交省調整値"},"geometry":{"type":"Polygon","coordinates":[[[131.175,33.61984235999999],[131.176916252,33.620058135],[131.17707130221316,33.62083333333332],[131.18125,33.62083333333333],[131.18125,33.61666666666667],[131.175,33.616666666666674],[131.175,33.61984235999999]]]}},{"type":"Feature","id":"40642:503131442","properties":{"id":"40642:503131442","meshCode":"503131442","cityCode":"40642","city":"吉富町","lat":33.6187245,"lon":131.1825998,"areaKm2":0.1356644,"populated2020":true,"population2020":29.5228,"populationNote":"2020年基準の国交省調整値"},"geometry":{"type":"Polygon","coordinates":[[[131.182008885,33.62076264],[131.18458216600004,33.62040708100001],[131.184790311,33.62041461300001],[131.184869974,33.620820694],[131.18477735069726,33.62083333333334],[131.18490852467087,33.62083333333334],[131.18465511,33.61938241400001],[131.183916589,33.618801667],[131.18486978,33.61700436],[131.185572153,33.616850549999995],[131.18549267185594,33.61666666666667],[131.18125,33.61666666666667],[131.18125,33.62083333333333],[131.18202318223024,33.62083333333332],[131.182008885,33.62076264]]]}},{"type":"Feature","id":"40642:503131443","properties":{"id":"40642:503131443","meshCode":"503131443","cityCode":"40642","city":"吉富町","lat":33.6216348,"lon":131.1779987,"areaKm2":0.0391517,"populated2020":false,"population2020":null,"populationNote":"境界またぎ・原典収録外のため自治体内人口は未集計"},"geometry":{"type":"MultiPolygon","coordinates":[[[[131.17707130221316,33.62083333333332],[131.177338262,33.622226342],[131.18125,33.62265503025131],[131.18125,33.62221820571992],[131.179454137,33.622008801999996],[131.178857782,33.622093054000004],[131.17869083,33.621260892],[131.18087885900002,33.620916946],[131.18125,33.620914054807],[131.18125,33.62083333333333],[131.17707130221316,33.62083333333332]]],[[[131.181242244,33.621107667],[131.18125,33.62114616959113],[131.18125,33.621106566461194],[131.181242244,33.621107667]]]]}},{"type":"Feature","id":"40642:503131444","properties":{"id":"40642:503131444","meshCode":"503131444","cityCode":"40642","city":"吉富町","lat":33.6221236,"lon":131.1834736,"areaKm2":0.020696,"populated2020":false,"population2020":null,"populationNote":"境界またぎ・原典収録外のため自治体内人口は未集計"},"geometry":{"type":"MultiPolygon","coordinates":[[[[131.181548067,33.62268881100001],[131.182582075,33.62254338700001],[131.184201751,33.622570694],[131.18415786,33.62232173],[131.184349857,33.62229473],[131.184210558,33.621579171],[131.184242866,33.621861441],[131.184054942,33.621931441],[131.183033696,33.622068108],[131.182943113,33.621583414],[131.182991997,33.622076198],[131.1825038,33.622141108],[131.182427108,33.621653333],[131.1824593,33.622151198],[131.181552607,33.622275162],[131.181493528,33.621959559],[131.181412309,33.621970225],[131.181462529,33.622280892],[131.18125,33.62225494854841],[131.18125,33.62265503025131],[131.181548067,33.62268881100001]]],[[[131.181253307,33.622218613],[131.18125,33.62221820571992],[131.18125,33.6222375651604],[131.181253307,33.622218613]]],[[[131.18125,33.62083333333333],[131.181345162,33.62161805400001],[131.181425227,33.621606667],[131.18139214,33.621301386999995],[131.182099053,33.621203162000015],[131.18202318223024,33.62083333333332],[131.18125,33.62083333333333]]],[[[131.184232529,33.620907667],[131.184243217,33.620962387000006],[131.184880752,33.620875414],[131.185173476,33.622187108000006],[131.18490852467087,33.62083333333334],[131.184232529,33.620907667]]]]}}]}