{"type":"FeatureCollection","metadata":{"cityCode":"40642","city":"吉富町","resolution":1000,"boundaryDate":"2026-01-01","populationLabel":"2020年基準人口（国交省調整値）","method":"標準地域メッシュを行政界で切抜き。中心が区域外のとき区域内代表点を判定点にする。人口不明をゼロにしない。"},"features":[{"type":"Feature","id":"40642:50313103","properties":{"id":"40642:50313103","meshCode":"50313103","cityCode":"40642","city":"吉富町","lat":33.589956,"lon":131.1689082,"areaKm2":0.2789624,"populated2020":true,"population2020":null,"populationNote":"境界またぎ・収録外等のため人口未集計"},"geometry":{"type":"Polygon","coordinates":[[[131.17333166,33.59093166699999],[131.172851388,33.589404162],[131.172695837,33.588423892],[131.171361388,33.588419721],[131.171198327,33.58861138700001],[131.170249728,33.588790278999994],[131.170148054,33.588847775000005],[131.170070558,33.58932082900001],[131.169968885,33.589410279],[131.169854721,33.589352775],[131.169765279,33.58913555899999],[131.169492776,33.587568333],[131.16860917,33.587779162000004],[131.166402503,33.58894527900001],[131.166125551,33.588875],[131.165743333,33.588338333],[131.164924994,33.587871946],[131.163813333,33.588280829],[131.164126939,33.588916667],[131.164680558,33.589271387],[131.165046939,33.589664441],[131.16549795095125,33.591666666666676],[131.17380719772905,33.591666666666676],[131.17333166,33.59093166699999]]]}},{"type":"Feature","id":"40642:50313113","properties":{"id":"40642:50313113","meshCode":"50313113","cityCode":"40642","city":"吉富町","lat":33.5960885,"lon":131.1692014,"areaKm2":0.9712548,"populated2020":true,"population2020":null,"populationNote":"境界またぎ・収録外等のため人口未集計"},"geometry":{"type":"Polygon","coordinates":[[[131.16549795095125,33.591666666666676],[131.165555837,33.592354721],[131.165425551,33.592453613],[131.165128612,33.593003333],[131.164855551,33.593223892],[131.164448612,33.593338892],[131.163939728,33.593706387000005],[131.164008885,33.593898054],[131.16499416300002,33.59482805399999],[131.165051115,33.59519194599999],[131.164436394,33.595297495],[131.163797224,33.595524441],[131.163369728,33.595508333000005],[131.162938054,33.595773613],[131.1625,33.595896090311726],[131.1625,33.60000000000001],[131.175,33.6],[131.175,33.592607585999986],[131.174268054,33.592126946],[131.17380719772905,33.591666666666676],[131.16549795095125,33.591666666666676]]]}},{"type":"Feature","id":"40642:50313114","properties":{"id":"40642:50313114","meshCode":"50313114","cityCode":"40642","city":"吉富町","lat":33.596828,"lon":131.1764552,"areaKm2":0.2005009,"populated2020":true,"population2020":142.2333,"populationNote":"収録500mメッシュ人口の合算（原典収録外は補完しない）"},"geometry":{"type":"Polygon","coordinates":[[[131.177467782,33.59467666700001],[131.176726939,33.59376305399999],[131.175668612,33.592989721],[131.175,33.592607585999986],[131.175,33.6],[131.177784643,33.6],[131.178273891,33.598153053999994],[131.178379728,33.596817495],[131.178176394,33.59603138699999],[131.177467782,33.59467666700001]]]}},{"type":"Feature","id":"40642:50313112","properties":{"id":"40642:50313112","meshCode":"50313112","cityCode":"40642","city":"吉富町","lat":33.5983737,"lon":131.1600306,"areaKm2":0.1767984,"populated2020":true,"population2020":null,"populationNote":"境界またぎ・収録外等のため人口未集計"},"geometry":{"type":"Polygon","coordinates":[[[131.156652218,33.598253054],[131.157083891,33.599074441000006],[131.157250558,33.60000000000001],[131.1625,33.60000000000001],[131.1625,33.595896090311726],[131.161879728,33.596096387],[131.161167224,33.596529440999994],[131.16027166,33.596781667],[131.159465279,33.596861387],[131.158500558,33.597069162],[131.157051388,33.598101387],[131.156652218,33.598253054]]]}},{"type":"Feature","id":"40642:50313122","properties":{"id":"40642:50313122","meshCode":"50313122","cityCode":"40642","city":"吉富町","lat":33.6035768,"lon":131.1588564,"areaKm2":0.5483801,"populated2020":true,"population2020":null,"populationNote":"境界またぎ・収録外等のため人口未集計"},"geometry":{"type":"Polygon","coordinates":[[[131.156733606,33.60066249500001],[131.154689728,33.601445278999996],[131.15284166,33.602274441000006],[131.152858054,33.602421387],[131.153728885,33.603814441000004],[131.154787497,33.60479222499999],[131.155068612,33.604878333],[131.155601946,33.604894441],[131.156814994,33.605750828999994],[131.157059442,33.605670829],[131.157381115,33.605348333],[131.157531388,33.605450559],[131.15784083,33.605789161999994],[131.158610272,33.60701944099999],[131.159575279,33.607243054],[131.160071946,33.60755305399999],[131.1601911150271,33.608333333333334],[131.1625,33.60833333333333],[131.1625,33.60000000000001],[131.157250558,33.60000000000001],[131.157328054,33.600515559],[131.156733606,33.60066249500001]]]}},{"type":"Feature","id":"40642:50313123","properties":{"id":"40642:50313123","meshCode":"50313123","cityCode":"40642","city":"吉富町","lat":33.6041667,"lon":131.16875,"areaKm2":1.0721011,"populated2020":true,"population2020":2078.3735,"populationNote":"収録500mメッシュ人口の合算（原典収録外は補完しない）"},"geometry":{"type":"Polygon","coordinates":[[[131.175,33.6],[131.1625,33.60000000000001],[131.1625,33.60833333333333],[131.175,33.60833333333334],[131.175,33.6]]]}},{"type":"Feature","id":"40642:50313124","properties":{"id":"40642:50313124","meshCode":"50313124","cityCode":"40642","city":"吉富町","lat":33.6046747,"lon":131.1766433,"areaKm2":0.2664095,"populated2020":true,"population2020":491.2884,"populationNote":"収録500mメッシュ人口の合算（原典収録外は補完しない）"},"geometry":{"type":"Polygon","coordinates":[[[131.177378327,33.60293972099999],[131.177361946,33.602211108000006],[131.177784643,33.6],[131.175,33.6],[131.175,33.60833333333334],[131.17989761321635,33.60833333333333],[131.178933333,33.606754441],[131.177915551,33.604824721],[131.177378327,33.60293972099999]]]}},{"type":"Feature","id":"40642:50313132","properties":{"id":"40642:50313132","meshCode":"50313132","cityCode":"40642","city":"吉富町","lat":33.6093018,"lon":131.1616574,"areaKm2":0.0368782,"populated2020":true,"population2020":null,"populationNote":"境界またぎ・収録外等のため人口未集計"},"geometry":{"type":"Polygon","coordinates":[[[131.160194163,33.608370828999995],[131.160849442,33.609109162],[131.160955279,33.609508613],[131.16082083,33.609716108],[131.160995837,33.610070829],[131.161150558,33.610189162000005],[131.161415279,33.610077225],[131.16152917,33.610118892],[131.1625,33.61094422870968],[131.1625,33.60833333333333],[131.160194163,33.608370828999995]]]}},{"type":"Feature","id":"40642:50313133","properties":{"id":"40642:50313133","meshCode":"50313133","cityCode":"40642","city":"吉富町","lat":33.612224,"lon":131.1695441,"areaKm2":0.9210027,"populated2020":true,"population2020":null,"populationNote":"境界またぎ・収録外等のため人口未集計"},"geometry":{"type":"Polygon","coordinates":[[[131.163039442,33.61129],[131.164309728,33.611608054],[131.164635551,33.611604721],[131.165238054,33.611425829],[131.165364449,33.61150889200001],[131.16505083,33.61248972100001],[131.165152503,33.61295610799999],[131.164948885,33.613245279],[131.164875837,33.61355222500001],[131.164981388,33.61440527900001],[131.165294721,33.61513527899999],[131.166023606,33.61610361300001],[131.16613399493417,33.61666666666667],[131.175,33.616666666666674],[131.175,33.60833333333334],[131.1625,33.60833333333333],[131.1625,33.61094422870968],[131.163039442,33.61129]]]}},{"type":"Feature","id":"40642:50313134","properties":{"id":"40642:50313134","meshCode":"50313134","cityCode":"40642","city":"吉富町","lat":33.6130245,"lon":131.1790506,"areaKm2":0.663201,"populated2020":true,"population2020":1027.5278,"populationNote":"収録500mメッシュ人口の合算（原典収録外は補完しない）"},"geometry":{"type":"Polygon","coordinates":[[[131.182157224,33.611796946],[131.17989761321635,33.60833333333333],[131.175,33.60833333333334],[131.175,33.616666666666674],[131.18549267185594,33.61666666666667],[131.185096667,33.615765279],[131.182157224,33.611796946]]]}},{"type":"Feature","id":"40642:50313143","properties":{"id":"40642:50313143","meshCode":"50313143","cityCode":"40642","city":"吉富町","lat":33.6180302,"lon":131.1725,"areaKm2":0.1483426,"populated2020":false,"population2020":null,"populationNote":"境界またぎ・収録外等のため人口未集計"},"geometry":{"type":"Polygon","coordinates":[[[131.16613399493417,33.61666666666667],[131.166267328,33.617347982000005],[131.166277004,33.616937883000006],[131.16714037600002,33.616913144],[131.167356342,33.616997757],[131.167833087,33.616857694000004],[131.169674838,33.616767279],[131.170647056,33.618465054],[131.17116978,33.618915441],[131.17144,33.61905433300001],[131.171054371,33.619446413999995],[131.171876109,33.619662883],[131.175,33.61984235999999],[131.175,33.616666666666674],[131.16613399493417,33.61666666666667]]]}},{"type":"Feature","id":"40642:50313144","properties":{"id":"40642:50313144","meshCode":"50313144","cityCode":"40642","city":"吉富町","lat":33.6190557,"lon":131.1799408,"areaKm2":0.4448783,"populated2020":true,"population2020":42.7417,"populationNote":"収録500mメッシュ人口の合算（原典収録外は補完しない）"},"geometry":{"type":"Polygon","coordinates":[[[131.175,33.61984235999999],[131.176916252,33.620058135],[131.177338262,33.622226342],[131.181548067,33.62268881100001],[131.182582075,33.62254338700001],[131.184201751,33.622570694],[131.18415786,33.62232173],[131.184349857,33.62229473],[131.184210558,33.621579171],[131.184242866,33.621861441],[131.183033696,33.622068108],[131.182900895,33.621588973],[131.182991997,33.622076198],[131.1825038,33.622141108],[131.1823893,33.621658162],[131.1824593,33.622151198],[131.181552607,33.622275162],[131.181493528,33.621959559],[131.181412309,33.621970225],[131.181462529,33.622280892],[131.179454137,33.622008801999996],[131.178857782,33.622093054000004],[131.17869083,33.621260892],[131.181240999,33.62086953200001],[131.181345162,33.62161805400001],[131.181425227,33.621606667],[131.18139214,33.621301386999995],[131.182099053,33.621203162000015],[131.182008885,33.62076264],[131.184790311,33.62041461300001],[131.184869974,33.620820694],[131.184232529,33.620907667],[131.184243217,33.620962387000006],[131.184880752,33.620875414],[131.185173476,33.622187108000006],[131.18465511,33.61938241400001],[131.183916589,33.618801667],[131.18486978,33.61700436],[131.185572153,33.616850549999995],[131.18549267185594,33.61666666666667],[131.175,33.616666666666674],[131.175,33.61984235999999]]]}}]}