{"type":"FeatureCollection","metadata":{"cityCode":"40647","city":"築上町","resolution":1000,"boundaryDate":"2026-01-01","populationLabel":"2020年基準人口（国交省調整値）","method":"標準地域メッシュを行政界で切抜き。中心が区域外のとき区域内代表点を判定点にする。人口不明をゼロにしない。"},"features":[{"type":"Feature","id":"40647:50302708","properties":{"id":"40647:50302708","meshCode":"50302708","cityCode":"40647","city":"築上町","lat":33.5078916,"lon":130.9845895,"areaKm2":0.0535978,"populated2020":false,"population2020":null,"populationNote":"境界またぎ・収録外等のため人口未集計"},"geometry":{"type":"Polygon","coordinates":[[[130.9875,33.50766999219721],[130.986632776,33.507327225000004],[130.986390272,33.507311387],[130.985583061,33.507525559],[130.98524,33.50750194599999],[130.984684721,33.507319441],[130.984129442,33.50740666699999],[130.983331946,33.507287775],[130.981928885,33.507771387000005],[130.981523333,33.50776082899999],[130.98139250291064,33.50833333333334],[130.9875,33.50833333333333],[130.9875,33.50766999219721]]]}},{"type":"Feature","id":"40647:50302709","properties":{"id":"40647:50302709","meshCode":"50302709","cityCode":"40647","city":"築上町","lat":33.5080936,"lon":130.9879735,"areaKm2":0.00523,"populated2020":false,"population2020":null,"populationNote":"境界またぎ・収録外等のため人口未集計"},"geometry":{"type":"Polygon","coordinates":[[[130.988784475,33.508333333],[130.988222218,33.507928613],[130.9875,33.50766999219721],[130.9875,33.50833333333333],[130.988784475,33.508333333]]]}},{"type":"Feature","id":"40647:50302718","properties":{"id":"40647:50302718","meshCode":"50302718","cityCode":"40647","city":"築上町","lat":33.5129303,"lon":130.9818561,"areaKm2":0.930753,"populated2020":false,"population2020":null,"populationNote":"境界またぎ・収録外等のため人口未集計"},"geometry":{"type":"Polygon","coordinates":[[[130.981083333,33.508907225],[130.980466394,33.509509441],[130.979514163,33.509745],[130.978597497,33.51012582900001],[130.97660917,33.51115305399999],[130.975833606,33.511900829000005],[130.975736394,33.512288892],[130.975084449,33.51281500000001],[130.975,33.513038468],[130.975,33.516666666666666],[130.9875,33.516666666666666],[130.9875,33.50833333333333],[130.98139250291064,33.50833333333334],[130.981083333,33.508907225]]]}},{"type":"Feature","id":"40647:50302719","properties":{"id":"40647:50302719","meshCode":"50302719","cityCode":"40647","city":"築上町","lat":33.5128018,"lon":130.9891088,"areaKm2":0.2686017,"populated2020":false,"population2020":null,"populationNote":"境界またぎ・収録外等のため人口未集計"},"geometry":{"type":"Polygon","coordinates":[[[130.990976394,33.511960559],[130.990784721,33.511516387],[130.990683606,33.510842225000005],[130.990229442,33.51011277500001],[130.98995166,33.509140559],[130.98878447536188,33.50833333333334],[130.9875,33.50833333333333],[130.9875,33.516666666666666],[130.99048975416528,33.516666666666666],[130.991127224,33.51513777499999],[130.99116778200002,33.51473333300001],[130.990804721,33.51313416200001],[130.991026939,33.512349162],[130.990976394,33.511960559]]]}},{"type":"Feature","id":"40647:50302717","properties":{"id":"40647:50302717","meshCode":"50302717","cityCode":"40647","city":"築上町","lat":33.515589,"lon":130.9735954,"areaKm2":0.0686185,"populated2020":false,"population2020":null,"populationNote":"境界またぎ・収録外等のため人口未集計"},"geometry":{"type":"Polygon","coordinates":[[[130.974943061,33.513189161999996],[130.974149728,33.51404749500001],[130.973438327,33.515097775],[130.972477782,33.515644721],[130.972310272,33.51565166700001],[130.971869728,33.515478613],[130.971331946,33.515915],[130.971173333,33.516254162],[130.9711182750445,33.516666666666666],[130.975,33.516666666666666],[130.975,33.513038468],[130.974943061,33.513189161999996]]]}},{"type":"Feature","id":"40647:50302727","properties":{"id":"40647:50302727","meshCode":"50302727","cityCode":"40647","city":"築上町","lat":33.5211494,"lon":130.9716804,"areaKm2":0.5566935,"populated2020":false,"population2020":null,"populationNote":"境界またぎ・収録外等のため人口未集計"},"geometry":{"type":"Polygon","coordinates":[[[130.971005837,33.51692610799999],[130.970423891,33.517410559000005],[130.969773606,33.517775279],[130.969385551,33.518294721],[130.968759728,33.518655],[130.968645279,33.51885582900001],[130.968716667,33.519600559000004],[130.968108327,33.520306667],[130.967729442,33.521103054],[130.967764721,33.52198582900001],[130.968064449,33.522394441],[130.968372776,33.523633892],[130.968337497,33.52372389200001],[130.967694163,33.524111667],[130.967112503,33.52459638700001],[130.967007665,33.525],[130.975,33.525000000000006],[130.975,33.516666666666666],[130.9711182750445,33.516666666666666],[130.971005837,33.51692610799999]]]}},{"type":"Feature","id":"40647:50302728","properties":{"id":"40647:50302728","meshCode":"50302728","cityCode":"40647","city":"築上町","lat":33.5208333,"lon":130.98125,"areaKm2":1.0731103,"populated2020":false,"population2020":null,"populationNote":"境界またぎ・収録外等のため人口未集計"},"geometry":{"type":"Polygon","coordinates":[[[130.9875,33.516666666666666],[130.975,33.516666666666666],[130.975,33.525000000000006],[130.9875,33.525],[130.9875,33.516666666666666]]]}},{"type":"Feature","id":"40647:50302729","properties":{"id":"40647:50302729","meshCode":"50302729","cityCode":"40647","city":"築上町","lat":33.5215159,"lon":130.989812,"areaKm2":0.3664909,"populated2020":false,"population2020":null,"populationNote":"境界またぎ・収録外等のため人口未集計"},"geometry":{"type":"Polygon","coordinates":[[[130.991943606,33.520925279],[130.991480558,33.520206946],[130.990683061,33.51946916200001],[130.990632776,33.519175829],[130.990269728,33.51844110799999],[130.990158612,33.517426108],[130.99048975416528,33.516666666666666],[130.9875,33.516666666666666],[130.9875,33.525],[130.993814643,33.525],[130.993598327,33.52429305399999],[130.992861388,33.52323027900001],[130.99280083,33.522699162],[130.992690272,33.522448054],[130.991943606,33.520925279]]]}},{"type":"Feature","id":"40647:50302737","properties":{"id":"40647:50302737","meshCode":"50302737","cityCode":"40647","city":"築上町","lat":33.529155,"lon":130.9705692,"areaKm2":0.7595892,"populated2020":false,"population2020":null,"populationNote":"境界またぎ・収録外等のため人口未集計"},"geometry":{"type":"Polygon","coordinates":[[[130.965668612,33.526781387],[130.965979728,33.52756055900001],[130.966108885,33.528489721],[130.965685837,33.529395],[130.965976939,33.530094162],[130.966047497,33.530835279],[130.966637224,33.531574162],[130.966663606,33.531761108000005],[130.966601946,33.53224582899999],[130.966065551,33.533184440999996],[130.96607319101736,33.53333333333333],[130.975,33.53333333333333],[130.975,33.525000000000006],[130.967007665,33.525],[130.966338612,33.52590166700001],[130.965783333,33.526414161999995],[130.965668612,33.526781387]]]}},{"type":"Feature","id":"40647:50302738","properties":{"id":"40647:50302738","meshCode":"50302738","cityCode":"40647","city":"築上町","lat":33.5291667,"lon":130.98125,"areaKm2":1.073009,"populated2020":false,"population2020":null,"populationNote":"境界またぎ・収録外等のため人口未集計"},"geometry":{"type":"Polygon","coordinates":[[[130.9875,33.525],[130.975,33.525000000000006],[130.975,33.53333333333333],[130.9875,33.53333333333333],[130.9875,33.525]]]}},{"type":"Feature","id":"40647:50302739","properties":{"id":"40647:50302739","meshCode":"50302739","cityCode":"40647","city":"築上町","lat":33.5296811,"lon":130.9923149,"areaKm2":0.7898552,"populated2020":false,"population2020":null,"populationNote":"境界またぎ・収録外等のため人口未集計"},"geometry":{"type":"Polygon","coordinates":[[[130.99714,33.529101387],[130.996453891,33.528411387000006],[130.996060272,33.528221108],[130.995555551,33.527816666999996],[130.995020272,33.527626387],[130.994475837,33.527081946],[130.994173061,33.52609833300001],[130.993779728,33.525456387000006],[130.993814643,33.525],[130.9875,33.525],[130.9875,33.53333333333333],[131.0,33.53333333333333],[131.0,33.533028586],[130.999312503,33.532612225],[130.999183891,33.531961108],[130.997623061,33.53068555899999],[130.997391946,33.53024138699999],[130.99714,33.529101387]]]}},{"type":"Feature","id":"40647:50312030","properties":{"id":"40647:50312030","meshCode":"50312030","cityCode":"40647","city":"築上町","lat":33.5331856,"lon":131.0012795,"areaKm2":0.0064403,"populated2020":false,"population2020":null,"populationNote":"境界またぎ・収録外等のため人口未集計"},"geometry":{"type":"Polygon","coordinates":[[[131.002353476,33.533333333],[131.002184163,33.53305],[131.00197,33.532971387],[131.00121277600002,33.532993613],[131.00055555100002,33.533184440999996],[131.000312776,33.533184441],[131.0,33.533028586],[131.0,33.53333333333333],[131.002353476,33.533333333]]]}},{"type":"Feature","id":"40647:50302747","properties":{"id":"40647:50302747","meshCode":"50302747","cityCode":"40647","city":"築上町","lat":33.5375253,"lon":130.970394,"areaKm2":0.7891227,"populated2020":false,"population2020":null,"populationNote":"境界またぎ・収録外等のため人口未集計"},"geometry":{"type":"Polygon","coordinates":[[[130.965862776,33.533890829],[130.965316394,33.534285559],[130.965254721,33.534472495],[130.965298612,33.53465249500001],[130.965571946,33.534887775],[130.96566,33.53508166699999],[130.966408885,33.537820279],[130.966664721,33.538069441],[130.96671749700002,33.538228892],[130.965907782,33.53891722499999],[130.96558166,33.539478054],[130.965387497,33.540163613000004],[130.96527577201599,33.54166666666667],[130.975,33.541666666666664],[130.975,33.53333333333333],[130.96607319101736,33.53333333333333],[130.965862776,33.533890829]]]}},{"type":"Feature","id":"40647:50302748","properties":{"id":"40647:50302748","meshCode":"50302748","cityCode":"40647","city":"築上町","lat":33.5375,"lon":130.98125,"areaKm2":1.0729074,"populated2020":true,"population2020":3.0097,"populationNote":"収録500mメッシュ人口の合算（原典収録外は補完しない）"},"geometry":{"type":"Polygon","coordinates":[[[130.9875,33.53333333333333],[130.975,33.53333333333333],[130.975,33.541666666666664],[130.9875,33.541666666666664],[130.9875,33.53333333333333]]]}},{"type":"Feature","id":"40647:50302749","properties":{"id":"40647:50302749","meshCode":"50302749","cityCode":"40647","city":"築上町","lat":33.5375,"lon":130.99375,"areaKm2":1.0729074,"populated2020":false,"population2020":null,"populationNote":"境界またぎ・収録外等のため人口未集計"},"geometry":{"type":"Polygon","coordinates":[[[131.0,33.53333333333333],[130.9875,33.53333333333333],[130.9875,33.541666666666664],[131.0,33.541666666666664],[131.0,33.53333333333333]]]}},{"type":"Feature","id":"40647:50312040","properties":{"id":"40647:50312040","meshCode":"50312040","cityCode":"40647","city":"築上町","lat":33.5383338,"lon":131.004239,"areaKm2":0.643281,"populated2020":false,"population2020":null,"populationNote":"境界またぎ・収録外等のため人口未集計"},"geometry":{"type":"Polygon","coordinates":[[[131.005879728,33.536193613],[131.005165279,33.535744441],[131.00441,33.53476472100001],[131.004110272,33.53449527899999],[131.002917224,33.53399027899999],[131.002645837,33.53376555900001],[131.0023534761992,33.53333333333333],[131.0,33.53333333333333],[131.0,33.541666666666664],[131.009836278052,33.541666666666664],[131.010005551,33.541020829000004],[131.010691388,33.540246387],[131.01062,33.539954441],[131.010405551,33.539696387000006],[131.010185837,33.539193892],[131.00927166,33.53850916199999],[131.009057224,33.53794805399999],[131.008414449,33.537488054],[131.007971388,33.537454162],[131.007908612,33.53723749499999],[131.007379728,33.536732225],[131.007108612,33.536563892],[131.005879728,33.536193613]]]}},{"type":"Feature","id":"40647:50302757","properties":{"id":"40647:50302757","meshCode":"50302757","cityCode":"40647","city":"築上町","lat":33.5452974,"lon":130.9711981,"areaKm2":0.6142477,"populated2020":false,"population2020":null,"populationNote":"境界またぎ・収録外等のため人口未集計"},"geometry":{"type":"Polygon","coordinates":[[[130.965237782,33.542126667],[130.965008612,33.542466108000006],[130.96507917,33.542819441],[130.96578416300002,33.543262495],[130.965960272,33.543477225],[130.966594994,33.54391361300001],[130.966727224,33.544155559],[130.966788885,33.544612775000004],[130.967405837,33.545525],[130.968357497,33.546016666999996],[130.968847497,33.546145279],[130.969711388,33.546207495000004],[130.969958327,33.546387495],[130.970205279,33.54707972100001],[130.969253061,33.548423333],[130.969103333,33.549032495],[130.969314449,33.549403332999994],[130.969296667,33.549548892],[130.96897880700004,33.54999999999999],[130.975,33.54999999999999],[130.975,33.541666666666664],[130.96527577201599,33.54166666666667],[130.965237782,33.542126667]]]}},{"type":"Feature","id":"40647:50302758","properties":{"id":"40647:50302758","meshCode":"50302758","cityCode":"40647","city":"築上町","lat":33.5458333,"lon":130.98125,"areaKm2":1.0728058,"populated2020":true,"population2020":24.092,"populationNote":"収録500mメッシュ人口の合算（原典収録外は補完しない）"},"geometry":{"type":"Polygon","coordinates":[[[130.9875,33.541666666666664],[130.975,33.541666666666664],[130.975,33.54999999999999],[130.9875,33.55],[130.9875,33.541666666666664]]]}},{"type":"Feature","id":"40647:50302759","properties":{"id":"40647:50302759","meshCode":"50302759","cityCode":"40647","city":"築上町","lat":33.5458333,"lon":130.99375,"areaKm2":1.0728058,"populated2020":true,"population2020":22.0334,"populationNote":"収録500mメッシュ人口の合算（原典収録外は補完しない）"},"geometry":{"type":"Polygon","coordinates":[[[131.0,33.541666666666664],[130.9875,33.541666666666664],[130.9875,33.55],[131.0,33.55],[131.0,33.541666666666664]]]}},{"type":"Feature","id":"40647:50312050","properties":{"id":"40647:50312050","meshCode":"50312050","cityCode":"40647","city":"築上町","lat":33.5460452,"lon":131.0053117,"areaKm2":0.9036223,"populated2020":false,"population2020":null,"populationNote":"境界またぎ・収録外等のため人口未集計"},"geometry":{"type":"Polygon","coordinates":[[[131.009946939,33.545732775],[131.009469728,33.543800559000005],[131.009669728,33.542150829],[131.009836278052,33.541666666666664],[131.0,33.541666666666664],[131.0,33.55],[131.012149883,33.55],[131.011946394,33.549467494999995],[131.012060558,33.549142225],[131.012217782,33.548985],[131.01184722400004,33.548112225],[131.011261388,33.547820559],[131.011118327,33.547292775],[131.010832776,33.546742775],[131.010203891,33.546148054],[131.009946939,33.545732775]]]}},{"type":"Feature","id":"40647:50302767","properties":{"id":"40647:50302767","meshCode":"50302767","cityCode":"40647","city":"築上町","lat":33.5534986,"lon":130.9728323,"areaKm2":0.3444874,"populated2020":false,"population2020":null,"populationNote":"境界またぎ・収録外等のため人口未集計"},"geometry":{"type":"Polygon","coordinates":[[[130.96897880700004,33.54999999999999],[130.968785551,33.55037305399999],[130.968864721,33.550573892],[130.969649442,33.55130749500001],[130.970477224,33.552254441],[130.970538885,33.55275999999999],[130.970812218,33.55325833300001],[130.970706394,33.554003054],[130.971120558,33.554681667],[130.971684721,33.55497249500001],[130.971764163,33.55565777499999],[130.972090272,33.55607333300001],[130.971992503,33.556679162],[130.97252166,33.557745559],[130.9726253050588,33.55833333333334],[130.975,33.558333333333344],[130.975,33.54999999999999],[130.96897880700004,33.54999999999999]]]}},{"type":"Feature","id":"40647:50302768","properties":{"id":"40647:50302768","meshCode":"50302768","cityCode":"40647","city":"築上町","lat":33.5541667,"lon":130.98125,"areaKm2":1.0727042,"populated2020":true,"population2020":5.0135,"populationNote":"収録500mメッシュ人口の合算（原典収録外は補完しない）"},"geometry":{"type":"Polygon","coordinates":[[[130.9875,33.55],[130.975,33.54999999999999],[130.975,33.558333333333344],[130.9875,33.558333333333344],[130.9875,33.55]]]}},{"type":"Feature","id":"40647:50302769","properties":{"id":"40647:50302769","meshCode":"50302769","cityCode":"40647","city":"築上町","lat":33.5541667,"lon":130.99375,"areaKm2":1.0727042,"populated2020":true,"population2020":31.0613,"populationNote":"収録500mメッシュ人口の合算（原典収録外は補完しない）"},"geometry":{"type":"Polygon","coordinates":[[[131.0,33.55],[130.9875,33.55],[130.9875,33.558333333333344],[131.0,33.55833333333334],[131.0,33.55]]]}},{"type":"Feature","id":"40647:50312060","properties":{"id":"40647:50312060","meshCode":"50312060","cityCode":"40647","city":"築上町","lat":33.5541822,"lon":131.0061934,"areaKm2":1.0627292,"populated2020":false,"population2020":null,"populationNote":"境界またぎ・収録外等のため人口未集計"},"geometry":{"type":"Polygon","coordinates":[[[131.0125,33.553883535225],[131.01211749700002,33.553582495],[131.011960272,33.55308833299999],[131.012045837,33.552299441],[131.012117224,33.552153613],[131.0125,33.55185360291712],[131.0125,33.55066966440677],[131.012149883,33.55],[131.0,33.55],[131.0,33.55833333333334],[131.0125,33.558333333333344],[131.0125,33.553883535225]]]}},{"type":"Feature","id":"40647:50312061","properties":{"id":"40647:50312061","meshCode":"50312061","cityCode":"40647","city":"築上町","lat":33.5564816,"lon":131.0137714,"areaKm2":0.1023592,"populated2020":false,"population2020":null,"populationNote":"境界またぎ・収録外等のため人口未集計"},"geometry":{"type":"MultiPolygon","coordinates":[[[[131.012774449,33.55157027900001],[131.01283166,33.551311946],[131.0125,33.55066966440677],[131.0125,33.55185360291712],[131.012774449,33.55157027900001]]],[[[131.0125,33.553883535225],[131.0125,33.558333333333344],[131.01549802901164,33.55833333333334],[131.015380272,33.55783805400001],[131.015208612,33.557535],[131.01555166000003,33.557119721],[131.015623061,33.556648333],[131.015537224,33.556524721],[131.014937497,33.556255279],[131.014831388,33.555477775],[131.013974163,33.55474833299999],[131.013338885,33.55477222500001],[131.0125,33.553883535225]]]]}},{"type":"Feature","id":"40647:50302777","properties":{"id":"40647:50302777","meshCode":"50302777","cityCode":"40647","city":"築上町","lat":33.5638457,"lon":130.970035,"areaKm2":0.6376251,"populated2020":false,"population2020":null,"populationNote":"境界またぎ・収録外等のため人口未集計"},"geometry":{"type":"Polygon","coordinates":[[[130.973148054,33.55942805400001],[130.973437497,33.559745279000005],[130.973596394,33.56032],[130.972036109,33.560874162000005],[130.97125166,33.560874162],[130.970916667,33.560922495],[130.970382503,33.561127225],[130.969827224,33.561189721000005],[130.969465837,33.56141110800001],[130.96941306100004,33.56162582900001],[130.969245551,33.561771108],[130.968337497,33.56209666699999],[130.967791115,33.562186667],[130.96742083,33.562422225],[130.966671388,33.562449721],[130.966257497,33.56273389199999],[130.965133061,33.563111667],[130.964586394,33.563471387],[130.964260272,33.563796946],[130.963907497,33.56439249499999],[130.963757782,33.564454999999995],[130.963158612,33.564371946],[130.962788327,33.564572775],[130.9625,33.56493521338697],[130.9625,33.56666666666668],[130.975,33.56666666666668],[130.975,33.558333333333344],[130.9726253050588,33.55833333333334],[130.973148054,33.55942805400001]]]}},{"type":"Feature","id":"40647:50302778","properties":{"id":"40647:50302778","meshCode":"50302778","cityCode":"40647","city":"築上町","lat":33.5625,"lon":130.98125,"areaKm2":1.0726027,"populated2020":false,"population2020":null,"populationNote":"境界またぎ・収録外等のため人口未集計"},"geometry":{"type":"Polygon","coordinates":[[[130.9875,33.558333333333344],[130.975,33.558333333333344],[130.975,33.56666666666668],[130.9875,33.56666666666668],[130.9875,33.558333333333344]]]}},{"type":"Feature","id":"40647:50302779","properties":{"id":"40647:50302779","meshCode":"50302779","cityCode":"40647","city":"築上町","lat":33.5625,"lon":130.99375,"areaKm2":1.0726026,"populated2020":true,"population2020":69.2533,"populationNote":"収録500mメッシュ人口の合算（原典収録外は補完しない）"},"geometry":{"type":"Polygon","coordinates":[[[131.0,33.55833333333334],[130.9875,33.558333333333344],[130.9875,33.56666666666668],[131.0,33.56666666666668],[131.0,33.55833333333334]]]}},{"type":"Feature","id":"40647:50312070","properties":{"id":"40647:50312070","meshCode":"50312070","cityCode":"40647","city":"築上町","lat":33.5625,"lon":131.00625,"areaKm2":1.0726026,"populated2020":false,"population2020":null,"populationNote":"境界またぎ・収録外等のため人口未集計"},"geometry":{"type":"Polygon","coordinates":[[[131.0125,33.558333333333344],[131.0,33.55833333333334],[131.0,33.56666666666668],[131.0125,33.56666666666668],[131.0125,33.558333333333344]]]}},{"type":"Feature","id":"40647:50312071","properties":{"id":"40647:50312071","meshCode":"50312071","cityCode":"40647","city":"築上町","lat":33.5634304,"lon":131.0175476,"areaKm2":0.7466004,"populated2020":false,"population2020":null,"populationNote":"境界またぎ・収録外等のため人口未集計"},"geometry":{"type":"Polygon","coordinates":[[[131.01772166,33.560381107999994],[131.016907224,33.56070666699999],[131.016550272,33.56037],[131.01635083,33.559799162],[131.01605083,33.55955222499999],[131.016008054,33.559271667],[131.015564994,33.558766387],[131.01549802901164,33.55833333333334],[131.0125,33.558333333333344],[131.0125,33.56666666666668],[131.025,33.56666666666668],[131.025,33.564321802],[131.023994721,33.564120279],[131.022908612,33.563289721000004],[131.022261946,33.562900279],[131.020618885,33.561407225],[131.019307782,33.560639161999994],[131.018250272,33.56038110800001],[131.01772166,33.560381107999994]]]}},{"type":"Feature","id":"40647:50302776","properties":{"id":"40647:50302776","meshCode":"50302776","cityCode":"40647","city":"築上町","lat":33.5658877,"lon":130.9621908,"areaKm2":0.0100683,"populated2020":false,"population2020":null,"populationNote":"境界またぎ・収録外等のため人口未集計"},"geometry":{"type":"Polygon","coordinates":[[[130.962127224,33.565175279],[130.961765837,33.56563194600001],[130.96194499398877,33.56666666666668],[130.9625,33.56666666666668],[130.9625,33.56493521338697],[130.962127224,33.565175279]]]}},{"type":"Feature","id":"40647:50312072","properties":{"id":"40647:50312072","meshCode":"50312072","cityCode":"40647","city":"築上町","lat":33.5657095,"lon":131.0272515,"areaKm2":0.0952049,"populated2020":false,"population2020":null,"populationNote":"境界またぎ・収録外等のため人口未集計"},"geometry":{"type":"Polygon","coordinates":[[[131.030089728,33.56666],[131.029861115,33.565526108],[131.029732503,33.56526805399999],[131.029532503,33.565110829],[131.029032503,33.564987225],[131.027646667,33.565043333],[131.026803891,33.564594441000004],[131.025,33.564321802],[131.025,33.56666666666668],[131.030089728,33.56666]]]}},{"type":"Feature","id":"40647:50302786","properties":{"id":"40647:50302786","meshCode":"50302786","cityCode":"40647","city":"築上町","lat":33.5709615,"lon":130.9618816,"areaKm2":0.0956013,"populated2020":false,"population2020":null,"populationNote":"境界またぎ・収録外等のため人口未集計"},"geometry":{"type":"Polygon","coordinates":[[[130.96194499398877,33.56666666666668],[130.961986394,33.567657495],[130.96187166,33.567955279],[130.961228885,33.568269721],[130.961119728,33.569307225],[130.961382503,33.569896667],[130.961403061,33.570129721],[130.96129,33.57041722500001],[130.960955837,33.570796108],[130.960756667,33.571949162],[130.960873061,33.572177225],[130.961631388,33.572965559],[130.961642503,33.574147495],[130.961574163,33.574460828999996],[130.961730078,33.57500000000001],[130.9625,33.574999999999996],[130.9625,33.56666666666668],[130.96194499398877,33.56666666666668]]]}},{"type":"Feature","id":"40647:50302787","properties":{"id":"40647:50302787","meshCode":"50302787","cityCode":"40647","city":"築上町","lat":33.5708333,"lon":130.96875,"areaKm2":1.0725014,"populated2020":false,"population2020":null,"populationNote":"境界またぎ・収録外等のため人口未集計"},"geometry":{"type":"Polygon","coordinates":[[[130.975,33.56666666666668],[130.9625,33.56666666666668],[130.9625,33.574999999999996],[130.975,33.575],[130.975,33.56666666666668]]]}},{"type":"Feature","id":"40647:50302788","properties":{"id":"40647:50302788","meshCode":"50302788","cityCode":"40647","city":"築上町","lat":33.5708333,"lon":130.98125,"areaKm2":1.0725012,"populated2020":false,"population2020":null,"populationNote":"境界またぎ・収録外等のため人口未集計"},"geometry":{"type":"Polygon","coordinates":[[[130.9875,33.56666666666668],[130.975,33.56666666666668],[130.975,33.575],[130.9875,33.575],[130.9875,33.56666666666668]]]}},{"type":"Feature","id":"40647:50302789","properties":{"id":"40647:50302789","meshCode":"50302789","cityCode":"40647","city":"築上町","lat":33.5708333,"lon":130.99375,"areaKm2":1.072501,"populated2020":true,"population2020":3.0102,"populationNote":"収録500mメッシュ人口の合算（原典収録外は補完しない）"},"geometry":{"type":"Polygon","coordinates":[[[131.0,33.56666666666668],[130.9875,33.56666666666668],[130.9875,33.575],[131.0,33.575],[131.0,33.56666666666668]]]}},{"type":"Feature","id":"40647:50312080","properties":{"id":"40647:50312080","meshCode":"50312080","cityCode":"40647","city":"築上町","lat":33.5708333,"lon":131.00625,"areaKm2":1.072501,"populated2020":false,"population2020":null,"populationNote":"境界またぎ・収録外等のため人口未集計"},"geometry":{"type":"Polygon","coordinates":[[[131.0125,33.56666666666668],[131.0,33.56666666666668],[131.0,33.575],[131.0125,33.575],[131.0125,33.56666666666668]]]}},{"type":"Feature","id":"40647:50312081","properties":{"id":"40647:50312081","meshCode":"50312081","cityCode":"40647","city":"築上町","lat":33.5708333,"lon":131.01875,"areaKm2":1.0725012,"populated2020":false,"population2020":null,"populationNote":"境界またぎ・収録外等のため人口未集計"},"geometry":{"type":"Polygon","coordinates":[[[131.025,33.56666666666668],[131.0125,33.56666666666668],[131.0125,33.575],[131.025,33.575],[131.025,33.56666666666668]]]}},{"type":"Feature","id":"40647:50312082","properties":{"id":"40647:50312082","meshCode":"50312082","cityCode":"40647","city":"築上町","lat":33.5713114,"lon":131.0295753,"areaKm2":0.7537889,"populated2020":true,"population2020":4.0115,"populationNote":"収録500mメッシュ人口の合算（原典収録外は補完しない）"},"geometry":{"type":"Polygon","coordinates":[[[131.031061115,33.566951667],[131.03009824857398,33.56666666666668],[131.025,33.56666666666668],[131.025,33.575],[131.037073995,33.574999999999996],[131.036242503,33.574110559],[131.035828054,33.57308944099999],[131.035271115,33.572505559],[131.034485279,33.571910829000004],[131.033066394,33.571117495],[131.032966394,33.57087055900001],[131.032994721,33.570477495],[131.032666394,33.569725829],[131.03258083,33.56870444100001],[131.032452218,33.568378892],[131.032118612,33.56813],[131.031861388,33.56745694599999],[131.031061115,33.566951667]]]}},{"type":"Feature","id":"40647:50302796","properties":{"id":"40647:50302796","meshCode":"50302796","cityCode":"40647","city":"築上町","lat":33.5780681,"lon":130.9622225,"areaKm2":0.0351315,"populated2020":false,"population2020":null,"populationNote":"境界またぎ・収録外等のため人口未集計"},"geometry":{"type":"MultiPolygon","coordinates":[[[[130.961897782,33.575487225],[130.961904994,33.5761],[130.961746939,33.576411108],[130.961950558,33.576821667000004],[130.961933061,33.576974162000006],[130.961624449,33.57741722499999],[130.962108885,33.578349721],[130.96232917,33.578965829],[130.962346667,33.579471387],[130.962108612,33.579921387],[130.962134994,33.58037861299999],[130.961967497,33.58079110800001],[130.961976394,33.581005559],[130.96217917,33.58142777500001],[130.9625,33.581779659674844],[130.9625,33.574999999999996],[130.961730078,33.57500000000001],[130.961897782,33.575487225]]],[[[130.962089728,33.58333333299999],[130.9625,33.58333333333334],[130.9625,33.582648337178576],[130.962135551,33.58321861300001],[130.962089728,33.58333333299999]]]]}},{"type":"Feature","id":"40647:50302797","properties":{"id":"40647:50302797","meshCode":"50302797","cityCode":"40647","city":"築上町","lat":33.5791636,"lon":130.9687563,"areaKm2":1.0713107,"populated2020":false,"population2020":null,"populationNote":"境界またぎ・収録外等のため人口未集計"},"geometry":{"type":"Polygon","coordinates":[[[130.975,33.575],[130.9625,33.574999999999996],[130.9625,33.581779659674844],[130.96269917,33.582120558999996],[130.962646394,33.58241833300001],[130.9625,33.582648337178576],[130.9625,33.58333333333334],[130.975,33.58333333333334],[130.975,33.575]]]}},{"type":"Feature","id":"40647:50302798","properties":{"id":"40647:50302798","meshCode":"50302798","cityCode":"40647","city":"築上町","lat":33.5791667,"lon":130.98125,"areaKm2":1.0723996,"populated2020":false,"population2020":null,"populationNote":"境界またぎ・収録外等のため人口未集計"},"geometry":{"type":"Polygon","coordinates":[[[130.9875,33.575],[130.975,33.575],[130.975,33.58333333333334],[130.9875,33.58333333333334],[130.9875,33.575]]]}},{"type":"Feature","id":"40647:50302799","properties":{"id":"40647:50302799","meshCode":"50302799","cityCode":"40647","city":"築上町","lat":33.5791667,"lon":130.99375,"areaKm2":1.0723994,"populated2020":true,"population2020":35.1064,"populationNote":"収録500mメッシュ人口の合算（原典収録外は補完しない）"},"geometry":{"type":"Polygon","coordinates":[[[131.0,33.575],[130.9875,33.575],[130.9875,33.58333333333334],[131.0,33.583333333333336],[131.0,33.575]]]}},{"type":"Feature","id":"40647:50312090","properties":{"id":"40647:50312090","meshCode":"50312090","cityCode":"40647","city":"築上町","lat":33.5791667,"lon":131.00625,"areaKm2":1.0723994,"populated2020":false,"population2020":null,"populationNote":"境界またぎ・収録外等のため人口未集計"},"geometry":{"type":"Polygon","coordinates":[[[131.0125,33.575],[131.0,33.575],[131.0,33.583333333333336],[131.0125,33.58333333333334],[131.0125,33.575]]]}},{"type":"Feature","id":"40647:50312091","properties":{"id":"40647:50312091","meshCode":"50312091","cityCode":"40647","city":"築上町","lat":33.5791667,"lon":131.01875,"areaKm2":1.0723996,"populated2020":false,"population2020":null,"populationNote":"境界またぎ・収録外等のため人口未集計"},"geometry":{"type":"Polygon","coordinates":[[[131.025,33.575],[131.0125,33.575],[131.0125,33.58333333333334],[131.025,33.58333333333334],[131.025,33.575]]]}},{"type":"Feature","id":"40647:50312092","properties":{"id":"40647:50312092","meshCode":"50312092","cityCode":"40647","city":"築上町","lat":33.5791708,"lon":131.0312437,"areaKm2":1.0713013,"populated2020":false,"population2020":null,"populationNote":"境界またぎ・収録外等のため人口未集計"},"geometry":{"type":"Polygon","coordinates":[[[131.0375,33.57546074539701],[131.037073995,33.574999999999996],[131.025,33.575],[131.025,33.58333333333334],[131.0375,33.58333333333334],[131.0375,33.57546074539701]]]}},{"type":"Feature","id":"40647:50312093","properties":{"id":"40647:50312093","meshCode":"50312093","cityCode":"40647","city":"築上町","lat":33.5806561,"lon":131.0391543,"areaKm2":0.2046447,"populated2020":false,"population2020":null,"populationNote":"境界またぎ・収録外等のため人口未集計"},"geometry":{"type":"Polygon","coordinates":[[[131.039596667,33.578918333000004],[131.03921083,33.578099162],[131.038868054,33.577784721],[131.038447782,33.577194162000005],[131.038304994,33.576352225],[131.03791917,33.57582500000001],[131.0375,33.57546074539701],[131.0375,33.58333333333334],[131.04206591392395,33.583333333333336],[131.042038054,33.58304361300001],[131.041482503,33.58139889200002],[131.041053891,33.580792775000006],[131.040682218,33.580500829],[131.040453606,33.579715279],[131.039596667,33.578918333000004]]]}},{"type":"Feature","id":"40647:50303706","properties":{"id":"40647:50303706","meshCode":"50303706","cityCode":"40647","city":"築上町","lat":33.5847987,"lon":130.9620986,"areaKm2":0.0221926,"populated2020":false,"population2020":null,"populationNote":"境界またぎ・収録外等のため人口未集計"},"geometry":{"type":"Polygon","coordinates":[[[130.96208972786687,33.583333333333336],[130.961685837,33.584146387],[130.961738885,33.584444162000004],[130.961474449,33.58486666700001],[130.961447782,33.58519916199999],[130.961774163,33.585756387],[130.9625,33.58634070556433],[130.9625,33.58333333333334],[130.96208972786687,33.583333333333336]]]}},{"type":"Feature","id":"40647:50303707","properties":{"id":"40647:50303707","meshCode":"50303707","cityCode":"40647","city":"築上町","lat":33.5873136,"lon":130.969206,"areaKm2":0.9876392,"populated2020":false,"population2020":null,"populationNote":"境界またぎ・収録外等のため人口未集計"},"geometry":{"type":"Polygon","coordinates":[[[130.96292,33.586573613],[130.963115837,33.586854162],[130.963215551,33.587485279],[130.963450272,33.587916108],[130.963964994,33.58865722499999],[130.96462917,33.589336667],[130.964647782,33.590677775],[130.9649925808488,33.591666666666676],[130.975,33.591666666666676],[130.975,33.58333333333334],[130.9625,33.58333333333334],[130.9625,33.58634070556433],[130.96292,33.586573613]]]}},{"type":"Feature","id":"40647:50303708","properties":{"id":"40647:50303708","meshCode":"50303708","cityCode":"40647","city":"築上町","lat":33.5875,"lon":130.98125,"areaKm2":1.0722978,"populated2020":true,"population2020":14.0465,"populationNote":"収録500mメッシュ人口の合算（原典収録外は補完しない）"},"geometry":{"type":"Polygon","coordinates":[[[130.9875,33.58333333333334],[130.975,33.58333333333334],[130.975,33.591666666666676],[130.9875,33.59166666666667],[130.9875,33.58333333333334]]]}},{"type":"Feature","id":"40647:50303709","properties":{"id":"40647:50303709","meshCode":"50303709","cityCode":"40647","city":"築上町","lat":33.5875,"lon":130.99375,"areaKm2":1.0722978,"populated2020":true,"population2020":73.1697,"populationNote":"収録500mメッシュ人口の合算（原典収録外は補完しない）"},"geometry":{"type":"Polygon","coordinates":[[[131.0,33.583333333333336],[130.9875,33.58333333333334],[130.9875,33.59166666666667],[131.0,33.591666666666676],[131.0,33.583333333333336]]]}},{"type":"Feature","id":"40647:50313000","properties":{"id":"40647:50313000","meshCode":"50313000","cityCode":"40647","city":"築上町","lat":33.5875,"lon":131.00625,"areaKm2":1.0722978,"populated2020":false,"population2020":null,"populationNote":"境界またぎ・収録外等のため人口未集計"},"geometry":{"type":"Polygon","coordinates":[[[131.0125,33.58333333333334],[131.0,33.583333333333336],[131.0,33.591666666666676],[131.0125,33.59166666666667],[131.0125,33.58333333333334]]]}},{"type":"Feature","id":"40647:50313001","properties":{"id":"40647:50313001","meshCode":"50313001","cityCode":"40647","city":"築上町","lat":33.5875,"lon":131.01875,"areaKm2":1.0722978,"populated2020":false,"population2020":null,"populationNote":"境界またぎ・収録外等のため人口未集計"},"geometry":{"type":"Polygon","coordinates":[[[131.025,33.58333333333334],[131.0125,33.58333333333334],[131.0125,33.59166666666667],[131.025,33.591666666666676],[131.025,33.58333333333334]]]}},{"type":"Feature","id":"40647:50313002","properties":{"id":"40647:50313002","meshCode":"50313002","cityCode":"40647","city":"築上町","lat":33.5875,"lon":131.03125,"areaKm2":1.0722982,"populated2020":true,"population2020":8.0486,"populationNote":"収録500mメッシュ人口の合算（原典収録外は補完しない）"},"geometry":{"type":"Polygon","coordinates":[[[131.0375,33.58333333333334],[131.025,33.58333333333334],[131.025,33.591666666666676],[131.0375,33.591666666666676],[131.0375,33.58333333333334]]]}},{"type":"Feature","id":"40647:50313003","properties":{"id":"40647:50313003","meshCode":"50313003","cityCode":"40647","city":"築上町","lat":33.5880403,"lon":131.041532,"areaKm2":0.6563295,"populated2020":false,"population2020":null,"populationNote":"境界またぎ・収録外等のため人口未集計"},"geometry":{"type":"Polygon","coordinates":[[[131.04253778200007,33.5848169460001],[131.04230916999995,33.584513892000075],[131.042009442,33.583863054000005],[131.04206591392395,33.583333333333336],[131.0375,33.58333333333334],[131.0375,33.591666666666676],[131.04745946789373,33.591666666666676],[131.04725917000007,33.59106972100005],[131.04679111500002,33.59033972100008],[131.04644972800008,33.58890333300008],[131.04556639400005,33.58717194600007],[131.04383805399993,33.585366946000136],[131.04253778200007,33.5848169460001]]]}},{"type":"Feature","id":"40647:50303717","properties":{"id":"40647:50303717","meshCode":"50303717","cityCode":"40647","city":"築上町","lat":33.5952992,"lon":130.9711319,"areaKm2":0.6312464,"populated2020":false,"population2020":null,"populationNote":"境界またぎ・収録外等のため人口未集計"},"geometry":{"type":"Polygon","coordinates":[[[130.9649925808488,33.591666666666676],[130.965917224,33.59408472100001],[130.966163333,33.594343054],[130.967335551,33.595005],[130.967613606,33.595592495000005],[130.96819778200003,33.59602],[130.968863061,33.596650559],[130.968903606,33.59683],[130.968808054,33.597288333],[130.968898885,33.597695829],[130.969027497,33.597967775],[130.969777224,33.59887777499999],[130.969883891,33.599150279],[130.96984333300003,33.599375279],[130.969670558,33.599640559],[130.969736667,33.6],[130.975,33.60000000000001],[130.975,33.591666666666676],[130.9649925808488,33.591666666666676]]]}},{"type":"Feature","id":"40647:50303718","properties":{"id":"40647:50303718","meshCode":"50303718","cityCode":"40647","city":"築上町","lat":33.5958333,"lon":130.98125,"areaKm2":1.0721962,"populated2020":true,"population2020":107.4107,"populationNote":"収録500mメッシュ人口の合算（原典収録外は補完しない）"},"geometry":{"type":"Polygon","coordinates":[[[130.9875,33.59166666666667],[130.975,33.591666666666676],[130.975,33.60000000000001],[130.9875,33.60000000000001],[130.9875,33.59166666666667]]]}},{"type":"Feature","id":"40647:50303719","properties":{"id":"40647:50303719","meshCode":"50303719","cityCode":"40647","city":"築上町","lat":33.5958333,"lon":130.99375,"areaKm2":1.0721962,"populated2020":true,"population2020":2.0094,"populationNote":"収録500mメッシュ人口の合算（原典収録外は補完しない）"},"geometry":{"type":"Polygon","coordinates":[[[131.0,33.591666666666676],[130.9875,33.59166666666667],[130.9875,33.60000000000001],[131.0,33.6],[131.0,33.591666666666676]]]}},{"type":"Feature","id":"40647:50313010","properties":{"id":"40647:50313010","meshCode":"50313010","cityCode":"40647","city":"築上町","lat":33.5958333,"lon":131.00625,"areaKm2":1.0721962,"populated2020":true,"population2020":16.0587,"populationNote":"収録500mメッシュ人口の合算（原典収録外は補完しない）"},"geometry":{"type":"Polygon","coordinates":[[[131.0125,33.59166666666667],[131.0,33.591666666666676],[131.0,33.6],[131.0125,33.60000000000001],[131.0125,33.59166666666667]]]}},{"type":"Feature","id":"40647:50313011","properties":{"id":"40647:50313011","meshCode":"50313011","cityCode":"40647","city":"築上町","lat":33.5958333,"lon":131.01875,"areaKm2":1.0721962,"populated2020":false,"population2020":null,"populationNote":"境界またぎ・収録外等のため人口未集計"},"geometry":{"type":"Polygon","coordinates":[[[131.025,33.591666666666676],[131.0125,33.59166666666667],[131.0125,33.60000000000001],[131.025,33.60000000000001],[131.025,33.591666666666676]]]}},{"type":"Feature","id":"40647:50313012","properties":{"id":"40647:50313012","meshCode":"50313012","cityCode":"40647","city":"築上町","lat":33.5958333,"lon":131.03125,"areaKm2":1.0721965,"populated2020":true,"population2020":3.0072,"populationNote":"収録500mメッシュ人口の合算（原典収録外は補完しない）"},"geometry":{"type":"Polygon","coordinates":[[[131.0375,33.591666666666676],[131.025,33.591666666666676],[131.025,33.60000000000001],[131.0375,33.60000000000001],[131.0375,33.591666666666676]]]}},{"type":"Feature","id":"40647:50313013","properties":{"id":"40647:50313013","meshCode":"50313013","cityCode":"40647","city":"築上町","lat":33.5960233,"lon":131.0432443,"areaKm2":0.9789519,"populated2020":false,"population2020":null,"populationNote":"境界またぎ・収録外等のため人口未集計"},"geometry":{"type":"Polygon","coordinates":[[[131.04869499400002,33.59575055900012],[131.04799472100012,33.59392527900007],[131.04791360600007,33.593601667000144],[131.04791000000012,33.592741946],[131.04767083000002,33.59233],[131.04745946789373,33.591666666666676],[131.0375,33.591666666666676],[131.0375,33.60000000000001],[131.05,33.6],[131.05,33.59734964],[131.04869499400002,33.59575055900012]]]}},{"type":"Feature","id":"40647:50313014","properties":{"id":"40647:50313014","meshCode":"50313014","cityCode":"40647","city":"築上町","lat":33.5990998,"lon":131.0510065,"areaKm2":0.0417939,"populated2020":true,"population2020":null,"populationNote":"境界またぎ・収録外等のため人口未集計"},"geometry":{"type":"Polygon","coordinates":[[[131.05303766500003,33.6],[131.05200221799998,33.599071666999926],[131.05152805399996,33.598960278999996],[131.05139666700006,33.59865194600014],[131.05112221800016,33.598419162000035],[131.05099666699994,33.59813389200008],[131.05072917000018,33.597829162000096],[131.05,33.59734964],[131.05,33.6],[131.05303766500003,33.6]]]}},{"type":"Feature","id":"40647:50303727","properties":{"id":"40647:50303727","meshCode":"50303727","cityCode":"40647","city":"築上町","lat":33.6039375,"lon":130.9729428,"areaKm2":0.348733,"populated2020":false,"population2020":null,"populationNote":"境界またぎ・収録外等のため人口未集計"},"geometry":{"type":"Polygon","coordinates":[[[130.969736667,33.6],[130.970265551,33.600736667],[130.970614721,33.601415829000004],[130.970724449,33.60200582899999],[130.970459728,33.602563892],[130.970467224,33.602763892000006],[130.971444721,33.603894441],[130.971393333,33.604232775],[130.971102776,33.604870559],[130.971205837,33.605570279],[130.971102776,33.606533333],[130.97154666700004,33.60824027900001],[130.97164185534106,33.608333333333334],[130.975,33.60833333333333],[130.975,33.60000000000001],[130.969736667,33.6]]]}},{"type":"Feature","id":"40647:50303728","properties":{"id":"40647:50303728","meshCode":"50303728","cityCode":"40647","city":"築上町","lat":33.6041667,"lon":130.98125,"areaKm2":1.0720946,"populated2020":true,"population2020":109.3603,"populationNote":"収録500mメッシュ人口の合算（原典収録外は補完しない）"},"geometry":{"type":"Polygon","coordinates":[[[130.9875,33.60000000000001],[130.975,33.60000000000001],[130.975,33.60833333333333],[130.9875,33.608333333333334],[130.9875,33.60000000000001]]]}},{"type":"Feature","id":"40647:50303729","properties":{"id":"40647:50303729","meshCode":"50303729","cityCode":"40647","city":"築上町","lat":33.6041667,"lon":130.99375,"areaKm2":1.0720946,"populated2020":false,"population2020":null,"populationNote":"境界またぎ・収録外等のため人口未集計"},"geometry":{"type":"Polygon","coordinates":[[[131.0,33.6],[130.9875,33.60000000000001],[130.9875,33.608333333333334],[131.0,33.608333333333334],[131.0,33.6]]]}},{"type":"Feature","id":"40647:50313020","properties":{"id":"40647:50313020","meshCode":"50313020","cityCode":"40647","city":"築上町","lat":33.6041667,"lon":131.00625,"areaKm2":1.0720946,"populated2020":false,"population2020":null,"populationNote":"境界またぎ・収録外等のため人口未集計"},"geometry":{"type":"Polygon","coordinates":[[[131.0125,33.60000000000001],[131.0,33.6],[131.0,33.608333333333334],[131.0125,33.608333333333334],[131.0125,33.60000000000001]]]}},{"type":"Feature","id":"40647:50313021","properties":{"id":"40647:50313021","meshCode":"50313021","cityCode":"40647","city":"築上町","lat":33.6041667,"lon":131.01875,"areaKm2":1.0720946,"populated2020":true,"population2020":27.1085,"populationNote":"収録500mメッシュ人口の合算（原典収録外は補完しない）"},"geometry":{"type":"Polygon","coordinates":[[[131.025,33.60000000000001],[131.0125,33.60000000000001],[131.0125,33.608333333333334],[131.025,33.60833333333333],[131.025,33.60000000000001]]]}},{"type":"Feature","id":"40647:50313022","properties":{"id":"40647:50313022","meshCode":"50313022","cityCode":"40647","city":"築上町","lat":33.6041667,"lon":131.03125,"areaKm2":1.0720947,"populated2020":true,"population2020":6.0188,"populationNote":"収録500mメッシュ人口の合算（原典収録外は補完しない）"},"geometry":{"type":"Polygon","coordinates":[[[131.0375,33.60000000000001],[131.025,33.60000000000001],[131.025,33.60833333333333],[131.0375,33.608333333333334],[131.0375,33.60000000000001]]]}},{"type":"Feature","id":"40647:50313023","properties":{"id":"40647:50313023","meshCode":"50313023","cityCode":"40647","city":"築上町","lat":33.6041667,"lon":131.04375,"areaKm2":1.072095,"populated2020":true,"population2020":35.1074,"populationNote":"収録500mメッシュ人口の合算（原典収録外は補完しない）"},"geometry":{"type":"Polygon","coordinates":[[[131.05,33.6],[131.0375,33.60000000000001],[131.0375,33.608333333333334],[131.05,33.60833333333333],[131.05,33.6]]]}},{"type":"Feature","id":"40647:50313024","properties":{"id":"40647:50313024","meshCode":"50313024","cityCode":"40647","city":"築上町","lat":33.6051476,"lon":131.0546022,"areaKm2":0.6754229,"populated2020":true,"population2020":null,"populationNote":"境界またぎ・収録外等のため人口未集計"},"geometry":{"type":"Polygon","coordinates":[[[131.05519055800016,33.602201387000086],[131.05454555100016,33.601768613000004],[131.0541397280001,33.60118444099993],[131.05382221800005,33.60108944100012],[131.05343972800006,33.600682495],[131.05303766500003,33.6],[131.05,33.6],[131.05,33.60833333333333],[131.0625,33.608333333333334],[131.0625,33.607273118330575],[131.06230389100006,33.607101946000114],[131.06015917000002,33.60554582900004],[131.05885221800008,33.605113612999965],[131.05806166000002,33.604377494999994],[131.05766389100006,33.60412166699996],[131.05702610900008,33.603958613000145],[131.05554555100014,33.602732775],[131.05519055800016,33.602201387000086]]]}},{"type":"Feature","id":"40647:50313025","properties":{"id":"40647:50313025","meshCode":"50313025","cityCode":"40647","city":"築上町","lat":33.6079682,"lon":131.0630655,"areaKm2":0.0095104,"populated2020":false,"population2020":null,"populationNote":"境界またぎ・収録外等のため人口未集計"},"geometry":{"type":"Polygon","coordinates":[[[131.064092866,33.60833333300013],[131.06329722400017,33.60766610800005],[131.06283888500013,33.60750749499999],[131.0625,33.607273118330575],[131.0625,33.608333333333334],[131.064092866,33.60833333300013]]]}},{"type":"Feature","id":"40647:50303737","properties":{"id":"40647:50303737","meshCode":"50303737","cityCode":"40647","city":"築上町","lat":33.6118679,"lon":130.9738373,"areaKm2":0.1799207,"populated2020":false,"population2020":null,"populationNote":"境界またぎ・収録外等のため人口未集計"},"geometry":{"type":"Polygon","coordinates":[[[130.97164185534106,33.608333333333334],[130.972053891,33.608864162],[130.972171388,33.609298613],[130.97279166,33.609983054],[130.973030558,33.610789721],[130.972883606,33.611268892000005],[130.972553333,33.61187582899999],[130.972332776,33.612634162],[130.972450272,33.61335805400001],[130.973132503,33.614589162],[130.974160272,33.616041945999996],[130.97457917,33.616476387],[130.975,33.61666666666667],[130.975,33.60833333333333],[130.97164185534106,33.608333333333334]]]}},{"type":"Feature","id":"40647:50303738","properties":{"id":"40647:50303738","meshCode":"50303738","cityCode":"40647","city":"築上町","lat":33.6125,"lon":130.98125,"areaKm2":1.071993,"populated2020":true,"population2020":51.153,"populationNote":"収録500mメッシュ人口の合算（原典収録外は補完しない）"},"geometry":{"type":"Polygon","coordinates":[[[130.9875,33.608333333333334],[130.975,33.60833333333333],[130.975,33.61666666666667],[130.9875,33.61666666666667],[130.9875,33.608333333333334]]]}},{"type":"Feature","id":"40647:50303739","properties":{"id":"40647:50303739","meshCode":"50303739","cityCode":"40647","city":"築上町","lat":33.6125,"lon":130.99375,"areaKm2":1.071993,"populated2020":true,"population2020":67.1124,"populationNote":"収録500mメッシュ人口の合算（原典収録外は補完しない）"},"geometry":{"type":"Polygon","coordinates":[[[131.0,33.608333333333334],[130.9875,33.608333333333334],[130.9875,33.61666666666667],[131.0,33.61666666666667],[131.0,33.608333333333334]]]}},{"type":"Feature","id":"40647:50313030","properties":{"id":"40647:50313030","meshCode":"50313030","cityCode":"40647","city":"築上町","lat":33.6125,"lon":131.00625,"areaKm2":1.071993,"populated2020":true,"population2020":12.0581,"populationNote":"収録500mメッシュ人口の合算（原典収録外は補完しない）"},"geometry":{"type":"Polygon","coordinates":[[[131.0125,33.608333333333334],[131.0,33.608333333333334],[131.0,33.61666666666667],[131.0125,33.61666666666667],[131.0125,33.608333333333334]]]}},{"type":"Feature","id":"40647:50313031","properties":{"id":"40647:50313031","meshCode":"50313031","cityCode":"40647","city":"築上町","lat":33.6125,"lon":131.01875,"areaKm2":1.071993,"populated2020":true,"population2020":25.0796,"populationNote":"収録500mメッシュ人口の合算（原典収録外は補完しない）"},"geometry":{"type":"Polygon","coordinates":[[[131.025,33.60833333333333],[131.0125,33.608333333333334],[131.0125,33.61666666666667],[131.025,33.61666666666667],[131.025,33.60833333333333]]]}},{"type":"Feature","id":"40647:50313032","properties":{"id":"40647:50313032","meshCode":"50313032","cityCode":"40647","city":"築上町","lat":33.6125,"lon":131.03125,"areaKm2":1.071993,"populated2020":true,"population2020":28.1077,"populationNote":"収録500mメッシュ人口の合算（原典収録外は補完しない）"},"geometry":{"type":"Polygon","coordinates":[[[131.0375,33.608333333333334],[131.025,33.60833333333333],[131.025,33.61666666666667],[131.0375,33.616666666666674],[131.0375,33.608333333333334]]]}},{"type":"Feature","id":"40647:50313033","properties":{"id":"40647:50313033","meshCode":"50313033","cityCode":"40647","city":"築上町","lat":33.6125,"lon":131.04375,"areaKm2":1.0719933,"populated2020":true,"population2020":19.059,"populationNote":"収録500mメッシュ人口の合算（原典収録外は補完しない）"},"geometry":{"type":"Polygon","coordinates":[[[131.05,33.60833333333333],[131.0375,33.608333333333334],[131.0375,33.616666666666674],[131.05,33.616666666666674],[131.05,33.60833333333333]]]}},{"type":"Feature","id":"40647:50313034","properties":{"id":"40647:50313034","meshCode":"50313034","cityCode":"40647","city":"築上町","lat":33.6125,"lon":131.05625,"areaKm2":1.0719936,"populated2020":false,"population2020":null,"populationNote":"境界またぎ・収録外等のため人口未集計"},"geometry":{"type":"Polygon","coordinates":[[[131.0625,33.608333333333334],[131.05,33.60833333333333],[131.05,33.616666666666674],[131.0625,33.61666666666667],[131.0625,33.608333333333334]]]}},{"type":"Feature","id":"40647:50313035","properties":{"id":"40647:50313035","meshCode":"50313035","cityCode":"40647","city":"築上町","lat":33.6133211,"lon":131.0656653,"areaKm2":0.4856346,"populated2020":true,"population2020":null,"populationNote":"境界またぎ・収録外等のため人口未集計"},"geometry":{"type":"Polygon","coordinates":[[[131.068045279,33.61225082900007],[131.06795555100018,33.611893613],[131.0664983270001,33.610363891999995],[131.06629555099994,33.609724721000134],[131.06596389100002,33.60934110800008],[131.06505472100014,33.60896194599997],[131.06409286646382,33.60833333333333],[131.0625,33.608333333333334],[131.0625,33.61666666666667],[131.0714569127897,33.616666666666674],[131.0703111150001,33.61517333300009],[131.06934416299998,33.614128333],[131.06916749700008,33.61374055900007],[131.06794250300015,33.61256805400012],[131.068045279,33.61225082900007]]]}},{"type":"Feature","id":"40647:50303747","properties":{"id":"40647:50303747","meshCode":"50303747","cityCode":"40647","city":"築上町","lat":33.6166907,"lon":130.9749667,"areaKm2":3.7e-05,"populated2020":false,"population2020":null,"populationNote":"境界またぎ・収録外等のため人口未集計"},"geometry":{"type":"Polygon","coordinates":[[[130.975,33.61666666666667],[130.974931946,33.616686667],[130.975,33.616740865],[130.975,33.61666666666667]]]}},{"type":"Feature","id":"40647:50303748","properties":{"id":"40647:50303748","meshCode":"50303748","cityCode":"40647","city":"築上町","lat":33.6205963,"lon":130.9822542,"areaKm2":0.8908468,"populated2020":true,"population2020":84.2677,"populationNote":"収録500mメッシュ人口の合算（原典収録外は補完しない）"},"geometry":{"type":"Polygon","coordinates":[[[130.975362218,33.61704833300001],[130.976011115,33.617855279],[130.97619499400002,33.618706667000005],[130.97673083,33.620203054],[130.977293333,33.620889162000005],[130.97749555100003,33.621716387],[130.977811388,33.622536667],[130.978398885,33.623198613],[130.978493891,33.624379441],[130.978416667,33.624669162],[130.978500415,33.62500000000001],[130.9875,33.62500000000001],[130.9875,33.61666666666667],[130.975,33.61666666666667],[130.975,33.616740865],[130.975362218,33.61704833300001]]]}},{"type":"Feature","id":"40647:50303749","properties":{"id":"40647:50303749","meshCode":"50303749","cityCode":"40647","city":"築上町","lat":33.6208333,"lon":130.99375,"areaKm2":1.071891,"populated2020":true,"population2020":36.1254,"populationNote":"収録500mメッシュ人口の合算（原典収録外は補完しない）"},"geometry":{"type":"Polygon","coordinates":[[[131.0,33.61666666666667],[130.9875,33.61666666666667],[130.9875,33.62500000000001],[131.0,33.62500000000001],[131.0,33.61666666666667]]]}},{"type":"Feature","id":"40647:50313040","properties":{"id":"40647:50313040","meshCode":"50313040","cityCode":"40647","city":"築上町","lat":33.6208333,"lon":131.00625,"areaKm2":1.071891,"populated2020":true,"population2020":36.1208,"populationNote":"収録500mメッシュ人口の合算（原典収録外は補完しない）"},"geometry":{"type":"Polygon","coordinates":[[[131.0125,33.61666666666667],[131.0,33.61666666666667],[131.0,33.62500000000001],[131.0125,33.62500000000001],[131.0125,33.61666666666667]]]}},{"type":"Feature","id":"40647:50313041","properties":{"id":"40647:50313041","meshCode":"50313041","cityCode":"40647","city":"築上町","lat":33.6208333,"lon":131.01875,"areaKm2":1.0718912,"populated2020":true,"population2020":14.0378,"populationNote":"収録500mメッシュ人口の合算（原典収録外は補完しない）"},"geometry":{"type":"Polygon","coordinates":[[[131.025,33.61666666666667],[131.0125,33.61666666666667],[131.0125,33.62500000000001],[131.025,33.62500000000001],[131.025,33.61666666666667]]]}},{"type":"Feature","id":"40647:50313042","properties":{"id":"40647:50313042","meshCode":"50313042","cityCode":"40647","city":"築上町","lat":33.6208333,"lon":131.03125,"areaKm2":1.0718914,"populated2020":true,"population2020":35.1244,"populationNote":"収録500mメッシュ人口の合算（原典収録外は補完しない）"},"geometry":{"type":"Polygon","coordinates":[[[131.0375,33.616666666666674],[131.025,33.61666666666667],[131.025,33.62500000000001],[131.0375,33.62500000000001],[131.0375,33.616666666666674]]]}},{"type":"Feature","id":"40647:50313043","properties":{"id":"40647:50313043","meshCode":"50313043","cityCode":"40647","city":"築上町","lat":33.6208333,"lon":131.04375,"areaKm2":1.0718915,"populated2020":true,"population2020":43.1732,"populationNote":"収録500mメッシュ人口の合算（原典収録外は補完しない）"},"geometry":{"type":"Polygon","coordinates":[[[131.05,33.616666666666674],[131.0375,33.616666666666674],[131.0375,33.62500000000001],[131.05,33.62500000000001],[131.05,33.616666666666674]]]}},{"type":"Feature","id":"40647:50313044","properties":{"id":"40647:50313044","meshCode":"50313044","cityCode":"40647","city":"築上町","lat":33.6208333,"lon":131.05625,"areaKm2":1.0718918,"populated2020":false,"population2020":null,"populationNote":"境界またぎ・収録外等のため人口未集計"},"geometry":{"type":"Polygon","coordinates":[[[131.0625,33.61666666666667],[131.05,33.616666666666674],[131.05,33.62500000000001],[131.0625,33.62500000000001],[131.0625,33.61666666666667]]]}},{"type":"Feature","id":"40647:50313045","properties":{"id":"40647:50313045","meshCode":"50313045","cityCode":"40647","city":"築上町","lat":33.6210766,"lon":131.0682883,"areaKm2":0.9808344,"populated2020":true,"population2020":65.2485,"populationNote":"収録500mメッシュ人口の合算（原典収録外は補完しない）"},"geometry":{"type":"Polygon","coordinates":[[[131.07465610900002,33.62082472099997],[131.0735649940001,33.619444721000036],[131.07264527900008,33.618831946000064],[131.07248472100014,33.61838666700004],[131.07204221799998,33.61788000000013],[131.0714569127897,33.616666666666674],[131.0625,33.61666666666667],[131.0625,33.62500000000001],[131.075,33.625000000000014],[131.075,33.621392558999794],[131.07465610900002,33.62082472099997]]]}},{"type":"Feature","id":"40647:50313046","properties":{"id":"40647:50313046","meshCode":"50313046","cityCode":"40647","city":"築上町","lat":33.6239659,"lon":131.0761748,"areaKm2":0.0550046,"populated2020":true,"population2020":null,"populationNote":"境界またぎ・収録外等のため人口未集計"},"geometry":{"type":"Polygon","coordinates":[[[131.07858027200007,33.62478416199997],[131.07807861200013,33.624469720999976],[131.07774306099998,33.624413333000064],[131.07768333299998,33.62425861300005],[131.07686917000012,33.623928053999975],[131.07655555099996,33.623650279],[131.07578888500018,33.62266749500003],[131.075,33.621392558999794],[131.075,33.625000000000014],[131.07915155599994,33.62500000000001],[131.07858027200007,33.62478416199997]]]}},{"type":"Feature","id":"40647:50303758","properties":{"id":"40647:50303758","meshCode":"50303758","cityCode":"40647","city":"築上町","lat":33.6284561,"lon":130.9839076,"areaKm2":0.5594208,"populated2020":false,"population2020":null,"populationNote":"境界またぎ・収録外等のため人口未集計"},"geometry":{"type":"Polygon","coordinates":[[[130.978500415,33.62500000000001],[130.978538054,33.626089162],[130.978816109,33.626641108],[130.979014449,33.626813333],[130.979712776,33.62707194600001],[130.979896667,33.62727889200001],[130.979701946,33.627975],[130.979738612,33.628192225],[130.97961,33.628889441],[130.979937224,33.629695829000006],[130.980753061,33.630080279000005],[130.981377782,33.630128613000004],[130.982336939,33.630028613],[130.982912218,33.63014749500001],[130.983316394,33.63039582900001],[130.983452503,33.630537225],[130.983496667,33.63123000000001],[130.98330166,33.632067495],[130.98329083,33.63253305399999],[130.983583891,33.632798892000004],[130.98450172533006,33.63333333333333],[130.9875,33.63333333333333],[130.9875,33.62500000000001],[130.978500415,33.62500000000001]]]}},{"type":"Feature","id":"40647:50303759","properties":{"id":"40647:50303759","meshCode":"50303759","cityCode":"40647","city":"築上町","lat":33.6291667,"lon":130.99375,"areaKm2":1.0717894,"populated2020":true,"population2020":164.3468,"populationNote":"収録500mメッシュ人口の合算（原典収録外は補完しない）"},"geometry":{"type":"Polygon","coordinates":[[[131.0,33.62500000000001],[130.9875,33.62500000000001],[130.9875,33.63333333333333],[131.0,33.63333333333333],[131.0,33.62500000000001]]]}},{"type":"Feature","id":"40647:50313050","properties":{"id":"40647:50313050","meshCode":"50313050","cityCode":"40647","city":"築上町","lat":33.6291667,"lon":131.00625,"areaKm2":1.0717894,"populated2020":true,"population2020":46.1708,"populationNote":"収録500mメッシュ人口の合算（原典収録外は補完しない）"},"geometry":{"type":"Polygon","coordinates":[[[131.0125,33.62500000000001],[131.0,33.62500000000001],[131.0,33.63333333333333],[131.0125,33.63333333333333],[131.0125,33.62500000000001]]]}},{"type":"Feature","id":"40647:50313051","properties":{"id":"40647:50313051","meshCode":"50313051","cityCode":"40647","city":"築上町","lat":33.6291667,"lon":131.01875,"areaKm2":1.0717894,"populated2020":true,"population2020":30.0993,"populationNote":"収録500mメッシュ人口の合算（原典収録外は補完しない）"},"geometry":{"type":"Polygon","coordinates":[[[131.025,33.62500000000001],[131.0125,33.62500000000001],[131.0125,33.63333333333333],[131.025,33.63333333333333],[131.025,33.62500000000001]]]}},{"type":"Feature","id":"40647:50313052","properties":{"id":"40647:50313052","meshCode":"50313052","cityCode":"40647","city":"築上町","lat":33.6291667,"lon":131.03125,"areaKm2":1.0717896,"populated2020":true,"population2020":41.1449,"populationNote":"収録500mメッシュ人口の合算（原典収録外は補完しない）"},"geometry":{"type":"Polygon","coordinates":[[[131.0375,33.62500000000001],[131.025,33.62500000000001],[131.025,33.63333333333333],[131.0375,33.63333333333334],[131.0375,33.62500000000001]]]}},{"type":"Feature","id":"40647:50313053","properties":{"id":"40647:50313053","meshCode":"50313053","cityCode":"40647","city":"築上町","lat":33.6291667,"lon":131.04375,"areaKm2":1.0717898,"populated2020":true,"population2020":24.0728,"populationNote":"収録500mメッシュ人口の合算（原典収録外は補完しない）"},"geometry":{"type":"Polygon","coordinates":[[[131.05,33.62500000000001],[131.0375,33.62500000000001],[131.0375,33.63333333333334],[131.05,33.63333333333334],[131.05,33.62500000000001]]]}},{"type":"Feature","id":"40647:50313054","properties":{"id":"40647:50313054","meshCode":"50313054","cityCode":"40647","city":"築上町","lat":33.6291667,"lon":131.05625,"areaKm2":1.0717901,"populated2020":true,"population2020":68.1928,"populationNote":"収録500mメッシュ人口の合算（原典収録外は補完しない）"},"geometry":{"type":"Polygon","coordinates":[[[131.0625,33.62500000000001],[131.05,33.62500000000001],[131.05,33.63333333333334],[131.0625,33.63333333333334],[131.0625,33.62500000000001]]]}},{"type":"Feature","id":"40647:50313055","properties":{"id":"40647:50313055","meshCode":"50313055","cityCode":"40647","city":"築上町","lat":33.6291667,"lon":131.06875,"areaKm2":1.0717904,"populated2020":true,"population2020":85.3055,"populationNote":"収録500mメッシュ人口の合算（原典収録外は補完しない）"},"geometry":{"type":"Polygon","coordinates":[[[131.075,33.625000000000014],[131.0625,33.62500000000001],[131.0625,33.63333333333334],[131.075,33.63333333333334],[131.075,33.625000000000014]]]}},{"type":"Feature","id":"40647:50313056","properties":{"id":"40647:50313056","meshCode":"50313056","cityCode":"40647","city":"築上町","lat":33.6295196,"lon":131.0795546,"areaKm2":0.7584231,"populated2020":true,"population2020":null,"populationNote":"境界またぎ・収録外等のため人口未集計"},"geometry":{"type":"Polygon","coordinates":[[[131.08095055800007,33.62572666700004],[131.07915155599994,33.62500000000001],[131.075,33.625000000000014],[131.075,33.63333333333334],[131.08531368401793,33.633333333333326],[131.0852974970002,33.633032667000066],[131.08457863800004,33.632898468000064],[131.08463488999996,33.63261317099995],[131.08576671900005,33.63273691900008],[131.0857253700001,33.63233253200014],[131.08470250300013,33.631973054000014],[131.08469972800015,33.63135166700005],[131.08435499400002,33.630553613000075],[131.08436555100013,33.63047416199999],[131.08483166000008,33.63016138699999],[131.084763061,33.62985722500004],[131.08511360600005,33.62953527900004],[131.08508722400006,33.629429721],[131.08413083000016,33.62841138700014],[131.08400693900012,33.628107225],[131.08365666700013,33.62785582899999],[131.083477497,33.627525279],[131.08331666699996,33.62680666700005],[131.08316389100014,33.626652495000094],[131.0822602720001,33.62619833299999],[131.08134583699996,33.62596916200012],[131.08095055800007,33.62572666700004]]]}},{"type":"Feature","id":"40647:50303768","properties":{"id":"40647:50303768","meshCode":"50303768","cityCode":"40647","city":"築上町","lat":33.635284,"lon":130.9861014,"areaKm2":0.1165521,"populated2020":false,"population2020":null,"populationNote":"境界またぎ・収録外等のため人口未集計"},"geometry":{"type":"Polygon","coordinates":[[[130.984579728,33.633426108],[130.984645837,33.634618612999994],[130.984513606,33.635363891999994],[130.98419,33.636070278999995],[130.98419,33.63632527899999],[130.984366394,33.636528613],[130.984553891,33.63659416200001],[130.985061115,33.63657],[130.985634449,33.636704441],[130.9875,33.638097411544315],[130.9875,33.63333333333333],[130.98450172533006,33.63333333333333],[130.984579728,33.633426108]]]}},{"type":"Feature","id":"40647:50303769","properties":{"id":"40647:50303769","meshCode":"50303769","cityCode":"40647","city":"築上町","lat":33.6373069,"lon":130.9940779,"areaKm2":1.0063824,"populated2020":true,"population2020":229.6835,"populationNote":"収録500mメッシュ人口の合算（原典収録外は補完しない）"},"geometry":{"type":"Polygon","coordinates":[[[131.0,33.63333333333333],[130.9875,33.63333333333333],[130.9875,33.638097411544315],[130.988274721,33.639125279],[130.989433606,33.63972194600001],[130.989786394,33.639994441],[130.990532503,33.641328333000004],[130.99063988291928,33.641666666666666],[131.0,33.641666666666666],[131.0,33.63333333333333]]]}},{"type":"Feature","id":"40647:50313060","properties":{"id":"40647:50313060","meshCode":"50313060","cityCode":"40647","city":"築上町","lat":33.6375,"lon":131.00625,"areaKm2":1.0716876,"populated2020":true,"population2020":26.0855,"populationNote":"収録500mメッシュ人口の合算（原典収録外は補完しない）"},"geometry":{"type":"Polygon","coordinates":[[[131.0125,33.63333333333333],[131.0,33.63333333333333],[131.0,33.641666666666666],[131.0125,33.64166666666667],[131.0125,33.63333333333333]]]}},{"type":"Feature","id":"40647:50313061","properties":{"id":"40647:50313061","meshCode":"50313061","cityCode":"40647","city":"築上町","lat":33.6375,"lon":131.01875,"areaKm2":1.0716878,"populated2020":true,"population2020":77.1304,"populationNote":"収録500mメッシュ人口の合算（原典収録外は補完しない）"},"geometry":{"type":"Polygon","coordinates":[[[131.025,33.63333333333333],[131.0125,33.63333333333333],[131.0125,33.64166666666667],[131.025,33.64166666666667],[131.025,33.63333333333333]]]}},{"type":"Feature","id":"40647:50313062","properties":{"id":"40647:50313062","meshCode":"50313062","cityCode":"40647","city":"築上町","lat":33.6375,"lon":131.03125,"areaKm2":1.0716878,"populated2020":true,"population2020":97.225,"populationNote":"収録500mメッシュ人口の合算（原典収録外は補完しない）"},"geometry":{"type":"Polygon","coordinates":[[[131.0375,33.63333333333334],[131.025,33.63333333333333],[131.025,33.64166666666667],[131.0375,33.64166666666667],[131.0375,33.63333333333334]]]}},{"type":"Feature","id":"40647:50313063","properties":{"id":"40647:50313063","meshCode":"50313063","cityCode":"40647","city":"築上町","lat":33.6375,"lon":131.04375,"areaKm2":1.0716881,"populated2020":true,"population2020":136.3736,"populationNote":"収録500mメッシュ人口の合算（原典収録外は補完しない）"},"geometry":{"type":"Polygon","coordinates":[[[131.05,33.63333333333334],[131.0375,33.63333333333334],[131.0375,33.64166666666667],[131.05,33.64166666666667],[131.05,33.63333333333334]]]}},{"type":"Feature","id":"40647:50313064","properties":{"id":"40647:50313064","meshCode":"50313064","cityCode":"40647","city":"築上町","lat":33.6375,"lon":131.05625,"areaKm2":1.0716883,"populated2020":true,"population2020":97.1122,"populationNote":"収録500mメッシュ人口の合算（原典収録外は補完しない）"},"geometry":{"type":"Polygon","coordinates":[[[131.0625,33.63333333333334],[131.05,33.63333333333334],[131.05,33.64166666666667],[131.0625,33.64166666666667],[131.0625,33.63333333333334]]]}},{"type":"Feature","id":"40647:50313065","properties":{"id":"40647:50313065","meshCode":"50313065","cityCode":"40647","city":"築上町","lat":33.6375,"lon":131.06875,"areaKm2":1.0716887,"populated2020":true,"population2020":254.7438,"populationNote":"収録500mメッシュ人口の合算（原典収録外は補完しない）"},"geometry":{"type":"Polygon","coordinates":[[[131.075,33.63333333333334],[131.0625,33.63333333333334],[131.0625,33.64166666666667],[131.075,33.641666666666666],[131.075,33.63333333333334]]]}},{"type":"Feature","id":"40647:50313066","properties":{"id":"40647:50313066","meshCode":"50313066","cityCode":"40647","city":"築上町","lat":33.6372625,"lon":131.0794228,"areaKm2":0.7441959,"populated2020":true,"population2020":38.0319,"populationNote":"収録500mメッシュ人口の合算（原典収録外は補完しない）"},"geometry":{"type":"Polygon","coordinates":[[[131.0823698831087,33.641666666666666],[131.0839560700001,33.63665457700006],[131.08379853400004,33.63631872099995],[131.083540804,33.63616054100004],[131.08305172500013,33.63607419800007],[131.0826740340001,33.63584394600002],[131.08273503199996,33.635654946000045],[131.08313347600006,33.635318278999996],[131.08357583700013,33.63516472100009],[131.08404108900004,33.63477702699993],[131.08450119300016,33.63496772100012],[131.08471344999998,33.635479306000036],[131.084533256,33.63493010800011],[131.083914812,33.634676468000066],[131.084100337,33.63402055900008],[131.08461267200005,33.633779171000015],[131.08486635500014,33.63444764000013],[131.08481678299995,33.63461413500001],[131.0847066670001,33.634668495000035],[131.086049883,33.63816946800006],[131.08610061000002,33.63815574799997],[131.08482914399997,33.63475308100009],[131.084931634,33.63464605400004],[131.08601450100014,33.63439658599997],[131.08665948099997,33.63444772100007],[131.08665805400017,33.63398200000001],[131.08643962400004,33.63375964000005],[131.08641206200002,33.63339418900012],[131.08531875500012,33.63342745000012],[131.08531368401793,33.633333333333326],[131.075,33.63333333333334],[131.075,33.641666666666666],[131.0823698831087,33.641666666666666]]]}},{"type":"Feature","id":"40647:50303779","properties":{"id":"40647:50303779","meshCode":"50303779","cityCode":"40647","city":"築上町","lat":33.6460941,"lon":130.9944655,"areaKm2":0.9363228,"populated2020":true,"population2020":78.2375,"populationNote":"収録500mメッシュ人口の合算（原典収録外は補完しない）"},"geometry":{"type":"Polygon","coordinates":[[[130.99063988291928,33.641666666666666],[130.990877224,33.64340055900001],[130.990678885,33.643900279],[130.98818166,33.64617],[130.987994163,33.64650777500001],[130.987814163,33.64798972100001],[130.987906109,33.64891444100001],[130.987758885,33.649579441],[130.987920363,33.64999999999999],[131.0,33.65],[131.0,33.641666666666666],[130.99063988291928,33.641666666666666]]]}},{"type":"Feature","id":"40647:50313070","properties":{"id":"40647:50313070","meshCode":"50313070","cityCode":"40647","city":"築上町","lat":33.6458333,"lon":131.00625,"areaKm2":1.0715858,"populated2020":true,"population2020":273.6285,"populationNote":"収録500mメッシュ人口の合算（原典収録外は補完しない）"},"geometry":{"type":"Polygon","coordinates":[[[131.0125,33.64166666666667],[131.0,33.641666666666666],[131.0,33.65],[131.0125,33.65],[131.0125,33.64166666666667]]]}},{"type":"Feature","id":"40647:50313071","properties":{"id":"40647:50313071","meshCode":"50313071","cityCode":"40647","city":"築上町","lat":33.6458333,"lon":131.01875,"areaKm2":1.0715858,"populated2020":true,"population2020":63.2622,"populationNote":"収録500mメッシュ人口の合算（原典収録外は補完しない）"},"geometry":{"type":"Polygon","coordinates":[[[131.025,33.64166666666667],[131.0125,33.64166666666667],[131.0125,33.65],[131.025,33.64999999999999],[131.025,33.64166666666667]]]}},{"type":"Feature","id":"40647:50313072","properties":{"id":"40647:50313072","meshCode":"50313072","cityCode":"40647","city":"築上町","lat":33.6458333,"lon":131.03125,"areaKm2":1.0715861,"populated2020":true,"population2020":84.3418,"populationNote":"収録500mメッシュ人口の合算（原典収録外は補完しない）"},"geometry":{"type":"Polygon","coordinates":[[[131.0375,33.64166666666667],[131.025,33.64166666666667],[131.025,33.64999999999999],[131.0375,33.64999999999999],[131.0375,33.64166666666667]]]}},{"type":"Feature","id":"40647:50313073","properties":{"id":"40647:50313073","meshCode":"50313073","cityCode":"40647","city":"築上町","lat":33.6458333,"lon":131.04375,"areaKm2":1.0715862,"populated2020":true,"population2020":445.0973,"populationNote":"収録500mメッシュ人口の合算（原典収録外は補完しない）"},"geometry":{"type":"Polygon","coordinates":[[[131.05,33.64166666666667],[131.0375,33.64166666666667],[131.0375,33.64999999999999],[131.05,33.64999999999999],[131.05,33.64166666666667]]]}},{"type":"Feature","id":"40647:50313074","properties":{"id":"40647:50313074","meshCode":"50313074","cityCode":"40647","city":"築上町","lat":33.6458333,"lon":131.05625,"areaKm2":1.0715866,"populated2020":true,"population2020":497.9814,"populationNote":"収録500mメッシュ人口の合算（原典収録外は補完しない）"},"geometry":{"type":"Polygon","coordinates":[[[131.0625,33.64166666666667],[131.05,33.64166666666667],[131.05,33.64999999999999],[131.0625,33.65],[131.0625,33.64166666666667]]]}},{"type":"Feature","id":"40647:50313075","properties":{"id":"40647:50313075","meshCode":"50313075","cityCode":"40647","city":"築上町","lat":33.6458333,"lon":131.06875,"areaKm2":1.0715869,"populated2020":true,"population2020":273.5958,"populationNote":"収録500mメッシュ人口の合算（原典収録外は補完しない）"},"geometry":{"type":"Polygon","coordinates":[[[131.075,33.641666666666666],[131.0625,33.64166666666667],[131.0625,33.65],[131.075,33.65],[131.075,33.641666666666666]]]}},{"type":"Feature","id":"40647:50313076","properties":{"id":"40647:50313076","meshCode":"50313076","cityCode":"40647","city":"築上町","lat":33.6454068,"lon":131.0780151,"areaKm2":0.5003455,"populated2020":false,"population2020":null,"populationNote":"境界またぎ・収録外等のため人口未集計"},"geometry":{"type":"Polygon","coordinates":[[[131.08117882,33.64530198200009],[131.0823698831087,33.641666666666666],[131.075,33.641666666666666],[131.075,33.65],[131.0783613555002,33.64999999999999],[131.08035897500008,33.647718946000055],[131.081010999,33.645821297],[131.08119701700014,33.645623892000124],[131.08154367100008,33.645646207000084],[131.08110988300007,33.64553655900006],[131.0811586640001,33.64532994600012],[131.08158622600013,33.64540402700009],[131.08117882,33.64530198200009]]]}},{"type":"Feature","id":"40647:50303789","properties":{"id":"40647:50303789","meshCode":"50303789","cityCode":"40647","city":"築上町","lat":33.6538875,"lon":130.9946732,"areaKm2":0.9006245,"populated2020":true,"population2020":2.0078,"populationNote":"収録500mメッシュ人口の合算（原典収録外は補完しない）"},"geometry":{"type":"Polygon","coordinates":[[[130.988037782,33.65038305400001],[130.987883333,33.651093054],[130.987978885,33.651689441],[130.988813333,33.652599162],[130.988989728,33.652906108],[130.989044163,33.653175278999996],[130.988978054,33.653868333],[130.989143333,33.65432666699999],[130.989961946,33.655161946],[130.990094163,33.65540333300001],[130.990145551,33.655844441],[130.991134449,33.656930279],[130.991434449,33.65737527899999],[130.991588885,33.657961387000014],[130.99154739281363,33.65833333333333],[131.0,33.65833333333333],[131.0,33.65],[130.987920363,33.64999999999999],[130.988037782,33.65038305400001]]]}},{"type":"Feature","id":"40647:50313080","properties":{"id":"40647:50313080","meshCode":"50313080","cityCode":"40647","city":"築上町","lat":33.6541667,"lon":131.00625,"areaKm2":1.071484,"populated2020":true,"population2020":419.0164,"populationNote":"収録500mメッシュ人口の合算（原典収録外は補完しない）"},"geometry":{"type":"Polygon","coordinates":[[[131.0125,33.65],[131.0,33.65],[131.0,33.65833333333333],[131.0125,33.658333333333324],[131.0125,33.65]]]}},{"type":"Feature","id":"40647:50313081","properties":{"id":"40647:50313081","meshCode":"50313081","cityCode":"40647","city":"築上町","lat":33.6541667,"lon":131.01875,"areaKm2":1.0714842,"populated2020":true,"population2020":220.6313,"populationNote":"収録500mメッシュ人口の合算（原典収録外は補完しない）"},"geometry":{"type":"Polygon","coordinates":[[[131.025,33.64999999999999],[131.0125,33.65],[131.0125,33.658333333333324],[131.025,33.658333333333324],[131.025,33.64999999999999]]]}},{"type":"Feature","id":"40647:50313082","properties":{"id":"40647:50313082","meshCode":"50313082","cityCode":"40647","city":"築上町","lat":33.6541667,"lon":131.03125,"areaKm2":1.0714842,"populated2020":true,"population2020":310.813,"populationNote":"収録500mメッシュ人口の合算（原典収録外は補完しない）"},"geometry":{"type":"Polygon","coordinates":[[[131.0375,33.64999999999999],[131.025,33.64999999999999],[131.025,33.658333333333324],[131.0375,33.65833333333333],[131.0375,33.64999999999999]]]}},{"type":"Feature","id":"40647:50313083","properties":{"id":"40647:50313083","meshCode":"50313083","cityCode":"40647","city":"築上町","lat":33.6541667,"lon":131.04375,"areaKm2":1.0714845,"populated2020":true,"population2020":726.4889,"populationNote":"収録500mメッシュ人口の合算（原典収録外は補完しない）"},"geometry":{"type":"Polygon","coordinates":[[[131.05,33.64999999999999],[131.0375,33.64999999999999],[131.0375,33.65833333333333],[131.05,33.65833333333334],[131.05,33.64999999999999]]]}},{"type":"Feature","id":"40647:50313084","properties":{"id":"40647:50313084","meshCode":"50313084","cityCode":"40647","city":"築上町","lat":33.6541667,"lon":131.05625,"areaKm2":1.0714847,"populated2020":true,"population2020":1700.0425,"populationNote":"収録500mメッシュ人口の合算（原典収録外は補完しない）"},"geometry":{"type":"Polygon","coordinates":[[[131.0625,33.65],[131.05,33.64999999999999],[131.05,33.65833333333334],[131.0625,33.658333333333324],[131.0625,33.65]]]}},{"type":"Feature","id":"40647:50313085","properties":{"id":"40647:50313085","meshCode":"50313085","cityCode":"40647","city":"築上町","lat":33.6538109,"lon":131.0682109,"areaKm2":0.9517771,"populated2020":true,"population2020":809.7841,"populationNote":"収録500mメッシュ人口の合算（原典収録外は補完しない）"},"geometry":{"type":"Polygon","coordinates":[[[131.07261892300005,33.65642189200003],[131.075,33.653769306000314],[131.075,33.65],[131.0625,33.65],[131.0625,33.658333333333324],[131.06841409825628,33.65833333333333],[131.07261892300005,33.65642189200003]]]}},{"type":"Feature","id":"40647:50313086","properties":{"id":"40647:50313086","meshCode":"50313086","cityCode":"40647","city":"築上町","lat":33.6512569,"lon":131.0761214,"areaKm2":0.0652439,"populated2020":true,"population2020":2.0,"populationNote":"収録500mメッシュ人口の合算（原典収録外は補完しない）"},"geometry":{"type":"Polygon","coordinates":[[[131.07500000000016,33.65376930600013],[131.07634044099996,33.65227855000006],[131.0783613555002,33.64999999999999],[131.075,33.65],[131.07500000000016,33.65376930600013]]]}},{"type":"Feature","id":"40647:50303799","properties":{"id":"40647:50303799","meshCode":"50303799","cityCode":"40647","city":"築上町","lat":33.6619271,"lon":130.9957815,"areaKm2":0.675849,"populated2020":true,"population2020":null,"populationNote":"境界またぎ・収録外等のため人口未集計"},"geometry":{"type":"Polygon","coordinates":[[[130.99128,33.658616108],[130.989976394,33.65942749500001],[130.989594163,33.661081946],[130.990045837,33.661371386999996],[130.990732218,33.661617225],[130.991581388,33.66217527900001],[130.99197083,33.66267527899999],[130.992117782,33.662637225],[130.991981946,33.662854441],[130.991985279,33.66325416200001],[130.992373606,33.663851387],[130.992737497,33.66415833300001],[130.993178612,33.66421],[130.993564449,33.664361667],[130.99417083,33.664947225],[130.995653606,33.666045],[130.995870272,33.66611055900001],[130.996149728,33.666327495],[130.996304163,33.666248333],[130.9968382221506,33.666666666666664],[131.0,33.666666666666664],[131.0,33.65833333333333],[130.99154739281363,33.65833333333333],[130.99128,33.658616108]]]}},{"type":"Feature","id":"40647:50313090","properties":{"id":"40647:50313090","meshCode":"50313090","cityCode":"40647","city":"築上町","lat":33.6625,"lon":131.00625,"areaKm2":1.0713822,"populated2020":true,"population2020":396.7632,"populationNote":"収録500mメッシュ人口の合算（原典収録外は補完しない）"},"geometry":{"type":"Polygon","coordinates":[[[131.0125,33.658333333333324],[131.0,33.65833333333333],[131.0,33.666666666666664],[131.0125,33.666666666666664],[131.0125,33.658333333333324]]]}},{"type":"Feature","id":"40647:50313091","properties":{"id":"40647:50313091","meshCode":"50313091","cityCode":"40647","city":"築上町","lat":33.6625,"lon":131.01875,"areaKm2":1.0713822,"populated2020":true,"population2020":335.7593,"populationNote":"収録500mメッシュ人口の合算（原典収録外は補完しない）"},"geometry":{"type":"Polygon","coordinates":[[[131.025,33.658333333333324],[131.0125,33.658333333333324],[131.0125,33.666666666666664],[131.025,33.666666666666664],[131.025,33.658333333333324]]]}},{"type":"Feature","id":"40647:50313092","properties":{"id":"40647:50313092","meshCode":"50313092","cityCode":"40647","city":"築上町","lat":33.6625,"lon":131.03125,"areaKm2":1.0713824,"populated2020":true,"population2020":556.2608,"populationNote":"収録500mメッシュ人口の合算（原典収録外は補完しない）"},"geometry":{"type":"Polygon","coordinates":[[[131.0375,33.65833333333333],[131.025,33.658333333333324],[131.025,33.666666666666664],[131.0375,33.666666666666664],[131.0375,33.65833333333333]]]}},{"type":"Feature","id":"40647:50313093","properties":{"id":"40647:50313093","meshCode":"50313093","cityCode":"40647","city":"築上町","lat":33.6625,"lon":131.04375,"areaKm2":1.0713826,"populated2020":true,"population2020":379.9483,"populationNote":"収録500mメッシュ人口の合算（原典収録外は補完しない）"},"geometry":{"type":"Polygon","coordinates":[[[131.05,33.65833333333334],[131.0375,33.65833333333333],[131.0375,33.666666666666664],[131.05,33.666666666666664],[131.05,33.65833333333334]]]}},{"type":"Feature","id":"40647:50313094","properties":{"id":"40647:50313094","meshCode":"50313094","cityCode":"40647","city":"築上町","lat":33.6625,"lon":131.05625,"areaKm2":1.0713829,"populated2020":true,"population2020":949.0374,"populationNote":"収録500mメッシュ人口の合算（原典収録外は補完しない）"},"geometry":{"type":"Polygon","coordinates":[[[131.0625,33.658333333333324],[131.05,33.65833333333334],[131.05,33.666666666666664],[131.0625,33.666666666666664],[131.0625,33.658333333333324]]]}},{"type":"Feature","id":"40647:50313095","properties":{"id":"40647:50313095","meshCode":"50313095","cityCode":"40647","city":"築上町","lat":33.662084,"lon":131.0644035,"areaKm2":0.3152693,"populated2020":true,"population2020":158.1661,"populationNote":"収録500mメッシュ人口の合算（原典収録外は補完しない）"},"geometry":{"type":"Polygon","coordinates":[[[131.06595814499997,33.66261644100002],[131.06630444899997,33.66219638700005],[131.06618756199998,33.66229069399997],[131.06608338499996,33.66223466700001],[131.06621741899994,33.66216064000002],[131.06613321700002,33.66212253200007],[131.06618583700015,33.661916135000126],[131.0669988850001,33.66184413500002],[131.067204189,33.66171519800014],[131.06713350199993,33.66161322500011],[131.06695603100013,33.661770775000036],[131.066553087,33.66174608100011],[131.06637808000016,33.66147766700009],[131.066321829,33.660667162000095],[131.06656949399996,33.65997280200003],[131.06700824899997,33.659211532000086],[131.06733885899996,33.658815333000064],[131.06841409825628,33.65833333333333],[131.0625,33.658333333333324],[131.0625,33.666666666666664],[131.06483430616493,33.666666666666664],[131.06580730199994,33.66498491899999],[131.06593992199998,33.66303274800009],[131.066063217,33.662906865000025],[131.0659440600001,33.66285741399997],[131.06595814499997,33.66261644100002]]]}},{"type":"Feature","id":"40647:50304709","properties":{"id":"40647:50304709","meshCode":"50304709","cityCode":"40647","city":"築上町","lat":33.6675293,"lon":130.9989529,"areaKm2":0.041682,"populated2020":true,"population2020":null,"populationNote":"境界またぎ・収録外等のため人口未集計"},"geometry":{"type":"Polygon","coordinates":[[[130.996838223,33.666666667],[130.99709166,33.666801387],[130.997308327,33.667159721],[130.99762,33.667388892],[130.998501115,33.667879721],[130.998886939,33.668214721000005],[130.999362776,33.668811108],[131.0,33.669271774999984],[131.0,33.666666666666664],[130.996838223,33.666666667]]]}},{"type":"Feature","id":"40647:50314000","properties":{"id":"40647:50314000","meshCode":"50314000","cityCode":"40647","city":"築上町","lat":33.669868,"lon":131.007297,"areaKm2":0.7577412,"populated2020":true,"population2020":29.0315,"populationNote":"収録500mメッシュ人口の合算（原典収録外は補完しない）"},"geometry":{"type":"Polygon","coordinates":[[[131.00075861200003,33.66996],[131.00233722400003,33.67107082899997],[131.003259728,33.67132166700014],[131.004551946,33.67154305400005],[131.00530360599998,33.67177638700008],[131.00696555100012,33.67273527900005],[131.00818639399995,33.67325416200009],[131.0100646690003,33.675],[131.0125,33.675],[131.0125,33.666666666666664],[131.0,33.666666666666664],[131.0,33.669271774999984],[131.00044472100012,33.66957110799996],[131.00075861200003,33.66996]]]}},{"type":"Feature","id":"40647:50314001","properties":{"id":"40647:50314001","meshCode":"50314001","cityCode":"40647","city":"築上町","lat":33.6708333,"lon":131.01875,"areaKm2":1.0712804,"populated2020":true,"population2020":453.2036,"populationNote":"収録500mメッシュ人口の合算（原典収録外は補完しない）"},"geometry":{"type":"Polygon","coordinates":[[[131.025,33.666666666666664],[131.0125,33.666666666666664],[131.0125,33.675],[131.025,33.675],[131.025,33.666666666666664]]]}},{"type":"Feature","id":"40647:50314002","properties":{"id":"40647:50314002","meshCode":"50314002","cityCode":"40647","city":"築上町","lat":33.6708333,"lon":131.03125,"areaKm2":1.0712806,"populated2020":true,"population2020":2152.3664,"populationNote":"収録500mメッシュ人口の合算（原典収録外は補完しない）"},"geometry":{"type":"Polygon","coordinates":[[[131.0375,33.666666666666664],[131.025,33.666666666666664],[131.025,33.675],[131.0375,33.675],[131.0375,33.666666666666664]]]}},{"type":"Feature","id":"40647:50314003","properties":{"id":"40647:50314003","meshCode":"50314003","cityCode":"40647","city":"築上町","lat":33.6708333,"lon":131.04375,"areaKm2":1.0712807,"populated2020":true,"population2020":1149.2651,"populationNote":"収録500mメッシュ人口の合算（原典収録外は補完しない）"},"geometry":{"type":"Polygon","coordinates":[[[131.05,33.666666666666664],[131.0375,33.666666666666664],[131.0375,33.675],[131.05,33.675],[131.05,33.666666666666664]]]}},{"type":"Feature","id":"40647:50314004","properties":{"id":"40647:50314004","meshCode":"50314004","cityCode":"40647","city":"築上町","lat":33.6705927,"lon":131.0558937,"areaKm2":0.9940801,"populated2020":true,"population2020":577.5245,"populationNote":"収録500mメッシュ人口の合算（原典収録外は補完しない）"},"geometry":{"type":"Polygon","coordinates":[[[131.0625,33.666666666666664],[131.05,33.666666666666664],[131.05,33.675],[131.05826791200013,33.675000000000004],[131.0593336060001,33.67308872099994],[131.05981739300012,33.67334316199998],[131.05983732800007,33.673300198],[131.06107888500003,33.673788667],[131.06121725000003,33.673759973000074],[131.0625,33.67428134236451],[131.06233888500014,33.674144081000065],[131.0612493,33.67371880199995],[131.06063891100018,33.673035000000006],[131.06126092099998,33.67273566700004],[131.0616336710001,33.673132333000005],[131.06168299599997,33.67310264000014],[131.06132505800008,33.67270364],[131.061911699,33.67230136000013],[131.0625,33.67159382924069],[131.0625,33.666666666666664]]]}},{"type":"Feature","id":"40647:50314005","properties":{"id":"40647:50314005","meshCode":"50314005","cityCode":"40647","city":"築上町","lat":33.6687492,"lon":131.0633143,"areaKm2":0.0659857,"populated2020":false,"population2020":null,"populationNote":"境界またぎ・収録外等のため人口未集計"},"geometry":{"type":"MultiPolygon","coordinates":[[[[131.06337408600007,33.6704344410001],[131.063645188,33.669550414000014],[131.0636224120001,33.66908130600012],[131.06419306100008,33.66792663999996],[131.06435763900004,33.66795972099998],[131.06432358000018,33.66767758600014],[131.06483430616493,33.666666666666664],[131.0625,33.666666666666664],[131.0625,33.67159382924069],[131.06337408600007,33.6704344410001]]],[[[131.06428900099968,33.675],[131.06479968900004,33.67500000000001],[131.06515958499995,33.674341225000035],[131.06497763900018,33.674267973000035],[131.06462499400004,33.674906919000136],[131.06425680900009,33.67476277500009],[131.06417988300007,33.674907162000075],[131.0625,33.67422558984349],[131.0625,33.67428134236451],[131.06303894899997,33.674517693999974],[131.06428900099968,33.675]]]]}},{"type":"Feature","id":"40647:50314010","properties":{"id":"40647:50314010","meshCode":"50314010","cityCode":"40647","city":"築上町","lat":33.6758121,"lon":131.0113496,"areaKm2":0.0425879,"populated2020":true,"population2020":null,"populationNote":"境界またぎ・収録外等のため人口未集計"},"geometry":{"type":"Polygon","coordinates":[[[131.01006466900003,33.67500000000012],[131.0093930610001,33.675346946000055],[131.00968583700012,33.67562666700002],[131.0125,33.67731390862786],[131.0125,33.675],[131.01006466900003,33.67500000000012]]]}},{"type":"Feature","id":"40647:50314011","properties":{"id":"40647:50314011","meshCode":"50314011","cityCode":"40647","city":"築上町","lat":33.6782867,"lon":131.019928,"areaKm2":0.7533983,"populated2020":true,"population2020":null,"populationNote":"境界またぎ・収録外等のため人口未集計"},"geometry":{"type":"Polygon","coordinates":[[[131.0125,33.67731390862786],[131.01348472100005,33.67791805399997],[131.01506722399995,33.678136667],[131.01546583699997,33.678251107999984],[131.0159913880001,33.678536108000124],[131.01613916999997,33.678989441000056],[131.01655944200002,33.679386945999966],[131.01685555100005,33.68030749500002],[131.01738499399994,33.68087194600014],[131.01808610900014,33.68139333300002],[131.01849138800014,33.681595559000016],[131.01935972800004,33.681737225],[131.01964722399998,33.681855559000056],[131.020129442,33.68219055900005],[131.02046610900007,33.68258638700013],[131.02200778199995,33.6829388920001],[131.0226594945032,33.68333333333334],[131.02309130964812,33.68333333333333],[131.025,33.68208366700008],[131.025,33.675],[131.0125,33.675],[131.0125,33.67731390862786]]]}},{"type":"Feature","id":"40647:50314012","properties":{"id":"40647:50314012","meshCode":"50314012","cityCode":"40647","city":"築上町","lat":33.6775885,"lon":131.0309367,"areaKm2":0.6535649,"populated2020":true,"population2020":72.1047,"populationNote":"収録500mメッシュ人口の合算（原典収録外は補完しない）"},"geometry":{"type":"Polygon","coordinates":[[[131.0375,33.675],[131.025,33.675],[131.025,33.68208366700008],[131.0277447210001,33.680404441000064],[131.02982083000018,33.67942389200004],[131.03028944200003,33.679271386999915],[131.03099389099998,33.67936055900004],[131.033069728,33.67999694600002],[131.03416666700014,33.679844441000114],[131.03607888500005,33.679774441],[131.03676472100017,33.67980610800004],[131.0375,33.68004433648706],[131.0375,33.675]]]}},{"type":"Feature","id":"40647:50314013","properties":{"id":"40647:50314013","meshCode":"50314013","cityCode":"40647","city":"築上町","lat":33.678834,"lon":131.0441583,"areaKm2":0.9707006,"populated2020":true,"population2020":900.9561,"populationNote":"収録500mメッシュ人口の合算（原典収録外は補完しない）"},"geometry":{"type":"Polygon","coordinates":[[[131.05,33.675],[131.0375,33.675],[131.0375,33.68004433648706],[131.03765555099994,33.68011166699999],[131.03891666699997,33.68129555900009],[131.03929000000002,33.681499441000085],[131.04149138799994,33.68218055900013],[131.04279027200016,33.682505279],[131.04427944255391,33.68333333333333],[131.05,33.68333333333333],[131.05,33.675]]]}},{"type":"Feature","id":"40647:50314014","properties":{"id":"40647:50314014","meshCode":"50314014","cityCode":"40647","city":"築上町","lat":33.6786435,"lon":131.0532501,"areaKm2":0.5289041,"populated2020":true,"population2020":229.3974,"populationNote":"収録500mメッシュ人口の合算（原典収録外は補完しない）"},"geometry":{"type":"Polygon","coordinates":[[[131.05665994800006,33.679137919000084],[131.05642313900015,33.6791338650001],[131.05650031100004,33.678400054000065],[131.05680961100006,33.67806327899996],[131.05700191999995,33.678007252000036],[131.05687744500017,33.67788669400005],[131.05704783400017,33.67788049500013],[131.05677280200018,33.67781572100011],[131.0568208950001,33.67758044099997],[131.05776827499994,33.67611880200013],[131.05826791200013,33.675000000000004],[131.05,33.675],[131.05,33.68333333333333],[131.05321605656172,33.68333333333334],[131.05355431900003,33.68304088300005],[131.05374177700003,33.682267495000026],[131.05420434500004,33.681816514000104],[131.05488163400014,33.681303757000016],[131.05565749699997,33.68131055900006],[131.05608610900003,33.680971108],[131.0562963550001,33.68066349500004],[131.0564113360001,33.679276278999964],[131.05665144,33.67928219800002],[131.05665374800003,33.6792216130001],[131.05641946800006,33.67918991900013],[131.05665664100002,33.679193721000104],[131.05665994800006,33.679137919000084]]]}},{"type":"Feature","id":"40647:50314015","properties":{"id":"40647:50314015","meshCode":"50314015","cityCode":"40647","city":"築上町","lat":33.6750542,"lon":131.0645998,"areaKm2":0.0004274,"populated2020":false,"population2020":null,"populationNote":"境界またぎ・収録外等のため人口未集計"},"geometry":{"type":"Polygon","coordinates":[[[131.06428900099968,33.675],[131.06471080400001,33.67516274800005],[131.06479968900004,33.67500000000001],[131.06428900099968,33.675]]]}},{"type":"Feature","id":"40647:50314021","properties":{"id":"40647:50314021","meshCode":"50314021","cityCode":"40647","city":"築上町","lat":33.6833853,"lon":131.022887,"areaKm2":0.0003571,"populated2020":true,"population2020":null,"populationNote":"境界またぎ・収録外等のため人口未集計"},"geometry":{"type":"Polygon","coordinates":[[[131.0226594945032,33.68333333333334],[131.02295749700014,33.68346027899997],[131.02309130964812,33.68333333333333],[131.0226594945032,33.68333333333334]]]}},{"type":"Feature","id":"40647:50314023","properties":{"id":"40647:50314023","meshCode":"50314023","cityCode":"40647","city":"築上町","lat":33.6861654,"lon":131.0478822,"areaKm2":0.2537114,"populated2020":false,"population2020":null,"populationNote":"境界またぎ・収録外等のため人口未集計"},"geometry":{"type":"Polygon","coordinates":[[[131.04427944255391,33.68333333333333],[131.0453422180001,33.684033333000116],[131.04587917000015,33.68496916200001],[131.04602,33.68668138700003],[131.045842451,33.68865781099993],[131.045988781,33.68856549499992],[131.04605304799998,33.688627396000015],[131.04648029800012,33.68860762199996],[131.04678984399993,33.688685730000024],[131.0469546820001,33.68883685600007],[131.04725304800013,33.68940045],[131.04799958500018,33.68980278400011],[131.04819552499998,33.69000176600002],[131.0483799220001,33.69004166700007],[131.04886022000005,33.68929572099995],[131.04950236100012,33.688654414000105],[131.05,33.688803162],[131.05,33.68333333333333],[131.04427944255391,33.68333333333333]]]}},{"type":"Feature","id":"40647:50314024","properties":{"id":"40647:50314024","meshCode":"50314024","cityCode":"40647","city":"築上町","lat":33.6870513,"lon":131.0520615,"areaKm2":0.1878817,"populated2020":false,"population2020":null,"populationNote":"境界またぎ・収録外等のため人口未集計"},"geometry":{"type":"MultiPolygon","coordinates":[[[[131.05233163399998,33.686816090000036],[131.05227483800013,33.686888378],[131.050039222,33.68620469400008],[131.05004202300006,33.685925387],[131.05014788600002,33.68585591900012],[131.05073924800013,33.685861080999985],[131.05160808000005,33.68613782899996],[131.051934436,33.685672964],[131.052468534,33.685847838000086],[131.0528673540001,33.68565338700006],[131.0536498570001,33.68644133300006],[131.05369603100007,33.686412694000076],[131.05219329400018,33.684909027000124],[131.05242709499998,33.68474618000005],[131.05212753600006,33.684842901000145],[131.05245080400016,33.68455039600002],[131.05258998700003,33.68405914400006],[131.05321605656172,33.68333333333334],[131.05,33.68333333333333],[131.05,33.688803162],[131.05571046700004,33.69053998199996],[131.05620826200015,33.689375595],[131.05316590100006,33.68844444100006],[131.05231037600004,33.68690349500008],[131.05233163399998,33.686816090000036]]],[[[131.053466926,33.686758063000006],[131.052749442,33.687546432000005],[131.052786433,33.687568387],[131.053466926,33.686758063000006]]]]}}]}