{"type":"FeatureCollection","metadata":{"cityCode":"40646","city":"上毛町","resolution":1000,"boundaryDate":"2026-01-01","populationLabel":"2020年基準人口（国交省調整値）","method":"標準地域メッシュを行政界で切抜き。中心が区域外のとき区域内代表点を判定点にする。人口不明をゼロにしない。"},"features":[{"type":"Feature","id":"40646:50312009","properties":{"id":"40646:50312009","meshCode":"50312009","cityCode":"40646","city":"上毛町","lat":33.5054721,"lon":131.1192771,"areaKm2":0.7169642,"populated2020":false,"population2020":null,"populationNote":"境界またぎ・収録外等のため人口未集計"},"geometry":{"type":"Polygon","coordinates":[[[131.122612503,33.501975829],[131.121187224,33.502227775],[131.119782218,33.502227775],[131.118971946,33.502082494999996],[131.118428327,33.502131108],[131.117648885,33.502316108],[131.116541388,33.502776108],[131.11555,33.503792225000005],[131.115321115,33.503826667],[131.114448612,33.50365527899999],[131.114295837,33.503698054],[131.113837782,33.504580559],[131.113630558,33.504760559],[131.113281388,33.504829162],[131.1125,33.50463744563983],[131.1125,33.50833333333334],[131.125,33.50833333333334],[131.125,33.50206441400001],[131.122612503,33.501975829]]]}},{"type":"Feature","id":"40646:50312100","properties":{"id":"40646:50312100","meshCode":"50312100","cityCode":"40646","city":"上毛町","lat":33.505806,"lon":131.1300575,"areaKm2":0.5635695,"populated2020":false,"population2020":null,"populationNote":"境界またぎ・収録外等のため人口未集計"},"geometry":{"type":"Polygon","coordinates":[[[131.129725279,33.50184500000001],[131.128608054,33.501757775],[131.128013606,33.50158333299999],[131.127625279,33.501595559],[131.126896109,33.502087775],[131.125,33.50206441400001],[131.125,33.50833333333334],[131.1375,33.50833333333333],[131.1375,33.50502608186644],[131.133625279,33.505773333],[131.131804449,33.50538722500001],[131.130114163,33.50467027900001],[131.130023606,33.50454861299999],[131.129941115,33.50437082900001],[131.129952218,33.503842225],[131.130192776,33.502424162],[131.129994721,33.502019441],[131.129725279,33.50184500000001]]]}},{"type":"Feature","id":"40646:50312005","properties":{"id":"40646:50312005","meshCode":"50312005","cityCode":"40646","city":"上毛町","lat":33.5075436,"lon":131.0718989,"areaKm2":0.1040627,"populated2020":false,"population2020":null,"populationNote":"境界またぎ・収録外等のため人口未集計"},"geometry":{"type":"Polygon","coordinates":[[[131.07447917,33.506137225],[131.074173891,33.506308613],[131.073920558,33.507010558999994],[131.073582503,33.507104721],[131.072688054,33.507096387],[131.071848612,33.50674500000001],[131.069738612,33.50678777499999],[131.068266394,33.507678892],[131.06802878089104,33.50833333333334],[131.075,33.50833333333334],[131.075,33.505656559],[131.07447917,33.506137225]]]}},{"type":"Feature","id":"40646:50312006","properties":{"id":"40646:50312006","meshCode":"50312006","cityCode":"40646","city":"上毛町","lat":33.5070623,"lon":131.0809274,"areaKm2":0.3220153,"populated2020":false,"population2020":null,"populationNote":"境界またぎ・収録外等のため人口未集計"},"geometry":{"type":"Polygon","coordinates":[[[131.081503061,33.505748333],[131.07965472100003,33.505345559],[131.079327497,33.50533694599999],[131.079095279,33.50552055899999],[131.078844721,33.506111946],[131.078648327,33.506223332999994],[131.07672917,33.505683333],[131.075918612,33.505331667],[131.075700558,33.505297495],[131.075307782,33.505400279],[131.075,33.505656559],[131.075,33.50833333333334],[131.0875,33.50833333333333],[131.087467224,33.506150829000006],[131.087227497,33.506176667],[131.087020272,33.50642499999999],[131.086091388,33.50640389200001],[131.085328327,33.50609527900001],[131.084204994,33.50591527899999],[131.08320166,33.505949721],[131.082353891,33.505611108],[131.081503061,33.505748333]]]}},{"type":"Feature","id":"40646:50312007","properties":{"id":"40646:50312007","meshCode":"50312007","cityCode":"40646","city":"上毛町","lat":33.5070428,"lon":131.0949344,"areaKm2":0.2704678,"populated2020":false,"population2020":null,"populationNote":"境界またぎ・収録外等のため人口未集計"},"geometry":{"type":"Polygon","coordinates":[[[131.09952083,33.504652495],[131.09889917,33.504763613],[131.098353891,33.504592225],[131.097732218,33.50476361300001],[131.097078054,33.50458361300001],[131.096914449,33.504626667],[131.09652166,33.504909441],[131.09640166000003,33.505106387],[131.096358054,33.50551777500001],[131.09651083,33.50581749500001],[131.096518327,33.50605582899999],[131.096333061,33.506432775],[131.096027497,33.506603891999994],[131.095427782,33.506612495000006],[131.094904163,33.507032495],[131.094337224,33.507066667000004],[131.093569728,33.507391946],[131.092882503,33.507186387],[131.092086394,33.507246387],[131.091453891,33.507049162],[131.090924163,33.506707775],[131.090422503,33.506613613],[131.089855551,33.506536387000004],[131.089070272,33.506665],[131.088295837,33.506596387],[131.0875,33.50617143329319],[131.0875,33.50833333333333],[131.1,33.50833333333333],[131.1,33.50483464],[131.09952083,33.504652495]]]}},{"type":"Feature","id":"40646:50312008","properties":{"id":"40646:50312008","meshCode":"50312008","cityCode":"40646","city":"上毛町","lat":33.5071573,"lon":131.1051069,"areaKm2":0.2382749,"populated2020":false,"population2020":null,"populationNote":"境界またぎ・収録外等のため人口未集計"},"geometry":{"type":"Polygon","coordinates":[[[131.112376394,33.504657775],[131.112256394,33.504854441],[131.112237497,33.505794721],[131.111921388,33.50648],[131.111615837,33.50665138699999],[131.110372503,33.506951387],[131.109227497,33.507336946],[131.107590272,33.507627775],[131.107088612,33.50757638699999],[131.106674163,33.507653054],[131.106074449,33.507413613],[131.105398327,33.507773054],[131.105311115,33.507738892],[131.105387497,33.507344999999994],[131.105186667,33.50658],[131.104128885,33.505774441],[131.10379083,33.505654721],[131.10309277600004,33.505791667000004],[131.102623891,33.505611667],[131.102002503,33.505551667],[131.101533333,33.505311946],[131.101282503,33.505268892],[131.100534994,33.50475527900001],[131.1,33.50483464],[131.1,33.50833333333333],[131.1125,33.50833333333334],[131.1125,33.50463744563983],[131.112376394,33.504657775]]]}},{"type":"Feature","id":"40646:50312101","properties":{"id":"40646:50312101","meshCode":"50312101","cityCode":"40646","city":"上毛町","lat":33.5067015,"lon":131.1434857,"areaKm2":0.4150882,"populated2020":false,"population2020":null,"populationNote":"境界またぎ・収録外等のため人口未集計"},"geometry":{"type":"Polygon","coordinates":[[[131.14323166,33.504766946],[131.142105279,33.504632775000005],[131.141583891,33.504639162000004],[131.140647782,33.504906946],[131.139786667,33.50485389200001],[131.138842503,33.50500972100001],[131.138096109,33.504925829],[131.1375,33.50502608186644],[131.1375,33.50833333333333],[131.15,33.50833333333333],[131.15,33.506057387000006],[131.14934917,33.505368333],[131.148833891,33.505368333],[131.148483061,33.505273892000005],[131.148155279,33.505067775],[131.14769917,33.505099162],[131.14746,33.505211387],[131.146532218,33.505958892],[131.146354163,33.50601055900001],[131.146104163,33.50594638700001],[131.145512776,33.505379999999995],[131.14512722400002,33.505149162],[131.144233333,33.505030829000006],[131.14323166,33.504766946]]]}},{"type":"Feature","id":"40646:50312102","properties":{"id":"40646:50312102","meshCode":"50312102","cityCode":"40646","city":"上毛町","lat":33.5074901,"lon":131.1536802,"areaKm2":0.1298646,"populated2020":false,"population2020":null,"populationNote":"境界またぎ・収録外等のため人口未集計"},"geometry":{"type":"Polygon","coordinates":[[[131.15579917,33.507866946],[131.155262218,33.50731527899999],[131.154978054,33.50631138699999],[131.15465917,33.506071946],[131.151985279,33.506525559],[131.150940558,33.506502225],[131.150393061,33.50640582900001],[131.15,33.506057387000006],[131.15,33.50833333333333],[131.16237205070584,33.50833333333333],[131.159384994,33.507891108],[131.158311946,33.507953613],[131.15761333300003,33.50813638699999],[131.15579917,33.507866946]]]}},{"type":"Feature","id":"40646:50312103","properties":{"id":"40646:50312103","meshCode":"50312103","cityCode":"40646","city":"上毛町","lat":33.5070683,"lon":131.1696774,"areaKm2":0.2754506,"populated2020":true,"population2020":16.6819,"populationNote":"収録500mメッシュ人口の合算（原典収録外は補完しない）"},"geometry":{"type":"Polygon","coordinates":[[[131.17419,33.506153054],[131.172359442,33.505901667],[131.170775279,33.50577916199999],[131.170556667,33.505699441],[131.169885837,33.505037225],[131.16976083,33.505018613],[131.167835279,33.505385829],[131.167156109,33.505594162],[131.166009728,33.506347495],[131.165578612,33.50644444099999],[131.16513166,33.506646946000004],[131.163850558,33.50777527899999],[131.16343033674895,33.50833333333334],[131.175,33.50833333333333],[131.175,33.50633894600001],[131.17419,33.506153054]]]}},{"type":"Feature","id":"40646:50312104","properties":{"id":"40646:50312104","meshCode":"50312104","cityCode":"40646","city":"上毛町","lat":33.5075028,"lon":131.1761136,"areaKm2":0.0408354,"populated2020":false,"population2020":null,"populationNote":"境界またぎ・収録外等のため人口未集計"},"geometry":{"type":"Polygon","coordinates":[[[131.177332581,33.50833333300001],[131.177558327,33.507571108],[131.177487224,33.507335279],[131.176855279,33.506938054],[131.175954449,33.506558053999996],[131.175,33.50633894600001],[131.175,33.50833333333333],[131.177332581,33.50833333300001]]]}},{"type":"Feature","id":"40646:50312015","properties":{"id":"40646:50312015","meshCode":"50312015","cityCode":"40646","city":"上毛町","lat":33.511279,"lon":131.072312,"areaKm2":0.3651438,"populated2020":false,"population2020":null,"populationNote":"境界またぎ・収録外等のため人口未集計"},"geometry":{"type":"Polygon","coordinates":[[[131.06802878089104,33.50833333333334],[131.06765083,33.509056386999994],[131.068427224,33.50972305399999],[131.069576394,33.511302495],[131.069734163,33.511866946],[131.070459442,33.51276944100001],[131.072053606,33.51403444100001],[131.072579728,33.514746108],[131.073790558,33.51544027900001],[131.074367497,33.516193054],[131.075,33.516528027],[131.075,33.50833333333334],[131.06802878089104,33.50833333333334]]]}},{"type":"Feature","id":"40646:50312016","properties":{"id":"40646:50312016","meshCode":"50312016","cityCode":"40646","city":"上毛町","lat":33.5124994,"lon":131.0812509,"areaKm2":1.0730538,"populated2020":true,"population2020":8.8695,"populationNote":"収録500mメッシュ人口の合算（原典収録外は補完しない）"},"geometry":{"type":"Polygon","coordinates":[[[131.0875,33.50833333333333],[131.075,33.50833333333334],[131.075,33.516528027],[131.0751921397171,33.51666666666667],[131.0875,33.51666666666666],[131.0875,33.50833333333333]]]}},{"type":"Feature","id":"40646:50312017","properties":{"id":"40646:50312017","meshCode":"50312017","cityCode":"40646","city":"上毛町","lat":33.5125,"lon":131.09375,"areaKm2":1.0732137,"populated2020":true,"population2020":0.9659,"populationNote":"収録500mメッシュ人口の合算（原典収録外は補完しない）"},"geometry":{"type":"Polygon","coordinates":[[[131.1,33.50833333333333],[131.0875,33.50833333333333],[131.0875,33.51666666666666],[131.1,33.516666666666666],[131.1,33.50833333333333]]]}},{"type":"Feature","id":"40646:50312018","properties":{"id":"40646:50312018","meshCode":"50312018","cityCode":"40646","city":"上毛町","lat":33.5125,"lon":131.10625,"areaKm2":1.0732144,"populated2020":false,"population2020":null,"populationNote":"境界またぎ・収録外等のため人口未集計"},"geometry":{"type":"Polygon","coordinates":[[[131.1125,33.50833333333334],[131.1,33.50833333333333],[131.1,33.516666666666666],[131.1125,33.51666666666667],[131.1125,33.50833333333334]]]}},{"type":"Feature","id":"40646:50312019","properties":{"id":"40646:50312019","meshCode":"50312019","cityCode":"40646","city":"上毛町","lat":33.5125,"lon":131.11875,"areaKm2":1.0732149,"populated2020":true,"population2020":2.8959,"populationNote":"収録500mメッシュ人口の合算（原典収録外は補完しない）"},"geometry":{"type":"Polygon","coordinates":[[[131.125,33.50833333333334],[131.1125,33.50833333333334],[131.1125,33.51666666666667],[131.125,33.516666666666666],[131.125,33.50833333333334]]]}},{"type":"Feature","id":"40646:50312110","properties":{"id":"40646:50312110","meshCode":"50312110","cityCode":"40646","city":"上毛町","lat":33.5125,"lon":131.13125,"areaKm2":1.0732156,"populated2020":true,"population2020":4.8753,"populationNote":"収録500mメッシュ人口の合算（原典収録外は補完しない）"},"geometry":{"type":"Polygon","coordinates":[[[131.1375,33.50833333333333],[131.125,33.50833333333334],[131.125,33.516666666666666],[131.1375,33.516666666666666],[131.1375,33.50833333333333]]]}},{"type":"Feature","id":"40646:50312111","properties":{"id":"40646:50312111","meshCode":"50312111","cityCode":"40646","city":"上毛町","lat":33.5125,"lon":131.14375,"areaKm2":1.0732164,"populated2020":false,"population2020":null,"populationNote":"境界またぎ・収録外等のため人口未集計"},"geometry":{"type":"Polygon","coordinates":[[[131.15,33.50833333333333],[131.1375,33.50833333333333],[131.1375,33.516666666666666],[131.15,33.516666666666666],[131.15,33.50833333333333]]]}},{"type":"Feature","id":"40646:50312112","properties":{"id":"40646:50312112","meshCode":"50312112","cityCode":"40646","city":"上毛町","lat":33.5125001,"lon":131.1562499,"areaKm2":1.0732008,"populated2020":true,"population2020":18.602,"populationNote":"収録500mメッシュ人口の合算（原典収録外は補完しない）"},"geometry":{"type":"Polygon","coordinates":[[[131.1625,33.508358335566164],[131.15,33.50833333333333],[131.15,33.516666666666666],[131.1625,33.516666666666666],[131.1625,33.508358335566164]]]}},{"type":"Feature","id":"40646:50312113","properties":{"id":"40646:50312113","meshCode":"50312113","cityCode":"40646","city":"上毛町","lat":33.5118408,"lon":131.167868,"areaKm2":0.844741,"populated2020":true,"population2020":42.5226,"populationNote":"収録500mメッシュ人口の合算（原典収録外は補完しない）"},"geometry":{"type":"Polygon","coordinates":[[[131.163305551,33.508448613000006],[131.1625,33.508358335566164],[131.1625,33.516666666666666],[131.16807230895276,33.516666666666666],[131.168061388,33.516154162],[131.168384721,33.51522555900001],[131.168645279,33.514760279],[131.169545551,33.514004441000004],[131.16993944200001,33.513812775],[131.170910558,33.51362666699999],[131.172244449,33.513144162],[131.174138612,33.51262333300001],[131.174525551,33.512337775],[131.175,33.51183033299999],[131.175,33.50833333333333],[131.16343033674895,33.50833333333334],[131.163305551,33.508448613000006]]]}},{"type":"Feature","id":"40646:50312114","properties":{"id":"40646:50312114","meshCode":"50312114","cityCode":"40646","city":"上毛町","lat":33.5095023,"lon":131.1757453,"areaKm2":0.0401644,"populated2020":true,"population2020":13.8208,"populationNote":"収録500mメッシュ人口の合算（原典収録外は補完しない）"},"geometry":{"type":"Polygon","coordinates":[[[131.175,33.51183033299999],[131.175804994,33.510652224999994],[131.176191946,33.509667225],[131.176357782,33.509431387],[131.17702917,33.508855559000004],[131.17733258080634,33.50833333333335],[131.175,33.50833333333333],[131.175,33.51183033299999]]]}},{"type":"Feature","id":"40646:50312026","properties":{"id":"40646:50312026","meshCode":"50312026","cityCode":"40646","city":"上毛町","lat":33.5185111,"lon":131.0834684,"areaKm2":0.3373081,"populated2020":false,"population2020":null,"populationNote":"境界またぎ・収録外等のため人口未集計"},"geometry":{"type":"Polygon","coordinates":[[[131.0751921397171,33.51666666666667],[131.075464163,33.517027775],[131.076269728,33.517431667],[131.07633805400002,33.51766055900001],[131.077263606,33.517983613],[131.077674721,33.518051108],[131.078017497,33.517929720999994],[131.07841166,33.517929721],[131.079697224,33.518199162],[131.080644721,33.518218892],[131.080884721,33.518313054],[131.08150166000001,33.51875722500001],[131.082135551,33.518770829],[131.08229,33.518878613],[131.082478327,33.519268892],[131.082786109,33.520127775],[131.083008885,33.520343333],[131.083403333,33.520451108],[131.083557497,33.520585559],[131.0839,33.521124162],[131.08414,33.521178053999996],[131.084705551,33.52112416200001],[131.085205253,33.52117],[131.086850272,33.521802775],[131.087038885,33.522004721],[131.087107497,33.52244889199999],[131.0875,33.52280354889242],[131.0875,33.51666666666666],[131.0751921397171,33.51666666666667]]]}},{"type":"Feature","id":"40646:50312027","properties":{"id":"40646:50312027","meshCode":"50312027","cityCode":"40646","city":"上毛町","lat":33.5207183,"lon":131.0939165,"areaKm2":1.0390585,"populated2020":true,"population2020":23.397,"populationNote":"収録500mメッシュ人口の合算（原典収録外は補完しない）"},"geometry":{"type":"Polygon","coordinates":[[[131.1,33.516666666666666],[131.0875,33.51666666666666],[131.0875,33.52280354889242],[131.088502776,33.523604441],[131.088674163,33.52398138699999],[131.089102776,33.52452],[131.089736939,33.524291108],[131.090096667,33.524304441],[131.09031,33.524579441],[131.090704163,33.524633333],[131.090971141,33.525000000000006],[131.1,33.525000000000006],[131.1,33.516666666666666]]]}},{"type":"Feature","id":"40646:50312028","properties":{"id":"40646:50312028","meshCode":"50312028","cityCode":"40646","city":"上毛町","lat":33.5208333,"lon":131.10625,"areaKm2":1.0731128,"populated2020":true,"population2020":19.7561,"populationNote":"収録500mメッシュ人口の合算（原典収録外は補完しない）"},"geometry":{"type":"Polygon","coordinates":[[[131.1125,33.51666666666667],[131.1,33.516666666666666],[131.1,33.525000000000006],[131.1125,33.525],[131.1125,33.51666666666667]]]}},{"type":"Feature","id":"40646:50312029","properties":{"id":"40646:50312029","meshCode":"50312029","cityCode":"40646","city":"上毛町","lat":33.5208333,"lon":131.11875,"areaKm2":1.0731136,"populated2020":true,"population2020":1.93,"populationNote":"収録500mメッシュ人口の合算（原典収録外は補完しない）"},"geometry":{"type":"Polygon","coordinates":[[[131.125,33.516666666666666],[131.1125,33.51666666666667],[131.1125,33.525],[131.125,33.525],[131.125,33.516666666666666]]]}},{"type":"Feature","id":"40646:50312120","properties":{"id":"40646:50312120","meshCode":"50312120","cityCode":"40646","city":"上毛町","lat":33.5208333,"lon":131.13125,"areaKm2":1.0731142,"populated2020":true,"population2020":11.7844,"populationNote":"収録500mメッシュ人口の合算（原典収録外は補完しない）"},"geometry":{"type":"Polygon","coordinates":[[[131.1375,33.516666666666666],[131.125,33.516666666666666],[131.125,33.525],[131.1375,33.525],[131.1375,33.516666666666666]]]}},{"type":"Feature","id":"40646:50312121","properties":{"id":"40646:50312121","meshCode":"50312121","cityCode":"40646","city":"上毛町","lat":33.5208333,"lon":131.14375,"areaKm2":1.073115,"populated2020":true,"population2020":4.9112,"populationNote":"収録500mメッシュ人口の合算（原典収録外は補完しない）"},"geometry":{"type":"Polygon","coordinates":[[[131.15,33.516666666666666],[131.1375,33.516666666666666],[131.1375,33.525],[131.15,33.52499999999999],[131.15,33.516666666666666]]]}},{"type":"Feature","id":"40646:50312122","properties":{"id":"40646:50312122","meshCode":"50312122","cityCode":"40646","city":"上毛町","lat":33.5208333,"lon":131.15625,"areaKm2":1.0731159,"populated2020":true,"population2020":19.4245,"populationNote":"収録500mメッシュ人口の合算（原典収録外は補完しない）"},"geometry":{"type":"Polygon","coordinates":[[[131.1625,33.516666666666666],[131.15,33.516666666666666],[131.15,33.52499999999999],[131.1625,33.525],[131.1625,33.516666666666666]]]}},{"type":"Feature","id":"40646:50312123","properties":{"id":"40646:50312123","meshCode":"50312123","cityCode":"40646","city":"上毛町","lat":33.5209815,"lon":131.1658564,"areaKm2":0.5726015,"populated2020":true,"population2020":73.8056,"populationNote":"収録500mメッシュ人口の合算（原典収録外は補完しない）"},"geometry":{"type":"Polygon","coordinates":[[[131.168692776,33.518993613],[131.168606109,33.517963613],[131.16807230895276,33.516666666666666],[131.1625,33.516666666666666],[131.1625,33.525],[131.168710636,33.525000000000006],[131.169272503,33.524461946],[131.169509442,33.52404305400001],[131.169805551,33.52299110800001],[131.169679728,33.522086108],[131.169711115,33.521161946],[131.16941917,33.52038166700001],[131.16898499400003,33.519798333],[131.168692776,33.518993613]]]}},{"type":"Feature","id":"40646:50312037","properties":{"id":"40646:50312037","meshCode":"50312037","cityCode":"40646","city":"上毛町","lat":33.5288227,"lon":131.0964289,"areaKm2":0.5981598,"populated2020":false,"population2020":null,"populationNote":"境界またぎ・収録外等のため人口未集計"},"geometry":{"type":"Polygon","coordinates":[[[131.091064163,33.52564305399999],[131.091252503,33.526060279],[131.091568612,33.52636722500001],[131.091876939,33.526959721],[131.092682218,33.52733666700001],[131.092819442,33.527821387],[131.092827497,33.52822389199999],[131.093273061,33.52883],[131.09317,33.529447495],[131.09330722400003,33.52958194600001],[131.093855551,33.529756946],[131.094044163,33.530510828999994],[131.094556394,33.531171108],[131.094162218,33.531601946],[131.093991115,33.53241],[131.09343610879517,33.533333333333324],[131.1,33.53333333333334],[131.1,33.525000000000006],[131.090971141,33.525000000000006],[131.091064163,33.525225829],[131.091064163,33.52564305399999]]]}},{"type":"Feature","id":"40646:50312038","properties":{"id":"40646:50312038","meshCode":"50312038","cityCode":"40646","city":"上毛町","lat":33.5291667,"lon":131.10625,"areaKm2":1.0730113,"populated2020":true,"population2020":8.8914,"populationNote":"収録500mメッシュ人口の合算（原典収録外は補完しない）"},"geometry":{"type":"Polygon","coordinates":[[[131.1125,33.525],[131.1,33.525000000000006],[131.1,33.53333333333334],[131.1125,33.53333333333334],[131.1125,33.525]]]}},{"type":"Feature","id":"40646:50312039","properties":{"id":"40646:50312039","meshCode":"50312039","cityCode":"40646","city":"上毛町","lat":33.5291667,"lon":131.11875,"areaKm2":1.073012,"populated2020":true,"population2020":35.4439,"populationNote":"収録500mメッシュ人口の合算（原典収録外は補完しない）"},"geometry":{"type":"Polygon","coordinates":[[[131.125,33.525],[131.1125,33.525],[131.1125,33.53333333333334],[131.125,33.533333333333324],[131.125,33.525]]]}},{"type":"Feature","id":"40646:50312130","properties":{"id":"40646:50312130","meshCode":"50312130","cityCode":"40646","city":"上毛町","lat":33.5291667,"lon":131.13125,"areaKm2":1.0730128,"populated2020":false,"population2020":null,"populationNote":"境界またぎ・収録外等のため人口未集計"},"geometry":{"type":"Polygon","coordinates":[[[131.1375,33.525],[131.125,33.525],[131.125,33.533333333333324],[131.1375,33.53333333333333],[131.1375,33.525]]]}},{"type":"Feature","id":"40646:50312131","properties":{"id":"40646:50312131","meshCode":"50312131","cityCode":"40646","city":"上毛町","lat":33.5291667,"lon":131.14375,"areaKm2":1.0730136,"populated2020":true,"population2020":45.1395,"populationNote":"収録500mメッシュ人口の合算（原典収録外は補完しない）"},"geometry":{"type":"Polygon","coordinates":[[[131.15,33.52499999999999],[131.1375,33.525],[131.1375,33.53333333333333],[131.15,33.53333333333333],[131.15,33.52499999999999]]]}},{"type":"Feature","id":"40646:50312132","properties":{"id":"40646:50312132","meshCode":"50312132","cityCode":"40646","city":"上毛町","lat":33.5291667,"lon":131.15625,"areaKm2":1.0730144,"populated2020":true,"population2020":11.7997,"populationNote":"収録500mメッシュ人口の合算（原典収録外は補完しない）"},"geometry":{"type":"Polygon","coordinates":[[[131.1625,33.525],[131.15,33.52499999999999],[131.15,33.53333333333333],[131.1625,33.53333333333334],[131.1625,33.525]]]}},{"type":"Feature","id":"40646:50312133","properties":{"id":"40646:50312133","meshCode":"50312133","cityCode":"40646","city":"上毛町","lat":33.5299653,"lon":131.1661258,"areaKm2":0.5363012,"populated2020":true,"population2020":38.4891,"populationNote":"収録500mメッシュ人口の合算（原典収録外は補完しない）"},"geometry":{"type":"Polygon","coordinates":[[[131.166666667,33.528639],[131.166355837,33.527951667],[131.166274721,33.527357495],[131.16640166,33.526853613],[131.167614163,33.525578613],[131.168710636,33.525000000000006],[131.1625,33.525],[131.1625,33.53333333333334],[131.17453147965344,33.53333333333333],[131.170200558,33.530972775],[131.16928166,33.530821946],[131.168978885,33.53070138699999],[131.166666667,33.528639]]]}},{"type":"Feature","id":"40646:50312047","properties":{"id":"40646:50312047","meshCode":"50312047","cityCode":"40646","city":"上毛町","lat":33.5355356,"lon":131.0970598,"areaKm2":0.287882,"populated2020":false,"population2020":null,"populationNote":"境界またぎ・収録外等のため人口未集計"},"geometry":{"type":"Polygon","coordinates":[[[131.093271388,33.533675279],[131.093528327,33.53446972100001],[131.093459728,33.53574861300001],[131.093596667,33.53596389199999],[131.094590272,33.53685],[131.09591,33.537671386999996],[131.097109442,33.53740222500001],[131.098769728,33.538430829000006],[131.1,33.53907453200001],[131.1,33.53333333333334],[131.09343610879517,33.533333333333324],[131.093271388,33.533675279]]]}},{"type":"Feature","id":"40646:50312048","properties":{"id":"40646:50312048","meshCode":"50312048","cityCode":"40646","city":"上毛町","lat":33.5372713,"lon":131.1065704,"areaKm2":1.0025522,"populated2020":true,"population2020":5.8772,"populationNote":"収録500mメッシュ人口の合算（原典収録外は補完しない）"},"geometry":{"type":"Polygon","coordinates":[[[131.1125,33.53333333333334],[131.1,33.53333333333334],[131.1,33.53907453200001],[131.101300558,33.53972555899999],[131.10243166,33.54006222500001],[131.1031,33.540573892],[131.103528612,33.540735279],[131.104025279,33.54105833300001],[131.10435083,33.54143527899999],[131.10435083,33.54166666666667],[131.1125,33.541666666666664],[131.1125,33.53333333333334]]]}},{"type":"Feature","id":"40646:50312049","properties":{"id":"40646:50312049","meshCode":"50312049","cityCode":"40646","city":"上毛町","lat":33.5375,"lon":131.11875,"areaKm2":1.0729104,"populated2020":true,"population2020":8.8154,"populationNote":"収録500mメッシュ人口の合算（原典収録外は補完しない）"},"geometry":{"type":"Polygon","coordinates":[[[131.125,33.533333333333324],[131.1125,33.53333333333334],[131.1125,33.541666666666664],[131.125,33.541666666666664],[131.125,33.533333333333324]]]}},{"type":"Feature","id":"40646:50312140","properties":{"id":"40646:50312140","meshCode":"50312140","cityCode":"40646","city":"上毛町","lat":33.5375,"lon":131.13125,"areaKm2":1.0729112,"populated2020":true,"population2020":40.4554,"populationNote":"収録500mメッシュ人口の合算（原典収録外は補完しない）"},"geometry":{"type":"Polygon","coordinates":[[[131.1375,33.53333333333333],[131.125,33.533333333333324],[131.125,33.541666666666664],[131.1375,33.541666666666664],[131.1375,33.53333333333333]]]}},{"type":"Feature","id":"40646:50312141","properties":{"id":"40646:50312141","meshCode":"50312141","cityCode":"40646","city":"上毛町","lat":33.5375,"lon":131.14375,"areaKm2":1.072912,"populated2020":true,"population2020":4.9849,"populationNote":"収録500mメッシュ人口の合算（原典収録外は補完しない）"},"geometry":{"type":"Polygon","coordinates":[[[131.15,33.53333333333333],[131.1375,33.53333333333333],[131.1375,33.541666666666664],[131.15,33.541666666666664],[131.15,33.53333333333333]]]}},{"type":"Feature","id":"40646:50312142","properties":{"id":"40646:50312142","meshCode":"50312142","cityCode":"40646","city":"上毛町","lat":33.5375,"lon":131.15625,"areaKm2":1.0729128,"populated2020":true,"population2020":92.5628,"populationNote":"収録500mメッシュ人口の合算（原典収録外は補完しない）"},"geometry":{"type":"Polygon","coordinates":[[[131.1625,33.53333333333334],[131.15,33.53333333333333],[131.15,33.541666666666664],[131.1625,33.54166666666667],[131.1625,33.53333333333334]]]}},{"type":"Feature","id":"40646:50312143","properties":{"id":"40646:50312143","meshCode":"50312143","cityCode":"40646","city":"上毛町","lat":33.5375022,"lon":131.1687467,"areaKm2":1.0723374,"populated2020":false,"population2020":null,"populationNote":"境界またぎ・収録外等のため人口未集計"},"geometry":{"type":"Polygon","coordinates":[[[131.175,33.533572332999995],[131.17453147965344,33.53333333333333],[131.1625,33.53333333333334],[131.1625,33.54166666666667],[131.175,33.541666666666664],[131.175,33.533572332999995]]]}},{"type":"Feature","id":"40646:50312144","properties":{"id":"40646:50312144","meshCode":"50312144","cityCode":"40646","city":"上毛町","lat":33.5389007,"lon":131.1780918,"areaKm2":0.3939375,"populated2020":true,"population2020":87.4553,"populationNote":"収録500mメッシュ人口の合算（原典収録外は補完しない）"},"geometry":{"type":"Polygon","coordinates":[[[131.178542776,33.53735472099999],[131.178324994,33.53715305400001],[131.178,33.536599162],[131.177744449,33.535670559],[131.17718083,33.53473527900002],[131.176753606,33.53439610800001],[131.175,33.533572332999995],[131.175,33.541666666666664],[131.1846120876489,33.54166666666667],[131.183517782,33.540855829],[131.180460272,33.538283332999995],[131.179554163,33.537940829],[131.178542776,33.53735472099999]]]}},{"type":"Feature","id":"40646:50312058","properties":{"id":"40646:50312058","meshCode":"50312058","cityCode":"40646","city":"上毛町","lat":33.5444021,"lon":131.1116793,"areaKm2":0.1725435,"populated2020":false,"population2020":null,"populationNote":"境界またぎ・収録外等のため人口未集計"},"geometry":{"type":"Polygon","coordinates":[[[131.10435083,33.54205444099999],[131.104693606,33.54248555899999],[131.104899442,33.542956667000006],[131.105789442,33.543976946],[131.106234994,33.543882775],[131.106560558,33.54368082900001],[131.107380558,33.542941946],[131.108168885,33.542793892],[131.109282776,33.542861108000004],[131.109659728,33.543103613],[131.110713061,33.544166387],[131.111004163,33.544637775000005],[131.111261388,33.54483972100001],[131.112202218,33.546587225000025],[131.1125,33.54685616458652],[131.1125,33.541666666666664],[131.10435083,33.54166666666667],[131.10435083,33.54205444099999]]]}},{"type":"Feature","id":"40646:50312059","properties":{"id":"40646:50312059","meshCode":"50312059","cityCode":"40646","city":"上毛町","lat":33.545753,"lon":131.1189057,"areaKm2":1.0444609,"populated2020":true,"population2020":7.792,"populationNote":"収録500mメッシュ人口の合算（原典収録外は補完しない）"},"geometry":{"type":"Polygon","coordinates":[[[131.125,33.541666666666664],[131.1125,33.541666666666664],[131.1125,33.54685616458652],[131.112887782,33.547206386999996],[131.113272218,33.547768053999995],[131.113255279,33.54830666699999],[131.113598054,33.548966387],[131.113934112,33.55],[131.125,33.55],[131.125,33.541666666666664]]]}},{"type":"Feature","id":"40646:50312150","properties":{"id":"40646:50312150","meshCode":"50312150","cityCode":"40646","city":"上毛町","lat":33.5458333,"lon":131.13125,"areaKm2":1.0728096,"populated2020":true,"population2020":44.0154,"populationNote":"収録500mメッシュ人口の合算（原典収録外は補完しない）"},"geometry":{"type":"Polygon","coordinates":[[[131.1375,33.541666666666664],[131.125,33.541666666666664],[131.125,33.55],[131.1375,33.55],[131.1375,33.541666666666664]]]}},{"type":"Feature","id":"40646:50312151","properties":{"id":"40646:50312151","meshCode":"50312151","cityCode":"40646","city":"上毛町","lat":33.5458333,"lon":131.14375,"areaKm2":1.0728104,"populated2020":true,"population2020":85.5788,"populationNote":"収録500mメッシュ人口の合算（原典収録外は補完しない）"},"geometry":{"type":"Polygon","coordinates":[[[131.15,33.541666666666664],[131.1375,33.541666666666664],[131.1375,33.55],[131.15,33.55],[131.15,33.541666666666664]]]}},{"type":"Feature","id":"40646:50312152","properties":{"id":"40646:50312152","meshCode":"50312152","cityCode":"40646","city":"上毛町","lat":33.5458333,"lon":131.15625,"areaKm2":1.0728113,"populated2020":true,"population2020":74.7775,"populationNote":"収録500mメッシュ人口の合算（原典収録外は補完しない）"},"geometry":{"type":"Polygon","coordinates":[[[131.1625,33.54166666666667],[131.15,33.541666666666664],[131.15,33.55],[131.1625,33.54999999999999],[131.1625,33.54166666666667]]]}},{"type":"Feature","id":"40646:50312153","properties":{"id":"40646:50312153","meshCode":"50312153","cityCode":"40646","city":"上毛町","lat":33.5458333,"lon":131.16875,"areaKm2":1.0728124,"populated2020":true,"population2020":12.8622,"populationNote":"収録500mメッシュ人口の合算（原典収録外は補完しない）"},"geometry":{"type":"Polygon","coordinates":[[[131.175,33.541666666666664],[131.1625,33.54166666666667],[131.1625,33.54999999999999],[131.175,33.55],[131.175,33.541666666666664]]]}},{"type":"Feature","id":"40646:50312154","properties":{"id":"40646:50312154","meshCode":"50312154","cityCode":"40646","city":"上毛町","lat":33.545969,"lon":131.1810182,"areaKm2":1.028075,"populated2020":true,"population2020":146.0851,"populationNote":"収録500mメッシュ人口の合算（原典収録外は補完しない）"},"geometry":{"type":"Polygon","coordinates":[[[131.1875,33.54512281105054],[131.18689917,33.544038332999996],[131.1846120876489,33.54166666666667],[131.175,33.541666666666664],[131.175,33.55],[131.1875,33.55],[131.1875,33.54512281105054]]]}},{"type":"Feature","id":"40646:50312155","properties":{"id":"40646:50312155","meshCode":"50312155","cityCode":"40646","city":"上毛町","lat":33.5480293,"lon":131.1879249,"areaKm2":0.0367425,"populated2020":true,"population2020":0.9903,"populationNote":"収録500mメッシュ人口の合算（原典収録外は補完しない）"},"geometry":{"type":"Polygon","coordinates":[[[131.187503891,33.54513055899999],[131.1875,33.55],[131.188487276,33.55],[131.18834083,33.549373333],[131.188554994,33.548085828999994],[131.188516394,33.54778694600001],[131.188132218,33.546599721],[131.187503891,33.54513055899999]]]}},{"type":"Feature","id":"40646:50312069","properties":{"id":"40646:50312069","meshCode":"50312069","cityCode":"40646","city":"上毛町","lat":33.5537209,"lon":131.1204584,"areaKm2":0.7529355,"populated2020":true,"population2020":6.8257,"populationNote":"収録500mメッシュ人口の合算（原典収録外は補完しない）"},"geometry":{"type":"Polygon","coordinates":[[[131.114144449,33.55113],[131.114881388,33.55215333299999],[131.115498612,33.553445559],[131.11567,33.554038053999996],[131.116302218,33.55468833300001],[131.116816394,33.554984441],[131.117142218,33.555455828999996],[131.117724721,33.555967495],[131.118623061,33.557062775],[131.11869166,33.55739944100001],[131.118503061,33.557830279],[131.11854121908794,33.55833333333334],[131.125,33.55833333333334],[131.125,33.55],[131.113934112,33.55],[131.114144449,33.55113]]]}},{"type":"Feature","id":"40646:50312160","properties":{"id":"40646:50312160","meshCode":"50312160","cityCode":"40646","city":"上毛町","lat":33.5541667,"lon":131.13125,"areaKm2":1.0727081,"populated2020":false,"population2020":null,"populationNote":"境界またぎ・収録外等のため人口未集計"},"geometry":{"type":"Polygon","coordinates":[[[131.1375,33.55],[131.125,33.55],[131.125,33.55833333333334],[131.1375,33.558333333333344],[131.1375,33.55]]]}},{"type":"Feature","id":"40646:50312161","properties":{"id":"40646:50312161","meshCode":"50312161","cityCode":"40646","city":"上毛町","lat":33.5541667,"lon":131.14375,"areaKm2":1.0727088,"populated2020":true,"population2020":31.4629,"populationNote":"収録500mメッシュ人口の合算（原典収録外は補完しない）"},"geometry":{"type":"Polygon","coordinates":[[[131.15,33.55],[131.1375,33.55],[131.1375,33.558333333333344],[131.15,33.55833333333334],[131.15,33.55]]]}},{"type":"Feature","id":"40646:50312162","properties":{"id":"40646:50312162","meshCode":"50312162","cityCode":"40646","city":"上毛町","lat":33.5541667,"lon":131.15625,"areaKm2":1.0727099,"populated2020":true,"population2020":398.9129,"populationNote":"収録500mメッシュ人口の合算（原典収録外は補完しない）"},"geometry":{"type":"Polygon","coordinates":[[[131.1625,33.54999999999999],[131.15,33.55],[131.15,33.55833333333334],[131.1625,33.558333333333344],[131.1625,33.54999999999999]]]}},{"type":"Feature","id":"40646:50312163","properties":{"id":"40646:50312163","meshCode":"50312163","cityCode":"40646","city":"上毛町","lat":33.5541667,"lon":131.16875,"areaKm2":1.0727108,"populated2020":true,"population2020":3.9871,"populationNote":"収録500mメッシュ人口の合算（原典収録外は補完しない）"},"geometry":{"type":"Polygon","coordinates":[[[131.175,33.55],[131.1625,33.54999999999999],[131.1625,33.558333333333344],[131.175,33.558333333333344],[131.175,33.55]]]}},{"type":"Feature","id":"40646:50312164","properties":{"id":"40646:50312164","meshCode":"50312164","cityCode":"40646","city":"上毛町","lat":33.5541667,"lon":131.18125,"areaKm2":1.0727117,"populated2020":true,"population2020":165.6167,"populationNote":"収録500mメッシュ人口の合算（原典収録外は補完しない）"},"geometry":{"type":"Polygon","coordinates":[[[131.1875,33.55],[131.175,33.55],[131.175,33.558333333333344],[131.1875,33.558333333333344],[131.1875,33.55]]]}},{"type":"Feature","id":"40646:50312165","properties":{"id":"40646:50312165","meshCode":"50312165","cityCode":"40646","city":"上毛町","lat":33.5548805,"lon":131.1886549,"areaKm2":0.182121,"populated2020":true,"population2020":148.5293,"populationNote":"収録500mメッシュ人口の合算（原典収録外は補完しない）"},"geometry":{"type":"Polygon","coordinates":[[[131.189515279,33.55394333300001],[131.188819442,33.55093944099999],[131.188487276,33.55],[131.1875,33.55],[131.1875,33.558333333333344],[131.1905969390294,33.55833333333334],[131.190181388,33.555995559],[131.189515279,33.55394333300001]]]}},{"type":"Feature","id":"40646:50312079","properties":{"id":"40646:50312079","meshCode":"50312079","cityCode":"40646","city":"上毛町","lat":33.5621415,"lon":131.1224892,"areaKm2":0.4207758,"populated2020":false,"population2020":null,"populationNote":"境界またぎ・収録外等のため人口未集計"},"geometry":{"type":"Polygon","coordinates":[[[131.11854121908794,33.55833333333334],[131.119342218,33.56004777500001],[131.119736394,33.561299721],[131.120130558,33.56189222500001],[131.120352503,33.56262861300001],[131.120763333,33.563248054],[131.120677782,33.565065559],[131.120752218,33.56551916200001],[131.12119807980483,33.56666666666668],[131.125,33.56666666666668],[131.125,33.55833333333334],[131.11854121908794,33.55833333333334]]]}},{"type":"Feature","id":"40646:50312170","properties":{"id":"40646:50312170","meshCode":"50312170","cityCode":"40646","city":"上毛町","lat":33.5625,"lon":131.13125,"areaKm2":1.0726068,"populated2020":true,"population2020":14.6605,"populationNote":"収録500mメッシュ人口の合算（原典収録外は補完しない）"},"geometry":{"type":"Polygon","coordinates":[[[131.1375,33.558333333333344],[131.125,33.55833333333334],[131.125,33.56666666666668],[131.1375,33.56666666666668],[131.1375,33.558333333333344]]]}},{"type":"Feature","id":"40646:50312171","properties":{"id":"40646:50312171","meshCode":"50312171","cityCode":"40646","city":"上毛町","lat":33.5625,"lon":131.14375,"areaKm2":1.0726075,"populated2020":true,"population2020":43.5814,"populationNote":"収録500mメッシュ人口の合算（原典収録外は補完しない）"},"geometry":{"type":"Polygon","coordinates":[[[131.15,33.55833333333334],[131.1375,33.558333333333344],[131.1375,33.56666666666668],[131.15,33.56666666666668],[131.15,33.55833333333334]]]}},{"type":"Feature","id":"40646:50312172","properties":{"id":"40646:50312172","meshCode":"50312172","cityCode":"40646","city":"上毛町","lat":33.5625,"lon":131.15625,"areaKm2":1.0726084,"populated2020":true,"population2020":450.1042,"populationNote":"収録500mメッシュ人口の合算（原典収録外は補完しない）"},"geometry":{"type":"Polygon","coordinates":[[[131.1625,33.558333333333344],[131.15,33.55833333333334],[131.15,33.56666666666668],[131.1625,33.56666666666668],[131.1625,33.558333333333344]]]}},{"type":"Feature","id":"40646:50312173","properties":{"id":"40646:50312173","meshCode":"50312173","cityCode":"40646","city":"上毛町","lat":33.5625,"lon":131.16875,"areaKm2":1.0726092,"populated2020":true,"population2020":110.5786,"populationNote":"収録500mメッシュ人口の合算（原典収録外は補完しない）"},"geometry":{"type":"Polygon","coordinates":[[[131.175,33.558333333333344],[131.1625,33.558333333333344],[131.1625,33.56666666666668],[131.175,33.56666666666668],[131.175,33.558333333333344]]]}},{"type":"Feature","id":"40646:50312174","properties":{"id":"40646:50312174","meshCode":"50312174","cityCode":"40646","city":"上毛町","lat":33.5624912,"lon":131.1812362,"areaKm2":1.0701719,"populated2020":true,"population2020":241.3101,"populationNote":"収録500mメッシュ人口の合算（原典収録外は補完しない）"},"geometry":{"type":"Polygon","coordinates":[[[131.1875,33.558333333333344],[131.175,33.558333333333344],[131.175,33.56666666666668],[131.18694406021757,33.56666666666668],[131.1875,33.56581489844543],[131.1875,33.558333333333344]]]}},{"type":"Feature","id":"40646:50312175","properties":{"id":"40646:50312175","meshCode":"50312175","cityCode":"40646","city":"上毛町","lat":33.5611124,"lon":131.1887643,"areaKm2":0.1605672,"populated2020":true,"population2020":62.7779,"populationNote":"収録500mメッシュ人口の合算（原典収録外は補完しない）"},"geometry":{"type":"Polygon","coordinates":[[[131.19015917,33.56132805399999],[131.190573891,33.559594441],[131.1905969390294,33.55833333333334],[131.1875,33.558333333333344],[131.1875,33.56581489844543],[131.189403333,33.563075829000006],[131.19015917,33.56132805399999]]]}},{"type":"Feature","id":"40646:50312089","properties":{"id":"40646:50312089","meshCode":"50312089","cityCode":"40646","city":"上毛町","lat":33.5680604,"lon":131.1236981,"areaKm2":0.0839399,"populated2020":true,"population2020":null,"populationNote":"境界またぎ・収録外等のため人口未集計"},"geometry":{"type":"Polygon","coordinates":[[[131.12119807980483,33.56666666666668],[131.121797497,33.567619721],[131.122397497,33.567983053999995],[131.122929442,33.568468333],[131.12404166,33.569860829],[131.125,33.570872613],[131.125,33.56666666666668],[131.12119807980483,33.56666666666668]]]}},{"type":"Feature","id":"40646:50312180","properties":{"id":"40646:50312180","meshCode":"50312180","cityCode":"40646","city":"上毛町","lat":33.5706201,"lon":131.131623,"areaKm2":0.998094,"populated2020":true,"population2020":85.9367,"populationNote":"収録500mメッシュ人口の合算（原典収録外は補完しない）"},"geometry":{"type":"Polygon","coordinates":[[[131.1375,33.56666666666668],[131.125,33.56666666666668],[131.125,33.570872613],[131.125414994,33.571247495],[131.125746939,33.572197495000005],[131.126008885,33.572565829],[131.127267782,33.573340559],[131.128091115,33.574003333],[131.12829166,33.574315829],[131.128313606,33.574474441],[131.12817166,33.574872774999996],[131.128258716,33.575],[131.1375,33.575],[131.1375,33.56666666666668]]]}},{"type":"Feature","id":"40646:50312181","properties":{"id":"40646:50312181","meshCode":"50312181","cityCode":"40646","city":"上毛町","lat":33.5708333,"lon":131.14375,"areaKm2":1.072506,"populated2020":true,"population2020":183.4117,"populationNote":"収録500mメッシュ人口の合算（原典収録外は補完しない）"},"geometry":{"type":"Polygon","coordinates":[[[131.15,33.56666666666668],[131.1375,33.56666666666668],[131.1375,33.575],[131.15,33.575],[131.15,33.56666666666668]]]}},{"type":"Feature","id":"40646:50312182","properties":{"id":"40646:50312182","meshCode":"50312182","cityCode":"40646","city":"上毛町","lat":33.5708333,"lon":131.15625,"areaKm2":1.0725068,"populated2020":true,"population2020":823.0159,"populationNote":"収録500mメッシュ人口の合算（原典収録外は補完しない）"},"geometry":{"type":"Polygon","coordinates":[[[131.1625,33.56666666666668],[131.15,33.56666666666668],[131.15,33.575],[131.1625,33.57500000000001],[131.1625,33.56666666666668]]]}},{"type":"Feature","id":"40646:50312183","properties":{"id":"40646:50312183","meshCode":"50312183","cityCode":"40646","city":"上毛町","lat":33.5708333,"lon":131.16875,"areaKm2":1.0725076,"populated2020":true,"population2020":269.7946,"populationNote":"収録500mメッシュ人口の合算（原典収録外は補完しない）"},"geometry":{"type":"Polygon","coordinates":[[[131.175,33.56666666666668],[131.1625,33.56666666666668],[131.1625,33.57500000000001],[131.175,33.575],[131.175,33.56666666666668]]]}},{"type":"Feature","id":"40646:50312184","properties":{"id":"40646:50312184","meshCode":"50312184","cityCode":"40646","city":"上毛町","lat":33.5695582,"lon":131.1790952,"areaKm2":0.5482857,"populated2020":true,"population2020":343.8111,"populationNote":"収録500mメッシュ人口の合算（原典収録外は補完しない）"},"geometry":{"type":"Polygon","coordinates":[[[131.183186939,33.569430000000004],[131.184505279,33.568560829],[131.186162503,33.567863613],[131.18694406021757,33.56666666666668],[131.175,33.56666666666668],[131.175,33.575],[131.175675279,33.574999999999996],[131.183186939,33.569430000000004]]]}},{"type":"Feature","id":"40646:50312190","properties":{"id":"40646:50312190","meshCode":"50312190","cityCode":"40646","city":"上毛町","lat":33.5778718,"lon":131.1339863,"areaKm2":0.456783,"populated2020":true,"population2020":null,"populationNote":"境界またぎ・収録外等のため人口未集計"},"geometry":{"type":"Polygon","coordinates":[[[131.128258716,33.575],[131.128995551,33.575673892000005],[131.129388885,33.57627277500001],[131.130267497,33.578180829],[131.13080221800004,33.579058333],[131.131332776,33.57977555899999],[131.131671946,33.580085829],[131.132023333,33.580286666999996],[131.133594721,33.580703333],[131.134678885,33.580862775],[131.135407782,33.580893333],[131.135503606,33.58094361300001],[131.13541194600003,33.581304162],[131.135507782,33.581501667],[131.13622166,33.582024162],[131.13672832700001,33.58215916200001],[131.137038885,33.582624441],[131.137382776,33.582551946],[131.1375,33.58258978460087],[131.1375,33.575],[131.128258716,33.575]]]}},{"type":"Feature","id":"40646:50312191","properties":{"id":"40646:50312191","meshCode":"50312191","cityCode":"40646","city":"上毛町","lat":33.5791358,"lon":131.1437944,"areaKm2":1.0639196,"populated2020":true,"population2020":498.6269,"populationNote":"収録500mメッシュ人口の合算（原典収録外は補完しない）"},"geometry":{"type":"Polygon","coordinates":[[[131.15,33.575],[131.1375,33.575],[131.1375,33.58258978460087],[131.137904449,33.582862775],[131.138224721,33.582569441000004],[131.13840917,33.582615279],[131.1391394163492,33.583333333333336],[131.15,33.583333333333336],[131.15,33.575]]]}},{"type":"Feature","id":"40646:50312192","properties":{"id":"40646:50312192","meshCode":"50312192","cityCode":"40646","city":"上毛町","lat":33.5791667,"lon":131.15625,"areaKm2":1.0724052,"populated2020":true,"population2020":371.5418,"populationNote":"収録500mメッシュ人口の合算（原典収録外は補完しない）"},"geometry":{"type":"Polygon","coordinates":[[[131.1625,33.57500000000001],[131.15,33.575],[131.15,33.583333333333336],[131.1625,33.583333333333336],[131.1625,33.57500000000001]]]}},{"type":"Feature","id":"40646:50312193","properties":{"id":"40646:50312193","meshCode":"50312193","cityCode":"40646","city":"上毛町","lat":33.5789854,"lon":131.1678941,"areaKm2":0.9196334,"populated2020":true,"population2020":544.9825,"populationNote":"収録500mメッシュ人口の合算（原典収録外は補完しない）"},"geometry":{"type":"Polygon","coordinates":[[[131.173161388,33.578235],[131.173725551,33.577182224999994],[131.174551115,33.576046387],[131.175,33.575575],[131.175,33.575],[131.1625,33.57500000000001],[131.1625,33.583333333333336],[131.17234236100018,33.583333333333336],[131.17259166,33.580563613],[131.172809442,33.579345],[131.173161388,33.578235]]]}},{"type":"Feature","id":"40646:50312194","properties":{"id":"40646:50312194","meshCode":"50312194","cityCode":"40646","city":"上毛町","lat":33.5751851,"lon":131.1752233,"areaKm2":0.0019145,"populated2020":false,"population2020":null,"populationNote":"境界またぎ・収録外等のため人口未集計"},"geometry":{"type":"Polygon","coordinates":[[[131.175,33.575575],[131.17547917,33.575158333],[131.175675279,33.574999999999996],[131.175,33.575],[131.175,33.575575]]]}},{"type":"Feature","id":"40646:50313101","properties":{"id":"40646:50313101","meshCode":"50313101","cityCode":"40646","city":"上毛町","lat":33.5854404,"lon":131.1461014,"areaKm2":0.3789055,"populated2020":true,"population2020":null,"populationNote":"境界またぎ・収録外等のため人口未集計"},"geometry":{"type":"Polygon","coordinates":[[[131.1391394163492,33.583333333333336],[131.141328885,33.585298613],[131.142173606,33.58581416199999],[131.142953606,33.586142495],[131.143724163,33.58634],[131.144550272,33.586390829],[131.145166667,33.586637225],[131.146242503,33.58758833300001],[131.147194994,33.588029162],[131.147748612,33.588408054],[131.148595551,33.58875972100001],[131.149063606,33.589088892],[131.149381388,33.58957777500001],[131.15,33.58976855899999],[131.15,33.583333333333336],[131.1391394163492,33.583333333333336]]]}},{"type":"Feature","id":"40646:50313102","properties":{"id":"40646:50313102","meshCode":"50313102","cityCode":"40646","city":"上毛町","lat":33.5873703,"lon":131.1564429,"areaKm2":1.0331833,"populated2020":true,"population2020":null,"populationNote":"境界またぎ・収録外等のため人口未集計"},"geometry":{"type":"Polygon","coordinates":[[[131.1625,33.583333333333336],[131.15,33.583333333333336],[131.15,33.58976855899999],[131.150488612,33.589855828999994],[131.151909442,33.590466107999994],[131.15309094670212,33.591666666666676],[131.1625,33.591666666666676],[131.1625,33.583333333333336]]]}},{"type":"Feature","id":"40646:50313103","properties":{"id":"40646:50313103","meshCode":"50313103","cityCode":"40646","city":"上毛町","lat":33.5864652,"lon":131.1670441,"areaKm2":0.6010944,"populated2020":true,"population2020":null,"populationNote":"境界またぎ・収録外等のため人口未集計"},"geometry":{"type":"Polygon","coordinates":[[[131.172695837,33.588423892],[131.17234236100018,33.583333333333336],[131.1625,33.583333333333336],[131.1625,33.591666666666676],[131.16549795095125,33.591666666666676],[131.165046939,33.589664441],[131.164680558,33.589271387],[131.164126939,33.588916667],[131.163858054,33.588453613],[131.163837782,33.588229721],[131.16439166,33.58811166699999],[131.164924994,33.587871946],[131.165743333,33.588338333],[131.166125551,33.588875],[131.166402503,33.58894527900001],[131.16860917,33.587779162000004],[131.169492776,33.587568333],[131.169765279,33.58913555899999],[131.169854721,33.589352775],[131.169968885,33.589410279],[131.170070558,33.58932082900001],[131.170148054,33.588847775000005],[131.170249728,33.588790278999994],[131.171198327,33.58861138700001],[131.171361388,33.588419721],[131.172695837,33.588423892]]]}},{"type":"Feature","id":"40646:50313112","properties":{"id":"40646:50313112","meshCode":"50313112","cityCode":"40646","city":"上毛町","lat":33.5942596,"lon":131.1583342,"areaKm2":0.4376964,"populated2020":true,"population2020":null,"populationNote":"境界またぎ・収録外等のため人口未集計"},"geometry":{"type":"Polygon","coordinates":[[[131.15309094670212,33.591666666666676],[131.153826939,33.592674162],[131.154177224,33.59341249500001],[131.155198885,33.594987495],[131.155084721,33.595252775000006],[131.155121388,33.595565829],[131.155406394,33.596070829],[131.155907224,33.597630279],[131.156163606,33.597927495],[131.156652218,33.598253054],[131.157051388,33.598101387],[131.158500558,33.597069162],[131.159465279,33.596861387],[131.16027166,33.596781667],[131.161167224,33.596529440999994],[131.161879728,33.596096387],[131.1625,33.595896090311726],[131.1625,33.591666666666676],[131.15309094670212,33.591666666666676]]]}},{"type":"Feature","id":"40646:50313113","properties":{"id":"40646:50313113","meshCode":"50313113","cityCode":"40646","city":"上毛町","lat":33.5934724,"lon":131.163714,"areaKm2":0.0945055,"populated2020":true,"population2020":null,"populationNote":"境界またぎ・収録外等のため人口未集計"},"geometry":{"type":"Polygon","coordinates":[[[131.163369728,33.595508333000005],[131.163797224,33.595524441],[131.164436394,33.595297495],[131.165002218,33.595223892],[131.165075551,33.595150559000004],[131.16499416300002,33.59482805399999],[131.164008885,33.593898054],[131.163939728,33.593706387000005],[131.164448612,33.593338892],[131.164855551,33.593223892],[131.165128612,33.593003333],[131.165425551,33.592453613],[131.165555837,33.592354721],[131.16549795095125,33.591666666666676],[131.1625,33.591666666666676],[131.1625,33.595896090311726],[131.162938054,33.595773613],[131.163369728,33.595508333000005]]]}}]}