{"type":"FeatureCollection","metadata":{"cityCode":"44322","city":"姫島村","resolution":1000,"boundaryDate":"2026-01-01","populationLabel":"2020年基準人口（国交省調整値）","method":"標準地域メッシュ（2分の1地域メッシュ/第3次地域区画）を行政界で切り抜き。判定点は中心、境界外なら区域内代表点。面積は簡略化前の地理座標から計算。表示線は5m簡略化。"},"features":[{"type":"Feature","id":"44322:50314560","properties":{"id":"44322:50314560","meshCode":"50314560","cityCode":"44322","city":"姫島村","lat":33.7201163,"lon":131.6343352,"areaKm2":0.3307116,"populated2020":false,"population2020":null,"populationNote":"境界またぎ・収録外等のため自治体内人口は未集計"},"geometry":{"type":"Polygon","coordinates":[[[131.633214475,33.722540892000005],[131.6334393,33.722606468],[131.633849585,33.722878865],[131.634374747,33.722934532],[131.634557834,33.722838559],[131.634987782,33.722986108],[131.63512489,33.722943829],[131.635534475,33.723207306000006],[131.635762776,33.723312162],[131.635996446,33.723323081],[131.636163995,33.723452333000004],[131.636331582,33.72340064],[131.636539663,33.723519414],[131.637072633,33.72350255900001],[131.63717153,33.723384829],[131.6375,33.72337575848668],[131.6375,33.71803175755602],[131.637235019,33.717911964],[131.635844021,33.717736009],[131.633102957,33.716783973],[131.632944034,33.716828973],[131.63282703,33.716998],[131.632646965,33.717366973],[131.632553969,33.717812198000004],[131.631624163,33.71814002699999],[131.631075188,33.718521468],[131.631050467,33.71868641399999],[131.631176589,33.719071973],[131.631179027,33.720036865],[131.631092607,33.72035219799999],[131.631203748,33.720742108],[131.631532633,33.721148279],[131.632375811,33.721781306],[131.632759105,33.72220189200001],[131.633016135,33.722332108],[131.633214475,33.722540892000005]]]}},{"type":"Feature","id":"44322:50314561","properties":{"id":"44322:50314561","meshCode":"50314561","cityCode":"44322","city":"姫島村","lat":33.7208333,"lon":131.64375,"areaKm2":0.5794812,"populated2020":true,"population2020":null,"populationNote":"境界またぎ・収録外等のため自治体内人口は未集計"},"geometry":{"type":"MultiPolygon","coordinates":[[[[131.648107951,33.717150135],[131.649553256,33.717914333],[131.649598003,33.717852892],[131.648146304,33.717086],[131.648107951,33.717150135]]],[[[131.637507224,33.723375559],[131.638093333,33.723482775],[131.639052361,33.724094973],[131.639816355,33.725],[131.65,33.725],[131.65,33.72187136],[131.649868885,33.72149630599999],[131.648636641,33.721549667],[131.648687886,33.722230108000005],[131.64694275000002,33.721691306000004],[131.647149585,33.721235198],[131.647074942,33.721206667],[131.646787108,33.721853441],[131.646143061,33.721671946],[131.646511946,33.720871108],[131.646429196,33.720792919000004],[131.648012088,33.720413081000004],[131.648090921,33.720182613],[131.648020052,33.72015991899999],[131.647950856,33.720359441],[131.646472698,33.720708829],[131.646524721,33.720594162],[131.64571917,33.720321108],[131.645756939,33.720239441],[131.64560494200003,33.72018402700001],[131.645410947,33.719724387],[131.645334189,33.719752919],[131.645536667,33.720214919],[131.645129442,33.72106305399999],[131.644311479,33.720783748],[131.644212244,33.72097322500001],[131.643986472,33.720851721],[131.644615357,33.719556586],[131.64492022,33.71967236],[131.64494795100003,33.719611801999996],[131.644653748,33.719499559000006],[131.644747523,33.719298251999994],[131.647263113,33.718580333],[131.647367198,33.718352135],[131.64729083,33.718323802],[131.64719917,33.718528667],[131.64468786,33.719239468],[131.643918249,33.720807162],[131.641980246,33.719882748],[131.641252244,33.71963469400001],[131.640596109,33.71928108099999],[131.640410441,33.719323802],[131.64012214,33.71954174799999],[131.639019974,33.718814667000004],[131.639708054,33.71803297300001],[131.639648366,33.717990225000015],[131.638955642,33.71877391900001],[131.6375,33.71803175755602],[131.637507224,33.723375559]]],[[[131.64958725,33.72094258600001],[131.648871141,33.719992081],[131.648810661,33.71856133300001],[131.648727497,33.718564892],[131.648792944,33.72001822499999],[131.649330506,33.720726306],[131.649071219,33.72084280199999],[131.649107302,33.720902108],[131.649371894,33.720785775],[131.64953180300003,33.721004946],[131.65,33.721087586],[131.65,33.72101555900001],[131.64958725,33.72094258600001]]]]}},{"type":"Feature","id":"44322:50314562","properties":{"id":"44322:50314562","meshCode":"50314562","cityCode":"44322","city":"姫島村","lat":33.7216545,"lon":131.6576781,"areaKm2":0.5456607,"populated2020":true,"population2020":null,"populationNote":"境界またぎ・収録外等のため自治体内人口は未集計"},"geometry":{"type":"Polygon","coordinates":[[[131.662223748,33.71817761300001],[131.660148223,33.719340081],[131.65917978,33.718961081],[131.658378885,33.718964973],[131.658282866,33.719125081],[131.658379611,33.71925464],[131.658610052,33.719254639999996],[131.65873808,33.719142559],[131.659173385,33.71915855900001],[131.659365422,33.719233279],[131.659435837,33.719473468000004],[131.659371803,33.720028532],[131.658987756,33.720594279],[131.658597276,33.720925198],[131.658136394,33.721261441],[131.657669079,33.72139486500001],[131.656747302,33.721426892000004],[131.65656808,33.72130413499999],[131.656766524,33.720903829],[131.656484864,33.720807775],[131.65628642,33.721213414],[131.655420441,33.72121264],[131.655207691,33.72114782900001],[131.655076783,33.72121263999999],[131.653898586,33.721253559],[131.653714501,33.721178532],[131.653550856,33.721253559],[131.652923606,33.721271225],[131.651081167,33.720615468000005],[131.650628171,33.719793027],[131.650558716,33.719826054],[131.651019339,33.720668919],[131.652840441,33.72130864],[131.652886304,33.722321387],[131.652697445,33.722325387],[131.652687419,33.722162775],[131.651464501,33.722191360000004],[131.65133869,33.721252279],[131.65,33.72101555900001],[131.65,33.721087586],[131.6512662,33.721311081],[131.651383476,33.722193135],[131.650142827,33.722223667],[131.65,33.72187136],[131.65,33.725],[131.6625,33.724999999999994],[131.6625,33.71808433316505],[131.662223748,33.71817761300001]]]}},{"type":"Feature","id":"44322:50314563","properties":{"id":"44322:50314563","meshCode":"50314563","cityCode":"44322","city":"姫島村","lat":33.7208333,"lon":131.66875,"areaKm2":0.822006,"populated2020":true,"population2020":null,"populationNote":"境界またぎ・収録外等のため自治体内人口は未集計"},"geometry":{"type":"Polygon","coordinates":[[[131.675,33.724000559],[131.6744707,33.723200468],[131.674258444,33.723038135],[131.674743722,33.722809000000005],[131.675,33.722474054],[131.674672996,33.722686775000014],[131.674665888,33.722773495],[131.674225473,33.72298364],[131.673693061,33.722050278999994],[131.674441025,33.72174155900001],[131.67439192,33.721655775],[131.674584864,33.72154874799999],[131.674650558,33.721603333000004],[131.67472,33.72156405399999],[131.675,33.721785081],[131.675,33.721691414000006],[131.674470558,33.72122472099999],[131.67328834,33.721698874],[131.672240039,33.720237009],[131.671654047,33.718879982],[131.671315953,33.718512964],[131.670824968,33.718198973],[131.669050052,33.717680964],[131.668018106,33.71747225199999],[131.667238197,33.717087667],[131.665722387,33.716826802],[131.665199728,33.71689055899999],[131.664299274,33.71747030600001],[131.6625,33.71808433316505],[131.6625,33.724999999999994],[131.675,33.725],[131.675,33.724000559]]]}},{"type":"Feature","id":"44322:50314564","properties":{"id":"44322:50314564","meshCode":"50314564","cityCode":"44322","city":"姫島村","lat":33.7245422,"lon":131.67511,"areaKm2":0.0034678,"populated2020":false,"population2020":null,"populationNote":"境界またぎ・収録外等のため自治体内人口は未集計"},"geometry":{"type":"MultiPolygon","coordinates":[[[[131.675442866,33.724969081],[131.675094189,33.724594387],[131.675345863,33.724489973],[131.675,33.724000559],[131.675,33.725],[131.675442866,33.724969081]]],[[[131.675242776,33.72239733300001],[131.675200117,33.72234386499999],[131.675,33.722474054],[131.675,33.722557693999995],[131.675242776,33.72239733300001]]],[[[131.676029442,33.72259766700001],[131.676078949,33.72254469400001],[131.675,33.721691414000006],[131.675,33.721785081],[131.676029442,33.72259766700001]]]]}},{"type":"Feature","id":"44322:50314571","properties":{"id":"44322:50314571","meshCode":"50314571","cityCode":"44322","city":"姫島村","lat":33.7291667,"lon":131.64375,"areaKm2":0.4924816,"populated2020":true,"population2020":null,"populationNote":"境界またぎ・収録外等のため自治体内人口は未集計"},"geometry":{"type":"MultiPolygon","coordinates":[[[[131.639920921,33.72519363999999],[131.639715746,33.725289054],[131.640197302,33.726294081],[131.639904916,33.72706689200001],[131.640106226,33.72809449500001],[131.640187328,33.72808558599999],[131.639988392,33.727070162],[131.640283022,33.72629146800001],[131.639817056,33.725319027],[131.640430246,33.725],[131.639816355,33.725],[131.639920921,33.72519363999999]]],[[[131.640541725,33.725],[131.641044228,33.725703586],[131.640821725,33.725793108000005],[131.640851608,33.725853775],[131.641080752,33.725764586],[131.641259974,33.726070252],[131.640521777,33.726262279000004],[131.64038610900002,33.725993532],[131.640313891,33.72602400000001],[131.64047345,33.726340027],[131.640852244,33.726272441],[131.641278418,33.72721777499999],[131.640688106,33.727410829],[131.640505305,33.727064108],[131.640434812,33.727094532],[131.64061061,33.72743869400001],[131.64047275,33.727484559],[131.640501193,33.727546387],[131.640641608,33.727501198],[131.640789611,33.727770721],[131.640859805,33.727740586],[131.640721608,33.727475559],[131.642003645,33.72709180199999],[131.642218975,33.72739105400001],[131.642535551,33.728400829],[131.642553061,33.728591108],[131.642290272,33.72908694600001],[131.642290272,33.729509441],[131.642344163,33.729785279000005],[131.642822503,33.73083277500001],[131.642622996,33.73127294599999],[131.642266524,33.731220198],[131.642046355,33.73139025199999],[131.642081803,33.731533801999994],[131.642691141,33.731671775],[131.642901634,33.731764198],[131.642988755,33.731913946],[131.643165331,33.731924414],[131.643184527,33.732071054],[131.643072244,33.732125278999995],[131.642967302,33.732400054],[131.643043411,33.732506054],[131.642574254,33.73280672100001],[131.642719728,33.73301249499999],[131.643066835,33.732966864999995],[131.643475837,33.732748054],[131.644166913,33.732655613000006],[131.644295966,33.732488892000006],[131.644183943,33.732136532],[131.644331388,33.731970559000004],[131.644621115,33.731863612999994],[131.645574994,33.73205494599999],[131.646135642,33.732081081],[131.64613703,33.732015586],[131.645223839,33.731921801999995],[131.645193359,33.731014721],[131.644937912,33.731012162000006],[131.645192438,33.730458306],[131.645735979,33.730183036],[131.646699987,33.730264261],[131.647512503,33.730898252],[131.648090895,33.731040919],[131.648286226,33.730996441],[131.64889978,33.73123882899999],[131.648932387,33.731176613],[131.648376329,33.73095046800001],[131.648723359,33.73078616200001],[131.648688249,33.730728306],[131.648097276,33.73096958600001],[131.647553061,33.73083582899999],[131.647063722,33.730454558999995],[131.647623696,33.729814198],[131.648095188,33.730067080999994],[131.648218327,33.729893613],[131.647464112,33.729493775],[131.647681089,33.729182802000004],[131.647413061,33.729049441],[131.647781388,33.728691775],[131.647869339,33.72868963999999],[131.647891634,33.72897497299999],[131.64840808,33.728988135],[131.648425162,33.729763802],[131.648499857,33.729763802],[131.64848917,33.728988135],[131.648883191,33.728978027],[131.648944669,33.730249081000004],[131.648739805,33.730463027],[131.648799559,33.73050761300001],[131.648987328,33.730309694000006],[131.65,33.73026372100001],[131.65,33.725],[131.640541725,33.725]]],[[[131.642436355,33.731967387000005],[131.642158301,33.731793108],[131.641934449,33.731946667],[131.641938106,33.732183694],[131.64219189400004,33.732323721],[131.642395279,33.73220858599999],[131.642436355,33.731967387000005]]]]}},{"type":"Feature","id":"44322:50314572","properties":{"id":"44322:50314572","meshCode":"50314572","cityCode":"44322","city":"姫島村","lat":33.7291667,"lon":131.65625,"areaKm2":0.8846208,"populated2020":true,"population2020":null,"populationNote":"境界またぎ・収録外等のため自治体内人口は未集計"},"geometry":{"type":"Polygon","coordinates":[[[131.651021193,33.730216306],[131.651039857,33.73049938700001],[131.651247108,33.73073713500001],[131.651308106,33.730692721000004],[131.651119248,33.730476108],[131.651100947,33.730215225],[131.653529248,33.730100613000005],[131.653692866,33.730200559],[131.654926719,33.73016464],[131.654874578,33.732363919],[131.654952218,33.732453279],[131.657265525,33.732412387],[131.657903333,33.732788892],[131.65847975433925,33.73333333333333],[131.6625,33.73333333333333],[131.6625,33.724999999999994],[131.65,33.725],[131.65,33.73026372100001],[131.651021193,33.730216306]]]}},{"type":"Feature","id":"44322:50314573","properties":{"id":"44322:50314573","meshCode":"50314573","cityCode":"44322","city":"姫島村","lat":33.7291667,"lon":131.66875,"areaKm2":1.0707808,"populated2020":true,"population2020":null,"populationNote":"境界またぎ・収録外等のため自治体内人口は未集計"},"geometry":{"type":"Polygon","coordinates":[[[131.6625,33.724999999999994],[131.6625,33.73333333333333],[131.675,33.73333333333334],[131.675,33.725],[131.6625,33.724999999999994]]]}},{"type":"Feature","id":"44322:50314574","properties":{"id":"44322:50314574","meshCode":"50314574","cityCode":"44322","city":"姫島村","lat":33.7291667,"lon":131.68125,"areaKm2":0.7982948,"populated2020":true,"population2020":null,"populationNote":"境界またぎ・収録外等のため自治体内人口は未集計"},"geometry":{"type":"Polygon","coordinates":[[[131.685442283,33.733333333],[131.68750000000003,33.73273400848905],[131.68750000000003,33.729960021485134],[131.685004812,33.728228162],[131.684876498,33.728322802],[131.684031388,33.72783110799999],[131.68343,33.727742054],[131.681808275,33.727145054000005],[131.680752218,33.727205532000006],[131.680383891,33.727034721],[131.678958638,33.726022306],[131.678401855,33.725746945999994],[131.677435966,33.725436495],[131.676029144,33.725411667],[131.67547572000004,33.725],[131.675,33.725],[131.675,33.73333333333334],[131.685442283,33.733333333]]]}},{"type":"Feature","id":"44322:50314575","properties":{"id":"44322:50314575","meshCode":"50314575","cityCode":"44322","city":"姫島村","lat":33.7311657,"lon":131.6984791,"areaKm2":0.2112244,"populated2020":true,"population2020":null,"populationNote":"境界またぎ・収録外等のため自治体内人口は未集計"},"geometry":{"type":"Polygon","coordinates":[[[131.68752788600003,33.73272972099999],[131.692325305,33.73246391899999],[131.692781167,33.732735108],[131.69311011719873,33.733333333333334],[131.69855241148792,33.733333333333334],[131.699578885,33.732518054],[131.7,33.732340865],[131.7,33.730126468],[131.699825499,33.73031499999999],[131.699111089,33.730557225000005],[131.698452892,33.730627108],[131.697348885,33.73091789200001],[131.696407808,33.73151477500001],[131.695537108,33.73160180200001],[131.69482,33.73081130599999],[131.693408781,33.729014531999994],[131.693347977,33.729057306],[131.694746394,33.730843387],[131.693428781,33.731442721],[131.692931699,33.73063522499999],[131.69249435800003,33.730476586],[131.692462361,33.730540748],[131.692878495,33.730691973],[131.693356252,33.731473027],[131.692553995,33.73184519800001],[131.69240978,33.73160982899999],[131.692213917,33.731692495000004],[131.691921634,33.731188054],[131.691851245,33.731225495],[131.692141388,33.73172280199999],[131.69145083,33.73201664],[131.691306615,33.731740306000006],[131.691104086,33.73192963999999],[131.69092608300002,33.731789279000004],[131.691817886,33.730636829],[131.692940973,33.729757495],[131.692892529,33.729705972999994],[131.691757691,33.730587559],[131.690382088,33.73236677500001],[131.690170272,33.73237830600001],[131.689159883,33.731975639999995],[131.687514721,33.731078279],[131.688196355,33.730442720999996],[131.68750000000003,33.729960021485134],[131.68752788600003,33.73272972099999]]]}},{"type":"Feature","id":"44322:50314576","properties":{"id":"44322:50314576","meshCode":"50314576","cityCode":"44322","city":"姫島村","lat":33.731141,"lon":131.7003874,"areaKm2":0.0181335,"populated2020":false,"population2020":null,"populationNote":"境界またぎ・収録外等のため自治体内人口は未集計"},"geometry":{"type":"MultiPolygon","coordinates":[[[[131.700037224,33.732315279000005],[131.700313333,33.731628054],[131.701027198,33.73091010800001],[131.701192529,33.730869748],[131.701288145,33.730620865],[131.701213696,33.730468721],[131.701322114,33.730471225],[131.701556057,33.730276198000006],[131.701532166,33.73018472099999],[131.70121869,33.73025782900001],[131.70100594,33.730230162000005],[131.700923865,33.730137613],[131.701177691,33.730115973],[131.701247004,33.729973468],[131.701197665,33.72987522500001],[131.700819948,33.729841198],[131.700748495,33.729941198],[131.700847951,33.730063532],[131.700799027,33.730163198],[131.700356939,33.730088081],[131.7,33.730126468],[131.700037224,33.732315279000005]]],[[[131.701906472,33.73093372100001],[131.701724812,33.730976135],[131.701724812,33.731134892],[131.701998029,33.73109246800001],[131.702024189,33.73100764],[131.701906472,33.73093372100001]]]]}},{"type":"Feature","id":"44322:50314582","properties":{"id":"44322:50314582","meshCode":"50314582","cityCode":"44322","city":"姫島村","lat":33.7353369,"lon":131.6613861,"areaKm2":0.09326,"populated2020":false,"population2020":null,"populationNote":"境界またぎ・収録外等のため自治体内人口は未集計"},"geometry":{"type":"MultiPolygon","coordinates":[[[[131.65847975433925,33.73333333333333],[131.659519689,33.734462613],[131.659893139,33.735226000000004],[131.660341089,33.735358135],[131.660920467,33.735768829],[131.661409689,33.736700973],[131.662201051,33.737235748],[131.6625,33.737353778882344],[131.6625,33.73333333333333],[131.65847975433925,33.73333333333333]]],[[[131.652809585,33.73481080199999],[131.652607756,33.734785721],[131.652378003,33.734980865],[131.652395162,33.735213613],[131.652624916,33.735362198],[131.652764475,33.735365775],[131.652947004,33.735011306],[131.652809585,33.73481080199999]]],[[[131.653645668,33.737617054000005],[131.65364297,33.737742279],[131.653815616,33.737781279],[131.653935227,33.737734027],[131.653958612,33.737615559],[131.653795837,33.73752933299999],[131.653645668,33.737617054000005]]]]}},{"type":"Feature","id":"44322:50314583","properties":{"id":"44322:50314583","meshCode":"50314583","cityCode":"44322","city":"姫島村","lat":33.7375,"lon":131.66875,"areaKm2":0.7209453,"populated2020":false,"population2020":null,"populationNote":"境界またぎ・収録外等のため自治体内人口は未集計"},"geometry":{"type":"Polygon","coordinates":[[[131.662522387,33.737360829],[131.663632503,33.737623054],[131.664332503,33.73822833300001],[131.664901946,33.738546387],[131.665581115,33.739231108],[131.666035551,33.739558892],[131.667474721,33.740213333],[131.667814994,33.74027777500001],[131.66820166,33.740268054],[131.669143606,33.739885829],[131.669430558,33.739667775],[131.669591946,33.739271386999995],[131.669871946,33.73910472099999],[131.671540272,33.73879000000001],[131.67228722400003,33.738809440999994],[131.67288083,33.738928054],[131.673434163,33.738815559],[131.675,33.737799802],[131.675,33.73333333333334],[131.6625,33.73333333333333],[131.662522387,33.737360829]]]}},{"type":"Feature","id":"44322:50314584","properties":{"id":"44322:50314584","meshCode":"50314584","cityCode":"44322","city":"姫島村","lat":33.7356975,"lon":131.6794562,"areaKm2":0.3779404,"populated2020":true,"population2020":null,"populationNote":"境界またぎ・収録外等のため自治体内人口は未集計"},"geometry":{"type":"Polygon","coordinates":[[[131.675431946,33.737557775],[131.675894137,33.737411748],[131.67641061,33.737358919],[131.677575811,33.737646919],[131.67896399500003,33.737786532],[131.680006589,33.738035441],[131.680732944,33.73751735999999],[131.680867419,33.737528081],[131.68135061,33.737828494999995],[131.682416472,33.737676054],[131.683399144,33.737922081],[131.683845473,33.738136360000006],[131.684007302,33.737630613],[131.683930246,33.73761],[131.683794527,33.73803416200001],[131.683430726,33.737859495],[131.682421414,33.737606802],[131.681370752,33.73775705400001],[131.681030117,33.737545306],[131.681685227,33.73685764],[131.682077834,33.737101892],[131.682126913,33.737041278999996],[131.681559857,33.736684973],[131.681905863,33.73632705400001],[131.682118586,33.73639825200001],[131.682113671,33.73652019800001],[131.682236083,33.736515973],[131.682242335,33.73670889200001],[131.68245166,33.736736468000004],[131.682408885,33.737210919000006],[131.682490078,33.737217802],[131.68253703,33.736748946],[131.683218664,33.736841387000005],[131.683249663,33.737449667],[131.683322503,33.73744986500001],[131.68325939,33.736071414],[131.6828238,33.736212252],[131.68214061,33.73617886500001],[131.683464332,33.735994162],[131.683767782,33.735882829000005],[131.684036394,33.735428054],[131.684315162,33.734101306],[131.684801388,33.733648333000005],[131.6854422822148,33.73333333333334],[131.675,33.73333333333334],[131.675,33.737799802],[131.675431946,33.737557775]]]}},{"type":"Feature","id":"44322:50314585","properties":{"id":"44322:50314585","meshCode":"50314585","cityCode":"44322","city":"姫島村","lat":33.7339117,"lon":131.69539,"areaKm2":0.0419906,"populated2020":false,"population2020":null,"populationNote":"境界またぎ・収録外等のため自治体内人口は未集計"},"geometry":{"type":"Polygon","coordinates":[[[131.69311011719873,33.733333333333334],[131.693546135,33.73388597300001],[131.69422797700003,33.73433064],[131.694745058,33.73446236],[131.695436472,33.734519586],[131.696722776,33.734179721],[131.697295279,33.733852775],[131.698218327,33.733531667],[131.69855241148792,33.733333333333334],[131.69311011719873,33.733333333333334]]]}}]}