{"type":"FeatureCollection","metadata":{"cityCode":"44322","city":"姫島村","resolution":500,"boundaryDate":"2026-01-01","populationLabel":"2020年基準人口（国交省調整値）","method":"標準地域メッシュ（2分の1地域メッシュ/第3次地域区画）を行政界で切り抜き。判定点は中心、境界外なら区域内代表点。面積は簡略化前の地理座標から計算。表示線は5m簡略化。"},"features":[{"type":"Feature","id":"44322:503145601","properties":{"id":"44322:503145601","meshCode":"503145601","cityCode":"44322","city":"姫島村","lat":33.7193596,"lon":131.6312046,"areaKm2":0.0026696,"populated2020":false,"population2020":null,"populationNote":"境界またぎ・収録外等のため自治体内人口は未集計"},"geometry":{"type":"Polygon","coordinates":[[[131.631075188,33.718521468],[131.631050467,33.71868641399999],[131.631176589,33.719071973],[131.631179027,33.720036865],[131.631092607,33.72035219799999],[131.63125,33.72080909216159],[131.63125,33.718378446486135],[131.631075188,33.718521468]]]}},{"type":"Feature","id":"44322:503145602","properties":{"id":"44322:503145602","meshCode":"503145602","cityCode":"44322","city":"姫島村","lat":33.71875,"lon":131.634375,"areaKm2":0.2096423,"populated2020":false,"population2020":null,"populationNote":"境界またぎ・収録外等のため自治体内人口は未集計"},"geometry":{"type":"Polygon","coordinates":[[[131.637358016,33.717955954999994],[131.636052036,33.717793],[131.633186991,33.716795991000005],[131.632964021,33.71681696400001],[131.632646965,33.717366973],[131.632553969,33.717812198000004],[131.631624163,33.71814002699999],[131.63125,33.718378446486135],[131.63125,33.72080909216159],[131.6375,33.72083333333334],[131.6375,33.71803175755602],[131.637358016,33.717955954999994]]]}},{"type":"Feature","id":"44322:503145611","properties":{"id":"44322:503145611","meshCode":"503145611","cityCode":"44322","city":"姫島村","lat":33.7194328,"lon":131.6387327,"areaKm2":0.0911525,"populated2020":false,"population2020":null,"populationNote":"境界またぎ・収録外等のため自治体内人口は未集計"},"geometry":{"type":"Polygon","coordinates":[[[131.643688612,33.720674054],[131.643142581,33.720485829],[131.641980246,33.719882748],[131.641252244,33.71963469400001],[131.640596109,33.71928108099999],[131.640410441,33.719323802],[131.64012214,33.71954174799999],[131.639019974,33.718814667000004],[131.639708054,33.71803297300001],[131.639648366,33.717990225000015],[131.638955642,33.71877391900001],[131.6375,33.71803175755602],[131.6375,33.72083333333334],[131.64375,33.72083333333333],[131.643688612,33.720674054]]]}},{"type":"Feature","id":"44322:503145612","properties":{"id":"44322:503145612","meshCode":"503145612","cityCode":"44322","city":"姫島村","lat":33.7202803,"lon":131.6456217,"areaKm2":0.0141184,"populated2020":false,"population2020":null,"populationNote":"境界またぎ・収録外等のため自治体内人口は未集計"},"geometry":{"type":"MultiPolygon","coordinates":[[[[131.648107951,33.717150135],[131.649553256,33.717914333],[131.649598003,33.717852892],[131.648146304,33.717086],[131.648107951,33.717150135]]],[[[131.648871141,33.719992081],[131.648810661,33.71856133300001],[131.648727497,33.718564892],[131.648792944,33.72001822499999],[131.649330506,33.720726306],[131.649092293562,33.72083333333333],[131.649371894,33.720785775],[131.64950493920955,33.72083333333334],[131.648871141,33.719992081]]],[[[131.646429196,33.720792919000004],[131.648012088,33.720413081000004],[131.648090921,33.720182613],[131.648020052,33.72015991899999],[131.647950856,33.720359441],[131.646472698,33.720708829],[131.646524721,33.720594162],[131.64571917,33.720321108],[131.645756939,33.720239441],[131.64560494200003,33.72018402700001],[131.645410947,33.719724387],[131.645334189,33.719752919],[131.645536667,33.720214919],[131.64523974047665,33.72083333333333],[131.646429196,33.720792919000004]]],[[[131.644311479,33.720783748],[131.64428550961821,33.72083333333333],[131.6444566923789,33.72083333333333],[131.644311479,33.720783748]]],[[[131.644615357,33.719556586],[131.64492022,33.71967236],[131.64494795100003,33.719611801999996],[131.644653748,33.719499559000006],[131.644747523,33.719298251999994],[131.647263113,33.718580333],[131.647367198,33.718352135],[131.64729083,33.718323802],[131.64719917,33.718528667],[131.64468786,33.719239468],[131.643918249,33.720807162],[131.64375,33.72070398640889],[131.64375,33.72083333333333],[131.64399540058872,33.72083333333333],[131.644615357,33.719556586]]]]}},{"type":"Feature","id":"44322:503145621","properties":{"id":"44322:503145621","meshCode":"503145621","cityCode":"44322","city":"姫島村","lat":33.7202208,"lon":131.6508191,"areaKm2":0.0011764,"populated2020":false,"population2020":null,"populationNote":"境界またぎ・収録外等のため自治体内人口は未集計"},"geometry":{"type":"Polygon","coordinates":[[[131.651081167,33.720615468000005],[131.650628171,33.719793027],[131.650558716,33.719826054],[131.651019339,33.720668919],[131.6514873793977,33.72083333333333],[131.65169328945828,33.72083333333334],[131.651081167,33.720615468000005]]]}},{"type":"Feature","id":"44322:503145622","properties":{"id":"44322:503145622","meshCode":"503145622","cityCode":"44322","city":"姫島村","lat":33.7194068,"lon":131.6609581,"areaKm2":0.0703468,"populated2020":false,"population2020":null,"populationNote":"境界またぎ・収録外等のため自治体内人口は未集計"},"geometry":{"type":"MultiPolygon","coordinates":[[[[131.662223748,33.71817761300001],[131.660148223,33.719340081],[131.65917978,33.718961081],[131.658378885,33.718964973],[131.658282866,33.719125081],[131.658379611,33.71925464],[131.658610052,33.719254639999996],[131.65873808,33.719142559],[131.659173385,33.71915855900001],[131.659365422,33.719233279],[131.659435837,33.719473468000004],[131.659371803,33.720028532],[131.659250195,33.720274054],[131.65870567507966,33.72083333333334],[131.6625,33.72083333333333],[131.6625,33.71808433316505],[131.662223748,33.71817761300001]]],[[[131.656484864,33.720807775],[131.656472360523,33.72083333333333],[131.65655980892853,33.72083333333333],[131.656484864,33.720807775]]]]}},{"type":"Feature","id":"44322:503145631","properties":{"id":"44322:503145631","meshCode":"503145631","cityCode":"44322","city":"姫島村","lat":33.71875,"lon":131.665625,"areaKm2":0.225227,"populated2020":false,"population2020":null,"populationNote":"境界またぎ・収録外等のため自治体内人口は未集計"},"geometry":{"type":"Polygon","coordinates":[[[131.66875,33.71763323534507],[131.668018106,33.71747225199999],[131.667002918,33.71702777499999],[131.665507977,33.716826775],[131.665060661,33.716960135],[131.664299274,33.71747030600001],[131.6625,33.71808433316505],[131.6625,33.72083333333333],[131.66875,33.72083333333334],[131.66875,33.71763323534507]]]}},{"type":"Feature","id":"44322:503145632","properties":{"id":"44322:503145632","meshCode":"503145632","cityCode":"44322","city":"姫島村","lat":33.7192245,"lon":131.670291,"areaKm2":0.0918447,"populated2020":false,"population2020":null,"populationNote":"境界またぎ・収録外等のため自治体内人口は未集計"},"geometry":{"type":"Polygon","coordinates":[[[131.6726521405526,33.72083333333333],[131.672158988,33.720082008999995],[131.671739987,33.719025036000005],[131.671315953,33.718512964],[131.67059,33.718107018],[131.66875,33.71763323534507],[131.66875,33.72083333333334],[131.6726521405526,33.72083333333333]]]}},{"type":"Feature","id":"44322:503145604","properties":{"id":"44322:503145604","meshCode":"503145604","cityCode":"44322","city":"姫島村","lat":33.7229167,"lon":131.634375,"areaKm2":0.1183997,"populated2020":false,"population2020":null,"populationNote":"境界またぎ・収録外等のため自治体内人口は未集計"},"geometry":{"type":"Polygon","coordinates":[[[131.633214475,33.722540892000005],[131.6334393,33.722606468],[131.633849585,33.722878865],[131.634374747,33.722934532],[131.634557834,33.722838559],[131.634987782,33.722986108],[131.63512489,33.722943829],[131.635534475,33.723207306000006],[131.635762776,33.723312162],[131.635996446,33.723323081],[131.636163995,33.723452333000004],[131.636331582,33.72340064],[131.636539663,33.723519414],[131.637072633,33.72350255900001],[131.63717153,33.723384829],[131.6375,33.72337575848668],[131.6375,33.72083333333334],[131.63126673832514,33.72083333333333],[131.631532633,33.721148279],[131.632375811,33.721781306],[131.632759105,33.72220189200001],[131.633016135,33.722332108],[131.633214475,33.722540892000005]]]}},{"type":"Feature","id":"44322:503145613","properties":{"id":"44322:503145613","meshCode":"503145613","cityCode":"44322","city":"姫島村","lat":33.7229167,"lon":131.640625,"areaKm2":0.2421867,"populated2020":true,"population2020":null,"populationNote":"境界またぎ・収録外等のため自治体内人口は未集計"},"geometry":{"type":"Polygon","coordinates":[[[131.637507224,33.723375559],[131.638093333,33.723482775],[131.639052361,33.724094973],[131.639816355,33.725],[131.64375,33.725],[131.64375,33.72083333333333],[131.6375,33.72083333333334],[131.637507224,33.723375559]]]}},{"type":"Feature","id":"44322:503145614","properties":{"id":"44322:503145614","meshCode":"503145614","cityCode":"44322","city":"姫島村","lat":33.7229167,"lon":131.646875,"areaKm2":0.2320196,"populated2020":true,"population2020":null,"populationNote":"境界またぎ・収録外等のため自治体内人口は未集計"},"geometry":{"type":"MultiPolygon","coordinates":[[[[131.64958725,33.72094258600001],[131.64950493920955,33.72083333333334],[131.6494065929589,33.72083333333333],[131.64953180300003,33.721004946],[131.65,33.721087586],[131.65,33.72101555900001],[131.64958725,33.72094258600001]]],[[[131.649092293562,33.72083333333333],[131.649107302,33.720902108],[131.64926372559952,33.72083333333334],[131.649092293562,33.72083333333333]]],[[[131.649868885,33.72149630599999],[131.648636641,33.721549667],[131.648687886,33.722230108000005],[131.64694275000002,33.721691306000004],[131.647149585,33.721235198],[131.647074942,33.721206667],[131.646787108,33.721853441],[131.646143061,33.721671946],[131.646511946,33.720871108],[131.64641533244077,33.72083333333334],[131.64523974047665,33.72083333333333],[131.645129442,33.72106305399999],[131.6444566923789,33.72083333333333],[131.64428550961821,33.72083333333333],[131.644212244,33.72097322500001],[131.64399540058872,33.72083333333333],[131.64375,33.72083333333333],[131.64375,33.725],[131.65,33.725],[131.65,33.72187136],[131.649868885,33.72149630599999]]]]}},{"type":"Feature","id":"44322:503145623","properties":{"id":"44322:503145623","meshCode":"503145623","cityCode":"44322","city":"姫島村","lat":33.7229167,"lon":131.653125,"areaKm2":0.2166879,"populated2020":true,"population2020":null,"populationNote":"境界またぎ・収録外等のため自治体内人口は未集計"},"geometry":{"type":"Polygon","coordinates":[[[131.655420441,33.72121264],[131.655207691,33.72114782900001],[131.655076783,33.72121263999999],[131.653898586,33.721253559],[131.653714501,33.721178532],[131.653550856,33.721253559],[131.652923606,33.721271225],[131.65169328945828,33.72083333333334],[131.6514873793977,33.72083333333333],[131.652840441,33.72130864],[131.652886304,33.722321387],[131.652697445,33.722325387],[131.652687419,33.722162775],[131.651464501,33.722191360000004],[131.65133869,33.721252279],[131.65,33.72101555900001],[131.65,33.721087586],[131.6512662,33.721311081],[131.651383476,33.722193135],[131.650142827,33.722223667],[131.65,33.72187136],[131.65,33.725],[131.65625,33.724999999999994],[131.65625,33.7212133814483],[131.655420441,33.72121264]]]}},{"type":"Feature","id":"44322:503145624","properties":{"id":"44322:503145624","meshCode":"503145624","cityCode":"44322","city":"姫島村","lat":33.7229167,"lon":131.659375,"areaKm2":0.2574394,"populated2020":false,"population2020":null,"populationNote":"境界またぎ・収録外等のため自治体内人口は未集計"},"geometry":{"type":"Polygon","coordinates":[[[131.65870567507966,33.72083333333334],[131.658136394,33.721261441],[131.657374643,33.721432225],[131.656747302,33.721426892000004],[131.65656808,33.72130413499999],[131.656766524,33.720903829],[131.65655980892853,33.72083333333333],[131.656472360523,33.72083333333333],[131.65625,33.7212133814483],[131.65625,33.724999999999994],[131.6625,33.724999999999994],[131.6625,33.72083333333333],[131.65870567507966,33.72083333333334]]]}},{"type":"Feature","id":"44322:503145633","properties":{"id":"44322:503145633","meshCode":"503145633","cityCode":"44322","city":"姫島村","lat":33.7229167,"lon":131.665625,"areaKm2":0.2677143,"populated2020":false,"population2020":null,"populationNote":"境界またぎ・収録外等のため自治体内人口は未集計"},"geometry":{"type":"Polygon","coordinates":[[[131.6625,33.72083333333333],[131.6625,33.724999999999994],[131.66875,33.725],[131.66875,33.72083333333334],[131.6625,33.72083333333333]]]}},{"type":"Feature","id":"44322:503145634","properties":{"id":"44322:503145634","meshCode":"503145634","cityCode":"44322","city":"姫島村","lat":33.7229167,"lon":131.671875,"areaKm2":0.2372098,"populated2020":true,"population2020":null,"populationNote":"境界またぎ・収録外等のため自治体内人口は未集計"},"geometry":{"type":"Polygon","coordinates":[[[131.675,33.724000559],[131.6744707,33.723200468],[131.674258444,33.723038135],[131.674743722,33.722809000000005],[131.675,33.722474054],[131.674672996,33.722686775000014],[131.674665888,33.722773495],[131.674225473,33.72298364],[131.673693061,33.722050278999994],[131.674441025,33.72174155900001],[131.67439192,33.721655775],[131.674584864,33.72154874799999],[131.674650558,33.721603333000004],[131.67472,33.72156405399999],[131.675,33.721785081],[131.675,33.721691414000006],[131.674470558,33.72122472099999],[131.67328834,33.721698874],[131.6726521405526,33.72083333333333],[131.66875,33.72083333333334],[131.66875,33.725],[131.675,33.725],[131.675,33.724000559]]]}},{"type":"Feature","id":"44322:503145643","properties":{"id":"44322:503145643","meshCode":"503145643","cityCode":"44322","city":"姫島村","lat":33.7245422,"lon":131.67511,"areaKm2":0.0034678,"populated2020":false,"population2020":null,"populationNote":"境界またぎ・収録外等のため自治体内人口は未集計"},"geometry":{"type":"MultiPolygon","coordinates":[[[[131.675442866,33.724969081],[131.675094189,33.724594387],[131.675345863,33.724489973],[131.675,33.724000559],[131.675,33.725],[131.675442866,33.724969081]]],[[[131.675242776,33.72239733300001],[131.675200117,33.72234386499999],[131.675,33.722474054],[131.675,33.722557693999995],[131.675242776,33.72239733300001]]],[[[131.676029442,33.72259766700001],[131.676078949,33.72254469400001],[131.675,33.721691414000006],[131.675,33.721785081],[131.676029442,33.72259766700001]]]]}},{"type":"Feature","id":"44322:503145711","properties":{"id":"44322:503145711","meshCode":"503145711","cityCode":"44322","city":"姫島村","lat":33.7270875,"lon":131.6428572,"areaKm2":0.0952525,"populated2020":true,"population2020":null,"populationNote":"境界またぎ・収録外等のため自治体内人口は未集計"},"geometry":{"type":"MultiPolygon","coordinates":[[[[131.639920921,33.72519363999999],[131.639715746,33.725289054],[131.640197302,33.726294081],[131.639904916,33.72706689200001],[131.640106226,33.72809449500001],[131.640187328,33.72808558599999],[131.639988392,33.727070162],[131.640283022,33.72629146800001],[131.639817056,33.725319027],[131.640430246,33.725],[131.639816355,33.725],[131.639920921,33.72519363999999]]],[[[131.640541725,33.725],[131.641044228,33.725703586],[131.640821725,33.725793108000005],[131.640851608,33.725853775],[131.641080752,33.725764586],[131.641259974,33.726070252],[131.640521777,33.726262279000004],[131.64038610900002,33.725993532],[131.640313891,33.72602400000001],[131.64047345,33.726340027],[131.640852244,33.726272441],[131.641278418,33.72721777499999],[131.640688106,33.727410829],[131.640505305,33.727064108],[131.640434812,33.727094532],[131.64061061,33.72743869400001],[131.64047275,33.727484559],[131.640501193,33.727546387],[131.640641608,33.727501198],[131.640789611,33.727770721],[131.640859805,33.727740586],[131.640721608,33.727475559],[131.642003645,33.72709180199999],[131.642218975,33.72739105400001],[131.642566667,33.728540559],[131.64228417873267,33.729166666666664],[131.64375,33.729166666666664],[131.64375,33.725],[131.640541725,33.725]]]]}},{"type":"Feature","id":"44322:503145712","properties":{"id":"44322:503145712","meshCode":"503145712","cityCode":"44322","city":"姫島村","lat":33.7270833,"lon":131.646875,"areaKm2":0.2644702,"populated2020":true,"population2020":null,"populationNote":"境界またぎ・収録外等のため自治体内人口は未集計"},"geometry":{"type":"Polygon","coordinates":[[[131.647413061,33.729049441],[131.647781388,33.728691775],[131.647869339,33.72868963999999],[131.647891634,33.72897497299999],[131.64840808,33.728988135],[131.64841201168454,33.72916666666667],[131.6484916297771,33.729166666666664],[131.64848917,33.728988135],[131.648883191,33.728978027],[131.64889231507297,33.729166666666664],[131.65,33.72916666666667],[131.65,33.725],[131.64375,33.725],[131.64375,33.729166666666664],[131.64764866032053,33.729166666666664],[131.647413061,33.729049441]]]}},{"type":"Feature","id":"44322:503145721","properties":{"id":"44322:503145721","meshCode":"503145721","cityCode":"44322","city":"姫島村","lat":33.7270833,"lon":131.653125,"areaKm2":0.2677016,"populated2020":true,"population2020":100.0,"populationNote":"2020年基準人口（国交省調整値）"},"geometry":{"type":"Polygon","coordinates":[[[131.65,33.725],[131.65,33.72916666666667],[131.65625,33.72916666666667],[131.65625,33.724999999999994],[131.65,33.725]]]}},{"type":"Feature","id":"44322:503145722","properties":{"id":"44322:503145722","meshCode":"503145722","cityCode":"44322","city":"姫島村","lat":33.7270833,"lon":131.659375,"areaKm2":0.2677016,"populated2020":true,"population2020":2.0,"populationNote":"2020年基準人口（国交省調整値）"},"geometry":{"type":"Polygon","coordinates":[[[131.65625,33.724999999999994],[131.65625,33.72916666666667],[131.6625,33.72916666666667],[131.6625,33.724999999999994],[131.65625,33.724999999999994]]]}},{"type":"Feature","id":"44322:503145731","properties":{"id":"44322:503145731","meshCode":"503145731","cityCode":"44322","city":"姫島村","lat":33.7270833,"lon":131.665625,"areaKm2":0.2677016,"populated2020":false,"population2020":null,"populationNote":"境界またぎ・収録外等のため自治体内人口は未集計"},"geometry":{"type":"Polygon","coordinates":[[[131.6625,33.724999999999994],[131.6625,33.72916666666667],[131.66875,33.729166666666664],[131.66875,33.725],[131.6625,33.724999999999994]]]}},{"type":"Feature","id":"44322:503145732","properties":{"id":"44322:503145732","meshCode":"503145732","cityCode":"44322","city":"姫島村","lat":33.7270833,"lon":131.671875,"areaKm2":0.2677016,"populated2020":true,"population2020":6.0,"populationNote":"2020年基準人口（国交省調整値）"},"geometry":{"type":"Polygon","coordinates":[[[131.66875,33.725],[131.66875,33.729166666666664],[131.675,33.729166666666664],[131.675,33.725],[131.66875,33.725]]]}},{"type":"Feature","id":"44322:503145741","properties":{"id":"44322:503145741","meshCode":"503145741","cityCode":"44322","city":"姫島村","lat":33.7270833,"lon":131.678125,"areaKm2":0.2079299,"populated2020":false,"population2020":null,"populationNote":"境界またぎ・収録外等のため自治体内人口は未集計"},"geometry":{"type":"Polygon","coordinates":[[[131.680814163,33.72720805400001],[131.680383891,33.727034721],[131.678958638,33.726022306],[131.678401855,33.725746945999994],[131.677435966,33.725436495],[131.676029144,33.725411667],[131.67547572000004,33.725],[131.675,33.725],[131.675,33.729166666666664],[131.68125,33.729166666666664],[131.68125,33.727161564980996],[131.680814163,33.72720805400001]]]}},{"type":"Feature","id":"44322:503145742","properties":{"id":"44322:503145742","meshCode":"503145742","cityCode":"44322","city":"姫島村","lat":33.7281079,"lon":131.682894,"areaKm2":0.0663681,"populated2020":false,"population2020":null,"populationNote":"境界またぎ・収録外等のため自治体内人口は未集計"},"geometry":{"type":"Polygon","coordinates":[[[131.68636484061963,33.729166666666664],[131.685004812,33.728228162],[131.684876498,33.728322802],[131.683949728,33.727799162],[131.68343,33.727742054],[131.68194917000002,33.72717416200001],[131.68125,33.727161564980996],[131.68125,33.729166666666664],[131.68636484061963,33.729166666666664]]]}},{"type":"Feature","id":"44322:503145751","properties":{"id":"44322:503145751","meshCode":"503145751","cityCode":"44322","city":"姫島村","lat":33.729112,"lon":131.6934381,"areaKm2":0.000127,"populated2020":false,"population2020":null,"populationNote":"境界またぎ・収録外等のため自治体内人口は未集計"},"geometry":{"type":"Polygon","coordinates":[[[131.693408781,33.729014531999994],[131.693347977,33.729057306],[131.69343360123284,33.729166666666664],[131.69352827033597,33.729166666666664],[131.693408781,33.729014531999994]]]}},{"type":"Feature","id":"44322:503145713","properties":{"id":"44322:503145713","meshCode":"503145713","cityCode":"44322","city":"姫島村","lat":33.7311188,"lon":131.6432306,"areaKm2":0.045,"populated2020":false,"population2020":null,"populationNote":"境界またぎ・収録外等のため自治体内人口は未集計"},"geometry":{"type":"MultiPolygon","coordinates":[[[[131.64228417873267,33.729166666666664],[131.642344163,33.729785279000005],[131.642822503,33.73083277500001],[131.642622996,33.73127294599999],[131.642191193,33.731243],[131.642071479,33.73132553200001],[131.642056693,33.73150853199999],[131.642691141,33.731671775],[131.642901634,33.731764198],[131.642988755,33.731913946],[131.643165331,33.731924414],[131.643184527,33.732071054],[131.643072244,33.732125278999995],[131.642967302,33.732400054],[131.643043411,33.732506054],[131.642574254,33.73280672100001],[131.642662827,33.73298169400001],[131.642830506,33.733012468],[131.64314144,33.73294038699999],[131.643475837,33.732748054],[131.64375,33.732708613],[131.64375,33.729166666666664],[131.64228417873267,33.729166666666664]]],[[[131.642436355,33.731967387000005],[131.642158301,33.731793108],[131.641934449,33.731946667],[131.641938106,33.732183694],[131.64219189400004,33.732323721],[131.642395279,33.73220858599999],[131.642436355,33.731967387000005]]]]}},{"type":"Feature","id":"44322:503145714","properties":{"id":"44322:503145714","meshCode":"503145714","cityCode":"44322","city":"姫島村","lat":33.7309244,"lon":131.6443503,"areaKm2":0.0877628,"populated2020":true,"population2020":null,"populationNote":"境界またぎ・収録外等のため自治体内人口は未集計"},"geometry":{"type":"MultiPolygon","coordinates":[[[[131.644055279,33.732708613],[131.644295966,33.732488892000006],[131.644183943,33.732136532],[131.644479728,33.73190305400001],[131.644621115,33.731863612999994],[131.645574994,33.73205494599999],[131.646135642,33.732081081],[131.64613703,33.732015586],[131.645223839,33.731921801999995],[131.645193359,33.731014721],[131.644937912,33.731012162000006],[131.645192438,33.730458306],[131.645735979,33.730183036],[131.646699987,33.730264261],[131.647512503,33.730898252],[131.648090895,33.731040919],[131.648286226,33.730996441],[131.64889978,33.73123882899999],[131.648932387,33.731176613],[131.648376329,33.73095046800001],[131.648723359,33.73078616200001],[131.648688249,33.730728306],[131.648097276,33.73096958600001],[131.647553061,33.73083582899999],[131.647063722,33.730454558999995],[131.647623696,33.729814198],[131.648095188,33.730067080999994],[131.648218327,33.729893613],[131.647464112,33.729493775],[131.647681089,33.729182802000004],[131.64375,33.729166666666664],[131.64375,33.732708613],[131.644055279,33.732708613]]],[[[131.648425162,33.729763802],[131.648499857,33.729763802],[131.6484916297771,33.729166666666664],[131.64841201168454,33.72916666666667],[131.648425162,33.729763802]]],[[[131.648944669,33.730249081000004],[131.648739805,33.730463027],[131.648799559,33.73050761300001],[131.648987328,33.730309694000006],[131.65,33.73026372100001],[131.65,33.72916666666667],[131.64889231507297,33.729166666666664],[131.648944669,33.730249081000004]]]]}},{"type":"Feature","id":"44322:503145723","properties":{"id":"44322:503145723","meshCode":"503145723","cityCode":"44322","city":"姫島村","lat":33.7315505,"lon":131.6555649,"areaKm2":0.097483,"populated2020":false,"population2020":null,"populationNote":"境界またぎ・収録外等のため自治体内人口は未集計"},"geometry":{"type":"Polygon","coordinates":[[[131.651021193,33.730216306],[131.651039857,33.73049938700001],[131.651247108,33.73073713500001],[131.651308106,33.730692721000004],[131.651119248,33.730476108],[131.651100947,33.730215225],[131.653529248,33.730100613000005],[131.653692866,33.730200559],[131.654926719,33.73016464],[131.654901362,33.732416162],[131.655114358,33.732475414],[131.65625,33.732442140847176],[131.65625,33.72916666666667],[131.65,33.72916666666667],[131.65,33.73026372100001],[131.651021193,33.730216306]]]}},{"type":"Feature","id":"44322:503145724","properties":{"id":"44322:503145724","meshCode":"503145724","cityCode":"44322","city":"姫島村","lat":33.73125,"lon":131.659375,"areaKm2":0.2517448,"populated2020":false,"population2020":null,"populationNote":"境界またぎ・収録外等のため自治体内人口は未集計"},"geometry":{"type":"Polygon","coordinates":[[[131.657265525,33.732412387],[131.657903333,33.732788892],[131.65847975433925,33.73333333333333],[131.6625,33.73333333333333],[131.6625,33.72916666666667],[131.65625,33.72916666666667],[131.65625,33.732442140847176],[131.657265525,33.732412387]]]}},{"type":"Feature","id":"44322:503145733","properties":{"id":"44322:503145733","meshCode":"503145733","cityCode":"44322","city":"姫島村","lat":33.73125,"lon":131.665625,"areaKm2":0.2676888,"populated2020":false,"population2020":null,"populationNote":"境界またぎ・収録外等のため自治体内人口は未集計"},"geometry":{"type":"Polygon","coordinates":[[[131.6625,33.72916666666667],[131.6625,33.73333333333333],[131.66875,33.73333333333334],[131.66875,33.729166666666664],[131.6625,33.72916666666667]]]}},{"type":"Feature","id":"44322:503145734","properties":{"id":"44322:503145734","meshCode":"503145734","cityCode":"44322","city":"姫島村","lat":33.73125,"lon":131.671875,"areaKm2":0.2676888,"populated2020":true,"population2020":12.0,"populationNote":"2020年基準人口（国交省調整値）"},"geometry":{"type":"Polygon","coordinates":[[[131.66875,33.729166666666664],[131.66875,33.73333333333334],[131.675,33.73333333333334],[131.675,33.729166666666664],[131.66875,33.729166666666664]]]}},{"type":"Feature","id":"44322:503145743","properties":{"id":"44322:503145743","meshCode":"503145743","cityCode":"44322","city":"姫島村","lat":33.73125,"lon":131.678125,"areaKm2":0.2676888,"populated2020":true,"population2020":41.0,"populationNote":"2020年基準人口（国交省調整値）"},"geometry":{"type":"Polygon","coordinates":[[[131.675,33.729166666666664],[131.675,33.73333333333334],[131.68125,33.73333333333333],[131.68125,33.729166666666664],[131.675,33.729166666666664]]]}},{"type":"Feature","id":"44322:503145744","properties":{"id":"44322:503145744","meshCode":"503145744","cityCode":"44322","city":"姫島村","lat":33.73125,"lon":131.684375,"areaKm2":0.2563023,"populated2020":true,"population2020":null,"populationNote":"境界またぎ・収録外等のため自治体内人口は未集計"},"geometry":{"type":"Polygon","coordinates":[[[131.685442283,33.733333333],[131.68750000000003,33.73273400848905],[131.68750000000003,33.729960021485134],[131.68636484061963,33.729166666666664],[131.68125,33.729166666666664],[131.68125,33.73333333333333],[131.685442283,33.733333333]]]}},{"type":"Feature","id":"44322:503145753","properties":{"id":"44322:503145753","meshCode":"503145753","cityCode":"44322","city":"姫島村","lat":33.7315414,"lon":131.687911,"areaKm2":0.0659936,"populated2020":true,"population2020":null,"populationNote":"境界またぎ・収録外等のため自治体内人口は未集計"},"geometry":{"type":"MultiPolygon","coordinates":[[[[131.68752788600003,33.73272972099999],[131.692325305,33.73246391899999],[131.692781167,33.732735108],[131.69311011719873,33.733333333333334],[131.69375,33.73333333333333],[131.69375,33.731296610216226],[131.693428781,33.731442721],[131.692931699,33.73063522499999],[131.69249435800003,33.730476586],[131.692462361,33.730540748],[131.692878495,33.730691973],[131.693356252,33.731473027],[131.692553995,33.73184519800001],[131.69240978,33.73160982899999],[131.692213917,33.731692495000004],[131.691921634,33.731188054],[131.691851245,33.731225495],[131.692141388,33.73172280199999],[131.69145083,33.73201664],[131.691306615,33.731740306000006],[131.691104086,33.73192963999999],[131.69092608300002,33.731789279000004],[131.691817886,33.730636829],[131.692940973,33.729757495],[131.692892529,33.729705972999994],[131.691757691,33.730587559],[131.690382088,33.73236677500001],[131.690170272,33.73237830600001],[131.689159883,33.731975639999995],[131.687514721,33.731078279],[131.688196355,33.730442720999996],[131.68750000000003,33.729960021485134],[131.68752788600003,33.73272972099999]]],[[[131.69352827033597,33.729166666666664],[131.69343360123284,33.729166666666664],[131.69375,33.72957077633243],[131.69375,33.729448974441254],[131.69352827033597,33.729166666666664]]]]}},{"type":"Feature","id":"44322:503145754","properties":{"id":"44322:503145754","meshCode":"503145754","cityCode":"44322","city":"姫島村","lat":33.73125,"lon":131.696875,"areaKm2":0.1451034,"populated2020":true,"population2020":null,"populationNote":"境界またぎ・収録外等のため自治体内人口は未集計"},"geometry":{"type":"Polygon","coordinates":[[[131.698552412,33.733333333],[131.699578885,33.732518054],[131.7,33.732340865],[131.7,33.730126468],[131.699825499,33.73031499999999],[131.699111089,33.730557225000005],[131.698452892,33.730627108],[131.697348885,33.73091789200001],[131.696407808,33.73151477500001],[131.695537108,33.73160180200001],[131.69375,33.729448974441254],[131.69375,33.72957077633243],[131.694746394,33.730843387],[131.69375,33.731296610216226],[131.69375,33.73333333333333],[131.698552412,33.733333333]]]}},{"type":"Feature","id":"44322:503145763","properties":{"id":"44322:503145763","meshCode":"503145763","cityCode":"44322","city":"姫島村","lat":33.731141,"lon":131.7003874,"areaKm2":0.0181335,"populated2020":false,"population2020":null,"populationNote":"境界またぎ・収録外等のため自治体内人口は未集計"},"geometry":{"type":"MultiPolygon","coordinates":[[[[131.700037224,33.732315279000005],[131.700313333,33.731628054],[131.701027198,33.73091010800001],[131.701192529,33.730869748],[131.701288145,33.730620865],[131.701213696,33.730468721],[131.701322114,33.730471225],[131.701556057,33.730276198000006],[131.701532166,33.73018472099999],[131.70121869,33.73025782900001],[131.70100594,33.730230162000005],[131.700923865,33.730137613],[131.701177691,33.730115973],[131.701247004,33.729973468],[131.701197665,33.72987522500001],[131.700819948,33.729841198],[131.700748495,33.729941198],[131.700847951,33.730063532],[131.700799027,33.730163198],[131.700356939,33.730088081],[131.7,33.730126468],[131.700037224,33.732315279000005]]],[[[131.701906472,33.73093372100001],[131.701724812,33.730976135],[131.701724812,33.731134892],[131.701998029,33.73109246800001],[131.702024189,33.73100764],[131.701906472,33.73093372100001]]]]}},{"type":"Feature","id":"44322:503145821","properties":{"id":"44322:503145821","meshCode":"503145821","cityCode":"44322","city":"姫島村","lat":33.7350462,"lon":131.6526596,"areaKm2":0.0025315,"populated2020":false,"population2020":null,"populationNote":"境界またぎ・収録外等のため自治体内人口は未集計"},"geometry":{"type":"Polygon","coordinates":[[[131.652809585,33.73481080199999],[131.652607756,33.734785721],[131.652378003,33.734980865],[131.652395162,33.735213613],[131.652624916,33.735362198],[131.652764475,33.735365775],[131.652947004,33.735011306],[131.652809585,33.73481080199999]]]}},{"type":"Feature","id":"44322:503145822","properties":{"id":"44322:503145822","meshCode":"503145822","cityCode":"44322","city":"姫島村","lat":33.7353369,"lon":131.6613861,"areaKm2":0.090151,"populated2020":false,"population2020":null,"populationNote":"境界またぎ・収録外等のため自治体内人口は未集計"},"geometry":{"type":"Polygon","coordinates":[[[131.65847975433925,33.73333333333333],[131.659519689,33.734462613],[131.659893139,33.735226000000004],[131.660341089,33.735358135],[131.660920467,33.735768829],[131.661409689,33.736700973],[131.662201051,33.737235748],[131.6625,33.737353778882344],[131.6625,33.73333333333333],[131.65847975433925,33.73333333333333]]]}},{"type":"Feature","id":"44322:503145831","properties":{"id":"44322:503145831","meshCode":"503145831","cityCode":"44322","city":"姫島村","lat":33.7354167,"lon":131.665625,"areaKm2":0.2671095,"populated2020":false,"population2020":null,"populationNote":"境界またぎ・収録外等のため自治体内人口は未集計"},"geometry":{"type":"Polygon","coordinates":[[[131.662522387,33.737360829],[131.66323441493512,33.7375],[131.66875,33.7375],[131.66875,33.73333333333334],[131.6625,33.73333333333333],[131.662522387,33.737360829]]]}},{"type":"Feature","id":"44322:503145832","properties":{"id":"44322:503145832","meshCode":"503145832","cityCode":"44322","city":"姫島村","lat":33.7354167,"lon":131.671875,"areaKm2":0.2676761,"populated2020":false,"population2020":null,"populationNote":"境界またぎ・収録外等のため自治体内人口は未集計"},"geometry":{"type":"Polygon","coordinates":[[[131.66875,33.73333333333334],[131.66875,33.7375],[131.675,33.7375],[131.675,33.73333333333334],[131.66875,33.73333333333334]]]}},{"type":"Feature","id":"44322:503145841","properties":{"id":"44322:503145841","meshCode":"503145841","cityCode":"44322","city":"姫島村","lat":33.7354167,"lon":131.678125,"areaKm2":0.2661098,"populated2020":true,"population2020":null,"populationNote":"境界またぎ・収録外等のため自治体内人口は未集計"},"geometry":{"type":"Polygon","coordinates":[[[131.6755773925524,33.7375],[131.67641061,33.737358919],[131.67711854147012,33.7375],[131.68107327808934,33.7375],[131.68125,33.73731449581074],[131.68125,33.73333333333333],[131.675,33.73333333333334],[131.675,33.7375],[131.6755773925524,33.7375]]]}},{"type":"Feature","id":"44322:503145842","properties":{"id":"44322:503145842","meshCode":"503145842","cityCode":"44322","city":"姫島村","lat":33.7353786,"lon":131.6826497,"areaKm2":0.0982658,"populated2020":false,"population2020":null,"populationNote":"境界またぎ・収録外等のため自治体内人口は未集計"},"geometry":{"type":"Polygon","coordinates":[[[131.681685227,33.73685764],[131.682077834,33.737101892],[131.682126913,33.737041278999996],[131.681559857,33.736684973],[131.681905863,33.73632705400001],[131.682118586,33.73639825200001],[131.682113671,33.73652019800001],[131.682236083,33.736515973],[131.682242335,33.73670889200001],[131.68245166,33.736736468000004],[131.682408885,33.737210919000006],[131.682490078,33.737217802],[131.68253703,33.736748946],[131.683218664,33.736841387000005],[131.683249663,33.737449667],[131.683322503,33.73744986500001],[131.68325939,33.736071414],[131.6828238,33.736212252],[131.68214061,33.73617886500001],[131.683464332,33.735994162],[131.683767782,33.735882829000005],[131.684036394,33.735428054],[131.684315162,33.734101306],[131.684801388,33.733648333000005],[131.6854422822148,33.73333333333334],[131.68125,33.73333333333333],[131.68125,33.73731449581074],[131.681685227,33.73685764]]]}},{"type":"Feature","id":"44322:503145851","properties":{"id":"44322:503145851","meshCode":"503145851","cityCode":"44322","city":"姫島村","lat":33.7336267,"lon":131.6935312,"areaKm2":0.0026792,"populated2020":false,"population2020":null,"populationNote":"境界またぎ・収録外等のため自治体内人口は未集計"},"geometry":{"type":"Polygon","coordinates":[[[131.69311011719873,33.733333333333334],[131.693546135,33.73388597300001],[131.69375,33.734047287075036],[131.69375,33.73333333333333],[131.69311011719873,33.733333333333334]]]}},{"type":"Feature","id":"44322:503145852","properties":{"id":"44322:503145852","meshCode":"503145852","cityCode":"44322","city":"姫島村","lat":33.7338951,"lon":131.695489,"areaKm2":0.0393118,"populated2020":false,"population2020":null,"populationNote":"境界またぎ・収録外等のため自治体内人口は未集計"},"geometry":{"type":"Polygon","coordinates":[[[131.69375,33.734047287075036],[131.694482438,33.734407532000006],[131.695562724,33.734506468000006],[131.696722776,33.734179721],[131.697295279,33.733852775],[131.698218327,33.733531667],[131.69855241148792,33.733333333333334],[131.69375,33.73333333333333],[131.69375,33.734047287075036]]]}},{"type":"Feature","id":"44322:503145823","properties":{"id":"44322:503145823","meshCode":"503145823","cityCode":"44322","city":"姫島村","lat":33.7376519,"lon":131.6538035,"areaKm2":0.0005774,"populated2020":false,"population2020":null,"populationNote":"境界またぎ・収録外等のため自治体内人口は未集計"},"geometry":{"type":"Polygon","coordinates":[[[131.653645668,33.737617054000005],[131.65364297,33.737742279],[131.653815616,33.737781279],[131.653935227,33.737734027],[131.653958612,33.737615559],[131.653795837,33.73752933299999],[131.653645668,33.737617054000005]]]}},{"type":"Feature","id":"44322:503145833","properties":{"id":"44322:503145833","meshCode":"503145833","cityCode":"44322","city":"姫島村","lat":33.7389426,"lon":131.6670315,"areaKm2":0.0978573,"populated2020":false,"population2020":null,"populationNote":"境界またぎ・収録外等のため自治体内人口は未集計"},"geometry":{"type":"Polygon","coordinates":[[[131.663279611,33.737510721],[131.663738885,33.737693892],[131.664332503,33.73822833300001],[131.664901946,33.738546387],[131.665581115,33.739231108],[131.666207782,33.739648613],[131.667474721,33.740213333],[131.667814994,33.74027777500001],[131.66820166,33.740268054],[131.66875,33.74006114673981],[131.66875,33.7375],[131.663279611,33.737510721]]]}},{"type":"Feature","id":"44322:503145834","properties":{"id":"44322:503145834","meshCode":"503145834","cityCode":"44322","city":"姫島村","lat":33.738754,"lon":131.6711418,"areaKm2":0.0883126,"populated2020":false,"population2020":null,"populationNote":"境界またぎ・収録外等のため自治体内人口は未集計"},"geometry":{"type":"Polygon","coordinates":[[[131.66875,33.74006114673981],[131.669373061,33.739731666999994],[131.669530558,33.739338892],[131.669871946,33.73910472099999],[131.671540272,33.73879000000001],[131.67228722400003,33.738809440999994],[131.67288083,33.738928054],[131.673434163,33.738815559],[131.675,33.737799802],[131.675,33.7375],[131.66875,33.7375],[131.66875,33.74006114673981]]]}},{"type":"Feature","id":"44322:503145843","properties":{"id":"44322:503145843","meshCode":"503145843","cityCode":"44322","city":"姫島村","lat":33.7377762,"lon":131.6796217,"areaKm2":0.0112842,"populated2020":false,"population2020":null,"populationNote":"境界またぎ・収録外等のため自治体内人口は未集計"},"geometry":{"type":"MultiPolygon","coordinates":[[[[131.675,33.737799802],[131.6755773925524,33.7375],[131.675,33.7375],[131.675,33.737799802]]],[[[131.677575811,33.737646919],[131.67896399500003,33.737786532],[131.679955357,33.738034000000006],[131.680164449,33.737975],[131.680684449,33.737525279],[131.680867419,33.737528081],[131.68125,33.737765946526736],[131.68125,33.73768199126571],[131.681030117,33.737545306],[131.68107327808934,33.7375],[131.67711854147012,33.7375],[131.677575811,33.737646919]]]]}},{"type":"Feature","id":"44322:503145844","properties":{"id":"44322:503145844","meshCode":"503145844","cityCode":"44322","city":"姫島村","lat":33.7378826,"lon":131.68336,"areaKm2":0.0022863,"populated2020":false,"population2020":null,"populationNote":"境界またぎ・収録外等のため自治体内人口は未集計"},"geometry":{"type":"Polygon","coordinates":[[[131.68135061,33.737828494999995],[131.682416472,33.737676054],[131.683399144,33.737922081],[131.683845473,33.738136360000006],[131.684007302,33.737630613],[131.683930246,33.73761],[131.683794527,33.73803416200001],[131.683430726,33.737859495],[131.682421414,33.737606802],[131.681370752,33.73775705400001],[131.68125,33.73768199126571],[131.68135061,33.737828494999995]]]}}]}