{"type":"FeatureCollection","metadata":{"cityCode":"44341","city":"日出町","resolution":1000,"boundaryDate":"2026-01-01","populationLabel":"2020年基準人口（国交省調整値）","method":"標準地域メッシュ（2分の1地域メッシュ/第3次地域区画）を行政界で切り抜き。判定点は中心、境界外なら区域内代表点。面積は簡略化前の地理座標から計算。表示線は5m簡略化。"},"features":[{"type":"Feature","id":"44341:50310313","properties":{"id":"44341:50310313","meshCode":"50310313","cityCode":"44341","city":"日出町","lat":33.3458333,"lon":131.41875,"areaKm2":0.5505069,"populated2020":false,"population2020":null,"populationNote":"境界またぎ・収録外等のため自治体内人口は未集計"},"geometry":{"type":"Polygon","coordinates":[[[131.416307782,33.349370829],[131.416834747,33.35],[131.425,33.349999999999994],[131.425,33.343703892],[131.42443166,33.343564162],[131.422912776,33.342887225],[131.42021166,33.343281108],[131.419421946,33.343591946000004],[131.41664917,33.345658332999996],[131.416631946,33.346676946],[131.416414163,33.347469721],[131.416449442,33.34804944100001],[131.416272776,33.34853472099999],[131.41634917,33.348938054],[131.416307782,33.349370829]]]}},{"type":"Feature","id":"44341:50310314","properties":{"id":"44341:50310314","meshCode":"50310314","cityCode":"44341","city":"日出町","lat":33.3458333,"lon":131.43125,"areaKm2":0.6987275,"populated2020":false,"population2020":null,"populationNote":"境界またぎ・収録外等のため自治体内人口は未集計"},"geometry":{"type":"Polygon","coordinates":[[[131.4375,33.344333014768],[131.433016667,33.34316055899999],[131.433798054,33.343940559],[131.433845279,33.34431166699999],[131.434758612,33.344784720999996],[131.434888054,33.34494694600001],[131.434705279,33.345127225000006],[131.43372166,33.345488613],[131.433197224,33.345539721],[131.432820272,33.345446946],[131.432507782,33.344987775],[131.432231115,33.344899440999995],[131.432066109,33.344760558999994],[131.431584721,33.34486194600001],[131.43086610900002,33.344695],[131.430642218,33.34473666699999],[131.429764163,33.345307225],[131.429211946,33.345496387],[131.428946939,33.345482495],[131.428605551,33.34529694599999],[131.42788083,33.34472194600001],[131.42623917,33.344263613],[131.425256667,33.343745000000006],[131.425,33.343703892],[131.425,33.349999999999994],[131.4375,33.35],[131.4375,33.344333014768]]]}},{"type":"Feature","id":"44341:50310315","properties":{"id":"44341:50310315","meshCode":"50310315","cityCode":"44341","city":"日出町","lat":33.3471394,"lon":131.4384806,"areaKm2":0.258895,"populated2020":false,"population2020":null,"populationNote":"境界またぎ・収録外等のため自治体内人口は未集計"},"geometry":{"type":"Polygon","coordinates":[[[131.44975166,33.348437225000005],[131.448813061,33.348587495],[131.448170558,33.34849],[131.447505837,33.348773892],[131.447214994,33.348813613],[131.446713333,33.348818054],[131.442389442,33.349336108],[131.441910558,33.349291667],[131.440125551,33.348400829000006],[131.439231388,33.348317224999995],[131.439118885,33.348104162],[131.43932166,33.347789441],[131.439504449,33.347032775],[131.439657782,33.34687499999999],[131.441011946,33.346267495],[131.441326394,33.345809721],[131.441298885,33.345642775],[131.440383891,33.345062775],[131.4375,33.344333014768],[131.4375,33.35],[131.45,33.349999999999994],[131.45,33.348287559],[131.44975166,33.348437225000005]]]}},{"type":"Feature","id":"44341:50310316","properties":{"id":"44341:50310316","meshCode":"50310316","cityCode":"44341","city":"日出町","lat":33.348949,"lon":131.4510892,"areaKm2":0.0634606,"populated2020":true,"population2020":null,"populationNote":"境界またぎ・収録外等のため自治体内人口は未集計"},"geometry":{"type":"Polygon","coordinates":[[[131.455606978,33.349999999999994],[131.455505837,33.34975222500001],[131.455178885,33.34952610799999],[131.454346394,33.349345828999994],[131.45351277600003,33.34896],[131.453157782,33.348938054],[131.453056394,33.34903110799999],[131.452994449,33.34935027899999],[131.452785837,33.34934166699999],[131.450528327,33.347918333],[131.450432503,33.347913892],[131.45,33.348287559],[131.45,33.349999999999994],[131.455606978,33.349999999999994]]]}},{"type":"Feature","id":"44341:50310318","properties":{"id":"44341:50310318","meshCode":"50310318","cityCode":"44341","city":"日出町","lat":33.349399,"lon":131.4805063,"areaKm2":0.0172053,"populated2020":true,"population2020":null,"populationNote":"境界またぎ・収録外等のため自治体内人口は未集計"},"geometry":{"type":"Polygon","coordinates":[[[131.480917782,33.349898054],[131.48106805400002,33.34960166700001],[131.48161,33.349168613],[131.481524721,33.348963333],[131.481008054,33.348730279],[131.480842503,33.348757775],[131.480596667,33.348955279],[131.480196939,33.348836946],[131.479700272,33.348908054000006],[131.4796,33.349058054],[131.479665279,33.349342495],[131.480316057,33.35],[131.480970778,33.349999999999994],[131.480917782,33.349898054]]]}},{"type":"Feature","id":"44341:50310319","properties":{"id":"44341:50310319","meshCode":"50310319","cityCode":"44341","city":"日出町","lat":33.3498148,"lon":131.492169,"areaKm2":0.0429895,"populated2020":true,"population2020":null,"populationNote":"境界またぎ・収録外等のため自治体内人口は未集計"},"geometry":{"type":"MultiPolygon","coordinates":[[[[131.498520337,33.349995207],[131.498497069,33.34947591900001],[131.498417367,33.349365775],[131.497935045,33.349116135],[131.497603671,33.348525766],[131.497414228,33.348029865],[131.497500921,33.34798975699999],[131.497461621,33.34757982],[131.497234488,33.34736882899999],[131.497128846,33.347402431999996],[131.496886433,33.347131631],[131.496415966,33.346352495000005],[131.495923891,33.346926387],[131.496646109,33.348204162],[131.496756667,33.349165279],[131.496927224,33.349528613],[131.496931725,33.349999999999994],[131.498520337,33.349995207]]],[[[131.493143722,33.349999999999994],[131.492419442,33.349630829],[131.491688612,33.349717775],[131.491160415,33.35],[131.493143722,33.349999999999994]]]]}},{"type":"Feature","id":"44341:50310414","properties":{"id":"44341:50310414","meshCode":"50310414","cityCode":"44341","city":"日出町","lat":33.3498257,"lon":131.5545774,"areaKm2":0.013843,"populated2020":false,"population2020":null,"populationNote":"境界またぎ・収録外等のため自治体内人口は未集計"},"geometry":{"type":"Polygon","coordinates":[[[131.557107263,33.349986847000004],[131.556996265,33.34981575700001],[131.556178249,33.34977045899999],[131.555627263,33.349816117],[131.555177652,33.349668351],[131.554569105,33.349650063],[131.552701725,33.34975640500001],[131.551758807,33.34988873],[131.551432983,33.35],[131.557107263,33.349986847000004]]]}},{"type":"Feature","id":"44341:50310415","properties":{"id":"44341:50310415","meshCode":"50310415","cityCode":"44341","city":"日出町","lat":33.3491637,"lon":131.573806,"areaKm2":0.0467128,"populated2020":true,"population2020":null,"populationNote":"境界またぎ・収録外等のため自治体内人口は未集計"},"geometry":{"type":"MultiPolygon","coordinates":[[[[131.575,33.348324207],[131.573718923,33.348709703],[131.572498262,33.34920964],[131.571065655,33.34945618],[131.570459105,33.349629027000006],[131.570289118,33.349592928],[131.570005188,33.34916844999999],[131.56995358,33.34919673],[131.57003965,33.34937883799999],[131.570402464,33.349806117],[131.569964254,33.349999999999994],[131.575,33.35],[131.575,33.348324207]]],[[[131.568369442,33.35],[131.568289429,33.349853586],[131.568323943,33.35],[131.568369442,33.35]]]]}},{"type":"Feature","id":"44341:50310416","properties":{"id":"44341:50310416","meshCode":"50310416","cityCode":"44341","city":"日出町","lat":33.3477904,"lon":131.5835226,"areaKm2":0.2625678,"populated2020":true,"population2020":null,"populationNote":"境界またぎ・収録外等のため自治体内人口は未集計"},"geometry":{"type":"MultiPolygon","coordinates":[[[[131.5875,33.34842557056033],[131.58635569400002,33.349552459],[131.587216706,33.349999999999994],[131.5875,33.35],[131.5875,33.34842557056033]]],[[[131.58449345,33.35],[131.585038911,33.349038396],[131.585299715,33.348868459],[131.585408586,33.34818355],[131.585757056,33.348157658],[131.585901038,33.348016126],[131.585809429,33.347957054],[131.585622633,33.347418351],[131.585715616,33.347232802],[131.585915824,33.34706314400001],[131.586914812,33.346733910000005],[131.587095499,33.346538919],[131.5875,33.34661052397149],[131.587110921,33.34651630599999],[131.586915927,33.345988018],[131.586982412,33.345778063000004],[131.586872568,33.345739081],[131.586827367,33.345567342],[131.586658301,33.345620261],[131.586511984,33.345846468],[131.58582214,33.346309495],[131.585353515,33.34634408099999],[131.584938625,33.346732685],[131.584502646,33.34684509900001],[131.584242802,33.346772117],[131.584074462,33.34693341399999],[131.583753787,33.347001279],[131.583211245,33.346987514],[131.582988392,33.34707891000001],[131.582829131,33.347009414],[131.582746057,33.34728022499999],[131.582453489,33.347453820000005],[131.579876304,33.348138099],[131.578383385,33.348320802],[131.577163437,33.348159928],[131.575,33.348324207],[131.575,33.35],[131.58449345,33.35]]],[[[131.5875,33.34554915330016],[131.587191102,33.34551350500001],[131.587182023,33.34556918],[131.5875,33.34560595522661],[131.5875,33.34554915330016]]]]}},{"type":"Feature","id":"44341:50310417","properties":{"id":"44341:50310417","meshCode":"50310417","cityCode":"44341","city":"日出町","lat":33.3481535,"lon":131.5917396,"areaKm2":0.1625265,"populated2020":true,"population2020":null,"populationNote":"境界またぎ・収録外等のため自治体内人口は未集計"},"geometry":{"type":"MultiPolygon","coordinates":[[[[131.596987925,33.349999999999994],[131.596861479,33.349776252000005],[131.596520026,33.349522991],[131.595692348,33.34970243200001],[131.594630843,33.34924440500001],[131.593926654,33.348653468],[131.593734449,33.347798766000004],[131.593460532,33.34758429699999],[131.592814241,33.347370261],[131.592441128,33.34735671200001],[131.591826433,33.34745999999999],[131.591761712,33.34726328799999],[131.590898431,33.347418162000004],[131.589893372,33.346336396],[131.588750389,33.346532432],[131.589885668,33.346389179999996],[131.590712815,33.34727972999999],[131.588858431,33.348855963999995],[131.587844553,33.348124350999996],[131.588032802,33.347901910000004],[131.5875,33.34842557056033],[131.5875,33.35],[131.596987925,33.349999999999994]]],[[[131.5875,33.34661052397149],[131.587710493,33.346623207],[131.5875,33.34658567704164],[131.5875,33.34661052397149]]],[[[131.5875,33.34554915330016],[131.5875,33.34560595522661],[131.588251621,33.345692883000005],[131.588260804,33.345636937],[131.5875,33.34554915330016]]]]}},{"type":"Feature","id":"44341:50310323","properties":{"id":"44341:50310323","meshCode":"50310323","cityCode":"44341","city":"日出町","lat":33.3518954,"lon":131.4219349,"areaKm2":0.1957095,"populated2020":false,"population2020":null,"populationNote":"境界またぎ・収録外等のため自治体内人口は未集計"},"geometry":{"type":"Polygon","coordinates":[[[131.416834747,33.35],[131.418718612,33.351783892],[131.419214449,33.352092225],[131.420484721,33.35233749499999],[131.421578054,33.352425559],[131.422796109,33.353046387],[131.425,33.353716441],[131.425,33.349999999999994],[131.416834747,33.35]]]}},{"type":"Feature","id":"44341:50310324","properties":{"id":"44341:50310324","meshCode":"50310324","cityCode":"44341","city":"日出町","lat":33.3541667,"lon":131.43125,"areaKm2":0.7439018,"populated2020":true,"population2020":null,"populationNote":"境界またぎ・収録外等のため自治体内人口は未集計"},"geometry":{"type":"Polygon","coordinates":[[[131.425,33.353716441],[131.42727166,33.35429305400001],[131.427847782,33.35430055900001],[131.42822917,33.354218333],[131.428588054,33.354303892000004],[131.429319728,33.355172775],[131.430455837,33.35572582900001],[131.431013061,33.356082775000004],[131.432513606,33.356725],[131.432726109,33.35689222500001],[131.432948054,33.357303054],[131.433115837,33.355475559],[131.433287497,33.355283333],[131.43341917,33.35530416200001],[131.434210558,33.355880279],[131.43487,33.356705829000006],[131.43656202334742,33.35833333333334],[131.4375,33.358333333333334],[131.4375,33.35],[131.425,33.349999999999994],[131.425,33.353716441]]]}},{"type":"Feature","id":"44341:50310325","properties":{"id":"44341:50310325","meshCode":"50310325","cityCode":"44341","city":"日出町","lat":33.3541667,"lon":131.44375,"areaKm2":1.0753499,"populated2020":false,"population2020":null,"populationNote":"境界またぎ・収録外等のため自治体内人口は未集計"},"geometry":{"type":"Polygon","coordinates":[[[131.4375,33.35],[131.4375,33.358333333333334],[131.45,33.358333333333334],[131.45,33.349999999999994],[131.4375,33.35]]]}},{"type":"Feature","id":"44341:50310326","properties":{"id":"44341:50310326","meshCode":"50310326","cityCode":"44341","city":"日出町","lat":33.3541667,"lon":131.45625,"areaKm2":1.010491,"populated2020":true,"population2020":null,"populationNote":"境界またぎ・収録外等のため自治体内人口は未集計"},"geometry":{"type":"Polygon","coordinates":[[[131.4625,33.35144096407009],[131.457976939,33.350710279],[131.456086109,33.350581667],[131.455871946,33.35052833300001],[131.45563527900003,33.350328892],[131.455606978,33.349999999999994],[131.45,33.349999999999994],[131.45,33.358333333333334],[131.4625,33.358333333333334],[131.4625,33.35144096407009]]]}},{"type":"Feature","id":"44341:50310327","properties":{"id":"44341:50310327","meshCode":"50310327","cityCode":"44341","city":"日出町","lat":33.3541667,"lon":131.46875,"areaKm2":0.6938864,"populated2020":true,"population2020":null,"populationNote":"境界またぎ・収録外等のため自治体内人口は未集計"},"geometry":{"type":"Polygon","coordinates":[[[131.474983606,33.35340027899999],[131.474820272,33.353378054000004],[131.474279442,33.353564162],[131.473992218,33.35358194599999],[131.472932776,33.354043053999995],[131.472376109,33.353648613],[131.471756394,33.353688612999996],[131.471576109,33.353803892],[131.471583891,33.354277225],[131.471155837,33.354330559],[131.469696394,33.354086667],[131.469020272,33.35388249500001],[131.46884,33.353740559],[131.468514449,33.35311610800001],[131.46772,33.352530559],[131.467225551,33.352278333],[131.465819728,33.35183527900001],[131.463706939,33.35163110799999],[131.4625,33.35144096407009],[131.4625,33.358333333333334],[131.475,33.358333333333334],[131.474983606,33.35340027899999]]]}},{"type":"Feature","id":"44341:50310328","properties":{"id":"44341:50310328","meshCode":"50310328","cityCode":"44341","city":"日出町","lat":33.3541667,"lon":131.48125,"areaKm2":0.7410081,"populated2020":true,"population2020":null,"populationNote":"境界またぎ・収録外等のため自治体内人口は未集計"},"geometry":{"type":"Polygon","coordinates":[[[131.48747917,33.351662774999994],[131.487323606,33.35166666700001],[131.486621388,33.35127582900001],[131.48646083,33.351449441],[131.486601115,33.351828613],[131.486495837,33.352294441],[131.485403333,33.352696108],[131.484526667,33.352616667],[131.484125279,33.352399721],[131.483324449,33.35176916199999],[131.481775551,33.350944440999996],[131.48160499400004,33.350620559000006],[131.480970778,33.349999999999994],[131.480316057,33.35],[131.480763606,33.35050722500001],[131.48153,33.351160829],[131.481785837,33.351338054],[131.482758612,33.351760559000006],[131.482813891,33.351934441],[131.481755551,33.352491108],[131.481243891,33.352578054],[131.480628612,33.352900559],[131.479479728,33.353275279],[131.478847782,33.353389721000006],[131.477751115,33.352841108],[131.477201388,33.353117495],[131.476564721,33.35323722500001],[131.476141946,33.353414441],[131.475618054,33.35337472100001],[131.475355279,33.353271667],[131.475,33.35339646799999],[131.475,33.358333333333334],[131.4875,33.35833333333334],[131.48747917,33.351662774999994]]]}},{"type":"Feature","id":"44341:50310329","properties":{"id":"44341:50310329","meshCode":"50310329","cityCode":"44341","city":"日出町","lat":33.3541667,"lon":131.49375,"areaKm2":0.9004506,"populated2020":true,"population2020":null,"populationNote":"境界またぎ・収録外等のため自治体内人口は未集計"},"geometry":{"type":"MultiPolygon","coordinates":[[[[131.49984312378533,33.358333333333334],[131.5,33.35827165799999],[131.4996241369492,33.358333333333334],[131.49984312378533,33.358333333333334]]],[[[131.498026252,33.358333333000004],[131.497984047,33.358212225],[131.498604319,33.357433099],[131.498515603,33.357384315],[131.499030493,33.356835991000004],[131.49930061,33.35685302700001],[131.499733852,33.35779500899999],[131.5,33.357803829],[131.499748508,33.35774464000001],[131.499318872,33.35681418000001],[131.499420493,33.356433982],[131.499215422,33.355972775000005],[131.499311388,33.355937757],[131.499275759,33.35586901800001],[131.49917979200004,33.355904117],[131.498975629,33.35550692799999],[131.498904968,33.35553255],[131.498649442,33.354795171000006],[131.498727069,33.354785207],[131.498647497,33.354226477000005],[131.49883118,33.353880018],[131.498377354,33.35335579299999],[131.497962555,33.35175955],[131.49785540900004,33.35107657700001],[131.49794,33.350628541],[131.49808452700003,33.350348072],[131.498461232,33.35023926099999],[131.498520363,33.35],[131.496931725,33.349999999999994],[131.49686166,33.350468332999995],[131.496766394,33.350527495],[131.495281946,33.35051138699999],[131.49418,33.350625829],[131.493728612,33.350463892],[131.493143722,33.349999999999994],[131.491160415,33.35],[131.49057,33.350353333],[131.490454721,33.350689162],[131.49029,33.350877495],[131.488606109,33.350696108],[131.487944163,33.350790559],[131.487633061,33.351516946],[131.4875,33.351649223095485],[131.4875,33.35833333333334],[131.498026252,33.358333333000004]]]]}},{"type":"Feature","id":"44341:50310420","properties":{"id":"44341:50310420","meshCode":"50310420","cityCode":"44341","city":"日出町","lat":33.3577959,"lon":131.5003068,"areaKm2":0.0013293,"populated2020":false,"population2020":null,"populationNote":"境界またぎ・収録外等のため自治体内人口は未集計"},"geometry":{"type":"MultiPolygon","coordinates":[[[[131.501316407,33.357405946],[131.501202879,33.357394414],[131.50109869,33.35811321599999],[131.501212218,33.35812484699999],[131.501316407,33.357405946]]],[[[131.500584086,33.358221784],[131.500622088,33.358178081],[131.5,33.358309721],[131.500584086,33.358221784]]],[[[131.5,33.35776770300001],[131.500612322,33.357824108],[131.500613943,33.357788035999995],[131.5,33.35776770300001]]]]}},{"type":"Feature","id":"44341:50310423","properties":{"id":"44341:50310423","meshCode":"50310423","cityCode":"44341","city":"日出町","lat":33.3542045,"lon":131.5471019,"areaKm2":0.3845729,"populated2020":true,"population2020":null,"populationNote":"境界またぎ・収録外等のため自治体内人口は未集計"},"geometry":{"type":"Polygon","coordinates":[[[131.549996148,33.350093928],[131.549608872,33.35020528799999],[131.549449481,33.350331874],[131.548774423,33.351889027],[131.548221219,33.352493631],[131.547622166,33.352741622],[131.545911102,33.35309955900001],[131.54572468200004,33.353408396],[131.545289118,33.35377333300001],[131.544038612,33.354281613],[131.543478807,33.35464176600001],[131.543330623,33.354897865],[131.543306031,33.355401928],[131.542987886,33.356458946000004],[131.543203243,33.35795040499999],[131.543179831,33.358039865],[131.54271551147266,33.358333333333334],[131.55,33.358333333333334],[131.549996148,33.350093928]]]}},{"type":"Feature","id":"44341:50310424","properties":{"id":"44341:50310424","meshCode":"50310424","cityCode":"44341","city":"日出町","lat":33.3541667,"lon":131.55625,"areaKm2":0.9635048,"populated2020":true,"population2020":null,"populationNote":"境界またぎ・収録外等のため自治体内人口は未集計"},"geometry":{"type":"Polygon","coordinates":[[[131.5625,33.35205521390892],[131.561759754,33.352078928],[131.561066965,33.351961505000006],[131.559989805,33.351500099],[131.559538923,33.351409252],[131.558444306,33.351509045],[131.558268599,33.351032018000005],[131.558203489,33.351049541],[131.558382231,33.35154836899999],[131.558065344,33.351658532],[131.557777977,33.351934035999996],[131.557095499,33.352339613],[131.556904202,33.35233209],[131.556886576,33.35239835099999],[131.556486122,33.352514477],[131.556330739,33.352629063],[131.55608463,33.353212395999996],[131.555961725,33.353280477],[131.555986939,33.353190378],[131.555612763,33.353114054],[131.555858301,33.352561027],[131.555812607,33.352453928],[131.555136161,33.352440721],[131.55451978,33.352646991],[131.55450022,33.352561685],[131.55481834,33.352235658],[131.555310532,33.351982243],[131.555801219,33.35196481100001],[131.556093658,33.35206214400001],[131.556154371,33.352216604000006],[131.556340856,33.35229466700001],[131.556722802,33.352122982],[131.557106291,33.351419559],[131.557221362,33.350930324000004],[131.557487043,33.35072499099999],[131.557487043,33.350455018],[131.557390532,33.350315054],[131.557612257,33.350074027],[131.557318301,33.350176432],[131.557169844,33.350129036000006],[131.557111997,33.35],[131.551432983,33.35],[131.551131829,33.350117207000004],[131.55,33.350094081],[131.55,33.358333333333334],[131.5625,33.358333333333334],[131.5625,33.35205521390892]]]}},{"type":"Feature","id":"44341:50310425","properties":{"id":"44341:50310425","meshCode":"50310425","cityCode":"44341","city":"日出町","lat":33.3541667,"lon":131.56875,"areaKm2":1.000598,"populated2020":true,"population2020":null,"populationNote":"境界またぎ・収録外等のため自治体内人口は未集計"},"geometry":{"type":"Polygon","coordinates":[[[131.569963541,33.350000279],[131.56901116700004,33.35016000899999],[131.568425331,33.35013356799999],[131.568323943,33.35],[131.568380026,33.350237287999995],[131.567392412,33.35031709900001],[131.56651965,33.35071143199999],[131.565739377,33.350939874],[131.5651493,33.35146924299999],[131.5644438,33.351815279],[131.563563061,33.352008541],[131.5625,33.35205521390892],[131.5625,33.358333333333334],[131.575,33.358333333333334],[131.575,33.35],[131.569963541,33.350000279]]]}},{"type":"Feature","id":"44341:50310426","properties":{"id":"44341:50310426","meshCode":"50310426","cityCode":"44341","city":"日出町","lat":33.3541667,"lon":131.58125,"areaKm2":0.9738466,"populated2020":true,"population2020":null,"populationNote":"境界またぎ・収録外等のため自治体内人口は未集計"},"geometry":{"type":"MultiPolygon","coordinates":[[[[131.587249818,33.35001720699999],[131.5875,33.35014671430115],[131.5875,33.35],[131.587249818,33.35001720699999]]],[[[131.587206278,33.350078009],[131.586469792,33.351251080999994],[131.586190999,33.351332739],[131.586602309,33.35154548599999],[131.586662996,33.351783072],[131.586088781,33.35161545],[131.585671894,33.35164645],[131.585132711,33.351334937],[131.584885655,33.351633928],[131.584592477,33.351461009],[131.585145136,33.351827658],[131.584268872,33.352893892],[131.584447056,33.352997198],[131.583748405,33.353745378],[131.583462218,33.353881703],[131.583098457,33.35393661300001],[131.582013139,33.353643694],[131.580797302,33.35374082],[131.580709715,33.352653514],[131.580987886,33.352378640000005],[131.581910376,33.352328333],[131.582172192,33.352858649000005],[131.582268962,33.352804279],[131.582834877,33.352965729999994],[131.582885888,33.35291518],[131.582821089,33.352801054000004],[131.584280817,33.350724711999995],[131.584201258,33.350556288],[131.584341089,33.350420009],[131.58449345,33.35],[131.575,33.35],[131.575,33.358333333333334],[131.5875,33.358333333333334],[131.5875,33.35022306704124],[131.587206278,33.350078009]]]]}},{"type":"Feature","id":"44341:50310427","properties":{"id":"44341:50310427","meshCode":"50310427","cityCode":"44341","city":"日出町","lat":33.3541667,"lon":131.59375,"areaKm2":0.8349559,"populated2020":true,"population2020":null,"populationNote":"境界またぎ・収録外等のため自治体内人口は未集計"},"geometry":{"type":"Polygon","coordinates":[[[131.598143787,33.358333333],[131.597711725,33.357192766],[131.597338781,33.35521227],[131.597407782,33.35491591],[131.597223294,33.354616901],[131.597236693,33.354343712],[131.596977004,33.353228748],[131.596698106,33.352648405],[131.596777678,33.352186892],[131.596680078,33.35134509000001],[131.596770752,33.350573523],[131.596689533,33.350400152999995],[131.596761829,33.35025770299999],[131.596998482,33.350156568],[131.596987925,33.349999999999994],[131.5875,33.35],[131.5875,33.35014671430115],[131.58792607,33.350372703000005],[131.587904812,33.35042293699999],[131.5875,33.35022306704124],[131.5875,33.358333333333334],[131.598143787,33.358333333]]]}},{"type":"Feature","id":"44341:50310334","properties":{"id":"44341:50310334","meshCode":"50310334","cityCode":"44341","city":"日出町","lat":33.3586836,"lon":131.437212,"areaKm2":0.0044164,"populated2020":false,"population2020":null,"populationNote":"境界またぎ・収録外等のため自治体内人口は未集計"},"geometry":{"type":"Polygon","coordinates":[[[131.43656202334742,33.35833333333334],[131.437055084,33.35881244099999],[131.4375,33.3592495915303],[131.4375,33.358333333333334],[131.43656202334742,33.35833333333334]]]}},{"type":"Feature","id":"44341:50310335","properties":{"id":"44341:50310335","meshCode":"50310335","cityCode":"44341","city":"日出町","lat":33.3625,"lon":131.44375,"areaKm2":0.7717328,"populated2020":true,"population2020":null,"populationNote":"境界またぎ・収録外等のため自治体内人口は未集計"},"geometry":{"type":"Polygon","coordinates":[[[131.438335551,33.360070559],[131.439954994,33.361365],[131.44524496767016,33.36666666666667],[131.45,33.36666666666667],[131.45,33.358333333333334],[131.4375,33.358333333333334],[131.4375,33.3592495915303],[131.438335551,33.360070559]]]}},{"type":"Feature","id":"44341:50310336","properties":{"id":"44341:50310336","meshCode":"50310336","cityCode":"44341","city":"日出町","lat":33.3625,"lon":131.45625,"areaKm2":1.0752489,"populated2020":true,"population2020":null,"populationNote":"境界またぎ・収録外等のため自治体内人口は未集計"},"geometry":{"type":"Polygon","coordinates":[[[131.45,33.358333333333334],[131.45,33.36666666666667],[131.4625,33.36666666666667],[131.4625,33.358333333333334],[131.45,33.358333333333334]]]}},{"type":"Feature","id":"44341:50310337","properties":{"id":"44341:50310337","meshCode":"50310337","cityCode":"44341","city":"日出町","lat":33.3625,"lon":131.46875,"areaKm2":1.0752489,"populated2020":true,"population2020":null,"populationNote":"境界またぎ・収録外等のため自治体内人口は未集計"},"geometry":{"type":"Polygon","coordinates":[[[131.4625,33.358333333333334],[131.4625,33.36666666666667],[131.475,33.36666666666666],[131.475,33.358333333333334],[131.4625,33.358333333333334]]]}},{"type":"Feature","id":"44341:50310338","properties":{"id":"44341:50310338","meshCode":"50310338","cityCode":"44341","city":"日出町","lat":33.3625,"lon":131.48125,"areaKm2":1.0752489,"populated2020":true,"population2020":62.7438,"populationNote":"2020年基準人口（国交省調整値）"},"geometry":{"type":"Polygon","coordinates":[[[131.475,33.358333333333334],[131.475,33.36666666666666],[131.4875,33.36666666666667],[131.4875,33.35833333333334],[131.475,33.358333333333334]]]}},{"type":"Feature","id":"44341:50310339","properties":{"id":"44341:50310339","meshCode":"50310339","cityCode":"44341","city":"日出町","lat":33.3625,"lon":131.49375,"areaKm2":1.0521296,"populated2020":true,"population2020":null,"populationNote":"境界またぎ・収録外等のため自治体内人口は未集計"},"geometry":{"type":"Polygon","coordinates":[[[131.499970143,33.360726027000005],[131.499492399,33.360669523],[131.498973243,33.360361514],[131.499263022,33.360112648999994],[131.499314384,33.359886568],[131.499245447,33.360102261],[131.498957056,33.360349495],[131.498906991,33.36031146799999],[131.499150117,33.36013546800001],[131.499116459,33.35988709899999],[131.499649092,33.35836243200001],[131.49984312378533,33.358333333333334],[131.49938332,33.358371523],[131.498960298,33.359052387000006],[131.498168755,33.358742225],[131.49802625211615,33.35833333333334],[131.4875,33.35833333333334],[131.4875,33.36666666666667],[131.5,33.36666666666667],[131.499970143,33.360726027000005]]]}},{"type":"Feature","id":"44341:50310430","properties":{"id":"44341:50310430","meshCode":"50310430","cityCode":"44341","city":"日出町","lat":33.3625,"lon":131.50625,"areaKm2":0.5902636,"populated2020":true,"population2020":null,"populationNote":"境界またぎ・収録外等のため自治体内人口は未集計"},"geometry":{"type":"Polygon","coordinates":[[[131.5125,33.36391209846265],[131.511717328,33.363518072],[131.509514436,33.363238865],[131.508990259,33.363018288000006],[131.508569027,33.362722099],[131.508632075,33.362660162],[131.508265045,33.36239115299999],[131.507722827,33.361817369],[131.507855888,33.361731342],[131.507711323,33.361798117],[131.50755780800003,33.361472694],[131.50785096,33.36142009900001],[131.50791725,33.361620721],[131.508294851,33.361733423],[131.508313515,33.361689432],[131.50792998700004,33.36157495500001],[131.508101141,33.36144287399999],[131.508086511,33.36125384700001],[131.50797677,33.361083964],[131.507703126,33.360998162],[131.507051466,33.361043568],[131.507065772,33.36110211700001],[131.506582905,33.361236819999995],[131.50604166,33.361553811],[131.503986641,33.361618252],[131.502374643,33.361850577],[131.500891868,33.36126910800001],[131.500430532,33.360924712],[131.5,33.360735549999994],[131.5,33.36666666666667],[131.5125,33.36666666666666],[131.5125,33.36391209846265]]]}},{"type":"Feature","id":"44341:50310431","properties":{"id":"44341:50310431","meshCode":"50310431","cityCode":"44341","city":"日出町","lat":33.3652921,"lon":131.5157564,"areaKm2":0.1469628,"populated2020":true,"population2020":null,"populationNote":"境界またぎ・収録外等のため自治体内人口は未集計"},"geometry":{"type":"Polygon","coordinates":[[[131.521277925,33.366657514],[131.521007211,33.366493189],[131.521044747,33.36637120700001],[131.520854462,33.36624955900001],[131.520716524,33.36631136],[131.519406498,33.36546673],[131.517902763,33.364820900999995],[131.51707773,33.364936243],[131.51528856,33.36488687399999],[131.513525616,33.364359468],[131.513187678,33.364235441],[131.513180726,33.364093991],[131.512969235,33.364019396],[131.51288061,33.364097306],[131.5125,33.36391209846265],[131.5125,33.36666666666666],[131.521277925,33.366657514]]]}},{"type":"Feature","id":"44341:50310432","properties":{"id":"44341:50310432","meshCode":"50310432","cityCode":"44341","city":"日出町","lat":33.3657532,"lon":131.5348004,"areaKm2":0.0546286,"populated2020":true,"population2020":null,"populationNote":"境界またぎ・収録外等のため自治体内人口は未集計"},"geometry":{"type":"MultiPolygon","coordinates":[[[[131.537013489,33.359616622],[131.535009105,33.360850494999994],[131.537037406,33.359644919],[131.537013489,33.359616622]]],[[[131.535329287,33.36405827000001],[131.534957445,33.364384658000006],[131.535357938,33.364085188999994],[131.535329287,33.36405827000001]]],[[[131.53249398200003,33.364176315],[131.533104773,33.36405196399999],[131.534531907,33.364701369],[131.534794423,33.364506099],[131.534525953,33.364657568000005],[131.533109585,33.364013080999996],[131.53249398200003,33.364176315]]],[[[131.5375,33.3643532820719],[131.536572296,33.364571829],[131.536583463,33.36460640500001],[131.5375,33.3643532820719]]],[[[131.536756952,33.365823306],[131.536624008,33.365626505],[131.536014163,33.365905505],[131.535146991,33.36554279300001],[131.535090947,33.36563709],[131.53485166,33.36553694599999],[131.535170726,33.36499608100001],[131.53621504500003,33.365386342],[131.535149559,33.364943423],[131.53491345,33.36534354100001],[131.534335227,33.36510031500001],[131.533883956,33.365866802],[131.534016978,33.366056495],[131.533902399,33.36610558600001],[131.53328153,33.36628742300001],[131.5319969,33.366157134999995],[131.531219585,33.366378495],[131.53086802923488,33.36666666666667],[131.5375,33.36666666666667],[131.5375,33.36570098647812],[131.536756952,33.365823306]]]]}},{"type":"Feature","id":"44341:50310433","properties":{"id":"44341:50310433","meshCode":"50310433","cityCode":"44341","city":"日出町","lat":33.3625,"lon":131.54375,"areaKm2":0.865681,"populated2020":true,"population2020":null,"populationNote":"境界またぎ・収録外等のため自治体内人口は未集計"},"geometry":{"type":"MultiPolygon","coordinates":[[[[131.537998379,33.360505216],[131.538597017,33.361239847],[131.538631051,33.361218694],[131.537998379,33.360505216]]],[[[131.537894669,33.364308396000006],[131.5375,33.3643532820719],[131.5375,33.364398108273946],[131.537894669,33.364308396000006]]],[[[131.54271551147266,33.358333333333334],[131.54136828800003,33.35916155899999],[131.541569896,33.359408459],[131.541133502,33.359681505],[131.541052529,33.36014064],[131.541179844,33.359704658000005],[131.542137834,33.359054144],[131.542652931,33.359587405],[131.541865019,33.360078306],[131.541938716,33.360162207],[131.541767899,33.360270523000004],[131.54166454,33.360186937],[131.541878612,33.360449838],[131.541814215,33.360636414],[131.541185123,33.36104338700001],[131.539329831,33.363361702999995],[131.538393826,33.36284566700001],[131.537801984,33.363601243000005],[131.537968664,33.364232784],[131.538684137,33.36411409],[131.538949377,33.365462324],[131.5375,33.36570098647812],[131.5375,33.36666666666667],[131.55,33.36666666666667],[131.55,33.358333333333334],[131.54271551147266,33.358333333333334]]],[[[131.541005629,33.359246090000006],[131.541060817,33.359205541],[131.541014786,33.359199252],[131.541005629,33.359246090000006]]]]}},{"type":"Feature","id":"44341:50310434","properties":{"id":"44341:50310434","meshCode":"50310434","cityCode":"44341","city":"日出町","lat":33.3625,"lon":131.55625,"areaKm2":1.0752489,"populated2020":true,"population2020":1395.6752,"populationNote":"2020年基準人口（国交省調整値）"},"geometry":{"type":"Polygon","coordinates":[[[131.55,33.358333333333334],[131.55,33.36666666666667],[131.5625,33.36666666666667],[131.5625,33.358333333333334],[131.55,33.358333333333334]]]}},{"type":"Feature","id":"44341:50310435","properties":{"id":"44341:50310435","meshCode":"50310435","cityCode":"44341","city":"日出町","lat":33.3625,"lon":131.56875,"areaKm2":1.0752489,"populated2020":true,"population2020":186.2473,"populationNote":"2020年基準人口（国交省調整値）"},"geometry":{"type":"Polygon","coordinates":[[[131.5625,33.358333333333334],[131.5625,33.36666666666667],[131.575,33.36666666666667],[131.575,33.358333333333334],[131.5625,33.358333333333334]]]}},{"type":"Feature","id":"44341:50310436","properties":{"id":"44341:50310436","meshCode":"50310436","cityCode":"44341","city":"日出町","lat":33.3625,"lon":131.58125,"areaKm2":1.0752489,"populated2020":true,"population2020":406.4279,"populationNote":"2020年基準人口（国交省調整値）"},"geometry":{"type":"Polygon","coordinates":[[[131.575,33.358333333333334],[131.575,33.36666666666667],[131.5875,33.36666666666666],[131.5875,33.358333333333334],[131.575,33.358333333333334]]]}},{"type":"Feature","id":"44341:50310437","properties":{"id":"44341:50310437","meshCode":"50310437","cityCode":"44341","city":"日出町","lat":33.3625,"lon":131.59375,"areaKm2":0.8140213,"populated2020":true,"population2020":null,"populationNote":"境界またぎ・収録外等のため自治体内人口は未集計"},"geometry":{"type":"Polygon","coordinates":[[[131.59681446204783,33.36666666666667],[131.596472374,33.36614796400001],[131.596138197,33.365411171],[131.59574725,33.36399053200001],[131.595707198,33.363537712],[131.595854591,33.36313745900001],[131.596131829,33.362897829000005],[131.596101868,33.362794892000004],[131.596379948,33.36253918900001],[131.596746368,33.36201958600001],[131.597442464,33.36150209000001],[131.59740227,33.361155586],[131.597648573,33.360465143999996],[131.598058418,33.360390315000004],[131.598451401,33.360222595],[131.598902931,33.35959555],[131.598896329,33.359401350999995],[131.598374994,33.35896392800001],[131.59814378710206,33.35833333333333],[131.5875,33.358333333333334],[131.5875,33.36666666666666],[131.59681446204783,33.36666666666667]]]}},{"type":"Feature","id":"44341:50310345","properties":{"id":"44341:50310345","meshCode":"50310345","cityCode":"44341","city":"日出町","lat":33.3692143,"lon":131.4483602,"areaKm2":0.1489702,"populated2020":true,"population2020":null,"populationNote":"境界またぎ・収録外等のため自治体内人口は未集計"},"geometry":{"type":"Polygon","coordinates":[[[131.445244968,33.366666667],[131.446134449,33.367565559000006],[131.44598917,33.368644441],[131.45,33.371796387],[131.45,33.36666666666667],[131.445244968,33.366666667]]]}},{"type":"Feature","id":"44341:50310346","properties":{"id":"44341:50310346","meshCode":"50310346","cityCode":"44341","city":"日出町","lat":33.3708333,"lon":131.45625,"areaKm2":1.0101036,"populated2020":true,"population2020":null,"populationNote":"境界またぎ・収録外等のため自治体内人口は未集計"},"geometry":{"type":"Polygon","coordinates":[[[131.45,33.371796387],[131.452756667,33.37392249500001],[131.453409728,33.374529721],[131.453442503,33.374607495],[131.452805058,33.375],[131.4625,33.375],[131.4625,33.36666666666667],[131.45,33.36666666666667],[131.45,33.371796387]]]}},{"type":"Feature","id":"44341:50310347","properties":{"id":"44341:50310347","meshCode":"50310347","cityCode":"44341","city":"日出町","lat":33.3708333,"lon":131.46875,"areaKm2":1.0751479,"populated2020":false,"population2020":null,"populationNote":"境界またぎ・収録外等のため自治体内人口は未集計"},"geometry":{"type":"Polygon","coordinates":[[[131.4625,33.36666666666667],[131.4625,33.375],[131.475,33.37500000000001],[131.475,33.36666666666666],[131.4625,33.36666666666667]]]}},{"type":"Feature","id":"44341:50310348","properties":{"id":"44341:50310348","meshCode":"50310348","cityCode":"44341","city":"日出町","lat":33.3708333,"lon":131.48125,"areaKm2":1.0751479,"populated2020":false,"population2020":null,"populationNote":"境界またぎ・収録外等のため自治体内人口は未集計"},"geometry":{"type":"Polygon","coordinates":[[[131.475,33.36666666666666],[131.475,33.37500000000001],[131.4875,33.375],[131.4875,33.36666666666667],[131.475,33.36666666666666]]]}},{"type":"Feature","id":"44341:50310349","properties":{"id":"44341:50310349","meshCode":"50310349","cityCode":"44341","city":"日出町","lat":33.3708333,"lon":131.49375,"areaKm2":1.0751479,"populated2020":true,"population2020":null,"populationNote":"境界またぎ・収録外等のため自治体内人口は未集計"},"geometry":{"type":"Polygon","coordinates":[[[131.4875,33.36666666666667],[131.4875,33.375],[131.5,33.375],[131.5,33.36666666666667],[131.4875,33.36666666666667]]]}},{"type":"Feature","id":"44341:50310440","properties":{"id":"44341:50310440","meshCode":"50310440","cityCode":"44341","city":"日出町","lat":33.3708333,"lon":131.50625,"areaKm2":1.0751479,"populated2020":true,"population2020":1472.9843,"populationNote":"2020年基準人口（国交省調整値）"},"geometry":{"type":"Polygon","coordinates":[[[131.5,33.36666666666667],[131.5,33.375],[131.5125,33.37500000000001],[131.5125,33.36666666666666],[131.5,33.36666666666667]]]}},{"type":"Feature","id":"44341:50310441","properties":{"id":"44341:50310441","meshCode":"50310441","cityCode":"44341","city":"日出町","lat":33.3708333,"lon":131.51875,"areaKm2":1.0468268,"populated2020":true,"population2020":null,"populationNote":"境界またぎ・収録外等のため自治体内人口は未集計"},"geometry":{"type":"Polygon","coordinates":[[[131.525,33.367718649],[131.523870817,33.367710063000004],[131.522884929,33.36745336],[131.5212934494346,33.36666666666667],[131.5125,33.36666666666666],[131.5125,33.37500000000001],[131.525,33.37500000000001],[131.525,33.367718649]]]}},{"type":"Feature","id":"44341:50310442","properties":{"id":"44341:50310442","meshCode":"50310442","cityCode":"44341","city":"日出町","lat":33.3708333,"lon":131.53125,"areaKm2":1.0285221,"populated2020":true,"population2020":null,"populationNote":"境界またぎ・収録外等のため自治体内人口は未集計"},"geometry":{"type":"Polygon","coordinates":[[[131.530868029,33.36666666699999],[131.530470467,33.367084486],[131.529892724,33.367273153000006],[131.52869118,33.367253117],[131.52676284,33.367674108],[131.525,33.367718649],[131.525,33.37500000000001],[131.5375,33.37500000000001],[131.5375,33.36666666666667],[131.530868029,33.36666666699999]]]}},{"type":"Feature","id":"44341:50310443","properties":{"id":"44341:50310443","meshCode":"50310443","cityCode":"44341","city":"日出町","lat":33.3708333,"lon":131.54375,"areaKm2":1.0751479,"populated2020":true,"population2020":1634.4208,"populationNote":"2020年基準人口（国交省調整値）"},"geometry":{"type":"Polygon","coordinates":[[[131.5375,33.36666666666667],[131.5375,33.37500000000001],[131.55,33.37500000000001],[131.55,33.36666666666667],[131.5375,33.36666666666667]]]}},{"type":"Feature","id":"44341:50310444","properties":{"id":"44341:50310444","meshCode":"50310444","cityCode":"44341","city":"日出町","lat":33.3708333,"lon":131.55625,"areaKm2":1.0751479,"populated2020":true,"population2020":699.1604,"populationNote":"2020年基準人口（国交省調整値）"},"geometry":{"type":"Polygon","coordinates":[[[131.55,33.36666666666667],[131.55,33.37500000000001],[131.5625,33.375],[131.5625,33.36666666666667],[131.55,33.36666666666667]]]}},{"type":"Feature","id":"44341:50310445","properties":{"id":"44341:50310445","meshCode":"50310445","cityCode":"44341","city":"日出町","lat":33.3708333,"lon":131.56875,"areaKm2":1.0751479,"populated2020":true,"population2020":451.1626,"populationNote":"2020年基準人口（国交省調整値）"},"geometry":{"type":"Polygon","coordinates":[[[131.5625,33.36666666666667],[131.5625,33.375],[131.575,33.37500000000001],[131.575,33.36666666666667],[131.5625,33.36666666666667]]]}},{"type":"Feature","id":"44341:50310446","properties":{"id":"44341:50310446","meshCode":"50310446","cityCode":"44341","city":"日出町","lat":33.3708333,"lon":131.58125,"areaKm2":1.0751479,"populated2020":true,"population2020":727.5185,"populationNote":"2020年基準人口（国交省調整値）"},"geometry":{"type":"Polygon","coordinates":[[[131.575,33.36666666666667],[131.575,33.37500000000001],[131.5875,33.375],[131.5875,33.36666666666666],[131.575,33.36666666666667]]]}},{"type":"Feature","id":"44341:50310447","properties":{"id":"44341:50310447","meshCode":"50310447","cityCode":"44341","city":"日出町","lat":33.3708333,"lon":131.59375,"areaKm2":0.9588337,"populated2020":true,"population2020":null,"populationNote":"境界またぎ・収録外等のため自治体内人口は未集計"},"geometry":{"type":"Polygon","coordinates":[[[131.6,33.370711559],[131.599130169,33.370897459000005],[131.597088457,33.371672207],[131.596925162,33.37144369399999],[131.597159935,33.37123445],[131.597103502,33.370980171],[131.597260454,33.37068790099999],[131.597513372,33.370382901],[131.597965084,33.370231225],[131.598082789,33.370031207],[131.597901505,33.36897845],[131.5973862,33.36819095500001],[131.596930973,33.367134197999995],[131.59681446204783,33.36666666666667],[131.5875,33.36666666666666],[131.5875,33.375],[131.6,33.375],[131.6,33.370711559]]]}},{"type":"Feature","id":"44341:50310448","properties":{"id":"44341:50310448","meshCode":"50310448","cityCode":"44341","city":"日出町","lat":33.3708333,"lon":131.60625,"areaKm2":0.5139217,"populated2020":true,"population2020":null,"populationNote":"境界またぎ・収録外等のため自治体内人口は未集計"},"geometry":{"type":"MultiPolygon","coordinates":[[[[131.612499196,33.371216613],[131.612003645,33.37133518899999],[131.611959351,33.371286631],[131.61157192,33.371361486000005],[131.610913787,33.371329018],[131.610802633,33.371446694],[131.610306381,33.37151333300001],[131.609090182,33.371343297],[131.608555642,33.37112564],[131.607939313,33.370660856],[131.607601102,33.370689027],[131.607260441,33.370535874],[131.606919105,33.370268207],[131.606732049,33.370258838],[131.60636642,33.369929703],[131.605323722,33.369437054],[131.606504669,33.37007491899999],[131.6062169,33.370759631],[131.606037315,33.37094463099999],[131.605523852,33.370760577000006],[131.605538236,33.37033923399999],[131.605414241,33.371131712],[131.605203061,33.37116168499999],[131.6040162,33.370897676],[131.602078379,33.371286883],[131.601818794,33.371232514],[131.600630532,33.370698514000004],[131.6,33.370711559],[131.6,33.375],[131.6125,33.375],[131.612499196,33.371216613]]],[[[131.607053735,33.370049153],[131.607024916,33.37013856800001],[131.607103463,33.370075152999995],[131.607053735,33.370049153]]],[[[131.607218249,33.37009244099999],[131.60709771700002,33.370113954999994],[131.60705546,33.370172946000004],[131.607121271,33.37019418],[131.607218249,33.37009244099999]]],[[[131.608049079,33.370483135],[131.608028755,33.37040344100001],[131.60786808,33.37044786500001],[131.608049079,33.370483135]]],[[[131.608168067,33.37065478400001],[131.608241051,33.370797342],[131.608359313,33.370803072],[131.60826035,33.370636477],[131.608168067,33.37065478400001]]]]}},{"type":"Feature","id":"44341:50310449","properties":{"id":"44341:50310449","meshCode":"50310449","cityCode":"44341","city":"日出町","lat":33.3730855,"lon":131.6146328,"areaKm2":0.1455278,"populated2020":true,"population2020":null,"populationNote":"境界またぎ・収録外等のため自治体内人口は未集計"},"geometry":{"type":"MultiPolygon","coordinates":[[[[131.615877782,33.374656946],[131.615988054,33.37436055900002],[131.616312503,33.373953054],[131.616540272,33.373398892000004],[131.616864721,33.372947775],[131.617029222,33.372100261],[131.615748119,33.372026486],[131.61569214,33.371372225],[131.61535594,33.370953072],[131.61564214,33.371384468],[131.615629209,33.371790928],[131.615068353,33.371776396],[131.614912088,33.37145535100001],[131.614527847,33.371263838],[131.61434799,33.37101091],[131.614129235,33.371094135],[131.613649767,33.371114631],[131.613603826,33.371183207],[131.61334511,33.371192955000005],[131.613314994,33.37124973],[131.613195019,33.37113689200001],[131.612900804,33.371264135000004],[131.612600791,33.37117607199999],[131.6125,33.371216356890194],[131.6125,33.375],[131.615899222,33.375],[131.615877782,33.374656946]]],[[[131.614324825,33.37090966700001],[131.614463606,33.370809613],[131.614253593,33.37091255],[131.614324825,33.37090966700001]]]]}},{"type":"Feature","id":"44341:50310355","properties":{"id":"44341:50310355","meshCode":"50310355","cityCode":"44341","city":"日出町","lat":33.3790453,"lon":131.4489584,"areaKm2":0.0174267,"populated2020":true,"population2020":null,"populationNote":"境界またぎ・収録外等のため自治体内人口は未集計"},"geometry":{"type":"Polygon","coordinates":[[[131.45,33.377527694],[131.449518885,33.37798110799999],[131.449263891,33.377898054],[131.449114449,33.37793610800001],[131.44865722400002,33.378523613],[131.448828885,33.37885582900001],[131.448215551,33.379603333000006],[131.447490272,33.38015861299999],[131.447549728,33.380283332999994],[131.449146394,33.379234720999996],[131.449472776,33.378596387],[131.45,33.378855198000004],[131.45,33.377527694]]]}},{"type":"Feature","id":"44341:50310356","properties":{"id":"44341:50310356","meshCode":"50310356","cityCode":"44341","city":"日出町","lat":33.3791667,"lon":131.45625,"areaKm2":0.9819844,"populated2020":true,"population2020":null,"populationNote":"境界またぎ・収録外等のため自治体内人口は未集計"},"geometry":{"type":"Polygon","coordinates":[[[131.452805058,33.375],[131.45077,33.376266387],[131.450967782,33.37665027900001],[131.450774449,33.37708305400001],[131.450468054,33.377507495],[131.45016917,33.377438054],[131.45,33.377527694],[131.45,33.378855198000004],[131.450442218,33.379106387],[131.451002503,33.37956833300001],[131.451523333,33.380850279],[131.45163555100004,33.381530278999996],[131.451602503,33.382171387],[131.4512629698919,33.38333333333333],[131.4625,33.38333333333333],[131.4625,33.375],[131.452805058,33.375]]]}},{"type":"Feature","id":"44341:50310357","properties":{"id":"44341:50310357","meshCode":"50310357","cityCode":"44341","city":"日出町","lat":33.3791667,"lon":131.46875,"areaKm2":1.0750468,"populated2020":true,"population2020":null,"populationNote":"境界またぎ・収録外等のため自治体内人口は未集計"},"geometry":{"type":"Polygon","coordinates":[[[131.4625,33.375],[131.4625,33.38333333333333],[131.475,33.38333333333333],[131.475,33.37500000000001],[131.4625,33.375]]]}},{"type":"Feature","id":"44341:50310358","properties":{"id":"44341:50310358","meshCode":"50310358","cityCode":"44341","city":"日出町","lat":33.3791667,"lon":131.48125,"areaKm2":1.0750468,"populated2020":true,"population2020":null,"populationNote":"境界またぎ・収録外等のため自治体内人口は未集計"},"geometry":{"type":"Polygon","coordinates":[[[131.475,33.37500000000001],[131.475,33.38333333333333],[131.4875,33.383333333333326],[131.4875,33.375],[131.475,33.37500000000001]]]}},{"type":"Feature","id":"44341:50310359","properties":{"id":"44341:50310359","meshCode":"50310359","cityCode":"44341","city":"日出町","lat":33.3791667,"lon":131.49375,"areaKm2":1.0750468,"populated2020":true,"population2020":null,"populationNote":"境界またぎ・収録外等のため自治体内人口は未集計"},"geometry":{"type":"Polygon","coordinates":[[[131.4875,33.375],[131.4875,33.383333333333326],[131.5,33.38333333333333],[131.5,33.375],[131.4875,33.375]]]}},{"type":"Feature","id":"44341:50310450","properties":{"id":"44341:50310450","meshCode":"50310450","cityCode":"44341","city":"日出町","lat":33.3791667,"lon":131.50625,"areaKm2":1.0750468,"populated2020":true,"population2020":null,"populationNote":"境界またぎ・収録外等のため自治体内人口は未集計"},"geometry":{"type":"Polygon","coordinates":[[[131.5,33.375],[131.5,33.38333333333333],[131.5125,33.383333333333326],[131.5125,33.37500000000001],[131.5,33.375]]]}},{"type":"Feature","id":"44341:50310451","properties":{"id":"44341:50310451","meshCode":"50310451","cityCode":"44341","city":"日出町","lat":33.3791667,"lon":131.51875,"areaKm2":1.0750468,"populated2020":true,"population2020":null,"populationNote":"境界またぎ・収録外等のため自治体内人口は未集計"},"geometry":{"type":"Polygon","coordinates":[[[131.5125,33.37500000000001],[131.5125,33.383333333333326],[131.525,33.38333333333333],[131.525,33.37500000000001],[131.5125,33.37500000000001]]]}},{"type":"Feature","id":"44341:50310452","properties":{"id":"44341:50310452","meshCode":"50310452","cityCode":"44341","city":"日出町","lat":33.3791667,"lon":131.53125,"areaKm2":1.0750468,"populated2020":true,"population2020":null,"populationNote":"境界またぎ・収録外等のため自治体内人口は未集計"},"geometry":{"type":"Polygon","coordinates":[[[131.525,33.37500000000001],[131.525,33.38333333333333],[131.5375,33.38333333333333],[131.5375,33.37500000000001],[131.525,33.37500000000001]]]}},{"type":"Feature","id":"44341:50310453","properties":{"id":"44341:50310453","meshCode":"50310453","cityCode":"44341","city":"日出町","lat":33.3791667,"lon":131.54375,"areaKm2":1.0750468,"populated2020":true,"population2020":1645.3023,"populationNote":"2020年基準人口（国交省調整値）"},"geometry":{"type":"Polygon","coordinates":[[[131.5375,33.37500000000001],[131.5375,33.38333333333333],[131.55,33.38333333333333],[131.55,33.37500000000001],[131.5375,33.37500000000001]]]}},{"type":"Feature","id":"44341:50310454","properties":{"id":"44341:50310454","meshCode":"50310454","cityCode":"44341","city":"日出町","lat":33.3791667,"lon":131.55625,"areaKm2":1.0750468,"populated2020":true,"population2020":426.1984,"populationNote":"2020年基準人口（国交省調整値）"},"geometry":{"type":"Polygon","coordinates":[[[131.55,33.37500000000001],[131.55,33.38333333333333],[131.5625,33.38333333333333],[131.5625,33.375],[131.55,33.37500000000001]]]}},{"type":"Feature","id":"44341:50310455","properties":{"id":"44341:50310455","meshCode":"50310455","cityCode":"44341","city":"日出町","lat":33.3791667,"lon":131.56875,"areaKm2":1.0750468,"populated2020":true,"population2020":314.4153,"populationNote":"2020年基準人口（国交省調整値）"},"geometry":{"type":"Polygon","coordinates":[[[131.5625,33.375],[131.5625,33.38333333333333],[131.575,33.38333333333333],[131.575,33.37500000000001],[131.5625,33.375]]]}},{"type":"Feature","id":"44341:50310456","properties":{"id":"44341:50310456","meshCode":"50310456","cityCode":"44341","city":"日出町","lat":33.3791667,"lon":131.58125,"areaKm2":1.0750468,"populated2020":true,"population2020":253.9624,"populationNote":"2020年基準人口（国交省調整値）"},"geometry":{"type":"Polygon","coordinates":[[[131.575,33.37500000000001],[131.575,33.38333333333333],[131.5875,33.38333333333334],[131.5875,33.375],[131.575,33.37500000000001]]]}},{"type":"Feature","id":"44341:50310457","properties":{"id":"44341:50310457","meshCode":"50310457","cityCode":"44341","city":"日出町","lat":33.3791667,"lon":131.59375,"areaKm2":1.0750468,"populated2020":true,"population2020":227.3071,"populationNote":"2020年基準人口（国交省調整値）"},"geometry":{"type":"Polygon","coordinates":[[[131.5875,33.375],[131.5875,33.38333333333334],[131.6,33.383333333333326],[131.6,33.375],[131.5875,33.375]]]}},{"type":"Feature","id":"44341:50310458","properties":{"id":"44341:50310458","meshCode":"50310458","cityCode":"44341","city":"日出町","lat":33.3791667,"lon":131.60625,"areaKm2":1.0750468,"populated2020":true,"population2020":null,"populationNote":"境界またぎ・収録外等のため自治体内人口は未集計"},"geometry":{"type":"Polygon","coordinates":[[[131.6,33.375],[131.6,33.383333333333326],[131.6125,33.38333333333334],[131.6125,33.375],[131.6,33.375]]]}},{"type":"Feature","id":"44341:50310459","properties":{"id":"44341:50310459","meshCode":"50310459","cityCode":"44341","city":"日出町","lat":33.3791033,"lon":131.6141197,"areaKm2":0.2667013,"populated2020":true,"population2020":null,"populationNote":"境界またぎ・収録外等のため自治体内人口は未集計"},"geometry":{"type":"Polygon","coordinates":[[[131.615891608,33.38333333300001],[131.615924994,33.382578333],[131.615297224,33.381115],[131.615566394,33.380636946],[131.616001388,33.379398054],[131.615491388,33.378776108000004],[131.615505279,33.37792305400001],[131.615049728,33.377021107999994],[131.615484163,33.37623777499999],[131.615899222,33.375],[131.6125,33.375],[131.6125,33.38333333333334],[131.615891608,33.38333333300001]]]}},{"type":"Feature","id":"44341:50310366","properties":{"id":"44341:50310366","meshCode":"50310366","cityCode":"44341","city":"日出町","lat":33.3875,"lon":131.45625,"areaKm2":0.8204915,"populated2020":true,"population2020":null,"populationNote":"境界またぎ・収録外等のため自治体内人口は未集計"},"geometry":{"type":"Polygon","coordinates":[[[131.451253061,33.383363892],[131.45093,33.38495],[131.45186,33.385251108],[131.452980558,33.38582194600001],[131.453363061,33.386091946],[131.453211388,33.38669416199999],[131.453224721,33.388419999999996],[131.453000558,33.38890582900001],[131.452571946,33.38936249500001],[131.452512503,33.389595829],[131.452759728,33.39108749500001],[131.452721634022,33.391666666666666],[131.45846138867887,33.391666666666666],[131.459596667,33.391066946],[131.46094166,33.39068805400001],[131.461195551,33.390549721],[131.461907782,33.389921666999996],[131.46215166,33.389771108],[131.4625,33.389711261307106],[131.4625,33.38333333333333],[131.451253061,33.383363892]]]}},{"type":"Feature","id":"44341:50310367","properties":{"id":"44341:50310367","meshCode":"50310367","cityCode":"44341","city":"日出町","lat":33.3865381,"lon":131.4652324,"areaKm2":0.5359599,"populated2020":true,"population2020":null,"populationNote":"境界またぎ・収録外等のため自治体内人口は未集計"},"geometry":{"type":"Polygon","coordinates":[[[131.46285083,33.389698333000005],[131.466533891,33.38844389199999],[131.467837224,33.386654721000006],[131.468041388,33.386468054],[131.468252503,33.38639027899999],[131.469404721,33.38660833299999],[131.471361946,33.387189721],[131.47152,33.387184440999995],[131.47267917,33.38593972099999],[131.473543061,33.386095279],[131.475,33.386753162],[131.475,33.38333333333333],[131.4625,33.38333333333333],[131.4625,33.389711261307106],[131.46285083,33.389698333000005]]]}},{"type":"Feature","id":"44341:50310368","properties":{"id":"44341:50310368","meshCode":"50310368","cityCode":"44341","city":"日出町","lat":33.3867123,"lon":131.4852619,"areaKm2":0.488313,"populated2020":true,"population2020":null,"populationNote":"境界またぎ・収録外等のため自治体内人口は未集計"},"geometry":{"type":"Polygon","coordinates":[[[131.475,33.386753162],[131.475506109,33.387049162],[131.475972776,33.387199721],[131.476493891,33.387272495],[131.477027782,33.38716333299999],[131.477593606,33.386671387],[131.478286109,33.38622],[131.47937917,33.385867225],[131.480453891,33.385358612999994],[131.480815279,33.38510527900001],[131.481481115,33.38430638700001],[131.482284449,33.384651946],[131.482792218,33.385030829],[131.482884449,33.385238613],[131.482982776,33.386612225],[131.483477497,33.387977495],[131.483746939,33.388452775],[131.484307497,33.389158613000006],[131.484676939,33.389298892],[131.485507497,33.389366387],[131.487036109,33.390082494999994],[131.4875,33.39015426901476],[131.4875,33.383333333333326],[131.475,33.38333333333333],[131.475,33.386753162]]]}},{"type":"Feature","id":"44341:50310369","properties":{"id":"44341:50310369","meshCode":"50310369","cityCode":"44341","city":"日出町","lat":33.3875,"lon":131.49375,"areaKm2":0.8902549,"populated2020":false,"population2020":null,"populationNote":"境界またぎ・収録外等のため自治体内人口は未集計"},"geometry":{"type":"Polygon","coordinates":[[[131.4875,33.39015426901476],[131.488862503,33.390113613],[131.489792218,33.390430279],[131.490378885,33.390456387],[131.492070272,33.38998666700001],[131.494453891,33.388974721],[131.494978327,33.389496386999994],[131.495433333,33.390266946],[131.495868327,33.390601667],[131.496788327,33.390570829],[131.497587224,33.39078889200001],[131.497819442,33.390751667],[131.498101946,33.390165559],[131.498978885,33.39116555900001],[131.499571946,33.391405],[131.5,33.391383081],[131.5,33.38333333333333],[131.4875,33.383333333333326],[131.4875,33.39015426901476]]]}},{"type":"Feature","id":"44341:50310460","properties":{"id":"44341:50310460","meshCode":"50310460","cityCode":"44341","city":"日出町","lat":33.3875,"lon":131.50625,"areaKm2":1.0215269,"populated2020":false,"population2020":null,"populationNote":"境界またぎ・収録外等のため自治体内人口は未集計"},"geometry":{"type":"Polygon","coordinates":[[[131.5,33.391383081],[131.501468054,33.391201108000004],[131.503022776,33.391440559],[131.503976667,33.391224721],[131.504853891,33.391420829],[131.505576394,33.391385559],[131.505924994,33.391346108],[131.506298612,33.39095416199999],[131.506612503,33.390891387],[131.506899728,33.390965829],[131.507308327,33.391228613],[131.507472776,33.391244162],[131.509717782,33.39118527899999],[131.510275551,33.391236387],[131.510061388,33.391518892],[131.510106109,33.391616946],[131.510235837,33.391636387],[131.510983333,33.391467775],[131.512142503,33.390857225],[131.5125,33.39059755716077],[131.5125,33.383333333333326],[131.5,33.38333333333333],[131.5,33.391383081]]]}},{"type":"Feature","id":"44341:50310461","properties":{"id":"44341:50310461","meshCode":"50310461","cityCode":"44341","city":"日出町","lat":33.3875,"lon":131.51875,"areaKm2":1.0695256,"populated2020":false,"population2020":null,"populationNote":"境界またぎ・収録外等のため自治体内人口は未集計"},"geometry":{"type":"Polygon","coordinates":[[[131.512974721,33.390241386999996],[131.51287635502067,33.391666666666666],[131.525,33.39166666666666],[131.525,33.38333333333333],[131.5125,33.383333333333326],[131.5125,33.39059755716077],[131.512974721,33.390241386999996]]]}},{"type":"Feature","id":"44341:50310462","properties":{"id":"44341:50310462","meshCode":"50310462","cityCode":"44341","city":"日出町","lat":33.3875,"lon":131.53125,"areaKm2":1.0749457,"populated2020":true,"population2020":80.7805,"populationNote":"2020年基準人口（国交省調整値）"},"geometry":{"type":"Polygon","coordinates":[[[131.525,33.38333333333333],[131.525,33.39166666666666],[131.5375,33.391666666666666],[131.5375,33.38333333333333],[131.525,33.38333333333333]]]}},{"type":"Feature","id":"44341:50310463","properties":{"id":"44341:50310463","meshCode":"50310463","cityCode":"44341","city":"日出町","lat":33.3875,"lon":131.54375,"areaKm2":1.0749457,"populated2020":true,"population2020":787.3222,"populationNote":"2020年基準人口（国交省調整値）"},"geometry":{"type":"Polygon","coordinates":[[[131.5375,33.38333333333333],[131.5375,33.391666666666666],[131.55,33.39166666666666],[131.55,33.38333333333333],[131.5375,33.38333333333333]]]}},{"type":"Feature","id":"44341:50310464","properties":{"id":"44341:50310464","meshCode":"50310464","cityCode":"44341","city":"日出町","lat":33.3875,"lon":131.55625,"areaKm2":1.0749457,"populated2020":true,"population2020":315.0324,"populationNote":"2020年基準人口（国交省調整値）"},"geometry":{"type":"Polygon","coordinates":[[[131.55,33.38333333333333],[131.55,33.39166666666666],[131.5625,33.391666666666666],[131.5625,33.38333333333333],[131.55,33.38333333333333]]]}},{"type":"Feature","id":"44341:50310465","properties":{"id":"44341:50310465","meshCode":"50310465","cityCode":"44341","city":"日出町","lat":33.3875,"lon":131.56875,"areaKm2":0.8350344,"populated2020":true,"population2020":null,"populationNote":"境界またぎ・収録外等のため自治体内人口は未集計"},"geometry":{"type":"Polygon","coordinates":[[[131.566719728,33.391543053999996],[131.56649917,33.390429162],[131.566809442,33.389996946],[131.56605083,33.388542495],[131.566057782,33.388162225],[131.56632,33.388086107999996],[131.566705279,33.388064162000006],[131.567126394,33.388151108],[131.567982218,33.38852610800001],[131.569608612,33.389036108],[131.571450272,33.389247774999994],[131.57401639400004,33.38916082899999],[131.575,33.389256892000006],[131.575,33.38333333333333],[131.5625,33.38333333333333],[131.5625,33.391666666666666],[131.56681267174937,33.391666666666666],[131.566719728,33.391543053999996]]]}},{"type":"Feature","id":"44341:50310466","properties":{"id":"44341:50310466","meshCode":"50310466","cityCode":"44341","city":"日出町","lat":33.3875,"lon":131.58125,"areaKm2":0.9360678,"populated2020":true,"population2020":null,"populationNote":"境界またぎ・収録外等のため自治体内人口は未集計"},"geometry":{"type":"Polygon","coordinates":[[[131.575,33.389256892000006],[131.57718917,33.38929138700001],[131.579484449,33.389638891999994],[131.580124994,33.389622495],[131.580491115,33.390122225000006],[131.5820246426598,33.391666666666666],[131.5875,33.391666666666666],[131.5875,33.38333333333334],[131.575,33.38333333333333],[131.575,33.389256892000006]]]}},{"type":"Feature","id":"44341:50310467","properties":{"id":"44341:50310467","meshCode":"50310467","cityCode":"44341","city":"日出町","lat":33.3875,"lon":131.59375,"areaKm2":1.0667183,"populated2020":true,"population2020":null,"populationNote":"境界またぎ・収録外等のため自治体内人口は未集計"},"geometry":{"type":"Polygon","coordinates":[[[131.59871936435437,33.39166666666667],[131.59971083,33.390669441],[131.6,33.390481532],[131.6,33.383333333333326],[131.5875,33.38333333333334],[131.5875,33.391666666666666],[131.59871936435437,33.39166666666667]]]}},{"type":"Feature","id":"44341:50310468","properties":{"id":"44341:50310468","meshCode":"50310468","cityCode":"44341","city":"日出町","lat":33.3875,"lon":131.60625,"areaKm2":0.8348541,"populated2020":true,"population2020":null,"populationNote":"境界またぎ・収録外等のため自治体内人口は未集計"},"geometry":{"type":"Polygon","coordinates":[[[131.6,33.390481532],[131.600697782,33.39049],[131.602829442,33.39020749499999],[131.603277782,33.389995559000006],[131.603710558,33.389632774999995],[131.603910558,33.389040559],[131.604916939,33.388866667],[131.605524163,33.389181946],[131.606019728,33.38925222500001],[131.606634163,33.389219721],[131.607179442,33.389366386999995],[131.608468612,33.389870829],[131.609055279,33.390180559],[131.609751388,33.390175],[131.610566109,33.390327225],[131.610918054,33.390267495],[131.6125,33.389225531926385],[131.6125,33.38333333333334],[131.6,33.383333333333326],[131.6,33.390481532]]]}},{"type":"Feature","id":"44341:50310469","properties":{"id":"44341:50310469","meshCode":"50310469","cityCode":"44341","city":"日出町","lat":33.3864151,"lon":131.6135421,"areaKm2":0.1417787,"populated2020":true,"population2020":null,"populationNote":"境界またぎ・収録外等のため自治体内人口は未集計"},"geometry":{"type":"Polygon","coordinates":[[[131.6125,33.389225531926385],[131.613931946,33.388373333],[131.614401388,33.38791166699999],[131.614449728,33.387522775],[131.614249442,33.386637495],[131.615485279,33.385937495],[131.615662503,33.384608333],[131.615821388,33.384298613],[131.61589160799414,33.38333333333334],[131.6125,33.38333333333334],[131.6125,33.389225531926385]]]}},{"type":"Feature","id":"44341:50310376","properties":{"id":"44341:50310376","meshCode":"50310376","cityCode":"44341","city":"日出町","lat":33.392185,"lon":131.4542434,"areaKm2":0.0355694,"populated2020":true,"population2020":null,"populationNote":"境界またぎ・収録外等のため自治体内人口は未集計"},"geometry":{"type":"Polygon","coordinates":[[[131.452721634,33.391666667],[131.452631115,33.392373613000004],[131.452756109,33.39260722499999],[131.453039728,33.39269527900001],[131.454708054,33.392472225],[131.455576109,33.39222416199999],[131.456525837,33.392151387],[131.45846138867887,33.391666666666666],[131.452721634,33.391666667]]]}},{"type":"Feature","id":"44341:50310471","properties":{"id":"44341:50310471","meshCode":"50310471","cityCode":"44341","city":"日出町","lat":33.3958333,"lon":131.51875,"areaKm2":0.6331665,"populated2020":false,"population2020":null,"populationNote":"境界またぎ・収録外等のため自治体内人口は未集計"},"geometry":{"type":"Polygon","coordinates":[[[131.512876355,33.391666667],[131.51258083,33.396569162000006],[131.512585551,33.39680249500001],[131.51294,33.397152774999995],[131.513163891,33.397215829000004],[131.51440749700004,33.396873054],[131.516176109,33.396614162000006],[131.517065551,33.396551387],[131.51814166,33.39657889200001],[131.518774449,33.396743613],[131.520281946,33.396504441],[131.52058083,33.396398612999995],[131.521652218,33.396367225],[131.522473061,33.396378892],[131.524086394,33.39679833300001],[131.525,33.396909973],[131.525,33.39166666666666],[131.512876355,33.391666667]]]}},{"type":"Feature","id":"44341:50310472","properties":{"id":"44341:50310472","meshCode":"50310472","cityCode":"44341","city":"日出町","lat":33.3958333,"lon":131.53125,"areaKm2":1.0665336,"populated2020":true,"population2020":null,"populationNote":"境界またぎ・収録外等のため自治体内人口は未集計"},"geometry":{"type":"Polygon","coordinates":[[[131.525077782,33.396943333],[131.525365279,33.399156946],[131.525346252,33.4],[131.5375,33.400000000000006],[131.5375,33.391666666666666],[131.525,33.39166666666666],[131.525,33.396909973],[131.525077782,33.396943333]]]}},{"type":"Feature","id":"44341:50310473","properties":{"id":"44341:50310473","meshCode":"50310473","cityCode":"44341","city":"日出町","lat":33.3958333,"lon":131.54375,"areaKm2":1.0748445,"populated2020":true,"population2020":null,"populationNote":"境界またぎ・収録外等のため自治体内人口は未集計"},"geometry":{"type":"Polygon","coordinates":[[[131.5375,33.391666666666666],[131.5375,33.400000000000006],[131.55,33.400000000000006],[131.55,33.39166666666666],[131.5375,33.391666666666666]]]}},{"type":"Feature","id":"44341:50310474","properties":{"id":"44341:50310474","meshCode":"50310474","cityCode":"44341","city":"日出町","lat":33.3958333,"lon":131.55625,"areaKm2":0.9701031,"populated2020":true,"population2020":null,"populationNote":"境界またぎ・収録外等のため自治体内人口は未集計"},"geometry":{"type":"Polygon","coordinates":[[[131.558084721,33.399964441],[131.557863891,33.399480829000005],[131.55782917,33.39883222500001],[131.558374449,33.39796833300001],[131.559174163,33.398147775],[131.559871388,33.39843027900001],[131.56029083,33.398056387],[131.560912218,33.397132495],[131.561719728,33.397295559],[131.5625,33.3973532995615],[131.5625,33.391666666666666],[131.55,33.39166666666666],[131.55,33.400000000000006],[131.558084721,33.399964441]]]}},{"type":"Feature","id":"44341:50310475","properties":{"id":"44341:50310475","meshCode":"50310475","cityCode":"44341","city":"日出町","lat":33.3958333,"lon":131.56875,"areaKm2":0.3667856,"populated2020":true,"population2020":null,"populationNote":"境界またぎ・収録外等のため自治体内人口は未集計"},"geometry":{"type":"Polygon","coordinates":[[[131.5625,33.3973532995615],[131.565264163,33.397692225],[131.565649728,33.397442225],[131.566029442,33.397018333],[131.56787083,33.39799082900001],[131.568215837,33.398066667],[131.568333333,33.397838613],[131.568271115,33.396850828999995],[131.568588612,33.396666108],[131.569147782,33.396595559],[131.569306394,33.396367225],[131.569334163,33.395753332999995],[131.56918250300004,33.395049162],[131.569223891,33.39453333299999],[131.569037497,33.394065829000006],[131.567423606,33.392432775],[131.56681267174937,33.391666666666666],[131.5625,33.391666666666666],[131.5625,33.3973532995615]]]}},{"type":"Feature","id":"44341:50310476","properties":{"id":"44341:50310476","meshCode":"50310476","cityCode":"44341","city":"日出町","lat":33.3936479,"lon":131.5861803,"areaKm2":0.1080475,"populated2020":true,"population2020":null,"populationNote":"境界またぎ・収録外等のため自治体内人口は未集計"},"geometry":{"type":"Polygon","coordinates":[[[131.582024643,33.391666667],[131.583146667,33.39266082899999],[131.584394721,33.393528613],[131.585966939,33.393956945999996],[131.5875,33.39570856167884],[131.5875,33.391666666666666],[131.582024643,33.391666667]]]}},{"type":"Feature","id":"44341:50310477","properties":{"id":"44341:50310477","meshCode":"50310477","cityCode":"44341","city":"日出町","lat":33.3937906,"lon":131.5916042,"areaKm2":0.3500774,"populated2020":true,"population2020":null,"populationNote":"境界またぎ・収録外等のため自治体内人口は未集計"},"geometry":{"type":"Polygon","coordinates":[[[131.5875,33.39570856167884],[131.587896667,33.396064161999995],[131.58893917,33.395971946],[131.589946939,33.395754441],[131.590711115,33.395451108],[131.592753061,33.395157775],[131.593194721,33.39502722500001],[131.594062776,33.394593613000005],[131.594898054,33.394669721],[131.595381115,33.394408892],[131.595422503,33.394093613],[131.595863606,33.393622225],[131.597000558,33.393508054],[131.59871936435437,33.39166666666667],[131.5875,33.391666666666666],[131.5875,33.39570856167884]]]}},{"type":"Feature","id":"44341:50310481","properties":{"id":"44341:50310481","meshCode":"50310481","cityCode":"44341","city":"日出町","lat":33.4033126,"lon":131.5241533,"areaKm2":0.0601946,"populated2020":true,"population2020":null,"populationNote":"境界またぎ・収録外等のため自治体内人口は未集計"},"geometry":{"type":"Polygon","coordinates":[[[131.524867782,33.401471946],[131.524548885,33.40207194600001],[131.523796394,33.402115],[131.523676667,33.40222082900001],[131.523716667,33.40243277500001],[131.52361194600002,33.40267582900001],[131.523054163,33.402778054],[131.52303,33.402871946],[131.523383606,33.403451387],[131.523836939,33.403918333],[131.523627782,33.404122225],[131.523149442,33.404330279],[131.522382218,33.404412495],[131.525,33.405980162],[131.525,33.40090286499999],[131.524867782,33.401471946]]]}},{"type":"Feature","id":"44341:50310482","properties":{"id":"44341:50310482","meshCode":"50310482","cityCode":"44341","city":"日出町","lat":33.4041667,"lon":131.53125,"areaKm2":1.0205797,"populated2020":true,"population2020":null,"populationNote":"境界またぎ・収録外等のため自治体内人口は未集計"},"geometry":{"type":"Polygon","coordinates":[[[131.525345279,33.40000722500001],[131.525,33.40090286499999],[131.525,33.405980162],[131.526425837,33.406647775],[131.52901306125045,33.40833333333333],[131.5375,33.40833333333333],[131.5375,33.400000000000006],[131.525345279,33.40000722500001]]]}},{"type":"Feature","id":"44341:50310483","properties":{"id":"44341:50310483","meshCode":"50310483","cityCode":"44341","city":"日出町","lat":33.4041667,"lon":131.54375,"areaKm2":1.0747434,"populated2020":true,"population2020":null,"populationNote":"境界またぎ・収録外等のため自治体内人口は未集計"},"geometry":{"type":"Polygon","coordinates":[[[131.5375,33.400000000000006],[131.5375,33.40833333333333],[131.55,33.40833333333333],[131.55,33.400000000000006],[131.5375,33.400000000000006]]]}},{"type":"Feature","id":"44341:50310484","properties":{"id":"44341:50310484","meshCode":"50310484","cityCode":"44341","city":"日出町","lat":33.4041667,"lon":131.55625,"areaKm2":0.8295876,"populated2020":true,"population2020":null,"populationNote":"境界またぎ・収録外等のため自治体内人口は未集計"},"geometry":{"type":"Polygon","coordinates":[[[131.5602193,33.408333333],[131.560774721,33.407508333],[131.560223333,33.406543332999995],[131.55998166,33.405462225],[131.559457224,33.405114441],[131.559257224,33.403828613],[131.559574721,33.401581946],[131.559519728,33.401419440999994],[131.55891972800003,33.400823054],[131.55867111500004,33.400361108000006],[131.558236667,33.400138333],[131.558115772,33.39999999999999],[131.55,33.400000000000006],[131.55,33.40833333333333],[131.5602193,33.408333333]]]}},{"type":"Feature","id":"44341:50310492","properties":{"id":"44341:50310492","meshCode":"50310492","cityCode":"44341","city":"日出町","lat":33.4115551,"lon":131.5345592,"areaKm2":0.4029772,"populated2020":true,"population2020":null,"populationNote":"境界またぎ・収録外等のため自治体内人口は未集計"},"geometry":{"type":"Polygon","coordinates":[[[131.52901306125045,33.40833333333333],[131.529393891,33.409046946000004],[131.529875551,33.409519162],[131.530483333,33.409773892000004],[131.531081115,33.40989944100001],[131.53105639400002,33.410338613],[131.53120083,33.411067495000005],[131.53160389100003,33.411438892],[131.531711388,33.411995279],[131.532111115,33.412496387],[131.532076394,33.41281416199999],[131.532444449,33.413287495],[131.532449442,33.413703054],[131.532718327,33.414012775],[131.533654994,33.414365829],[131.534043333,33.414726107999996],[131.534426939,33.41488305399999],[131.534740558,33.414914441],[131.53569,33.414808333],[131.53584944200003,33.414745559],[131.536088612,33.414466946000005],[131.536382918,33.41482808100001],[131.537239728,33.41476527900001],[131.5375,33.4148902603274],[131.5375,33.40833333333333],[131.52901306125045,33.40833333333333]]]}},{"type":"Feature","id":"44341:50310493","properties":{"id":"44341:50310493","meshCode":"50310493","cityCode":"44341","city":"日出町","lat":33.4125,"lon":131.54375,"areaKm2":1.05137,"populated2020":true,"population2020":null,"populationNote":"境界またぎ・収録外等のため自治体内人口は未集計"},"geometry":{"type":"Polygon","coordinates":[[[131.5375,33.4148902603274],[131.5381,33.415321387],[131.538797224,33.416153054],[131.539016394,33.41626277500001],[131.539780272,33.416121387000004],[131.5405516984806,33.416666666666664],[131.55,33.416666666666664],[131.55,33.40833333333333],[131.5375,33.40833333333333],[131.5375,33.4148902603274]]]}},{"type":"Feature","id":"44341:50310494","properties":{"id":"44341:50310494","meshCode":"50310494","cityCode":"44341","city":"日出町","lat":33.4125,"lon":131.55625,"areaKm2":0.7699916,"populated2020":true,"population2020":null,"populationNote":"境界またぎ・収録外等のため自治体内人口は未集計"},"geometry":{"type":"Polygon","coordinates":[[[131.5625,33.415499086279276],[131.561854449,33.415592495000006],[131.560301115,33.415470829],[131.559194994,33.415051387],[131.558677497,33.414665279],[131.558098885,33.414093054000006],[131.55720166,33.41275],[131.556898612,33.412459441],[131.558201946,33.410703613],[131.558498054,33.41043833300001],[131.56021929976583,33.40833333333333],[131.55,33.40833333333333],[131.55,33.416666666666664],[131.5625,33.416666666666664],[131.5625,33.415499086279276]]]}},{"type":"Feature","id":"44341:50310495","properties":{"id":"44341:50310495","meshCode":"50310495","cityCode":"44341","city":"日出町","lat":33.4157561,"lon":131.5632927,"areaKm2":0.0221961,"populated2020":true,"population2020":null,"populationNote":"境界またぎ・収録外等のため自治体内人口は未集計"},"geometry":{"type":"Polygon","coordinates":[[[131.563486394,33.416655],[131.564516109,33.415176946],[131.56420214,33.414842468],[131.563178612,33.415366946],[131.5625,33.415499086279276],[131.5625,33.416666666666664],[131.563486394,33.416655]]]}},{"type":"Feature","id":"44341:50311403","properties":{"id":"44341:50311403","meshCode":"50311403","cityCode":"44341","city":"日出町","lat":33.4208719,"lon":131.5475542,"areaKm2":0.5284431,"populated2020":true,"population2020":null,"populationNote":"境界またぎ・収録外等のため自治体内人口は未集計"},"geometry":{"type":"Polygon","coordinates":[[[131.540551699,33.41666666700001],[131.541043606,33.41714082899999],[131.541468612,33.417340279],[131.542156939,33.418131667],[131.54340083,33.41882305400001],[131.543684163,33.419072775],[131.544265837,33.419715559],[131.544742776,33.420674162000005],[131.545262218,33.420974721],[131.545117782,33.421100829],[131.544055551,33.421432495000005],[131.544782218,33.422609162],[131.54476,33.423232775],[131.544976667,33.423909441],[131.544693061,33.42465722499999],[131.544379974,33.42499999999999],[131.55,33.425],[131.55,33.416666666666664],[131.540551699,33.41666666700001]]]}},{"type":"Feature","id":"44341:50311404","properties":{"id":"44341:50311404","meshCode":"50311404","cityCode":"44341","city":"日出町","lat":33.4208333,"lon":131.55625,"areaKm2":0.7681297,"populated2020":true,"population2020":null,"populationNote":"境界またぎ・収録外等のため自治体内人口は未集計"},"geometry":{"type":"Polygon","coordinates":[[[131.55631166,33.42499638700001],[131.556547224,33.424410828999996],[131.557011946,33.423855],[131.557043061,33.423285559],[131.557420558,33.42321277500001],[131.558136939,33.42326249500001],[131.55836166,33.423030559],[131.558256109,33.422704721],[131.557722503,33.422108333],[131.557146939,33.421710559],[131.55715389100004,33.421566946000006],[131.557891115,33.421406946],[131.558473891,33.421026108],[131.558719728,33.420711108],[131.558983606,33.41981666699999],[131.55925917,33.419409161999994],[131.559832218,33.418728054],[131.560438327,33.418225],[131.560840558,33.41799527900001],[131.562264994,33.418066108],[131.5625,33.41788497607796],[131.5625,33.416666666666664],[131.55,33.416666666666664],[131.55,33.425],[131.55631166,33.42499638700001]]]}},{"type":"Feature","id":"44341:50311405","properties":{"id":"44341:50311405","meshCode":"50311405","cityCode":"44341","city":"日出町","lat":33.4169893,"lon":131.5628743,"areaKm2":0.0065145,"populated2020":true,"population2020":null,"populationNote":"境界またぎ・収録外等のため自治体内人口は未集計"},"geometry":{"type":"Polygon","coordinates":[[[131.562512218,33.417875559],[131.56301917,33.417311946000005],[131.56347808023756,33.416666666666664],[131.5625,33.416666666666664],[131.562512218,33.417875559]]]}},{"type":"Feature","id":"44341:50311413","properties":{"id":"44341:50311413","meshCode":"50311413","cityCode":"44341","city":"日出町","lat":33.4262632,"lon":131.5473156,"areaKm2":0.1118533,"populated2020":true,"population2020":null,"populationNote":"境界またぎ・収録外等のため自治体内人口は未集計"},"geometry":{"type":"Polygon","coordinates":[[[131.544379974,33.42499999999999],[131.54410917,33.42520805400001],[131.543970272,33.42553166700001],[131.544325279,33.426090559],[131.54452,33.426221667],[131.546060272,33.426768333000005],[131.546569442,33.42716110799999],[131.547377082,33.427172414],[131.547786524,33.42742261299999],[131.548072218,33.427474387],[131.548282218,33.427213613],[131.548695447,33.426991306000005],[131.549510506,33.426774748],[131.5496607,33.426672306],[131.55,33.426699279000005],[131.55,33.425],[131.544379974,33.42499999999999]]]}},{"type":"Feature","id":"44341:50311414","properties":{"id":"44341:50311414","meshCode":"50311414","cityCode":"44341","city":"日出町","lat":33.4263331,"lon":131.5528923,"areaKm2":0.1335457,"populated2020":true,"population2020":null,"populationNote":"境界またぎ・収録外等のため自治体内人口は未集計"},"geometry":{"type":"Polygon","coordinates":[[[131.55014808,33.426617252],[131.55055250300003,33.426614468],[131.550522412,33.427132918999995],[131.551584643,33.427231973],[131.55259444900003,33.427493333],[131.553603696,33.427645748],[131.5538638,33.427626559000004],[131.554075227,33.427727694000005],[131.554237782,33.42731694599999],[131.554463606,33.427111667000005],[131.554874163,33.426826108],[131.555765551,33.426450829],[131.55631022,33.425],[131.55,33.425],[131.55,33.426699279000005],[131.55014808,33.426617252]]]}}]}